{"type":"FeatureCollection","features":[
{"properties":{"electorateShortName":"canberra","electorateName":"Canberra","area":312.263142,"state":"ACT"},"type":"Feature","geometry":{"type":"MultiPolygon","coordinates":[[[[149.033922,-35.265958],[149.034393,-35.26682],[149.034665,-35.267245],[149.034809,-35.267409],[149.035144,-35.267775],[149.035536,-35.268157],[149.036079,-35.268573],[149.03669,-35.26891],[149.037029,-35.269085],[149.037359,-35.269256],[149.038172,-35.269574],[149.039087,-35.269816],[149.039396,-35.269864],[149.039717,-35.269915],[149.040012,-35.269953],[149.0403,-35.26997],[149.040586,-35.269987],[149.040809,-35.269997],[149.041048,-35.269989],[149.041278,-35.269977],[149.041468,-35.269973],[149.041796,-35.269934],[149.04211,-35.269902],[149.043222,-35.269703],[149.043637,-35.269626],[149.044182,-35.26953],[149.044588,-35.269458],[149.045006,-35.269383],[149.045783,-35.269246],[149.046149,-35.269186],[149.046764,-35.269089],[149.047094,-35.269049],[149.047412,-35.269025],[149.047523,-35.269013],[149.047703,-35.268999],[149.048083,-35.268982],[149.048378,-35.268975],[149.04869,-35.268973],[149.049076,-35.268997],[149.049308,-35.269005],[149.049556,-35.269007],[149.049759,-35.269021],[149.050074,-35.269086],[149.05051,-35.269173],[149.05099,-35.269264],[149.051275,-35.269336],[149.051679,-35.269461],[149.052168,-35.269615],[149.052586,-35.269757],[149.053069,-35.269942],[149.053507,-35.270094],[149.053875,-35.270235],[149.054285,-35.270413],[149.054777,-35.270608],[149.055233,-35.2708],[149.055737,-35.270993],[149.056152,-35.271154],[149.056461,-35.271291],[149.056853,-35.271464],[149.057235,-35.271627],[149.057651,-35.27182],[149.058107,-35.272012],[149.058496,-35.272166],[149.059179,-35.27249],[149.059526,-35.272647],[149.059947,-35.272827],[149.060336,-35.272983],[149.060687,-35.273156],[149.061078,-35.273327],[149.06139,-35.273446],[149.061973,-35.273677],[149.062521,-35.273893],[149.063134,-35.274086],[149.063581,-35.27422],[149.064147,-35.274379],[149.064606,-35.274509],[149.065089,-35.274638],[149.065637,-35.274807],[149.066108,-35.274946],[149.066526,-35.27511],[149.066915,-35.275263],[149.067374,-35.275432],[149.067757,-35.275557],[149.068163,-35.275677],[149.068781,-35.275821],[149.06937,-35.275932],[149.069902,-35.276017],[149.070949,-35.276201],[149.071756,-35.276297],[149.072258,-35.276348],[149.073075,-35.276413],[149.07357,-35.276465],[149.074359,-35.276518],[149.07545,-35.276603],[149.075931,-35.276653],[149.076306,-35.276682],[149.076651,-35.276736],[149.076921,-35.276778],[149.07725,-35.276845],[149.077592,-35.276922],[149.078034,-35.277057],[149.07853,-35.277226],[149.079766,-35.277716],[149.080872,-35.278238],[149.082102,-35.27882],[149.08269,-35.279038],[149.083352,-35.279201],[149.084486,-35.279368],[149.084644,-35.279386],[149.084777,-35.279409],[149.084893,-35.279435],[149.08503,-35.279473],[149.085142,-35.27951],[149.085251,-35.279552],[149.085378,-35.279608],[149.08548,-35.27966],[149.085579,-35.279717],[149.085674,-35.279777],[149.085764,-35.279842],[149.085851,-35.279911],[149.085917,-35.279969],[149.085994,-35.280044],[149.086108,-35.280172],[149.086357,-35.280492],[149.086348,-35.280653],[149.08634,-35.280766],[149.086317,-35.280996],[149.086281,-35.281272],[149.086245,-35.2815],[149.086202,-35.281729],[149.086142,-35.282001],[149.086085,-35.282227],[149.086009,-35.282497],[149.085944,-35.282693],[149.085873,-35.282881],[149.085797,-35.283068],[149.085715,-35.283252],[149.085627,-35.283435],[149.085513,-35.283652],[149.08546,-35.283745],[149.085412,-35.28383],[149.085244,-35.284099],[149.084992,-35.284476],[149.084759,-35.284746],[149.084574,-35.284952],[149.084407,-35.285124],[149.084233,-35.285291],[149.084022,-35.285479],[149.083824,-35.28564],[149.083611,-35.285805],[149.08335,-35.285999],[149.082637,-35.286509],[149.081423,-35.287364],[149.081075,-35.287593],[149.080724,-35.287819],[149.079594,-35.288522],[149.079415,-35.288627],[149.078106,-35.289436],[149.076063,-35.2907],[149.075487,-35.291056],[149.074797,-35.291482],[149.074628,-35.291589],[149.074338,-35.291783],[149.074056,-35.291986],[149.073859,-35.292134],[149.073705,-35.292256],[149.073554,-35.292381],[149.073369,-35.292539],[149.073224,-35.292669],[149.073047,-35.292833],[149.072775,-35.293104],[149.072563,-35.293325],[149.072333,-35.293584],[149.072117,-35.293851],[149.071915,-35.294126],[149.071819,-35.294266],[149.071704,-35.294443],[149.070511,-35.296373],[149.070285,-35.296725],[149.070047,-35.297072],[149.069799,-35.297414],[149.069541,-35.297751],[149.069311,-35.298035],[149.068992,-35.298408],[149.068661,-35.298773],[149.068274,-35.299167],[149.067926,-35.299504],[149.067568,-35.299836],[149.067201,-35.30016],[149.066505,-35.300746],[149.066118,-35.301065],[149.065743,-35.301394],[149.065423,-35.301688],[149.065156,-35.301945],[149.06484,-35.302281],[149.064537,-35.302625],[149.064247,-35.302976],[149.063971,-35.303336],[149.063741,-35.303656],[149.063492,-35.304028],[149.063257,-35.304406],[149.06309,-35.304714],[149.06293,-35.305026],[149.062803,-35.305287],[149.062659,-35.305604],[149.062523,-35.305922],[149.062416,-35.30619],[149.062358,-35.306344],[149.06228,-35.306578],[149.062208,-35.306814],[149.062143,-35.307051],[149.062072,-35.307336],[149.06202,-35.307575],[149.061975,-35.307815],[149.061936,-35.308056],[149.061903,-35.308298],[149.061878,-35.308539],[149.061843,-35.308975],[149.061831,-35.309167],[149.061822,-35.309408],[149.06182,-35.309601],[149.061822,-35.309794],[149.06183,-35.310035],[149.06184,-35.310228],[149.06186,-35.310468],[149.061904,-35.310852],[149.06194,-35.311091],[149.061983,-35.31133],[149.062464,-35.313786],[149.062469,-35.313803],[149.062656,-35.314756],[149.062964,-35.316406],[149.063677,-35.319984],[149.063698,-35.320093],[149.063707,-35.320141],[149.063934,-35.321315],[149.063984,-35.321594],[149.064052,-35.322042],[149.064104,-35.322492],[149.064129,-35.322773],[149.064149,-35.323055],[149.064163,-35.323337],[149.06417,-35.323563],[149.064173,-35.323788],[149.064171,-35.32403],[149.064171,-35.324071],[149.064161,-35.324343],[149.064189,-35.324535],[149.064179,-35.325027],[149.064111,-35.325727],[149.064081,-35.325884],[149.064026,-35.326271],[149.063707,-35.327903],[149.063695,-35.32797],[149.063554,-35.328769],[149.063499,-35.329164],[149.063454,-35.329694],[149.063428,-35.330617],[149.063437,-35.331451],[149.063483,-35.332092],[149.063561,-35.33281],[149.063674,-35.333467],[149.063682,-35.33351],[149.063707,-35.333639],[149.063824,-35.334214],[149.063986,-35.334908],[149.064395,-35.336374],[149.064803,-35.337577],[149.065178,-35.338516],[149.065411,-35.339071],[149.065782,-35.339887],[149.066292,-35.340885],[149.066581,-35.341387],[149.067679,-35.343294],[149.067874,-35.343634],[149.068289,-35.344745],[149.068586,-35.345684],[149.0686,-35.345732],[149.068997,-35.346642],[149.069205,-35.347213],[149.069283,-35.347444],[149.069377,-35.347735],[149.06951,-35.348199],[149.069556,-35.34837],[149.069922,-35.348332],[149.070672,-35.348246],[149.071326,-35.348167],[149.071947,-35.348093],[149.071953,-35.348092],[149.073086,-35.347957],[149.074412,-35.347797],[149.074545,-35.347782],[149.075548,-35.347656],[149.075822,-35.347634],[149.076414,-35.347613],[149.076701,-35.347619],[149.077283,-35.347632],[149.078092,-35.347702],[149.079035,-35.347854],[149.080126,-35.348079],[149.081013,-35.348263],[149.081142,-35.348291],[149.081153,-35.348293],[149.083128,-35.348721],[149.083655,-35.348812],[149.084113,-35.34887],[149.084029,-35.348661],[149.08337,-35.34679],[149.082995,-35.345723],[149.08262,-35.344654],[149.082507,-35.344222],[149.082475,-35.344075],[149.082422,-35.343827],[149.082397,-35.343523],[149.08236,-35.34275],[149.082344,-35.342129],[149.082296,-35.340707],[149.082334,-35.340357],[149.082425,-35.339994],[149.082437,-35.339949],[149.082634,-35.339486],[149.082838,-35.339146],[149.083107,-35.338806],[149.083432,-35.338499],[149.083555,-35.338612],[149.083579,-35.338635],[149.084394,-35.337904],[149.085026,-35.337296],[149.085354,-35.337028],[149.085562,-35.336918],[149.085799,-35.336816],[149.08603,-35.336737],[149.086301,-35.33667],[149.086508,-35.336635],[149.086675,-35.336618],[149.086763,-35.33661],[149.08701,-35.3366],[149.087227,-35.336611],[149.087514,-35.33664],[149.087541,-35.336643],[149.087684,-35.33667],[149.088741,-35.336927],[149.089359,-35.337398],[149.089519,-35.337529],[149.089765,-35.337709],[149.091394,-35.338841],[149.091498,-35.338914],[149.092242,-35.339427],[149.094229,-35.340809],[149.094647,-35.341095],[149.095488,-35.341672],[149.097316,-35.342746],[149.097593,-35.342924],[149.097839,-35.343104],[149.098132,-35.343348],[149.098386,-35.343597],[149.098612,-35.343853],[149.098832,-35.344155],[149.099005,-35.344426],[149.09916,-35.344715],[149.099305,-35.345055],[149.099391,-35.345316],[149.09996,-35.347295],[149.100204,-35.348145],[149.100322,-35.348668],[149.100405,-35.349258],[149.100432,-35.349645],[149.100461,-35.350697],[149.100823,-35.350686],[149.101128,-35.350652],[149.101302,-35.350635],[149.101774,-35.350547],[149.102245,-35.350423],[149.102652,-35.350284],[149.10309,-35.350096],[149.103488,-35.349886],[149.103842,-35.34968],[149.104002,-35.349587],[149.105314,-35.348791],[149.105439,-35.348716],[149.10742,-35.347517],[149.109315,-35.346368],[149.109735,-35.346137],[149.110172,-35.345928],[149.110917,-35.345638],[149.111206,-35.345554],[149.111705,-35.34541],[149.11213,-35.345317],[149.11255,-35.345245],[149.112941,-35.345195],[149.113444,-35.345153],[149.113799,-35.345141],[149.113895,-35.345138],[149.114291,-35.345143],[149.114785,-35.345171],[149.115177,-35.34521],[149.115611,-35.345268],[149.115639,-35.345269],[149.11605,-35.345358],[149.116855,-35.345571],[149.117372,-35.34575],[149.117862,-35.345953],[149.121189,-35.347546],[149.121537,-35.347681],[149.121932,-35.347806],[149.122413,-35.347906],[149.122923,-35.347964],[149.123418,-35.347972],[149.123889,-35.347938],[149.124288,-35.347874],[149.124373,-35.347855],[149.124797,-35.347758],[149.125259,-35.347609],[149.126206,-35.347306],[149.12736,-35.346923],[149.127809,-35.346774],[149.128319,-35.346562],[149.128901,-35.346223],[149.129844,-35.345488],[149.130187,-35.345263],[149.130707,-35.34501],[149.13127,-35.34483],[149.13238,-35.344569],[149.132873,-35.34445],[149.133026,-35.344414],[149.133455,-35.344311],[149.135614,-35.34413],[149.136417,-35.344098],[149.137208,-35.344117],[149.137852,-35.344197],[149.138759,-35.344367],[149.138899,-35.344393],[149.139041,-35.344421],[149.139152,-35.344445],[149.139282,-35.344475],[149.139381,-35.344499],[149.139552,-35.344543],[149.139671,-35.344575],[149.139804,-35.344614],[149.139916,-35.344648],[149.140068,-35.344697],[149.140203,-35.344743],[149.140338,-35.344791],[149.140451,-35.344834],[149.140574,-35.344882],[149.140941,-35.34503],[149.141095,-35.345091],[149.141285,-35.345161],[149.14153,-35.345245],[149.141725,-35.345306],[149.14194,-35.345368],[149.14223,-35.345443],[149.142412,-35.345485],[149.142559,-35.345517],[149.142762,-35.345556],[149.142892,-35.345579],[149.143116,-35.345614],[149.143322,-35.345642],[149.143548,-35.345667],[149.143793,-35.345689],[149.144039,-35.345704],[149.144362,-35.345715],[149.144627,-35.345716],[149.144798,-35.345713],[149.145083,-35.345701],[149.145442,-35.345675],[149.145668,-35.345651],[149.145874,-35.345625],[149.14608,-35.345595],[149.146284,-35.34556],[149.146799,-35.345453],[149.147269,-35.345328],[149.147553,-35.34524],[149.154386,-35.343072],[149.158056,-35.341874],[149.158407,-35.341756],[149.15875,-35.341648],[149.158994,-35.341575],[149.159173,-35.341523],[149.159308,-35.341486],[149.159567,-35.341416],[149.159759,-35.341367],[149.16002,-35.341303],[149.160283,-35.341243],[149.160489,-35.341198],[149.160684,-35.341157],[149.160891,-35.341116],[149.161041,-35.341088],[149.161203,-35.341058],[149.161377,-35.341028],[149.161528,-35.341003],[149.161854,-35.340953],[149.162134,-35.340914],[149.16284,-35.340805],[149.162961,-35.340786],[149.16887,-35.340042],[149.172674,-35.339438],[149.175282,-35.338332],[149.175622,-35.338122],[149.176195,-35.337632],[149.176379,-35.337722],[149.176963,-35.337993],[149.177272,-35.338113],[149.177538,-35.338204],[149.177774,-35.338276],[149.178115,-35.338366],[149.179406,-35.338665],[149.179882,-35.338786],[149.180161,-35.33887],[149.180517,-35.33899],[149.181003,-35.33918],[149.1813,-35.339313],[149.181595,-35.339455],[149.181943,-35.339647],[149.183862,-35.340805],[149.18449,-35.341185],[149.18487,-35.341403],[149.185126,-35.341537],[149.185466,-35.341701],[149.185789,-35.341845],[149.186172,-35.341998],[149.186441,-35.342098],[149.186843,-35.34223],[149.187246,-35.342346],[149.18736,-35.342373],[149.187125,-35.342565],[149.18749,-35.342725],[149.189759,-35.343621],[149.189879,-35.343664],[149.190353,-35.343839],[149.191732,-35.344058],[149.193132,-35.344098],[149.194341,-35.344098],[149.195603,-35.344118],[149.195946,-35.344127],[149.198065,-35.34413],[149.199083,-35.344084],[149.200121,-35.343992],[149.200943,-35.343825],[149.202076,-35.343648],[149.203401,-35.343707],[149.204581,-35.34406],[149.205352,-35.344552],[149.205945,-35.345217],[149.206345,-35.345905],[149.20587187584476,-35.34660455068865],[149.216186,-35.342191],[149.217912,-35.341563],[149.218119,-35.341496],[149.218329,-35.341438],[149.218541,-35.341387],[149.218756,-35.341342],[149.218974,-35.341309],[149.219194,-35.341281],[149.21943,-35.34126],[149.219651,-35.341255],[149.220094,-35.341271],[149.220366,-35.341294],[149.220585,-35.34132],[149.220802,-35.341356],[149.221343,-35.341276],[149.221571,-35.341242],[149.224367,-35.341774],[149.224851,-35.341686],[149.226143,-35.341932],[149.231257,-35.342381],[149.24269,-35.335951],[149.244087,-35.334832],[149.245796,-35.332253],[149.245997,-35.331927],[149.246119,-35.331776],[149.246259,-35.331634],[149.246398,-35.331492],[149.246547,-35.331355],[149.246682,-35.331241],[149.247007,-35.330994],[149.247181,-35.330882],[149.247371,-35.330786],[149.247546,-35.330675],[149.247929,-35.330497],[149.248151,-35.330414],[149.248566,-35.330289],[149.248778,-35.330235],[149.24899,-35.330184],[149.249529,-35.330125],[149.24975,-35.330139],[149.24997,-35.33016],[149.251677,-35.330254],[149.253446,-35.330178],[149.254346,-35.330188],[149.254744,-35.330121],[149.25531,-35.330511],[149.256024,-35.330966],[149.256568,-35.331395],[149.258112,-35.331797],[149.258576,-35.331968],[149.259605,-35.33165],[149.26262,-35.331368],[149.263187,-35.331651],[149.264051,-35.332252],[149.264937,-35.332622],[149.265647,-35.333086],[149.266345,-35.333576],[149.266572,-35.333903],[149.267175,-35.334423],[149.267912,-35.334873],[149.268373,-35.335067],[149.268803,-35.335121],[149.269609,-35.335158],[149.270098,-35.335179],[149.270674,-35.335141],[149.271479,-35.335215],[149.273241,-35.335758],[149.27391,-35.335988],[149.274513,-35.335999],[149.283011,-35.338099],[149.2832949774836,-35.337965011350875],[149.28342,-35.337993],[149.291264,-35.334205],[149.300307,-35.333099],[149.30497,-35.335922],[149.311959,-35.335847],[149.31402,-35.33604],[149.318915,-35.336781],[149.337549,-35.340249],[149.347266,-35.350155],[149.3474992360392,-35.35021786685693],[149.347522,-35.350241],[149.34891329005026,-35.35059901349064],[149.351718,-35.351355],[149.364049,-35.348137],[149.36647844769996,-35.34025979077041],[149.385354,-35.332516],[149.385633,-35.332386],[149.385827,-35.332298],[149.386224,-35.332136],[149.386426,-35.332062],[149.386634,-35.331998],[149.386845,-35.331943],[149.38706,-35.331893],[149.387275,-35.331844],[149.388607,-35.331585],[149.38875,-35.331558],[149.388962,-35.331507],[149.389171,-35.331448],[149.389377,-35.33138],[149.389986,-35.331145],[149.39018,-35.331056],[149.39045,-35.330912],[149.390633,-35.33081],[149.39081,-35.3307],[149.390982,-35.330582],[149.391109,-35.33049],[149.391433,-35.33024],[149.391729,-35.32997],[149.391865,-35.329827],[149.39225,-35.329381],[149.392699,-35.328838],[149.392836,-35.32868],[149.392861,-35.328652],[149.393081,-35.328416],[149.393374,-35.328124],[149.393518,-35.327995],[149.393625,-35.3279],[149.393717,-35.327824],[149.393997,-35.327599],[149.394164,-35.327478],[149.394468,-35.327267],[149.394911,-35.326981],[149.395144,-35.326851],[149.396546,-35.326116],[149.397131,-35.325725],[149.398036,-35.325252],[149.397422,-35.323356],[149.398155,-35.320949],[149.398163,-35.320615],[149.399287,-35.31909],[149.397201,-35.317313],[149.396688,-35.314182],[149.397281,-35.311003],[149.396428,-35.30968],[149.394498,-35.309191],[149.3945002506582,-35.309165662895616],[149.39511,-35.304413],[149.39493600792377,-35.30426006363548],[149.394956,-35.304035],[149.393416,-35.302924],[149.389676,-35.302698],[149.386579,-35.303418],[149.384175,-35.304349],[149.383697,-35.306471],[149.381897,-35.306266],[149.374174,-35.304695],[149.3739990766516,-35.30484994834338],[149.373793,-35.304813],[149.36989643706795,-35.30825819275128],[149.36584,-35.308526],[149.363797,-35.308643],[149.361666,-35.309025],[149.359659,-35.307538],[149.361991,-35.303089],[149.360954,-35.301605],[149.359507,-35.301587],[149.357616,-35.300814],[149.356615,-35.300596],[149.353713,-35.299731],[149.350553,-35.299358],[149.350421,-35.298166],[149.350568,-35.296708],[149.350505,-35.295952],[149.349701,-35.294404],[149.34808,-35.293479],[149.348761,-35.292862],[149.34887,-35.292069],[149.347872,-35.291587],[149.345768,-35.291871],[149.345034,-35.292206],[149.34321081378837,-35.292047070938786],[149.342838,-35.290187],[149.341439,-35.288961],[149.341498,-35.286703],[149.339709,-35.2863],[149.337698,-35.286971],[149.336325,-35.288737],[149.335805,-35.288414],[149.335757,-35.287382],[149.327561,-35.282402],[149.325435,-35.283461],[149.32543411944545,-35.28346401801312],[149.325415,-35.283473],[149.324581,-35.286388],[149.323516,-35.286414],[149.322477,-35.28674],[149.322035,-35.285787],[149.32127,-35.28522],[149.316264,-35.281788],[149.3153,-35.276231],[149.311697,-35.277525],[149.309768,-35.278268],[149.309061,-35.276206],[149.305417,-35.275532],[149.306229,-35.274501],[149.303846,-35.273377],[149.302711,-35.274109],[149.302229,-35.273905],[149.302099,-35.27323],[149.301643,-35.272894],[149.296672,-35.272429],[149.289293,-35.275698],[149.28752,-35.274128],[149.285433,-35.27163],[149.282976,-35.272059],[149.281524,-35.270994],[149.280126,-35.271061],[149.277021,-35.271338],[149.276381,-35.273082],[149.275378,-35.275051],[149.271808,-35.273485],[149.27236,-35.269429],[149.272077,-35.266965],[149.273461,-35.266102],[149.273792,-35.263214],[149.272778,-35.262649],[149.272554,-35.26183],[149.273018,-35.261238],[149.273316,-35.259937],[149.273179,-35.259179],[149.267703,-35.259439],[149.262261,-35.257395],[149.260006,-35.257348],[149.257329,-35.257203],[149.255379,-35.256345],[149.2539,-35.25364],[149.250653,-35.25224],[149.249651,-35.249354],[149.249429,-35.247183],[149.247233,-35.246527],[149.245803,-35.247379],[149.241867,-35.24636],[149.240608,-35.245811],[149.237943,-35.243572],[149.23489,-35.243419],[149.234374,-35.242792],[149.23455,-35.24047],[149.241242,-35.236755],[149.241518,-35.235032],[149.24297,-35.232867],[149.242741,-35.231667],[149.244808,-35.231371],[149.245953,-35.230715],[149.246317,-35.229869],[149.246794,-35.22915],[149.246125,-35.227979],[149.243261,-35.225466],[149.241288,-35.225344],[149.240728,-35.225046],[149.238697,-35.222227],[149.237105,-35.222363],[149.23651,-35.221561],[149.234392,-35.221003],[149.231797,-35.221972],[149.231715,-35.222002],[149.228775,-35.221687],[149.227037,-35.219844],[149.213785,-35.219605],[149.21378450096995,-35.219606008996514],[149.213784,-35.219606],[149.209762,-35.226491],[149.204986,-35.2291],[149.2024562761942,-35.2246254885253],[149.205028,-35.219863],[149.206099,-35.216268],[149.207555,-35.216047],[149.207621,-35.215875],[149.208568,-35.211501],[149.205895,-35.211567],[149.200702,-35.205411],[149.197769,-35.202536],[149.189542,-35.203324],[149.197769,-35.202537],[149.200699,-35.205565],[149.197633,-35.206015],[149.19677,-35.206189],[149.196134,-35.206363],[149.195544,-35.206559],[149.194942,-35.2068],[149.194342,-35.207083],[149.193714,-35.207431],[149.193205,-35.207759],[149.192683,-35.208145],[149.19216,-35.208595],[149.191767,-35.208983],[149.191404,-35.20939],[149.190221,-35.210918],[149.189822,-35.211435],[149.189621,-35.211671],[149.189343,-35.211951],[149.189056,-35.2122],[149.179534,-35.219513],[149.179025,-35.21987],[149.178449,-35.220215],[149.177906,-35.220489],[149.177321,-35.220738],[149.174082,-35.221942],[149.173557,-35.222126],[149.172361,-35.222484],[149.171514,-35.222739],[149.165159,-35.224645],[149.158113,-35.22677],[149.15681,-35.227346],[149.156492,-35.227487],[149.155637,-35.228009],[149.155045,-35.228383],[149.154281,-35.228897],[149.153598,-35.229357],[149.152512,-35.23011],[149.151979,-35.23048],[149.151283,-35.230968],[149.144472,-35.226314],[149.143904,-35.225935],[149.143889,-35.225801],[149.142117,-35.225562],[149.135675,-35.22835],[149.134363,-35.228728],[149.12512,-35.231391],[149.124615,-35.230273],[149.124477,-35.229949],[149.122692,-35.225908],[149.122618,-35.225755],[149.121639,-35.223751],[149.120891,-35.222459],[149.119997,-35.220925],[149.119157,-35.219769],[149.119088,-35.219677],[149.119028,-35.219613],[149.117906,-35.218443],[149.117127,-35.217671],[149.117065,-35.21761],[149.116353,-35.216972],[149.114706,-35.215588],[149.113763,-35.214708],[149.11329,-35.214223],[149.112842,-35.213732],[149.112134,-35.212897],[149.111027,-35.211591],[149.110662,-35.211185],[149.110006,-35.210555],[149.109646,-35.210251],[149.109246,-35.209943],[149.108897,-35.209696],[149.108864,-35.209674],[149.108536,-35.20946],[149.108137,-35.209221],[149.107773,-35.20902],[149.103716,-35.206959],[149.100533,-35.205342],[149.099578,-35.204835],[149.098802,-35.204393],[149.098059,-35.203945],[149.097306,-35.203462],[149.096539,-35.202939],[149.096383,-35.202797],[149.095669,-35.20214],[149.095518,-35.201987],[149.095402,-35.201857],[149.095251,-35.201671],[149.095138,-35.201506],[149.095065,-35.201373],[149.095049,-35.201507],[149.094962,-35.201637],[149.094942,-35.201655],[149.094772,-35.201758],[149.094545,-35.201816],[149.094321,-35.201804],[149.094216,-35.201775],[149.093634,-35.201755],[149.093271,-35.201798],[149.09299,-35.201856],[149.09268,-35.201952],[149.091307,-35.202603],[149.090987,-35.202855],[149.090658,-35.20317],[149.090346,-35.203539],[149.090103,-35.203903],[149.089882,-35.204334],[149.089731,-35.204749],[149.089639,-35.205138],[149.089599,-35.205452],[149.089522,-35.206471],[149.089462,-35.206801],[149.089364,-35.207152],[149.089217,-35.20753],[149.089036,-35.207887],[149.088876,-35.208145],[149.088363,-35.2089],[149.088042,-35.209378],[149.087814,-35.209768],[149.087627,-35.210153],[149.087462,-35.210573],[149.087352,-35.210932],[149.087272,-35.211268],[149.087076,-35.21246],[149.087034,-35.212715],[149.086956,-35.213014],[149.086856,-35.213319],[149.086776,-35.213523],[149.086679,-35.213741],[149.086578,-35.213941],[149.086463,-35.214146],[149.086357,-35.214318],[149.086223,-35.214519],[149.086008,-35.214802],[149.085911,-35.214919],[149.085718,-35.215134],[149.085571,-35.215288],[149.085223,-35.215606],[149.085144,-35.215671],[149.084974,-35.215807],[149.084857,-35.215894],[149.084395,-35.216213],[149.082906,-35.217209],[149.082064,-35.217773],[149.082048,-35.217783],[149.081921,-35.217871],[149.08189,-35.217894],[149.081858,-35.217916],[149.081758,-35.21799],[149.081728,-35.218014],[149.081712,-35.218025],[149.0817,-35.218035],[149.081622,-35.218095],[149.081529,-35.21817],[149.081431,-35.218252],[149.081423,-35.218258],[149.081416,-35.218265],[149.081323,-35.218345],[149.081274,-35.218389],[149.081268,-35.218396],[149.081253,-35.218408],[149.08124,-35.218421],[149.081164,-35.218491],[149.08109,-35.218563],[149.081083,-35.218569],[149.08103,-35.218622],[149.081023,-35.218628],[149.080926,-35.218728],[149.080914,-35.218742],[149.080907,-35.218748],[149.080863,-35.218796],[149.08085,-35.218809],[149.080733,-35.21894],[149.080685,-35.218996],[149.080674,-35.21901],[149.080626,-35.219066],[149.080518,-35.219201],[149.080463,-35.219274],[149.080457,-35.219281],[149.080436,-35.21931],[149.08043,-35.219317],[149.080387,-35.219376],[149.080309,-35.219486],[149.080234,-35.219598],[149.080215,-35.219629],[149.0802,-35.219651],[149.080157,-35.219719],[149.080148,-35.219735],[149.080138,-35.21975],[149.08011,-35.219796],[149.080065,-35.219872],[149.079993,-35.219998],[149.079903,-35.220175],[149.078992,-35.222027],[149.078987,-35.222039],[149.078915,-35.22218],[149.078858,-35.222285],[149.078799,-35.222389],[149.078717,-35.222526],[149.078674,-35.222595],[149.078638,-35.222651],[149.078564,-35.222763],[149.078548,-35.222785],[149.078518,-35.22283],[149.078487,-35.222874],[149.078375,-35.223027],[149.078317,-35.223102],[149.078291,-35.223134],[149.078266,-35.223167],[149.078206,-35.223241],[149.07817,-35.223283],[149.078162,-35.223294],[149.078126,-35.223335],[149.078091,-35.223377],[149.077962,-35.223521],[149.077848,-35.223642],[149.077799,-35.223692],[149.077769,-35.223721],[149.07774,-35.223751],[149.07768,-35.22381],[149.077639,-35.223848],[149.077568,-35.223916],[149.077516,-35.223963],[149.077506,-35.223973],[149.077495,-35.223982],[149.077464,-35.22401],[149.077379,-35.224085],[149.077357,-35.224103],[149.077325,-35.224131],[149.077205,-35.22423],[149.077115,-35.224302],[149.077002,-35.224389],[149.076956,-35.224423],[149.076945,-35.224432],[149.07691,-35.224457],[149.076899,-35.224466],[149.076722,-35.224591],[149.076674,-35.224623],[149.076662,-35.224632],[149.076566,-35.224696],[149.076431,-35.224782],[149.076331,-35.224843],[149.076319,-35.224851],[149.076306,-35.224858],[149.076167,-35.22494],[149.076039,-35.225012],[149.075935,-35.225068],[149.075882,-35.225095],[149.075843,-35.225116],[149.075684,-35.225196],[149.075536,-35.225266],[149.075428,-35.225316],[149.07491,-35.225541],[149.074927,-35.225527],[149.074266,-35.225818],[149.074179,-35.225857],[149.075336,-35.227537],[149.075631,-35.227964],[149.075871,-35.228298],[149.076098,-35.228574],[149.076335,-35.228834],[149.076511,-35.229008],[149.076625,-35.229116],[149.076757,-35.229236],[149.076864,-35.229327],[149.077163,-35.229567],[149.077469,-35.229787],[149.077633,-35.229897],[149.07766,-35.229915],[149.077963,-35.230099],[149.078137,-35.230196],[149.078282,-35.230274],[149.078658,-35.230459],[149.078845,-35.230542],[149.079036,-35.230621],[149.079223,-35.230692],[149.079432,-35.230769],[149.079634,-35.230837],[149.080047,-35.230956],[149.080283,-35.231015],[149.080185,-35.231267],[149.08004,-35.231609],[149.079877,-35.231934],[149.079658,-35.232318],[149.079323,-35.232825],[149.078499,-35.233944],[149.078402,-35.234076],[149.078341,-35.234165],[149.078196,-35.234396],[149.078095,-35.234575],[149.078009,-35.23474],[149.077906,-35.234959],[149.077833,-35.235137],[149.07769,-35.235511],[149.077666,-35.235574],[149.077357,-35.236425],[149.077076,-35.237352],[149.07694,-35.237888],[149.076883,-35.238064],[149.076854,-35.238128],[149.076764,-35.238292],[149.076645,-35.238474],[149.076632,-35.238493],[149.075716,-35.239733],[149.07495,-35.240762],[149.074909,-35.240809],[149.074853,-35.240863],[149.074789,-35.240914],[149.074721,-35.240959],[149.074683,-35.24098],[149.07463,-35.241007],[149.074573,-35.241032],[149.074523,-35.24105],[149.07447,-35.241066],[149.074418,-35.241079],[149.074352,-35.241092],[149.074301,-35.241099],[149.074239,-35.241104],[149.074179,-35.241106],[149.07339,-35.241107],[149.073798,-35.242999],[149.073861,-35.243249],[149.073914,-35.243441],[149.073952,-35.243563],[149.074039,-35.243819],[149.074084,-35.243943],[149.074209,-35.244244],[149.074289,-35.244416],[149.074383,-35.244604],[149.074479,-35.244786],[149.07469,-35.245142],[149.074852,-35.245387],[149.075676,-35.246637],[149.075787,-35.246828],[149.075858,-35.246967],[149.075923,-35.247107],[149.076016,-35.247351],[149.07605,-35.247457],[149.076087,-35.247592],[149.076138,-35.247804],[149.076182,-35.248061],[149.076194,-35.248179],[149.076209,-35.248356],[149.076212,-35.248443],[149.076219,-35.248866],[149.076158,-35.249294],[149.075945,-35.249973],[149.075871,-35.25018],[149.075773,-35.250452],[149.075626,-35.250403],[149.072793,-35.24947],[149.068791,-35.248443],[149.068285,-35.248317],[149.067629,-35.248131],[149.067356,-35.248049],[149.066739,-35.247851],[149.066379,-35.247727],[149.06613,-35.247636],[149.065459,-35.247376],[149.064986,-35.247176],[149.064576,-35.246993],[149.064172,-35.246811],[149.063812,-35.246637],[149.063277,-35.246356],[149.060393,-35.244815],[149.060054,-35.244649],[149.059733,-35.244508],[149.05949,-35.244411],[149.059197,-35.244307],[149.058972,-35.244234],[149.058658,-35.244142],[149.058411,-35.244077],[149.058156,-35.244019],[149.057919,-35.243969],[149.057567,-35.243911],[149.057225,-35.243864],[149.056494,-35.243797],[149.056257,-35.243781],[149.055949,-35.243769],[149.053865,-35.243701],[149.050788,-35.243603],[149.05033,-35.243586],[149.049915,-35.243562],[149.049505,-35.243529],[149.049113,-35.243484],[149.048792,-35.243441],[149.048458,-35.24339],[149.048347,-35.243371],[149.04812,-35.243333],[149.047756,-35.243257],[149.047675,-35.24324],[149.047392,-35.243175],[149.046861,-35.243044],[149.046349,-35.242893],[149.046017,-35.242785],[149.045719,-35.242681],[149.045589,-35.242636],[149.044425,-35.24219],[149.043738,-35.241927],[149.043294,-35.241757],[149.043057,-35.241668],[149.042832,-35.24159],[149.042628,-35.241522],[149.042381,-35.241448],[149.042135,-35.241378],[149.041859,-35.241307],[149.041327,-35.241191],[149.040958,-35.241123],[149.040644,-35.241078],[149.040305,-35.241036],[149.04006,-35.241014],[149.03977,-35.240991],[149.03948,-35.240975],[149.039161,-35.240966],[149.038994,-35.240967],[149.038796,-35.240969],[149.038434,-35.240978],[149.036513,-35.241049],[149.036234,-35.241052],[149.035953,-35.24105],[149.035682,-35.241041],[149.035259,-35.24101],[149.034874,-35.240971],[149.034365,-35.240892],[149.034087,-35.240837],[149.033794,-35.240771],[149.033545,-35.240709],[149.033239,-35.240621],[149.030294,-35.239645],[149.030149,-35.239596],[149.029062,-35.241361],[149.028934,-35.241579],[149.028718,-35.242003],[149.028645,-35.242174],[149.028491,-35.242557],[149.02836,-35.242949],[149.028305,-35.243144],[149.028265,-35.243296],[149.028042,-35.243831],[149.027774,-35.244657],[149.027635,-35.245147],[149.027563,-35.245358],[149.027076,-35.24798],[149.026648,-35.250449],[149.026221,-35.252826],[149.026173,-35.253073],[149.026134,-35.25332],[149.026108,-35.253528],[149.026079,-35.25386],[149.026067,-35.254193],[149.026071,-35.254526],[149.026089,-35.254817],[149.026132,-35.255151],[149.026159,-35.255318],[149.026199,-35.255525],[149.026235,-35.25569],[149.026287,-35.255896],[149.026381,-35.256223],[149.026491,-35.256546],[149.026616,-35.256866],[149.026757,-35.257181],[149.026891,-35.257447],[149.027058,-35.257744],[149.02724,-35.258035],[149.027412,-35.258285],[149.02762,-35.258563],[149.027814,-35.258801],[149.028019,-35.259033],[149.028202,-35.259227],[149.028426,-35.259447],[149.028624,-35.25963],[149.030416,-35.261193],[149.030644,-35.261388],[149.031,-35.261708],[149.031301,-35.261995],[149.031552,-35.262246],[149.031836,-35.262545],[149.03211,-35.26285],[149.032279,-35.263055],[149.03241,-35.263221],[149.032662,-35.263559],[149.03293,-35.263946],[149.033152,-35.264298],[149.033361,-35.264655],[149.033661,-35.265232],[149.033922,-35.265958]]],[[[148.9384901597532,-35.23209450699289],[148.961731,-35.218467],[149.091017,-35.142339],[149.091082620419,-35.142234178141976],[148.93851650091477,-35.23195198668669],[148.9384901597532,-35.23209450699289]]],[[[149.1530644207616,-35.43408574193946],[149.152351,-35.433416],[149.14071080155344,-35.43409798101443],[149.140726,-35.434126],[149.152273,-35.433434],[149.1530644207616,-35.43408574193946]]],[[[149.1395210984464,-35.4319047125085],[149.13826074756375,-35.42931275975108],[149.138163,-35.429401],[149.1395210984464,-35.4319047125085]]],[[[149.14115945243404,-35.42669599438661],[149.144065,-35.424241],[149.1441347787106,-35.42401006011702],[149.14115945243404,-35.42669599438661]]],[[[149.14600182423732,-35.417830879219984],[149.147043,-35.414385],[149.14746133161285,-35.41409143538375],[149.146867,-35.414485],[149.14600182423732,-35.417830879219984]]],[[[149.0923786451544,-35.14016391216548],[149.09330843140745,-35.13867867442853],[149.093152,-35.138737],[149.0923786451544,-35.14016391216548]]],[[[149.09454738577261,-35.138216729333564],[149.102863,-35.135229],[149.104328,-35.132328],[149.109725,-35.131145],[149.113387,-35.127539],[149.109679,-35.131109],[149.104145,-35.132131],[149.102574,-35.135224],[149.09454738577261,-35.138216729333564]]],[[[149.118076,-35.126527],[149.120902,-35.124517],[149.127186,-35.125622],[149.120948,-35.124416],[149.118076,-35.126527]]],[[[149.127163,-35.12572],[149.131698,-35.12906],[149.138819,-35.128466],[149.139966,-35.130832],[149.1386,-35.135257],[149.140501,-35.136293],[149.144961,-35.134596],[149.149591184939,-35.13862909308309],[149.149612,-35.138406],[149.144875,-35.134429],[149.140716,-35.135811],[149.138825,-35.13479],[149.140133,-35.130393],[149.138986,-35.127983],[149.132054,-35.128524],[149.127163,-35.12572]]],[[[149.14705222641018,-35.144548776439585],[149.146775,-35.144856],[149.155787,-35.144627],[149.15601378708675,-35.14443275366601],[149.14705222641018,-35.144548776439585]]],[[[149.15692418754602,-35.14365298285011],[149.159195,-35.141708],[149.16424706362102,-35.14204171067108],[149.164278,-35.141905],[149.15917,-35.1416],[149.15692418754602,-35.14365298285011]]],[[[149.16322366982448,-35.14684166797134],[149.163195,-35.146968],[149.165066,-35.150099],[149.16364242337121,-35.152186761266094],[149.165215,-35.150141],[149.16322366982448,-35.14684166797134]]],[[[149.16282463420112,-35.154103950478095],[149.16757833465618,-35.159741458330096],[149.167626,-35.15824],[149.16282463420112,-35.154103950478095]]],[[[149.16758607946574,-35.15975064305368],[149.167696,-35.159881],[149.176381,-35.158283],[149.185495,-35.161201],[149.18903339694174,-35.165597964106404],[149.189073,-35.165524],[149.185606,-35.161122],[149.176539,-35.158247],[149.16758607946574,-35.15975064305368]]],[[[149.18510895266286,-35.172927398423276],[149.183629,-35.175618],[149.1836545148494,-35.17564375917763],[149.18510895266286,-35.172927398423276]]],[[[149.19218489778655,-35.17987590063748],[149.19701290503585,-35.185471076355455],[149.197035,-35.185368],[149.192265,-35.179901],[149.19218489778655,-35.17987590063748]]]]},"bbox":[148.9384901597532,-35.434126,149.399287,-35.124416]}]}