{"type":"FeatureCollection","features":[
{"properties":{"electorateShortName":"eden-monaro","electorateName":"Eden-Monaro","area":31913.08,"state":"NSW"},"type":"Feature","geometry":{"type":"MultiPolygon","coordinates":[[[[150.14129,-36.050883],[150.139938,-36.049072],[150.138091,-36.047997],[150.136871,-36.048174],[150.134623,-36.046484],[150.128419,-36.044872],[150.12692,-36.043548],[150.127409,-36.041955],[150.126807,-36.040636],[150.125564,-36.039405],[150.12536,-36.037493],[150.127795,-36.035629],[150.125489,-36.034478],[150.124818,-36.032491],[150.123989,-36.031596],[150.121475,-36.030773],[150.119341,-36.029122],[150.119835,-36.027985],[150.11562,-36.025008],[150.114951,-36.023482],[150.11587,-36.021217],[150.10484,-36.019871],[150.103193,-36.022619],[150.100029,-36.024809],[150.089442,-36.023388],[150.089309,-36.024102],[150.085026,-36.022247],[150.083514,-36.0228],[150.084762,-36.016312],[150.083835,-36.01619],[150.085094,-36.009695],[150.080295,-36.011188],[150.078119,-36.010912],[150.074777,-36.008335],[150.073853,-36.009433],[150.072099,-36.010118],[150.070907,-36.009208],[150.069768,-36.009615],[150.06881,-36.010914],[150.066964,-36.01211],[150.064295,-36.012106],[150.062971,-36.014259],[150.062779,-36.015934],[150.061663,-36.01716],[150.058923,-36.015953],[150.057777,-36.014147],[150.056319,-36.013096],[150.057361,-36.01233],[150.055881,-36.010478],[150.056128,-36.009737],[150.054784,-36.00901],[150.055257,-36.006726],[150.053759,-36.00651],[150.053046,-36.009945],[150.054301,-36.009264],[150.052115,-36.01993],[150.05356,-36.020138],[150.05028,-36.035655],[150.051555,-36.036443],[150.05352,-36.036569],[150.052638,-36.041306],[150.030846,-36.038177],[150.029338,-36.039609],[150.023026,-36.037994],[150.02196,-36.0369],[150.014268,-36.035793],[150.01502,-36.032365],[150.003422,-36.030681],[150.004167,-36.027329],[150.00318,-36.026237],[150.000835,-36.024655],[149.999651,-36.025062],[149.997809,-36.02274],[149.996583,-36.023484],[149.994395,-36.021607],[149.994146,-36.020303],[149.991548,-36.020286],[149.990534,-36.018957],[149.989041,-36.018967],[149.985369,-36.017413],[149.984306,-36.016204],[149.980512,-36.014521],[149.979138,-36.012518],[149.976476,-36.011641],[149.973921,-36.00957],[149.971933,-36.009169],[149.969888,-36.009967],[149.966665,-36.010489],[149.965206,-36.007787],[149.855705,-35.809015],[149.859796,-35.795142],[149.837634,-35.786406],[149.826941,-35.778131],[149.824958,-35.763239],[149.817232,-35.753041],[149.817356,-35.749602],[149.818628,-35.748715],[149.82057,-35.745809],[149.820648,-35.745059],[149.818616,-35.743848],[149.818161,-35.742452],[149.81845,-35.740719],[149.818138,-35.739615],[149.81532,-35.737967],[149.814402,-35.7363],[149.816614,-35.734922],[149.818132,-35.733504],[149.819649,-35.733455],[149.820995,-35.734707],[149.822735,-35.734519],[149.825287,-35.728889],[149.826745,-35.727534],[149.828446,-35.72686],[149.829816,-35.725133],[149.829216,-35.722681],[149.830246,-35.721324],[149.833102,-35.722547],[149.834041,-35.722535],[149.838721,-35.723793],[149.839891,-35.72276],[149.83886,-35.720613],[149.838349,-35.718662],[149.838718,-35.716328],[149.840917,-35.7148],[149.841988,-35.715183],[149.843685,-35.717013],[149.845995,-35.717459],[149.847452,-35.716722],[149.847995,-35.715709],[149.84929,-35.714841],[149.851037,-35.715127],[149.851493,-35.716035],[149.851564,-35.718883],[149.852368,-35.71978],[149.853893,-35.720146],[149.856847,-35.719476],[149.858306,-35.717047],[149.861072,-35.715164],[149.862616,-35.713806],[149.861381,-35.713207],[149.861464,-35.711407],[149.875458,-35.688275],[149.890393,-35.666336],[149.904062,-35.644347],[149.908399,-35.637019],[149.915654,-35.63802],[149.916947,-35.636038],[149.917782,-35.635544],[149.92057,-35.635428],[149.922055,-35.634334],[149.922249,-35.631946],[149.921584,-35.630395],[149.921541,-35.628719],[149.920978,-35.627419],[149.920079,-35.623145],[149.921935,-35.621057],[149.921992,-35.618577],[149.922779,-35.617282],[149.924278,-35.615923],[149.927372,-35.613891],[149.934096,-35.61165],[149.935114,-35.61062],[149.934245,-35.609052],[149.934381,-35.608],[149.933856,-35.604758],[149.933239,-35.603215],[149.933371,-35.601819],[149.934439,-35.599936],[149.936329,-35.59496],[149.935366,-35.593147],[149.933224,-35.5876],[149.931649,-35.585995],[149.930749,-35.583962],[149.93033,-35.581653],[149.929019,-35.578612],[149.929025,-35.577181],[149.93093,-35.571775],[149.93022,-35.570119],[149.929853,-35.565592],[149.93065,-35.564288],[149.936133,-35.561516],[149.937993,-35.56194],[149.940246,-35.563675],[149.942652,-35.563966],[149.945965,-35.565714],[149.946592,-35.563774],[149.94824,-35.561737],[149.941329,-35.560716],[149.94285,-35.553309],[149.946053,-35.553639],[149.949419,-35.553218],[149.951979,-35.551942],[149.9518,-35.550429],[149.949281,-35.5498],[149.950426,-35.547775],[149.950938,-35.545259],[149.954118,-35.544985],[149.956147,-35.544326],[149.95675,-35.543466],[149.955365,-35.542513],[149.95134,-35.542496],[149.950121,-35.541803],[149.949166,-35.54055],[149.948148,-35.537659],[149.948918,-35.535271],[149.949173,-35.533429],[149.948759,-35.532188],[149.949323,-35.529432],[149.957434,-35.53073],[149.959893,-35.520231],[149.964045,-35.500787],[149.964581,-35.501347],[149.967182,-35.501888],[149.969045,-35.500694],[149.970396,-35.500581],[149.972345,-35.502031],[149.97505,-35.502973],[149.977835,-35.50289],[149.979007,-35.50246],[149.979826,-35.500845],[149.979591,-35.49971],[149.980371,-35.498434],[149.97905,-35.495893],[149.977443,-35.492064],[149.9774,-35.490247],[149.979974,-35.489148],[149.984012,-35.486435],[149.986438,-35.485305],[149.989704,-35.483306],[149.992883,-35.481943],[149.998742,-35.478744],[150.000156,-35.477035],[150.002058,-35.475315],[150.002977,-35.473725],[150.003473,-35.471765],[150.003983,-35.463062],[150.005275,-35.461912],[150.00586,-35.460507],[150.005018,-35.456441],[150.005519,-35.454109],[150.004259,-35.451109],[150.005391,-35.449181],[150.005378,-35.444573],[150.006562,-35.442971],[150.009233,-35.441906],[150.011202,-35.44145],[150.013499,-35.439087],[150.014081,-35.437419],[150.012957,-35.435741],[150.01123,-35.43489],[150.008751,-35.432549],[150.007436,-35.430683],[150.007298,-35.429058],[150.010876,-35.424016],[150.013147,-35.422924],[150.017923,-35.419233],[150.018587,-35.418177],[150.018629,-35.416493],[150.019891,-35.413282],[150.021356,-35.411953],[150.023195,-35.411063],[150.026321,-35.41031],[150.028411,-35.411096],[150.032974,-35.409895],[150.035118,-35.408746],[150.036191,-35.407283],[150.038056,-35.406213],[150.038549,-35.404963],[150.037595,-35.403634],[150.03819,-35.400093],[150.041141,-35.394143],[150.040872,-35.391872],[150.041676,-35.386585],[150.041529,-35.383832],[150.041956,-35.383131],[150.041795,-35.38008],[150.040343,-35.37957],[150.040033,-35.376905],[150.038737,-35.37542],[150.038443,-35.371235],[150.037014,-35.36742],[150.041095,-35.364542],[150.042005,-35.362755],[150.044911,-35.358536],[150.044434,-35.355487],[150.044039,-35.354695],[150.045911,-35.348805],[150.046721,-35.347397],[150.043833,-35.346544],[150.042132,-35.345622],[150.041415,-35.344442],[150.04258,-35.34172],[150.039424,-35.336963],[150.038662,-35.336356],[150.038004,-35.334237],[150.03804,-35.331635],[150.040196,-35.32835],[150.041609,-35.323806],[150.042622,-35.322685],[150.042966,-35.320641],[150.044663,-35.317827],[150.046357,-35.31614],[150.047397,-35.315651],[150.051054,-35.315626],[150.050738,-35.31349],[150.049844,-35.312397],[150.051053,-35.309066],[150.053093,-35.309068],[150.057012,-35.307463],[150.059799,-35.306551],[150.062927,-35.306383],[150.063722,-35.306659],[150.066421,-35.308786],[150.067782,-35.309166],[150.071484,-35.307452],[150.074898,-35.306849],[150.077741,-35.305157],[150.080905,-35.30421],[150.084332,-35.304602],[150.085367,-35.305263],[150.087254,-35.30093],[150.086725,-35.29996],[150.084514,-35.297755],[150.083415,-35.295017],[150.082697,-35.294243],[150.08258,-35.29272],[150.086044,-35.291091],[150.087091,-35.291178],[150.090035,-35.292515],[150.092338,-35.292631],[150.097391,-35.293294],[150.098844,-35.29262],[150.101728,-35.290452],[150.103037,-35.286754],[150.103024,-35.285844],[150.105209,-35.284752],[150.106661,-35.285429],[150.113762,-35.290943],[150.113872,-35.292672],[150.114848,-35.293761],[150.116747,-35.293401],[150.118067,-35.292675],[150.119526,-35.292527],[150.121069,-35.291332],[150.121428,-35.288394],[150.12087,-35.28698],[150.12103,-35.285714],[150.12219,-35.283854],[150.125283,-35.281961],[150.127699,-35.281241],[150.131063,-35.27988],[150.133541,-35.279441],[150.133983,-35.276876],[150.136356,-35.275188],[150.137655,-35.273471],[150.140454,-35.272963],[150.142094,-35.272156],[150.144132,-35.270554],[150.147838,-35.27008],[150.149485,-35.26834],[150.151921,-35.266784],[150.153638,-35.267231],[150.15594,-35.269053],[150.159464,-35.269724],[150.16437,-35.269778],[150.165737,-35.267614],[150.166889,-35.26644],[150.164432,-35.264452],[150.162948,-35.261554],[150.162682,-35.259596],[150.161001,-35.257476],[150.161343,-35.255467],[150.162041,-35.254636],[150.164308,-35.25454],[150.167727,-35.253149],[150.170762,-35.250774],[150.172095,-35.248615],[150.170611,-35.246552],[150.168741,-35.245646],[150.167485,-35.242882],[150.16752,-35.241216],[150.168683,-35.239252],[150.169962,-35.238724],[150.172201,-35.239605],[150.173803,-35.239281],[150.176032,-35.237219],[150.177718,-35.237027],[150.178951,-35.237678],[150.181291,-35.236457],[150.182887,-35.236339],[150.183326,-35.234545],[150.184503,-35.233451],[150.185247,-35.231557],[150.186792,-35.230335],[150.188122,-35.230047],[150.189408,-35.230412],[150.190241,-35.233338],[150.191375,-35.23387],[150.193655,-35.23286],[150.197489,-35.230222],[150.197854,-35.228732],[150.195924,-35.226487],[150.197363,-35.225117],[150.196687,-35.223506],[150.195121,-35.222204],[150.195452,-35.220044],[150.194985,-35.219216],[150.19185,-35.218725],[150.187554,-35.220352],[150.187801,-35.219063],[150.190467,-35.21591],[150.190782,-35.214391],[150.189615,-35.21331],[150.188506,-35.209069],[150.187343,-35.208308],[150.185575,-35.207877],[150.187292,-35.205561],[150.187963,-35.203164],[150.186519,-35.20142],[150.186318,-35.199841],[150.192057,-35.198515],[150.194479,-35.19885],[150.198725,-35.198883],[150.201117,-35.200712],[150.203359,-35.202835],[150.208309,-35.203745],[150.210491,-35.203055],[150.212356,-35.202074],[150.21438,-35.202327],[150.215661,-35.200984],[150.215545,-35.199336],[150.214706,-35.197253],[150.214361,-35.195098],[150.214686,-35.194311],[150.21141,-35.190667],[150.21137,-35.188366],[150.210244,-35.186512],[150.208517,-35.186281],[150.208912,-35.185283],[150.207942,-35.182578],[150.205728,-35.180825],[150.205687,-35.179529],[150.204326,-35.177566],[150.204636,-35.174187],[150.205097,-35.172917],[150.204276,-35.171045],[150.202504,-35.170081],[150.200728,-35.170068],[150.198765,-35.171167],[150.196289,-35.171109],[150.192518,-35.169151],[150.190811,-35.16762],[150.187879,-35.166018],[150.186,-35.16619],[150.183326,-35.165246],[150.180803,-35.165037],[150.176769,-35.165576],[150.175798,-35.165427],[150.175239,-35.163735],[150.174252,-35.162967],[150.173089,-35.160376],[150.175301,-35.158223],[150.172587,-35.157059],[150.171845,-35.156098],[150.170746,-35.151505],[150.170401,-35.149334],[150.168623,-35.148189],[150.163546,-35.148796],[150.162055,-35.150397],[150.160378,-35.151311],[150.159366,-35.150863],[150.159244,-35.148969],[150.156757,-35.14631],[150.153919,-35.14439],[150.150828,-35.143184],[150.147441,-35.143466],[150.145783,-35.144809],[150.14248,-35.144994],[150.141643,-35.14446],[150.141033,-35.142833],[150.141061,-35.141315],[150.142653,-35.139213],[150.141924,-35.137164],[150.142638,-35.130457],[150.141051,-35.126906],[150.139419,-35.124415],[150.139283,-35.120595],[150.139542,-35.118163],[150.138579,-35.116455],[150.135844,-35.116941],[150.13458,-35.115834],[150.133658,-35.114022],[150.130929,-35.114212],[150.129059,-35.112935],[150.130188,-35.110978],[150.13113,-35.110523],[150.133266,-35.107805],[150.13376,-35.105934],[150.132332,-35.104664],[150.132114,-35.102987],[150.130737,-35.102873],[150.129793,-35.104105],[150.128499,-35.104115],[150.127215,-35.103463],[150.126852,-35.10191],[150.127546,-35.101175],[150.129401,-35.09779],[150.129404,-35.097083],[150.126842,-35.095481],[150.1232,-35.094005],[150.120387,-35.091647],[150.119234,-35.088688],[150.117219,-35.088284],[150.115243,-35.088708],[150.113612,-35.08856],[150.112829,-35.087659],[150.110972,-35.086596],[150.110326,-35.085217],[150.108607,-35.0844],[150.107415,-35.08595],[150.105474,-35.085594],[150.10503,-35.083521],[150.103221,-35.082239],[150.103804,-35.079866],[150.103349,-35.07864],[150.104183,-35.077807],[150.106873,-35.077522],[150.106058,-35.076327],[150.106294,-35.073709],[150.107933,-35.072151],[150.105934,-35.071545],[150.102617,-35.072296],[150.101872,-35.071893],[150.101512,-35.069977],[150.098451,-35.069662],[150.097481,-35.06796],[150.095467,-35.069098],[150.092334,-35.067844],[150.090278,-35.06801],[150.088819,-35.067617],[150.088509,-35.066219],[150.085833,-35.06393],[150.085636,-35.062162],[150.087768,-35.059964],[150.087322,-35.059012],[150.084956,-35.057667],[150.081781,-35.057131],[150.081879,-35.055431],[150.081114,-35.053802],[150.078837,-35.053005],[150.074115,-35.052122],[150.073215,-35.051639],[150.071681,-35.049501],[150.072202,-35.047876],[150.074463,-35.046078],[150.076088,-35.042905],[150.075052,-35.041999],[150.072872,-35.041757],[150.071444,-35.040034],[150.069995,-35.0398],[150.06753,-35.040616],[150.06643,-35.040105],[150.065935,-35.03841],[150.067179,-35.036656],[150.066822,-35.035528],[150.064218,-35.036103],[150.063167,-35.03709],[150.061838,-35.037035],[150.061611,-35.036075],[150.063093,-35.032812],[150.064098,-35.031142],[150.063426,-35.027682],[150.064688,-35.022681],[150.064212,-35.021789],[150.061528,-35.021699],[150.059222,-35.021253],[150.057997,-35.019462],[150.056206,-35.018707],[150.053704,-35.018964],[150.0526,-35.018163],[150.052925,-35.016924],[150.054157,-35.015285],[150.053885,-35.013622],[150.05164,-35.01323],[150.050664,-35.012655],[150.049832,-35.008711],[150.050082,-35.007996],[150.052103,-35.007305],[150.054126,-35.008042],[150.056938,-35.007321],[150.061782,-35.005312],[150.066042,-35.00462],[150.07045,-35.002117],[150.073529,-34.9998],[150.077629,-34.996271],[150.078756,-34.995103],[150.08431,-34.991209],[150.085776,-34.988986],[150.08569,-34.987732],[150.080025,-34.977187],[150.077951,-34.975538],[150.075681,-34.975167],[150.070195,-34.973511],[150.067429,-34.972116],[150.058914,-34.969725],[150.056914,-34.96873],[150.055792,-34.967665],[150.05552,-34.965285],[150.05848,-34.956811],[150.059975,-34.95321],[150.061109,-34.951154],[150.063732,-34.948542],[150.066356,-34.946867],[150.06773,-34.945405],[150.068425,-34.943138],[150.067422,-34.938335],[150.067482,-34.93715],[150.068376,-34.93595],[150.071624,-34.935226],[150.075565,-34.93373],[150.077758,-34.931601],[150.082656,-34.927977],[150.086245,-34.92645],[150.088242,-34.924887],[150.08837,-34.92242],[150.087661,-34.920176],[150.086383,-34.917602],[150.086015,-34.915013],[150.086993,-34.912088],[150.088278,-34.911738],[150.090761,-34.912264],[150.091803,-34.911325],[150.090648,-34.910119],[150.087889,-34.910216],[150.085266,-34.90893],[150.082016,-34.905845],[150.080905,-34.901686],[150.081677,-34.900108],[150.084119,-34.898869],[150.087646,-34.896227],[150.087693,-34.894628],[150.085969,-34.893131],[150.084682,-34.893047],[150.081471,-34.893829],[150.079661,-34.896507],[150.077602,-34.897695],[150.075703,-34.897556],[150.074352,-34.894842],[150.072488,-34.894022],[150.067479,-34.891231],[150.065262,-34.889651],[150.06226,-34.88658],[150.058519,-34.882233],[150.05614,-34.881712],[150.053563,-34.882432],[150.052294,-34.881746],[150.051965,-34.880873],[150.052692,-34.879936],[150.053294,-34.877189],[150.052667,-34.87439],[150.052724,-34.872803],[150.051559,-34.870293],[150.050339,-34.869523],[150.049046,-34.869687],[150.047397,-34.868763],[150.046389,-34.866961],[150.046965,-34.86537],[150.046168,-34.862722],[150.04449,-34.861672],[150.041557,-34.860977],[150.040608,-34.8602],[150.04167,-34.857365],[150.041688,-34.855118],[150.042188,-34.851413],[150.041141,-34.849442],[150.038338,-34.846392],[150.037447,-34.843872],[150.038387,-34.842662],[150.039707,-34.837953],[150.041056,-34.834645],[150.043161,-34.830863],[150.043756,-34.827779],[150.042344,-34.825162],[150.039497,-34.821622],[150.037239,-34.813644],[150.037007,-34.810809],[150.03615,-34.809695],[150.036388,-34.807472],[150.038337,-34.804863],[150.039694,-34.80478],[150.042453,-34.806336],[150.043816,-34.806397],[150.046692,-34.804662],[150.046627,-34.802548],[150.045378,-34.800689],[150.041808,-34.798034],[150.040306,-34.79555],[150.04045,-34.794679],[150.041993,-34.793191],[150.04608,-34.790373],[150.048584,-34.789406],[150.052921,-34.785142],[150.05393,-34.784832],[150.06334,-34.784775],[150.065964,-34.784051],[150.066872,-34.782762],[150.067293,-34.781227],[150.067381,-34.778912],[150.064315,-34.776313],[150.061307,-34.774481],[150.058365,-34.774619],[150.056368,-34.774315],[150.055134,-34.773662],[150.05492,-34.772689],[150.056201,-34.770454],[150.060478,-34.768306],[150.06787,-34.767167],[150.069578,-34.767823],[150.072137,-34.767521],[150.07422,-34.768097],[150.075331,-34.769538],[150.075198,-34.771526],[150.07555,-34.773056],[150.07625,-34.773529],[150.079612,-34.77347],[150.081419,-34.773718],[150.083652,-34.775651],[150.085992,-34.778201],[150.088298,-34.779647],[150.092258,-34.780547],[150.095096,-34.78215],[150.100097,-34.78621],[150.101472,-34.787039],[150.103304,-34.787557],[150.105446,-34.78885],[150.106212,-34.791139],[150.106258,-34.793201],[150.107134,-34.795418],[150.109281,-34.798531],[150.110133,-34.799142],[150.115468,-34.799362],[150.118206,-34.801046],[150.119779,-34.802707],[150.121431,-34.8037],[150.125277,-34.807969],[150.125587,-34.809251],[150.125367,-34.813475],[150.127115,-34.817387],[150.131361,-34.818283],[150.134084,-34.819608],[150.13761,-34.819282],[150.140542,-34.819844],[150.146277,-34.820421],[150.148277,-34.820338],[150.153746,-34.821573],[150.156572,-34.822593],[150.15817,-34.822398],[150.162728,-34.823063],[150.167396,-34.822181],[150.172055,-34.820568],[150.175957,-34.818504],[150.177659,-34.818223],[150.184216,-34.819659],[150.18728,-34.818972],[150.189571,-34.818969],[150.193709,-34.819725],[150.199119,-34.818159],[150.204052,-34.816574],[150.206738,-34.81513],[150.209564,-34.814495],[150.212288,-34.811582],[150.214706,-34.807754],[150.216803,-34.805638],[150.21836,-34.804617],[150.223409,-34.80306],[150.22567,-34.802965],[150.231571,-34.801705],[150.233763,-34.800821],[150.234577,-34.799697],[150.236136,-34.794164],[150.236952,-34.79349],[150.239596,-34.792463],[150.243494,-34.791523],[150.246305,-34.791517],[150.251182,-34.792236],[150.253764,-34.79205],[150.25581,-34.791464],[150.257641,-34.790168],[150.258555,-34.788759],[150.259739,-34.785546],[150.263265,-34.781014],[150.264719,-34.778219],[150.266368,-34.775928],[150.267865,-34.774374],[150.276501,-34.769241],[150.279662,-34.768447],[150.282533,-34.768397],[150.284211,-34.768017],[150.28782,-34.764691],[150.290018,-34.764472],[150.291627,-34.764687],[150.29459,-34.765937],[150.29649,-34.766151],[150.302836,-34.766331],[150.305563,-34.767266],[150.307764,-34.769106],[150.308862,-34.77081],[150.310168,-34.772091],[150.313472,-34.773837],[150.314872,-34.773623],[150.313495,-34.771078],[150.313591,-34.769921],[150.31589,-34.768155],[150.319119,-34.766318],[150.323026,-34.763504],[150.32664,-34.762522],[150.329128,-34.760543],[150.330255,-34.759229],[150.332124,-34.755081],[150.33353,-34.752388],[150.331315,-34.75091],[150.328323,-34.747736],[150.327122,-34.745732],[150.325621,-34.744171],[150.32449,-34.743768],[150.321746,-34.743737],[150.320058,-34.743287],[150.317607,-34.741756],[150.313929,-34.740634],[150.312113,-34.739541],[150.308812,-34.736553],[150.304578,-34.734365],[150.301885,-34.733907],[150.297311,-34.736169],[150.29606,-34.736516],[150.29312,-34.736438],[150.288778,-34.735078],[150.285617,-34.734398],[150.282086,-34.734478],[150.279481,-34.734245],[150.278057,-34.733807],[150.277232,-34.732838],[150.268468,-34.731677],[150.270408,-34.732832],[150.268617,-34.734313],[150.268661,-34.735144],[150.267547,-34.736539],[150.265687,-34.736845],[150.264335,-34.736345],[150.264138,-34.73773],[150.262806,-34.738877],[150.260448,-34.738499],[150.259096,-34.73913],[150.257998,-34.739002],[150.256727,-34.741415],[150.254784,-34.741018],[150.253258,-34.741144],[150.250293,-34.739131],[150.249022,-34.74],[150.248033,-34.739564],[150.246351,-34.740729],[150.243081,-34.74073],[150.243325,-34.742853],[150.242784,-34.744072],[150.24172,-34.744879],[150.238853,-34.745246],[150.236628,-34.744846],[150.23427,-34.745661],[150.23258,-34.744937],[150.2296,-34.742882],[150.227217,-34.746494],[150.223672,-34.74727],[150.220985,-34.747087],[150.219035,-34.747444],[150.218081,-34.74698],[150.216106,-34.747265],[150.216967,-34.748754],[150.214542,-34.750188],[150.214826,-34.751549],[150.212659,-34.751906],[150.21107,-34.753972],[150.207596,-34.754098],[150.204733,-34.75575],[150.203517,-34.755983],[150.202535,-34.757018],[150.200878,-34.756192],[150.199126,-34.756159],[150.197768,-34.755659],[150.196407,-34.754278],[150.194935,-34.751678],[150.194342,-34.751262],[150.191811,-34.752518],[150.192632,-34.754159],[150.192113,-34.754761],[150.189456,-34.754398],[150.18923,-34.75516],[150.190199,-34.757343],[150.186099,-34.757471],[150.187022,-34.758613],[150.18596,-34.76132],[150.183266,-34.761708],[150.182013,-34.763013],[150.181371,-34.764365],[150.180369,-34.764717],[150.178801,-34.764145],[150.177108,-34.762966],[150.175017,-34.764415],[150.175,-34.765848],[150.173761,-34.767697],[150.171269,-34.769315],[150.169182,-34.769189],[150.17291,-34.748716],[150.176355,-34.74921],[150.178146,-34.740046],[150.177863,-34.739078],[150.178511,-34.73539],[150.177186,-34.735222],[150.178459,-34.728125],[150.176309,-34.7276],[150.17016,-34.726836],[150.170881,-34.72331],[150.169985,-34.723178],[150.170697,-34.719616],[150.159246,-34.718015],[150.159315,-34.717606],[150.141094,-34.715296],[150.142638,-34.707346],[150.143399,-34.702748],[150.130525,-34.700885],[150.124939,-34.70035],[150.122158,-34.699378],[150.120369,-34.698051],[150.119476,-34.699122],[150.116738,-34.699591],[150.118,-34.693232],[150.114279,-34.69274],[150.11523,-34.687913],[150.11171,-34.68737],[150.112608,-34.68363],[150.092571,-34.680435],[150.098483,-34.655064],[150.092617,-34.654241],[150.088592,-34.653437],[150.085753,-34.651976],[150.082825,-34.649764],[150.081541,-34.649351],[150.080696,-34.647192],[150.078817,-34.645618],[150.077828,-34.642512],[150.077929,-34.640436],[150.078388,-34.639572],[150.080461,-34.637686],[150.082857,-34.636785],[150.087113,-34.636693],[150.088925,-34.635585],[150.090834,-34.633916],[150.091457,-34.632351],[150.093986,-34.629695],[150.095905,-34.628511],[150.097321,-34.628422],[150.099629,-34.627263],[150.099234,-34.625768],[150.09724,-34.623978],[150.09697,-34.621445],[150.09981,-34.619273],[150.100943,-34.617668],[150.100903,-34.61674],[150.097594,-34.616789],[150.091331,-34.615387],[150.090063,-34.614303],[150.091522,-34.611858],[150.09265,-34.605824],[150.094355,-34.604385],[150.095264,-34.602999],[150.095092,-34.60082],[150.095497,-34.599654],[150.096939,-34.599041],[150.097481,-34.597398],[150.096718,-34.595667],[150.095913,-34.591873],[150.0934,-34.588353],[150.093411,-34.587471],[150.095669,-34.585987],[150.099031,-34.584975],[150.098261,-34.580716],[150.097613,-34.579867],[150.095454,-34.580202],[150.091927,-34.580097],[150.092105,-34.582911],[150.090063,-34.584643],[150.088996,-34.586248],[150.08732,-34.58641],[150.083801,-34.582561],[150.082942,-34.582311],[150.081903,-34.584894],[150.082237,-34.586102],[150.083423,-34.587575],[150.084721,-34.590665],[150.08657,-34.592082],[150.088807,-34.593117],[150.089379,-34.594714],[150.089062,-34.59609],[150.086143,-34.596898],[150.082447,-34.597239],[150.081222,-34.598684],[150.081117,-34.60079],[150.081995,-34.602529],[150.084881,-34.603528],[150.084869,-34.604606],[150.078048,-34.603621],[150.077835,-34.60486],[150.074945,-34.603466],[150.073554,-34.603882],[150.066254,-34.602894],[150.063435,-34.616134],[150.060176,-34.616563],[150.05824,-34.61721],[150.05482,-34.61027],[150.051419,-34.609823],[150.049688,-34.618469],[150.047975,-34.618447],[150.047599,-34.620233],[150.044245,-34.619818],[150.044708,-34.61724],[150.039882,-34.617519],[150.036885,-34.616858],[150.029995,-34.616606],[150.024859,-34.619311],[150.020168,-34.619924],[150.017244,-34.619761],[150.014091,-34.618827],[150.009536,-34.618669],[150.008403,-34.618891],[150.0055,-34.620588],[150.004877,-34.621502],[150.004637,-34.625232],[150.003735,-34.626348],[150.002288,-34.6259],[150.001184,-34.624913],[149.996776,-34.622528],[149.994255,-34.622403],[149.991419,-34.623433],[149.989653,-34.624581],[149.988352,-34.626248],[149.985827,-34.628346],[149.984211,-34.631041],[149.983186,-34.631419],[149.980677,-34.630975],[149.978533,-34.629683],[149.977832,-34.628804],[149.972965,-34.630443],[149.971399,-34.62938],[149.969263,-34.625437],[149.969153,-34.623824],[149.967515,-34.62168],[149.966437,-34.621184],[149.964775,-34.621232],[149.963338,-34.621955],[149.962655,-34.623433],[149.962618,-34.627179],[149.962882,-34.629863],[149.957345,-34.629207],[149.957044,-34.631042],[149.94944,-34.63015],[149.948957,-34.632623],[149.94459,-34.625104],[149.942637,-34.623886],[149.9414,-34.624124],[149.940273,-34.62531],[149.925836,-34.623459],[149.913188,-34.621705],[149.904833,-34.620474],[149.896544,-34.619348],[149.895405,-34.625068],[149.885995,-34.623835],[149.884328,-34.632489],[149.882094,-34.632207],[149.884195,-34.62125],[149.878675,-34.620318],[149.876432,-34.619214],[149.873014,-34.616061],[149.870324,-34.614652],[149.868946,-34.615489],[149.868357,-34.616625],[149.866384,-34.617671],[149.86487,-34.617707],[149.865964,-34.612151],[149.86168,-34.611555],[149.859961,-34.609223],[149.859981,-34.60619],[149.850369,-34.605116],[149.848437,-34.604602],[149.847986,-34.603329],[149.835555,-34.601693],[149.832987,-34.601185],[149.831777,-34.59968],[149.831496,-34.601768],[149.827614,-34.601038],[149.82406,-34.618624],[149.830218,-34.619466],[149.829976,-34.618004],[149.831426,-34.614596],[149.833794,-34.615123],[149.836412,-34.616653],[149.839287,-34.617498],[149.839832,-34.617067],[149.838596,-34.614197],[149.839575,-34.613487],[149.840661,-34.61366],[149.843089,-34.615649],[149.845689,-34.616108],[149.84967,-34.615869],[149.850439,-34.614703],[149.848681,-34.612705],[149.849918,-34.612159],[149.852892,-34.612541],[149.854783,-34.611578],[149.857101,-34.611826],[149.857624,-34.612799],[149.856852,-34.614057],[149.857581,-34.6151],[149.860189,-34.61572],[149.855028,-34.643461],[149.837997,-34.641255],[149.819989,-34.638517],[149.817195,-34.6532],[149.807909,-34.652012],[149.799094,-34.650971],[149.793149,-34.650146],[149.793678,-34.648076],[149.793915,-34.644987],[149.796295,-34.642406],[149.797604,-34.640128],[149.798777,-34.636963],[149.798956,-34.63526],[149.802461,-34.635729],[149.80428,-34.625351],[149.800625,-34.625282],[149.799231,-34.62486],[149.798685,-34.621745],[149.79974,-34.616398],[149.80492,-34.617099],[149.805809,-34.618833],[149.809276,-34.620196],[149.810618,-34.620978],[149.811896,-34.613837],[149.812606,-34.613919],[149.813847,-34.607893],[149.813204,-34.607807],[149.813741,-34.605102],[149.809584,-34.604185],[149.808086,-34.60277],[149.806716,-34.603715],[149.805148,-34.604024],[149.805192,-34.604864],[149.802542,-34.60552],[149.799043,-34.605364],[149.797404,-34.604617],[149.794272,-34.60537],[149.791797,-34.603875],[149.789155,-34.604049],[149.783367,-34.60613],[149.781852,-34.605096],[149.78263,-34.601672],[149.781647,-34.601023],[149.779074,-34.602766],[149.774388,-34.60291],[149.772936,-34.604033],[149.770806,-34.604064],[149.770188,-34.60265],[149.768177,-34.601002],[149.765946,-34.600306],[149.763379,-34.598103],[149.75986,-34.597428],[149.758466,-34.597618],[149.751725,-34.596673],[149.752332,-34.593638],[149.74889,-34.593173],[149.749529,-34.590025],[149.748386,-34.589855],[149.749277,-34.585383],[149.756106,-34.586158],[149.755034,-34.584236],[149.756494,-34.582857],[149.759136,-34.583211],[149.759785,-34.579887],[149.753974,-34.579117],[149.755199,-34.578154],[149.754717,-34.576462],[149.761389,-34.57731],[149.756725,-34.569223],[149.753675,-34.5688],[149.752835,-34.572837],[149.750738,-34.572589],[149.749124,-34.571943],[149.748663,-34.57019],[149.742699,-34.569366],[149.74312,-34.567186],[149.740342,-34.566825],[149.737,-34.567121],[149.735722,-34.568825],[149.735608,-34.569913],[149.72337,-34.568247],[149.722975,-34.570266],[149.718652,-34.569678],[149.720048,-34.562521],[149.724159,-34.563079],[149.725194,-34.561149],[149.726021,-34.556946],[149.730897,-34.557613],[149.73175,-34.553307],[149.709177,-34.550266],[149.709226,-34.550012],[149.69959,-34.548699],[149.698818,-34.552427],[149.699711,-34.552548],[149.697639,-34.563399],[149.685919,-34.561743],[149.68646,-34.559147],[149.678848,-34.558153],[149.678756,-34.558588],[149.666872,-34.55698],[149.666697,-34.557691],[149.662671,-34.55799],[149.660019,-34.556668],[149.659652,-34.558446],[149.660748,-34.558604],[149.655421,-34.585867],[149.647479,-34.584963],[149.645921,-34.592746],[149.637022,-34.591515],[149.635798,-34.597619],[149.635187,-34.602632],[149.634125,-34.60339],[149.633537,-34.606201],[149.628387,-34.605485],[149.628583,-34.607993],[149.626506,-34.611462],[149.626942,-34.614878],[149.625312,-34.616302],[149.625212,-34.616979],[149.622309,-34.620513],[149.62346,-34.62395],[149.619419,-34.626593],[149.619686,-34.628179],[149.621305,-34.628393],[149.619089,-34.639442],[149.618021,-34.641554],[149.618395,-34.642365],[149.618056,-34.644725],[149.605307,-34.64304],[149.605916,-34.639471],[149.60531,-34.638953],[149.602565,-34.633791],[149.603768,-34.629523],[149.592746,-34.627963],[149.591641,-34.627376],[149.589059,-34.627271],[149.588188,-34.628499],[149.585437,-34.628828],[149.588338,-34.613099],[149.583921,-34.612462],[149.570104,-34.6107],[149.570859,-34.607712],[149.567989,-34.607341],[149.557194,-34.604548],[149.556874,-34.606066],[149.555526,-34.607342],[149.558004,-34.609303],[149.557668,-34.610678],[149.555646,-34.611992],[149.554775,-34.614559],[149.554651,-34.616796],[149.553775,-34.619396],[149.551947,-34.62021],[149.550511,-34.619547],[149.549627,-34.620167],[149.549575,-34.621893],[149.548863,-34.623269],[149.549397,-34.624925],[149.548586,-34.625704],[149.54578,-34.62588],[149.544314,-34.627113],[149.540071,-34.626158],[149.538995,-34.625034],[149.537915,-34.624999],[149.537441,-34.626032],[149.537836,-34.62817],[149.537537,-34.62969],[149.534477,-34.630277],[149.534046,-34.631087],[149.534846,-34.633537],[149.534672,-34.634366],[149.532719,-34.635756],[149.530879,-34.636241],[149.5306,-34.635014],[149.528376,-34.634444],[149.527281,-34.635273],[149.528957,-34.636589],[149.528334,-34.639459],[149.527372,-34.640752],[149.525353,-34.639714],[149.520353,-34.645136],[149.520274,-34.646155],[149.522411,-34.647795],[149.523244,-34.649695],[149.52442,-34.651174],[149.524013,-34.653153],[149.521936,-34.654404],[149.520903,-34.65584],[149.521404,-34.656959],[149.522857,-34.657851],[149.522411,-34.660143],[149.522793,-34.662121],[149.523659,-34.663518],[149.523685,-34.665023],[149.522695,-34.665317],[149.519405,-34.664256],[149.518439,-34.664582],[149.517105,-34.666245],[149.514825,-34.666321],[149.513849,-34.664952],[149.512276,-34.663596],[149.508536,-34.662815],[149.507006,-34.662066],[149.506443,-34.660883],[149.50705,-34.659776],[149.509301,-34.658521],[149.509072,-34.657174],[149.506535,-34.656006],[149.503948,-34.654311],[149.502486,-34.65433],[149.500032,-34.655162],[149.499283,-34.656515],[149.500032,-34.65985],[149.499322,-34.661296],[149.49788,-34.662721],[149.497748,-34.663607],[149.496616,-34.664894],[149.495332,-34.668034],[149.496167,-34.671591],[149.497953,-34.673421],[149.501485,-34.675854],[149.502422,-34.677026],[149.502669,-34.678323],[149.504738,-34.679872],[149.507332,-34.679569],[149.512222,-34.680403],[149.513947,-34.679762],[149.515749,-34.680467],[149.515888,-34.681115],[149.514606,-34.68382],[149.515324,-34.685474],[149.517885,-34.685731],[149.520295,-34.68656],[149.521229,-34.689457],[149.520168,-34.691614],[149.520209,-34.693329],[149.523927,-34.693402],[149.526534,-34.692684],[149.527913,-34.693123],[149.527563,-34.694296],[149.525556,-34.695678],[149.526173,-34.698785],[149.526811,-34.700535],[149.527536,-34.703819],[149.529677,-34.705183],[149.527983,-34.707506],[149.53028,-34.7098],[149.533547,-34.711135],[149.532441,-34.713189],[149.529658,-34.712179],[149.523146,-34.711665],[149.520222,-34.711752],[149.517664,-34.725783],[149.517445,-34.725767],[149.516096,-34.733149],[149.507908,-34.732017],[149.507096,-34.735987],[149.508237,-34.736149],[149.506933,-34.743244],[149.507172,-34.743278],[149.504558,-34.757059],[149.503534,-34.760975],[149.504197,-34.761059],[149.501192,-34.775414],[149.507856,-34.776328],[149.505162,-34.789935],[149.498749,-34.790411],[149.497732,-34.795521],[149.499216,-34.797398],[149.498119,-34.802167],[149.496091,-34.802511],[149.495287,-34.806264],[149.502199,-34.807279],[149.50109,-34.813279],[149.503516,-34.813618],[149.502734,-34.817202],[149.507575,-34.818074],[149.505635,-34.82197],[149.503251,-34.828133],[149.502636,-34.831189],[149.498885,-34.830684],[149.496893,-34.84025],[149.491191,-34.839452],[149.489413,-34.848722],[149.478963,-34.848255],[149.478735,-34.849728],[149.474855,-34.849264],[149.472058,-34.849357],[149.471477,-34.853256],[149.470466,-34.858319],[149.481527,-34.859799],[149.485528,-34.861234],[149.487929,-34.861556],[149.488535,-34.858202],[149.487368,-34.858049],[149.48892,-34.850144],[149.497958,-34.851416],[149.498337,-34.854159],[149.50278,-34.856393],[149.503929,-34.857953],[149.504845,-34.865541],[149.52229,-34.868065],[149.521156,-34.8736],[149.536311,-34.875744],[149.537444,-34.870609],[149.542594,-34.871258],[149.542246,-34.872854],[149.540064,-34.875239],[149.52812,-34.88619],[149.523641,-34.889528],[149.519961,-34.891389],[149.520141,-34.892842],[149.523385,-34.892922],[149.522913,-34.894903],[149.523316,-34.896156],[149.522561,-34.89779],[149.521342,-34.907129],[149.516094,-34.906318],[149.490968,-34.902197],[149.488522,-34.916068],[149.455029,-34.911692],[149.453442,-34.920119],[149.449441,-34.920368],[149.447813,-34.927857],[149.444698,-34.927932],[149.444698,-34.928437],[149.428791,-34.926166],[149.427775,-34.930593],[149.422659,-34.929875],[149.421703,-34.934533],[149.4199,-34.938275],[149.418899,-34.939541],[149.414874,-34.943368],[149.412709,-34.946337],[149.409019,-34.953607],[149.408264,-34.956162],[149.407662,-34.959952],[149.406654,-34.962493],[149.396006,-34.973589],[149.391569,-34.975876],[149.389797,-34.977211],[149.38799,-34.979272],[149.387476,-34.981071],[149.387527,-34.98505],[149.386965,-34.989846],[149.385689,-34.995969],[149.385097,-34.997916],[149.384005,-34.999681],[149.382303,-35.001683],[149.380443,-35.005071],[149.379915,-35.007109],[149.379367,-35.014968],[149.377814,-35.024707],[149.377572,-35.030089],[149.376912,-35.03828],[149.376798,-35.043976],[149.375676,-35.049741],[149.374866,-35.057095],[149.373419,-35.062902],[149.373653,-35.069609],[149.374501,-35.075072],[149.374457,-35.081348],[149.374676,-35.084848],[149.37445,-35.087591],[149.374711,-35.089426],[149.375916,-35.092949],[149.376162,-35.095307],[149.375596,-35.098183],[149.372172,-35.105091],[149.370944,-35.106938],[149.368313,-35.109606],[149.365884,-35.111426],[149.363387,-35.112627],[149.352882,-35.116581],[149.350161,-35.117896],[149.347879,-35.11941],[149.345967,-35.121153],[149.344363,-35.123056],[149.342809,-35.125887],[149.340428,-35.132821],[149.338826,-35.136248],[149.334529,-35.142479],[149.332221,-35.146447],[149.330372,-35.150576],[149.328084,-35.154215],[149.324355,-35.157552],[149.320028,-35.159742],[149.313898,-35.162025],[149.310136,-35.164122],[149.307865,-35.165816],[149.301534,-35.171417],[149.298859,-35.173264],[149.294466,-35.175134],[149.28983,-35.176129],[149.287344,-35.176302],[149.278702,-35.175701],[149.276037,-35.175935],[149.272422,-35.176775],[149.262661,-35.180635],[149.258342,-35.18169],[149.254565,-35.181838],[149.248911,-35.181003],[149.243984,-35.180417],[149.239032,-35.180436],[149.234333,-35.181641],[149.231572,-35.183564],[149.224329,-35.190989],[149.219117,-35.195464],[149.215035,-35.199308],[149.213205,-35.200548],[149.204447,-35.204298],[149.200702,-35.205411],[149.197769,-35.202536],[149.189542,-35.203324],[149.197769,-35.202537],[149.200699,-35.205565],[149.205895,-35.211567],[149.208518,-35.211512],[149.207621,-35.215875],[149.206099,-35.216268],[149.205028,-35.219863],[149.2024562761942,-35.2246254885253],[149.204986,-35.2291],[149.210454,-35.22634],[149.21378450096995,-35.219606008996514],[149.227037,-35.219844],[149.228775,-35.221687],[149.231715,-35.222002],[149.234392,-35.221003],[149.23651,-35.221561],[149.237105,-35.222363],[149.238697,-35.222228],[149.240728,-35.225046],[149.243261,-35.225466],[149.246125,-35.227979],[149.246794,-35.22915],[149.245953,-35.230715],[149.244808,-35.231371],[149.242741,-35.231667],[149.24297,-35.232867],[149.241518,-35.235032],[149.241242,-35.236755],[149.23455,-35.24047],[149.234374,-35.242792],[149.23489,-35.243419],[149.237943,-35.243572],[149.240608,-35.245811],[149.241867,-35.24636],[149.245803,-35.247379],[149.247233,-35.246527],[149.249429,-35.247183],[149.249651,-35.249354],[149.250653,-35.25224],[149.2539,-35.25364],[149.255379,-35.256345],[149.257329,-35.257203],[149.262261,-35.257395],[149.26716,-35.25952],[149.273179,-35.259179],[149.272778,-35.262649],[149.273792,-35.263214],[149.273461,-35.266102],[149.272076,-35.266965],[149.27236,-35.269429],[149.271808,-35.273485],[149.275378,-35.275052],[149.276381,-35.273082],[149.277021,-35.271338],[149.281524,-35.270994],[149.282976,-35.272059],[149.285433,-35.271631],[149.28752,-35.274128],[149.289293,-35.275699],[149.296667,-35.272435],[149.301643,-35.272894],[149.302711,-35.274109],[149.303846,-35.273377],[149.306229,-35.274501],[149.305417,-35.275532],[149.309061,-35.276207],[149.309768,-35.278269],[149.311697,-35.277525],[149.315286,-35.276286],[149.316202,-35.281775],[149.32127,-35.28522],[149.322477,-35.28674],[149.324581,-35.286388],[149.32543411944545,-35.28346401801312],[149.327533,-35.282478],[149.335757,-35.287382],[149.336325,-35.288737],[149.337698,-35.286971],[149.339709,-35.2863],[149.341498,-35.286703],[149.341439,-35.288961],[149.342838,-35.290187],[149.34321081378837,-35.292047070938786],[149.345034,-35.292206],[149.347872,-35.291587],[149.34887,-35.292069],[149.34808,-35.293479],[149.349701,-35.294404],[149.350505,-35.295952],[149.350421,-35.298166],[149.350552,-35.299358],[149.353713,-35.299731],[149.357616,-35.300814],[149.359507,-35.301587],[149.360954,-35.301605],[149.361991,-35.303089],[149.359659,-35.307538],[149.361666,-35.309025],[149.36584,-35.308526],[149.36989643706795,-35.30825819275128],[149.3739990766516,-35.30484994834338],[149.381897,-35.306266],[149.383697,-35.306471],[149.384176,-35.304349],[149.386579,-35.303418],[149.389676,-35.302698],[149.393416,-35.302924],[149.39493600792377,-35.30426006363548],[149.3945002506582,-35.309165662895616],[149.396428,-35.30968],[149.397281,-35.311003],[149.396688,-35.314182],[149.397201,-35.317313],[149.399287,-35.31909],[149.398163,-35.320615],[149.397422,-35.323356],[149.398036,-35.325252],[149.393625,-35.3279],[149.391729,-35.32997],[149.389986,-35.331145],[149.385354,-35.332516],[149.36647844769996,-35.34025979077041],[149.363893,-35.348106],[149.351447,-35.351251],[149.34891329005026,-35.35059901349064],[149.3474992360392,-35.35021786685693],[149.337533,-35.34009],[149.318915,-35.336781],[149.311959,-35.335847],[149.30482,-35.335754],[149.301782,-35.333311],[149.293662,-35.332135],[149.295419,-35.333171],[149.291264,-35.334205],[149.2832949774836,-35.337965011350875],[149.274513,-35.335999],[149.271479,-35.335215],[149.268373,-35.335067],[149.264937,-35.332622],[149.26262,-35.331368],[149.258576,-35.331968],[149.256568,-35.331395],[149.254744,-35.330121],[149.249529,-35.330125],[149.247929,-35.330497],[149.245997,-35.331927],[149.244087,-35.334832],[149.24269,-35.335951],[149.231257,-35.342381],[149.224367,-35.341774],[149.221571,-35.341242],[149.219651,-35.341255],[149.216186,-35.342191],[149.206345,-35.345905],[149.20587187584476,-35.34660455068865],[149.205116,-35.346928],[149.190824,-35.368854],[149.177794,-35.385092],[149.176683,-35.386268],[149.157323,-35.407171],[149.14746133161285,-35.41409143538375],[149.146867,-35.414485],[149.14600182423732,-35.417830879219984],[149.1441347787106,-35.42401006011702],[149.14115945243404,-35.42669599438661],[149.13826074756375,-35.42931275975108],[149.1395210984464,-35.4319047125085],[149.14071080155344,-35.43409798101443],[149.152273,-35.433434],[149.1530644207616,-35.43408574193946],[149.1550672358324,-35.435965935679405],[149.15486803788127,-35.43662655359973],[149.15244,-35.443415],[149.146285,-35.445083],[149.143408,-35.447119],[149.1424874037575,-35.45077258730747],[149.13986491874044,-35.45138271466751],[149.137293,-35.451716],[149.135092,-35.454034],[149.138601,-35.468311],[149.14461757563004,-35.47584857546797],[149.14514354790415,-35.47709489160337],[149.15150696662204,-35.49294338884814],[149.15129973222972,-35.49858240091288],[149.1507035612932,-35.508924535353096],[149.13785901020594,-35.538995386349775],[149.131454,-35.553603],[149.1315148260096,-35.553847989322584],[149.131376,-35.554173],[149.13290283547826,-35.55943848426971],[149.135848,-35.571256],[149.14142541583482,-35.58882967503234],[149.14251,-35.59257],[149.130268,-35.590785],[149.129998,-35.592151],[149.12601351799265,-35.591627775124095],[149.12554975882222,-35.587477215147295],[149.12552,-35.587203],[149.1211960779789,-35.58671417843172],[149.112471,-35.585185],[149.110108,-35.587072],[149.108345,-35.58398],[149.084614,-35.580814],[149.082923,-35.584593],[149.078148,-35.586417],[149.078589,-35.596725],[149.07818,-35.598819],[149.07952,-35.602471],[149.080057,-35.604985],[149.079517,-35.605151],[149.080424,-35.608997],[149.082571,-35.613639],[149.084948,-35.616768],[149.085208,-35.619576],[149.08419,-35.621677],[149.085129,-35.622884],[149.085926,-35.625371],[149.087874,-35.627905],[149.088585,-35.634092],[149.086505,-35.635878],[149.087563,-35.639653],[149.089042,-35.641058],[149.095629,-35.640335],[149.097479,-35.647295],[149.095388,-35.653021],[149.098535,-35.657212],[149.095892,-35.661441],[149.097271,-35.673605],[149.09496,-35.676824],[149.095298,-35.67928],[149.099419,-35.683883],[149.104382,-35.684869],[149.10379585814243,-35.69073293161737],[149.10595517793118,-35.691181055565366],[149.109418,-35.696586],[149.107476,-35.702307],[149.102253,-35.707238],[149.099349,-35.714659],[149.1020428998127,-35.720513553214],[149.1040471304159,-35.725026661153585],[149.09909814391958,-35.729288635856285],[149.10068061078368,-35.73631288048073],[149.096228,-35.74365],[149.09562643764502,-35.74600452961437],[149.0969504053163,-35.7474234483048],[149.09588876574614,-35.7490991680849],[149.0951023743962,-35.75034042884521],[149.0964,-35.752824],[149.092925,-35.759119],[149.09301274759355,-35.75993643810818],[149.09323300979352,-35.7627410605128],[149.09087394496478,-35.76543012169332],[149.0907192230254,-35.76560648681731],[149.093271,-35.770778],[149.091631,-35.773947],[149.0973100291117,-35.77752353090494],[149.09314620116163,-35.78318428848697],[149.093476,-35.78723],[149.0941406384174,-35.787226235054284],[149.0961402401652,-35.787226966437515],[149.09652383640332,-35.78750961629718],[149.10029395448734,-35.791160623507686],[149.10026363359924,-35.79204964142219],[149.09683785772705,-35.79808549006984],[149.0967719950677,-35.79820153299213],[149.09699779385994,-35.79857568445653],[149.099832,-35.803272],[149.10142607289345,-35.80363524268684],[149.1014750726457,-35.80369122766383],[149.10089580764907,-35.8044567296634],[149.09826603523473,-35.80793198891997],[149.0985819136128,-35.8082364842934],[149.100457,-35.810044],[149.100580463547,-35.814715037528096],[149.095921,-35.817586],[149.0946005476632,-35.82125448529158],[149.093517,-35.824221],[149.09451836828947,-35.8308368264235],[149.0943752443011,-35.83109982814736],[149.091978,-35.835416],[149.09298,-35.838266],[149.095376,-35.839146],[149.09567847833307,-35.84564038773923],[149.084204,-35.850202],[149.08437415047786,-35.851252041786864],[149.084513141083,-35.8522268670515],[149.08216249591464,-35.853192117140544],[149.07971599564888,-35.8589806028083],[149.07679480644285,-35.86064281006541],[149.07430098875813,-35.865786110630836],[149.06768734406091,-35.8708262172937],[149.061711,-35.879879],[149.061523,-35.881708],[149.062377,-35.884516],[149.06014,-35.888293],[149.060433,-35.889338],[149.061737,-35.891448],[149.058578,-35.894666],[149.0588,-35.895948],[149.0518727269916,-35.90218979871267],[149.057133,-35.907397],[149.05616585362216,-35.91033588913843],[149.0549108307289,-35.91382934444265],[149.04836268501046,-35.920300975475094],[149.046381,-35.92053],[149.044067,-35.916293],[149.039965,-35.913871],[149.036315,-35.913763],[149.034033,-35.911029],[149.027769,-35.912736],[149.022882,-35.90598],[149.014055,-35.900145],[149.00882,-35.901306],[149.003487,-35.901203],[148.999379,-35.902625],[148.997398,-35.900995],[148.997983,-35.896887],[148.99764835103693,-35.89667857023487],[148.99717964069458,-35.89638664288008],[148.996888,-35.896205],[148.98757191385135,-35.89552429729962],[148.975656,-35.892176],[148.96784872020112,-35.89398520881752],[148.966295,-35.89718],[148.959179,-35.895414],[148.9586210086767,-35.89287280306202],[148.95837823023533,-35.8917671445938],[148.95080080629913,-35.886076413832136],[148.944562,-35.881391],[148.94056586346068,-35.875825653466165],[148.93243003569194,-35.87299534885047],[148.93072724613256,-35.869137664315275],[148.930346,-35.868136],[148.919813,-35.860747],[148.919952801646,-35.85863671825737],[148.92004229238105,-35.85728587104083],[148.909446,-35.853074],[148.907907,-35.847875],[148.903988,-35.842526],[148.905312,-35.839658],[148.90431099286334,-35.83763054423292],[148.90317612814673,-35.835248821571085],[148.90610788537916,-35.83252028068976],[148.90695755667602,-35.83014053650266],[148.90706217755886,-35.82957817137331],[148.90644218267371,-35.82895351352403],[148.903606,-35.826096],[148.897635,-35.824705],[148.896604,-35.817905],[148.892516,-35.81661],[148.886679,-35.810064],[148.88692480512847,-35.809656134316555],[148.892963,-35.801516],[148.89311116112054,-35.79939108276771],[148.89777482138172,-35.794651174822796],[148.89763198155438,-35.79413812167361],[148.894994,-35.784663],[148.89491538217644,-35.776990260501265],[148.89488803763396,-35.77184909021984],[148.902299,-35.763292],[148.90307371441978,-35.75922873289137],[148.903348,-35.757798],[148.898777,-35.751215],[148.894087,-35.751288],[148.890855,-35.740469],[148.888087,-35.737026],[148.88823991093318,-35.73520031964143],[148.888375,-35.733696],[148.8906388586748,-35.7319122031086],[148.892479,-35.730487],[148.892315,-35.728359],[148.8875542290256,-35.720631335322615],[148.88669291273317,-35.71923325011231],[148.877693,-35.714936],[148.87250935263611,-35.721399117416766],[148.86939653496108,-35.72909468639135],[148.86860828517476,-35.73104914163085],[148.86581202151655,-35.73161514810799],[148.86431844249032,-35.73353994195236],[148.86406,-35.733873],[148.867445,-35.738688],[148.8654115712826,-35.74160418809451],[148.864863,-35.742375],[148.86391521533722,-35.748007633125596],[148.862538321887,-35.74920802988355],[148.86132827714752,-35.7505375287646],[148.86073772918016,-35.75287111859575],[148.86113865711818,-35.753966582131795],[148.862441,-35.757525],[148.8608883722961,-35.75926724459301],[148.859648,-35.760626],[148.855670790814,-35.76087283380334],[148.85578775882064,-35.758793496073665],[148.856132,-35.753518],[148.854026,-35.751082],[148.847093,-35.750469],[148.83863,-35.744237],[148.83765,-35.743509],[148.834726,-35.740511],[148.829033,-35.727701],[148.823575,-35.724213],[148.822495,-35.720971],[148.820684,-35.719515],[148.812775,-35.719753],[148.804147,-35.714019],[148.8039421658606,-35.71416967373412],[148.803349,-35.714606],[148.802251,-35.718344],[148.801854,-35.722765],[148.799818,-35.725621],[148.79816,-35.723415],[148.796541,-35.723097],[148.793995,-35.724071],[148.791705,-35.7265],[148.789083,-35.72886],[148.786724,-35.730672],[148.782028,-35.736648],[148.77773,-35.727847],[148.777181,-35.725986],[148.775511,-35.723144],[148.773861,-35.719402],[148.773625,-35.718088],[148.772348,-35.714862],[148.769549,-35.710288],[148.768355,-35.707697],[148.767231,-35.704012],[148.766595,-35.702813],[148.764759,-35.701507],[148.759773,-35.700649],[148.757547,-35.69916],[148.756223,-35.694154],[148.754635,-35.690028],[148.753532,-35.687802],[148.752062,-35.686149],[148.750472,-35.685198],[148.74781,-35.684701],[148.74489,-35.686196],[148.740895,-35.68419],[148.739043,-35.682114],[148.737681,-35.679697],[148.735846,-35.678069],[148.730809,-35.676691],[148.725921,-35.671923],[148.722584,-35.669138],[148.721198,-35.668807],[148.719968,-35.667395],[148.711108,-35.666222],[148.708242,-35.665284],[148.706203,-35.665028],[148.702191,-35.66179],[148.698363,-35.660249],[148.694523,-35.659853],[148.69069,-35.658792],[148.685027,-35.658188],[148.677681,-35.656378],[148.667952,-35.66048],[148.664212,-35.659848],[148.662435,-35.659307],[148.656693,-35.656988],[148.653722,-35.655305],[148.649352,-35.653271],[148.647112,-35.65274],[148.6447,-35.652666],[148.641144,-35.650635],[148.633832,-35.645657],[148.629918,-35.639064],[148.625942,-35.639563],[148.624153,-35.638908],[148.623868,-35.638127],[148.621835,-35.63542],[148.618804,-35.632843],[148.619081,-35.630622],[148.616127,-35.62886],[148.6155,-35.627159],[148.615422,-35.625279],[148.612716,-35.623885],[148.612769,-35.621564],[148.614094,-35.620819],[148.614601,-35.618454],[148.611818,-35.619062],[148.610978,-35.618662],[148.609707,-35.616867],[148.60615,-35.615146],[148.603841,-35.614964],[148.600855,-35.616113],[148.599377,-35.617446],[148.59697,-35.617474],[148.592532,-35.616407],[148.589069,-35.617046],[148.586184,-35.619262],[148.583419,-35.619407],[148.582318,-35.620355],[148.580759,-35.620598],[148.580057,-35.621815],[148.581042,-35.624319],[148.579832,-35.625923],[148.580392,-35.627015],[148.582056,-35.62717],[148.583684,-35.629004],[148.584523,-35.631238],[148.586204,-35.633015],[148.58389,-35.635529],[148.58351,-35.636711],[148.58156,-35.638112],[148.58035,-35.640017],[148.581313,-35.641264],[148.58165,-35.642726],[148.581206,-35.645375],[148.57898,-35.64662],[148.578734,-35.647522],[148.579961,-35.648268],[148.580538,-35.650201],[148.579346,-35.65149],[148.578067,-35.651647],[148.577277,-35.653165],[148.578521,-35.654383],[148.578713,-35.656546],[148.579904,-35.657019],[148.580657,-35.659032],[148.579096,-35.661101],[148.578762,-35.662662],[148.578026,-35.663464],[148.57629,-35.664166],[148.574118,-35.662847],[148.57361,-35.662045],[148.571577,-35.662488],[148.570227,-35.663562],[148.570086,-35.664822],[148.569175,-35.66538],[148.56681,-35.665293],[148.566581,-35.666439],[148.568718,-35.667342],[148.570067,-35.667257],[148.570312,-35.668689],[148.568419,-35.66939],[148.566981,-35.671451],[148.566752,-35.673127],[148.568049,-35.673457],[148.56966,-35.675333],[148.569765,-35.67635],[148.571113,-35.678542],[148.56659,-35.680416],[148.565908,-35.67947],[148.561683,-35.680571],[148.560106,-35.680255],[148.557407,-35.681414],[148.557353,-35.682459],[148.558633,-35.682875],[148.559525,-35.684365],[148.563064,-35.685999],[148.564291,-35.685942],[148.566902,-35.686746],[148.567147,-35.688149],[148.566007,-35.689165],[148.562627,-35.691161],[148.562114,-35.69187],[148.560555,-35.690509],[148.557699,-35.689491],[148.556244,-35.69045],[148.55633,-35.692397],[148.55491,-35.693213],[148.554123,-35.690936],[148.551615,-35.69261],[148.552333,-35.693971],[148.55121,-35.695259],[148.549998,-35.698523],[148.551188,-35.70093],[148.550398,-35.701617],[148.551046,-35.703235],[148.551939,-35.704038],[148.551938,-35.705255],[148.549234,-35.705647],[148.548325,-35.707759],[148.548728,-35.708633],[148.547461,-35.713501],[148.54662,-35.713486],[148.544619,-35.715547],[148.542077,-35.715933],[148.540649,-35.716835],[148.537695,-35.717323],[148.533152,-35.719086],[148.530082,-35.72118],[148.528238,-35.723711],[148.527366,-35.726191],[148.525548,-35.729052],[148.525248,-35.731892],[148.526227,-35.735749],[148.524748,-35.738464],[148.523437,-35.74235],[148.522005,-35.744699],[148.517968,-35.749294],[148.51719,-35.753651],[148.516318,-35.755182],[148.513167,-35.758495],[148.511671,-35.760468],[148.508025,-35.761959],[148.507491,-35.762578],[148.506757,-35.765379],[148.506968,-35.768469],[148.50564,-35.770768],[148.503461,-35.773905],[148.503228,-35.77511],[148.503496,-35.778028],[148.500638,-35.778914],[148.498468,-35.778994],[148.494329,-35.779586],[148.490282,-35.782526],[148.489653,-35.783487],[148.488413,-35.786731],[148.486431,-35.787931],[148.484088,-35.790668],[148.482504,-35.791705],[148.479691,-35.792745],[148.478886,-35.793621],[148.478378,-35.796436],[148.474411,-35.804058],[148.473447,-35.807666],[148.472326,-35.809157],[148.468934,-35.815583],[148.46912,-35.818244],[148.468634,-35.82004],[148.468831,-35.821842],[148.471023,-35.823566],[148.468715,-35.824636],[148.466244,-35.826189],[148.463061,-35.826997],[148.460071,-35.828633],[148.459789,-35.829792],[148.457038,-35.833373],[148.457434,-35.834853],[148.456591,-35.836709],[148.453833,-35.839065],[148.453068,-35.84041],[148.452427,-35.842814],[148.453192,-35.846415],[148.451657,-35.852478],[148.451507,-35.854133],[148.45012,-35.854613],[148.448971,-35.85753],[148.447529,-35.857563],[148.446922,-35.859211],[148.448902,-35.861417],[148.450104,-35.861907],[148.450819,-35.865423],[148.45027,-35.866096],[148.450316,-35.869497],[148.450836,-35.870048],[148.450618,-35.871962],[148.44843,-35.871972],[148.445774,-35.873771],[148.445552,-35.874967],[148.446291,-35.87886],[148.444922,-35.881607],[148.442701,-35.883621],[148.440163,-35.887266],[148.440492,-35.888265],[148.440027,-35.890582],[148.440594,-35.891793],[148.439234,-35.895004],[148.438312,-35.898899],[148.439352,-35.900515],[148.442737,-35.901331],[148.444583,-35.902671],[148.444844,-35.904969],[148.447447,-35.905907],[148.451238,-35.906179],[148.455579,-35.905634],[148.462812,-35.907689],[148.464105,-35.909462],[148.471353,-35.915032],[148.472775,-35.918281],[148.470825,-35.920693],[148.470513,-35.922581],[148.471368,-35.924677],[148.470779,-35.927617],[148.470493,-35.933704],[148.470915,-35.9346],[148.470495,-35.937421],[148.469605,-35.938624],[148.468887,-35.941868],[148.471122,-35.94314],[148.473931,-35.945625],[148.477747,-35.945704],[148.479075,-35.945207],[148.481439,-35.945427],[148.483066,-35.946192],[148.483887,-35.947325],[148.484761,-35.949695],[148.488118,-35.952411],[148.487212,-35.954617],[148.487459,-35.955455],[148.492566,-35.957814],[148.494255,-35.958787],[148.493898,-35.960588],[148.493991,-35.963857],[148.494887,-35.965643],[148.49577,-35.966162],[148.498165,-35.968517],[148.50183,-35.970127],[148.505802,-35.97002],[148.509792,-35.971063],[148.511296,-35.972526],[148.514408,-35.97359],[148.514871,-35.975583],[148.514849,-35.978764],[148.516946,-35.981234],[148.519675,-35.981657],[148.523063,-35.983483],[148.525248,-35.983859],[148.527593,-35.984846],[148.52997,-35.987232],[148.532269,-35.990724],[148.534589,-35.991246],[148.536021,-35.992452],[148.536325,-35.994962],[148.534213,-35.996194],[148.533153,-35.99788],[148.535244,-36.000117],[148.538488,-35.999434],[148.540783,-35.999531],[148.544754,-36.000122],[148.549973,-36.000205],[148.551799,-36.000759],[148.555554,-35.99916],[148.557869,-35.999778],[148.55917,-36.00146],[148.560988,-36.005056],[148.559457,-36.007359],[148.559093,-36.01142],[148.559255,-36.012728],[148.558485,-36.015372],[148.557398,-36.015916],[148.558168,-36.018415],[148.559863,-36.019186],[148.560299,-36.020407],[148.560212,-36.022945],[148.557417,-36.02656],[148.556222,-36.034227],[148.556691,-36.035829],[148.556327,-36.037234],[148.554631,-36.038625],[148.55381,-36.041185],[148.554703,-36.042946],[148.555852,-36.044066],[148.55856,-36.048787],[148.56119,-36.051566],[148.56154,-36.052589],[148.561339,-36.055468],[148.561976,-36.056715],[148.565939,-36.061839],[148.569241,-36.063024],[148.569808,-36.063547],[148.570366,-36.065712],[148.56938,-36.068493],[148.56663,-36.070956],[148.566623,-36.073533],[148.564917,-36.075594],[148.561061,-36.078761],[148.559335,-36.079229],[148.555039,-36.081049],[148.553373,-36.082543],[148.55342,-36.083223],[148.558565,-36.086753],[148.562049,-36.087309],[148.565282,-36.089966],[148.566347,-36.092131],[148.566586,-36.093861],[148.566204,-36.095206],[148.561527,-36.100941],[148.561789,-36.104808],[148.560477,-36.105242],[148.55768,-36.104411],[148.555764,-36.104812],[148.554457,-36.105706],[148.552537,-36.105676],[148.551434,-36.105015],[148.550929,-36.103328],[148.549806,-36.102559],[148.546696,-36.101541],[148.543703,-36.100937],[148.540927,-36.099923],[148.5381,-36.099459],[148.532282,-36.095828],[148.527429,-36.08922],[148.526006,-36.08797],[148.522125,-36.090254],[148.514903,-36.087822],[148.512948,-36.087699],[148.491413,-36.100335],[148.487829,-36.100374],[148.486358,-36.098405],[148.482087,-36.100575],[148.480597,-36.104174],[148.476891,-36.106218],[148.477433,-36.109677],[148.478905,-36.112069],[148.478908,-36.113604],[148.472759,-36.116179],[148.472508,-36.117336],[148.471012,-36.117509],[148.470722,-36.118891],[148.468588,-36.119792],[148.465723,-36.119727],[148.460881,-36.118197],[148.459668,-36.118886],[148.459684,-36.120306],[148.458995,-36.122117],[148.456853,-36.12433],[148.454005,-36.125948],[148.453852,-36.127575],[148.457484,-36.130721],[148.457967,-36.132565],[148.45766,-36.135395],[148.458171,-36.13693],[148.456692,-36.139188],[148.45867,-36.14024],[148.458699,-36.141179],[148.459788,-36.143988],[148.460979,-36.144911],[148.458922,-36.147582],[148.457808,-36.148442],[148.452712,-36.149204],[148.450812,-36.152826],[148.448783,-36.155967],[148.446673,-36.161479],[148.445191,-36.162007],[148.444629,-36.163715],[148.442065,-36.168231],[148.44163,-36.170602],[148.440714,-36.172287],[148.438612,-36.17324],[148.434179,-36.174653],[148.430183,-36.175493],[148.428673,-36.176181],[148.428095,-36.177259],[148.430794,-36.178138],[148.434737,-36.180208],[148.43666,-36.181959],[148.43775,-36.184112],[148.438333,-36.186849],[148.437602,-36.189611],[148.437227,-36.194857],[148.435594,-36.1988],[148.435582,-36.201125],[148.434948,-36.202408],[148.432137,-36.203064],[148.428068,-36.203021],[148.426896,-36.203263],[148.425739,-36.204249],[148.424686,-36.209336],[148.424914,-36.211627],[148.426033,-36.213848],[148.426007,-36.21575],[148.424471,-36.219291],[148.424373,-36.220219],[148.425577,-36.222509],[148.427516,-36.224982],[148.428082,-36.226298],[148.427831,-36.229174],[148.428074,-36.231098],[148.427469,-36.233884],[148.428248,-36.235143],[148.429521,-36.23608],[148.432151,-36.236994],[148.43416,-36.238619],[148.434588,-36.241333],[148.433841,-36.24311],[148.433562,-36.246844],[148.433779,-36.249326],[148.432571,-36.251942],[148.432224,-36.254236],[148.431002,-36.256909],[148.428411,-36.260512],[148.425956,-36.262523],[148.423751,-36.262768],[148.421811,-36.26182],[148.420155,-36.261457],[148.418335,-36.262515],[148.416667,-36.262816],[148.415849,-36.263482],[148.415005,-36.265271],[148.412945,-36.266971],[148.411719,-36.268647],[148.411017,-36.270436],[148.410898,-36.273657],[148.410075,-36.277841],[148.409032,-36.278978],[148.406174,-36.278708],[148.405199,-36.279145],[148.404202,-36.281795],[148.403243,-36.282977],[148.401717,-36.283656],[148.400945,-36.28588],[148.398533,-36.288601],[148.397501,-36.288958],[148.396416,-36.290599],[148.394634,-36.29075],[148.391063,-36.288419],[148.385845,-36.28908],[148.382622,-36.290037],[148.377254,-36.287203],[148.374905,-36.287024],[148.373817,-36.287346],[148.372406,-36.288895],[148.372004,-36.292747],[148.371161,-36.295499],[148.369623,-36.297014],[148.368876,-36.29831],[148.368952,-36.30074],[148.370512,-36.302193],[148.373289,-36.303862],[148.374623,-36.3059],[148.374589,-36.309292],[148.373645,-36.311024],[148.373058,-36.314246],[148.372013,-36.315336],[148.372358,-36.317616],[148.372064,-36.319049],[148.372918,-36.321374],[148.373379,-36.32472],[148.372518,-36.325822],[148.37082,-36.326054],[148.369601,-36.325116],[148.368554,-36.325243],[148.367499,-36.328442],[148.365917,-36.329751],[148.366529,-36.331172],[148.36641,-36.334977],[148.367467,-36.339147],[148.36553,-36.33978],[148.361511,-36.340417],[148.357424,-36.340509],[148.356379,-36.342126],[148.356553,-36.343982],[148.354494,-36.347813],[148.353518,-36.34825],[148.35487,-36.351755],[148.353387,-36.353648],[148.35243,-36.356285],[148.351074,-36.357731],[148.348242,-36.358124],[148.34629,-36.358952],[148.346197,-36.362218],[148.345295,-36.364431],[148.342933,-36.365821],[148.342753,-36.368045],[148.342074,-36.368733],[148.340333,-36.368999],[148.338932,-36.369791],[148.337661,-36.371317],[148.336599,-36.371398],[148.335761,-36.370196],[148.334471,-36.369338],[148.332404,-36.369959],[148.331599,-36.371186],[148.331066,-36.373491],[148.331651,-36.375736],[148.33147,-36.37765],[148.330554,-36.380402],[148.328914,-36.382318],[148.328746,-36.383258],[148.325788,-36.384774],[148.321809,-36.385362],[148.317975,-36.388174],[148.315303,-36.39173],[148.315291,-36.393094],[148.31068,-36.391469],[148.309099,-36.391747],[148.307117,-36.392689],[148.304982,-36.395464],[148.30463,-36.39684],[148.304903,-36.399648],[148.304551,-36.401505],[148.302741,-36.403867],[148.299598,-36.405165],[148.298013,-36.406462],[148.296126,-36.407268],[148.295829,-36.408088],[148.293727,-36.408555],[148.29256,-36.410544],[148.291405,-36.409796],[148.289314,-36.410161],[148.287599,-36.40942],[148.287339,-36.412915],[148.286895,-36.414752],[148.284634,-36.418498],[148.28388,-36.419213],[148.280635,-36.420826],[148.279904,-36.422234],[148.279816,-36.424509],[148.277819,-36.427745],[148.27644,-36.429442],[148.27524,-36.43187],[148.274076,-36.433066],[148.272096,-36.436432],[148.27202,-36.437918],[148.270621,-36.438983],[148.270267,-36.441983],[148.269412,-36.443222],[148.269131,-36.445167],[148.266919,-36.448034],[148.266722,-36.449259],[148.265185,-36.451458],[148.263416,-36.45244],[148.263208,-36.454199],[148.26243,-36.456368],[148.265005,-36.457613],[148.266693,-36.457932],[148.2714,-36.457953],[148.27306,-36.459029],[148.273006,-36.461848],[148.270895,-36.463317],[148.26965,-36.465954],[148.269722,-36.466859],[148.271354,-36.4686],[148.270661,-36.469941],[148.269073,-36.470366],[148.269146,-36.47267],[148.269843,-36.474457],[148.269178,-36.476234],[148.269973,-36.477437],[148.270616,-36.481654],[148.265212,-36.481257],[148.264191,-36.481647],[148.26337,-36.482862],[148.263019,-36.48614],[148.262354,-36.487413],[148.259987,-36.49013],[148.259195,-36.492767],[148.258673,-36.495976],[148.257355,-36.497467],[148.258506,-36.498455],[148.259065,-36.500124],[148.258534,-36.500907],[148.25698,-36.501434],[148.253519,-36.501481],[148.251224,-36.501794],[148.249928,-36.502674],[148.248666,-36.50674],[148.247015,-36.510224],[148.247843,-36.511983],[148.250663,-36.514348],[148.254445,-36.516488],[148.255863,-36.519045],[148.257354,-36.520444],[148.260392,-36.524549],[148.261028,-36.528292],[148.259723,-36.530972],[148.257234,-36.534139],[148.251393,-36.540118],[148.250414,-36.542795],[148.25126,-36.544944],[148.253659,-36.546291],[148.255921,-36.546791],[148.260207,-36.548137],[148.268376,-36.548767],[148.270184,-36.550542],[148.270307,-36.551458],[148.269784,-36.55427],[148.270513,-36.555995],[148.270899,-36.5588],[148.272214,-36.559685],[148.277331,-36.560256],[148.27826,-36.560834],[148.280525,-36.564084],[148.285185,-36.566916],[148.28762,-36.568869],[148.289894,-36.571604],[148.291376,-36.574653],[148.295847,-36.580855],[148.296352,-36.582754],[148.296245,-36.584657],[148.297341,-36.587331],[148.299596,-36.589618],[148.301969,-36.59101],[148.303637,-36.591548],[148.30886,-36.593756],[148.311296,-36.59564],[148.31048,-36.596277],[148.307209,-36.597183],[148.303837,-36.599133],[148.302891,-36.600848],[148.302955,-36.602761],[148.304327,-36.609708],[148.302511,-36.609904],[148.295096,-36.608675],[148.290838,-36.608958],[148.289791,-36.609321],[148.28659,-36.612691],[148.284856,-36.613906],[148.278459,-36.617277],[148.275419,-36.618605],[148.272597,-36.619026],[148.269736,-36.618576],[148.265776,-36.617573],[148.263624,-36.618241],[148.261364,-36.618165],[148.258907,-36.616922],[148.257173,-36.616842],[148.254908,-36.618863],[148.252673,-36.623727],[148.251082,-36.625147],[148.249953,-36.625519],[148.249369,-36.627665],[148.250052,-36.629168],[148.249086,-36.632112],[148.248943,-36.635044],[148.247592,-36.637191],[148.24751,-36.640237],[148.246392,-36.642724],[148.245966,-36.648638],[148.245467,-36.650773],[148.244061,-36.653012],[148.24229,-36.654019],[148.241944,-36.655237],[148.242135,-36.657776],[148.240576,-36.65949],[148.240921,-36.66118],[148.239997,-36.661902],[148.239101,-36.664088],[148.240714,-36.66519],[148.243321,-36.664768],[148.245944,-36.666659],[148.246961,-36.667814],[148.246381,-36.668692],[148.247261,-36.670078],[148.248209,-36.670592],[148.249137,-36.674474],[148.249083,-36.6761],[148.250034,-36.678218],[148.249823,-36.679046],[148.251506,-36.680811],[148.25245,-36.682608],[148.252764,-36.684115],[148.251845,-36.688045],[148.253089,-36.68882],[148.253502,-36.690136],[148.253195,-36.691401],[148.254457,-36.69157],[148.251369,-36.706035],[148.245279,-36.705177],[148.244427,-36.705773],[148.241095,-36.705406],[148.238968,-36.706051],[148.238451,-36.706868],[148.238201,-36.712387],[148.238296,-36.715985],[148.237513,-36.718695],[148.23559,-36.721724],[148.235875,-36.724299],[148.23963,-36.727439],[148.240413,-36.72885],[148.240473,-36.730247],[148.238828,-36.731799],[148.237636,-36.734243],[148.234985,-36.73679],[148.233513,-36.738897],[148.232913,-36.741086],[148.233196,-36.743862],[148.232792,-36.746084],[148.231818,-36.746952],[148.229832,-36.747346],[148.226911,-36.747498],[148.223805,-36.747983],[148.218923,-36.750115],[148.215538,-36.750852],[148.211187,-36.752174],[148.208955,-36.753585],[148.207393,-36.7555],[148.208564,-36.758099],[148.207644,-36.760689],[148.208117,-36.762934],[148.207337,-36.764664],[148.205078,-36.76682],[148.203971,-36.768963],[148.203104,-36.769582],[148.201841,-36.771679],[148.201476,-36.774945],[148.201341,-36.779114],[148.202773,-36.78452],[148.20276,-36.785436],[148.201667,-36.78703],[148.201613,-36.788416],[148.200678,-36.791097],[148.200938,-36.793445],[148.202151,-36.79554],[148.202126,-36.797419],[148.200705,-36.798637],[148.251246,-36.819266],[148.354087,-36.86124],[148.424936,-36.890059],[148.523569,-36.929898],[148.679955,-36.993066],[148.752737,-37.022464],[148.798383,-37.040901],[148.834984,-37.055524],[148.875055,-37.071533],[148.992556,-37.118474],[149.053074,-37.142652],[149.089126,-37.157054],[149.134539,-37.175197],[149.206151,-37.203617],[149.27469,-37.230621],[149.356271,-37.262765],[149.39712,-37.278859],[149.442228,-37.296632],[149.490948,-37.315828],[149.548236,-37.338399],[149.592094,-37.355679],[149.677578,-37.388999],[149.726398,-37.408028],[149.794194,-37.434454],[149.876212,-37.466423],[149.976192,-37.505159],[149.964685,-37.511652],[149.962257,-37.515776],[149.964396,-37.517956],[149.957638,-37.51517],[149.936035,-37.521259],[149.92477,-37.526348],[149.915934,-37.532285],[149.906609,-37.542865],[149.874016,-37.540254],[149.858347,-37.541938],[149.844884,-37.545671],[149.831667,-37.544187],[149.82835340620295,-37.544364989225045],[149.84369766519345,-37.550344499224494],[149.94367766519343,-37.589080499224494],[149.9604422423844,-37.59377020208557],[149.97779606343187,-37.595144704311885],[149.99508987184007,-37.59315258181093],[150.0116766563591,-37.58786836563096],[150.026935857542,-37.57948975353956],[150.04029658466317,-37.56833021357994],[150.05125897438722,-37.554807256327344],[150.05326297438722,-37.55177725632734],[150.0617036692582,-37.53569191368549],[150.0667423691321,-37.518239261125146],[150.06817380385928,-37.500130297255474],[150.06673348756436,-37.48850824231152],[150.0662978711084,-37.47991802490793],[150.06675803263616,-37.4748620501493],[150.0661533009419,-37.466953754068925],[150.06701843343998,-37.45506640788834],[150.06510079268097,-37.43837031723129],[150.0645788635697,-37.436691146767465],[150.06423550769358,-37.43095761638032],[150.0594630209257,-37.41327719046673],[150.05793742606713,-37.410255011990856],[150.05258917753054,-37.39772257156095],[150.04493872797684,-37.38669953546762],[150.0448314258451,-37.38365544321492],[150.0488940507555,-37.37754243333916],[150.05192585710657,-37.36967710885981],[150.05351164964384,-37.36702279873748],[150.05878649694463,-37.352369050427576],[150.07222755707846,-37.35001696348396],[150.07541655707846,-37.34915496348396],[150.09119924185507,-37.343254996252846],[150.1056056207021,-37.33451663252721],[150.11813075403904,-37.32324614953057],[150.12833563941842,-37.30983857456417],[150.13586259843973,-37.294763839409704],[150.14044781327817,-37.2785503093508],[150.14193057342615,-37.261766264116424],[150.14025890855197,-37.24499997983414],[150.13549141004555,-37.22883911011506],[150.12779517740645,-37.21385008895787],[150.12256117740645,-37.20565008895787],[150.11363245285085,-37.194041247419285],[150.1105415708599,-37.186501754676264],[150.11085849634372,-37.1813746258235],[150.10795368797835,-37.16240249114367],[150.10109203989765,-37.144477715229726],[150.09629238257384,-37.13714000326964],[150.09589218552964,-37.130208116852174],[150.09204967458405,-37.113410174242],[150.08507615287644,-37.097652453553536],[150.07522726090218,-37.08351261291862],[150.0743232609022,-37.08244861291861],[150.06169466197042,-37.07023350341735],[150.04693348249933,-37.06070470539614],[150.03695710207526,-37.056746615456184],[150.03455068113178,-37.05398367905843],[150.0345866615491,-37.04795687969608],[150.03403560841625,-37.04314940004493],[150.03402206761845,-37.041441310143405],[150.03647418920923,-37.03255012732881],[150.0376734918107,-37.01431130419506],[150.03516306324343,-36.996206311943126],[150.02988001995269,-36.98132924855517],[150.03024140465783,-36.980587327078354],[150.03470070981282,-36.96388230281321],[150.03588334944135,-36.94663282161309],[150.03374567636808,-36.92947550270843],[150.02836658477952,-36.91304356393523],[150.02758915640968,-36.911649681879545],[150.02771673370313,-36.89988532015922],[150.03180554603483,-36.89293533578161],[150.0376937132917,-36.875681421581625],[150.03998398745108,-36.85759488755378],[150.03874531690178,-36.84153082620775],[150.0411537455649,-36.83866691626415],[150.04400753479592,-36.83358989241496],[150.04913451788642,-36.826383826053984],[150.05402728528662,-36.81579264359096],[150.0596116747931,-36.80579709195219],[150.06149135607166,-36.800078546026924],[150.06390067235154,-36.79496542294356],[150.06427620661646,-36.79348040027199],[150.0694773607226,-36.7815912917625],[150.0727170883317,-36.767184754247765],[150.07688955283757,-36.757114679410684],[150.07843227142007,-36.74960036153509],[150.0790856833948,-36.747781235412674],[150.08171578724898,-36.73082126861934],[150.0814373117759,-36.72332571664091],[150.08201847378615,-36.722076168524815],[150.08323015198127,-36.717146543784466],[150.08652436643797,-36.7079338689712],[150.08831293075718,-36.69664353355051],[150.09444866591622,-36.687642157779166],[150.10030703531018,-36.67403826932004],[150.10213552356112,-36.671989521187726],[150.10849865596813,-36.66114414353804],[150.1144798874232,-36.65249355405524],[150.11684827625362,-36.65067562855906],[150.12281169049234,-36.64383844580468],[150.1244565436212,-36.642305244671284],[150.12584577257024,-36.640359805410434],[150.1285951256464,-36.63720761294394],[150.13057298126688,-36.63373994811561],[150.13491998651625,-36.627652517613264],[150.14225735592524,-36.611210222833904],[150.1431208477476,-36.60733675432],[150.14538790083694,-36.599760666796186],[150.14880289065823,-36.59436628981457],[150.15524884441868,-36.577321476849654],[150.15812921058634,-36.55932760401385],[150.15732590269383,-36.541122366709146],[150.15287185398145,-36.52345212565367],[150.1511619159625,-36.51874338383395],[150.15213559574204,-36.50299081334063],[150.1520628522493,-36.50247775761232],[150.15764673589047,-36.49141967080562],[150.16242547363277,-36.473903488409746],[150.16584231289698,-36.46825367914964],[150.1717597567618,-36.45223835556459],[150.17454621115394,-36.43539370052664],[150.1741013958003,-36.41832592765704],[150.17044131893175,-36.40164928024986],[150.17025999319247,-36.40108524370718],[150.17595340294807,-36.39701678320216],[150.17792935398052,-36.39504282675281],[150.1919671170728,-36.383277464600475],[150.194602183355,-36.37994713641158],[150.19908491283408,-36.37564053526391],[150.2008806365072,-36.37316288145169],[150.2048149772392,-36.36900749103006],[150.2073680125173,-36.3648970230199],[150.20891085012403,-36.363113246338244],[150.21778840583346,-36.348965308725006],[150.2185950771599,-36.34911774934271],[150.2352293768404,-36.34914573584571],[150.25158470834035,-36.346111952624675],[150.25361170834037,-36.345537952624674],[150.2712253776629,-36.338470416336804],[150.28696536780615,-36.32786644884946],[150.30013175169114,-36.31419758819553],[150.3101390455576,-36.298071662310406],[150.31654224430068,-36.28020576009306],[150.31697329203786,-36.27698084398901],[150.32041274812659,-36.260333961312575],[150.32065912073887,-36.24332780633287],[150.32055580771623,-36.240459561456426],[150.31818904780616,-36.22287249613729],[150.3124174867333,-36.206091688594334],[150.30346550741487,-36.19076953191539],[150.29168113895585,-36.177501710729025],[150.2775225262046,-36.16680404257324],[150.2615401183018,-36.15909242428393],[150.2443552686845,-36.15466666303396],[150.22663607851985,-36.15369882062909],[150.22377195889078,-36.15382544030081],[150.22319942124412,-36.15072314336766],[150.21978000895572,-36.14065255804302],[150.22356792106208,-36.13239950898531],[150.2297264463286,-36.112223959216614],[150.2315019734889,-36.09450407965513],[150.23039579313993,-36.08329083591917],[150.2312197429336,-36.08119438299286],[150.23432792075886,-36.063093752337714],[150.23369701494795,-36.044739037483886],[150.2293532971665,-36.02689455051051],[150.22147764497083,-36.0103033570031],[150.22060514769836,-36.009149935653845],[150.2191013233785,-36.0056569239588],[150.21526466958383,-35.999577552097314],[150.21068885645872,-35.9934454208282],[150.2102931381078,-35.993756547212804],[150.2019662377525,-35.98447940061093],[150.1935251953218,-35.974484767000085],[150.19228088179722,-35.97273828902802],[150.19006256668447,-35.970577067265495],[150.18595697328485,-35.96441363305399],[150.17385408952293,-35.95216155035256],[150.1596390552217,-35.942439095637226],[150.1561508845421,-35.940930365714976],[150.155057,-35.945862],[150.156581,-35.951077],[150.160404,-35.953897],[150.153878,-35.965258],[150.151067,-35.97886],[150.153522,-35.98491],[150.15272,-35.988726],[150.154079,-35.991911],[150.160188,-35.991831],[150.160546,-35.993514],[150.163409,-35.992594],[150.164327,-35.99364],[150.159793,-35.99688],[150.157407,-36.007989],[150.158966,-36.012012],[150.164553,-36.013024],[150.160261,-36.013824],[150.152388,-36.023573],[150.14422,-36.03946],[150.14129,-36.050883]],[[149.906303,-37.567536],[149.904583,-37.558942],[149.908207,-37.558458],[149.90871,-37.555365],[149.904809,-37.548305],[149.909521,-37.551028],[149.918083,-37.561211],[149.918114,-37.563267],[149.916161,-37.56327],[149.917246,-37.568127],[149.913301,-37.569823],[149.906303,-37.567536]]],[[[148.7980800195432,-35.710418466201446],[148.7956755602953,-35.70845761262713],[148.796283,-35.709352],[148.7980800195432,-35.710418466201446]]],[[[148.79842854353467,-35.666578066728945],[148.790554,-35.659235],[148.7874520334893,-35.66029137327467],[148.790554,-35.65932],[148.79842854353467,-35.666578066728945]]],[[[148.78373923582876,-35.65645001379581],[148.783304,-35.656231],[148.773636,-35.655457],[148.77221576068965,-35.653622320588035],[148.773502,-35.655502],[148.783343,-35.656291],[148.78373923582876,-35.65645001379581]]],[[[148.78024794946268,-35.619007415997665],[148.780439,-35.617586],[148.77919831709235,-35.61527643777752],[148.78024794946268,-35.619007415997665]]],[[[148.77884197692447,-35.61461310165432],[148.778157,-35.613338],[148.772447,-35.60912],[148.76852290098822,-35.603260512446916],[148.768434,-35.603306],[148.772666,-35.609442],[148.77884197692447,-35.61461310165432]]],[[[149.14705222641018,-35.144548776439585],[149.146775,-35.144856],[149.155787,-35.144627],[149.15601378708675,-35.14443275366601],[149.14705222641018,-35.144548776439585]]],[[[149.15692418754602,-35.14365298285011],[149.159195,-35.141708],[149.16424706362102,-35.14204171067108],[149.15917,-35.1416],[149.15692418754602,-35.14365298285011]]],[[[149.16322366982448,-35.14684166797134],[149.165066,-35.150099],[149.16364242337121,-35.152186761266094],[149.165215,-35.150141],[149.16322366982448,-35.14684166797134]]],[[[149.16282463420112,-35.154103950478095],[149.16757833465618,-35.159741458330096],[149.167626,-35.15824],[149.16282463420112,-35.154103950478095]]],[[[149.16758607946574,-35.15975064305368],[149.167696,-35.159881],[149.176381,-35.158283],[149.185495,-35.161201],[149.18903339694174,-35.165597964106404],[149.185606,-35.161122],[149.176539,-35.158247],[149.16758607946574,-35.15975064305368]]]]},"bbox":[148.200678,-37.595144704311885,150.33353,-34.548699]}]}