{"type":"FeatureCollection","features":[
{"properties":{"electorateShortName":"fenner","electorateName":"Fenner","area":238.212122,"state":"ACT"},"type":"Feature","geometry":{"type":"MultiPolygon","coordinates":[[[[149.195544,-35.206559],[149.196134,-35.206363],[149.19677,-35.206189],[149.197633,-35.206015],[149.200699,-35.205565],[149.197769,-35.202537],[149.189542,-35.203324],[149.190221,-35.20074],[149.19019,-35.200127],[149.191329,-35.197081],[149.190287,-35.194353],[149.192203,-35.193637],[149.196388,-35.190942],[149.196375,-35.188447],[149.197037,-35.185499],[149.192166,-35.179854],[149.185822,-35.177832],[149.1836545148494,-35.17564375917763],[149.18510895266286,-35.172927398423276],[149.189097,-35.165677],[149.18903339694174,-35.165597964106404],[149.189073,-35.165524],[149.185606,-35.161122],[149.176539,-35.158247],[149.16758607946574,-35.15975064305368],[149.16757833465618,-35.159741458330096],[149.167626,-35.15824],[149.16282463420112,-35.154103950478095],[149.162554,-35.153783],[149.16364242337121,-35.152186761266094],[149.165215,-35.150141],[149.16322366982448,-35.14684166797134],[149.164312,-35.142046],[149.16424706362102,-35.14204171067108],[149.164278,-35.141905],[149.15917,-35.1416],[149.15692418754602,-35.14365298285011],[149.155787,-35.144627],[149.146775,-35.144856],[149.149298,-35.14206],[149.149637,-35.138669],[149.144961,-35.134596],[149.140501,-35.136293],[149.1386,-35.135257],[149.139966,-35.130832],[149.138819,-35.128466],[149.131698,-35.12906],[149.127163,-35.12572],[149.127186,-35.125622],[149.120902,-35.124517],[149.118076,-35.126527],[149.116909,-35.126111],[149.115503,-35.126247],[149.113387,-35.127539],[149.109679,-35.131109],[149.104145,-35.132131],[149.102574,-35.135224],[149.09454738577261,-35.138216729333564],[149.093322,-35.138657],[149.091082620419,-35.142234178141976],[148.86368705239306,-35.27595608247016],[148.961731,-35.218467],[148.96187,-35.218659],[148.962128,-35.219361],[148.962412,-35.220081],[148.962972,-35.221707],[148.963566,-35.222476],[148.964128,-35.223161],[148.964553,-35.223627],[148.964964,-35.224148],[148.965361,-35.224751],[148.965772,-35.225258],[148.96621,-35.225888],[148.966553,-35.226258],[148.966909,-35.226614],[148.967087,-35.226943],[148.967251,-35.227354],[148.96732,-35.227751],[148.967306,-35.227888],[148.967456,-35.228466],[148.967632,-35.229058],[148.96806,-35.229725],[148.968337,-35.230329],[148.968677,-35.231135],[148.96913,-35.231651],[148.969558,-35.232117],[148.969973,-35.232507],[148.970628,-35.233162],[148.971006,-35.233615],[148.971207,-35.233829],[148.972019,-35.234217],[148.972962,-35.234813],[148.973616,-35.235218],[148.974926,-35.236854],[148.975368,-35.237663],[148.975985,-35.238106],[148.976254,-35.238837],[148.975985,-35.239492],[148.975484,-35.240089],[148.974483,-35.240724],[148.974123,-35.240747],[148.973896,-35.240784],[148.973625,-35.240797],[148.973045,-35.240967],[148.972396,-35.2412],[148.971217,-35.24144],[148.969577,-35.241667],[148.968884,-35.241743],[148.968354,-35.241762],[148.968184,-35.241762],[148.96807,-35.241726],[148.967724,-35.241932],[148.967545,-35.242195],[148.967032,-35.2426],[148.966705,-35.242848],[148.96613,-35.243019],[148.965757,-35.243299],[148.964979,-35.243439],[148.964093,-35.243564],[148.963269,-35.24375],[148.962525,-35.243979],[148.962175,-35.244223],[148.961792,-35.244557],[148.961638,-35.24472],[148.961531,-35.244924],[148.96137,-35.24525],[148.961345,-35.2456],[148.961655,-35.246081],[148.962135,-35.246415],[148.962999,-35.24683],[148.963887,-35.24718],[148.964782,-35.247392],[148.96536,-35.247555],[148.965971,-35.24771],[148.966436,-35.24786],[148.96689,-35.248049],[148.967216,-35.248204],[148.967514,-35.248289],[148.967786,-35.248301],[148.967974,-35.248341],[148.968233,-35.248444],[148.968735,-35.248642],[148.969076,-35.248886],[148.969451,-35.249201],[148.970043,-35.24962],[148.970491,-35.250143],[148.970855,-35.250617],[148.971013,-35.250982],[148.971111,-35.251444],[148.971341,-35.251979],[148.971962,-35.252684],[148.972229,-35.253073],[148.972411,-35.253365],[148.972639,-35.253593],[148.972791,-35.253794],[148.972878,-35.25406],[148.972872,-35.254407],[148.972758,-35.254505],[148.972694,-35.254673],[148.972644,-35.25495],[148.972726,-35.255449],[148.972878,-35.255753],[148.973182,-35.255997],[148.973588,-35.256084],[148.974082,-35.256068],[148.974462,-35.256073],[148.974749,-35.256057],[148.974988,-35.255981],[148.975091,-35.255862],[148.975298,-35.255617],[148.975574,-35.25546],[148.975826,-35.25541],[148.976124,-35.255364],[148.976434,-35.255318],[148.976962,-35.255341],[148.977272,-35.255386],[148.977731,-35.255593],[148.977949,-35.255754],[148.978202,-35.256087],[148.978282,-35.256385],[148.978248,-35.256741],[148.978041,-35.257154],[148.977857,-35.25751],[148.977743,-35.257969],[148.97788,-35.258348],[148.978213,-35.258773],[148.978936,-35.259209],[148.979441,-35.25937],[148.979653,-35.25937],[148.980008,-35.259149],[148.980531,-35.259048],[148.980897,-35.259061],[148.98128,-35.259017],[148.981629,-35.259031],[148.981769,-35.259102],[148.981978,-35.259274],[148.982066,-35.259388],[148.982189,-35.259818],[148.982329,-35.260075],[148.982539,-35.260304],[148.982732,-35.260447],[148.983028,-35.260561],[148.983709,-35.260717],[148.983901,-35.260788],[148.98418,-35.260844],[148.984613,-35.260866],[148.985153,-35.261088],[148.985437,-35.261199],[148.985783,-35.261383],[148.986407,-35.261635],[148.986687,-35.261811],[148.987211,-35.262065],[148.98757,-35.262276],[148.987715,-35.262346],[148.988006,-35.262317],[148.988251,-35.262202],[148.988359,-35.262083],[148.9884,-35.261982],[148.988553,-35.2618],[148.988692,-35.261664],[148.988919,-35.26148],[148.989212,-35.261321],[148.98955,-35.261233],[148.989794,-35.261204],[148.990407,-35.261184],[148.990739,-35.261233],[148.991137,-35.261326],[148.991657,-35.261489],[148.992059,-35.261726],[148.992252,-35.261975],[148.992323,-35.262181],[148.992469,-35.262287],[148.99281,-35.262317],[148.993329,-35.262354],[148.99366,-35.262403],[148.993881,-35.262471],[148.99428,-35.262573],[148.994524,-35.262659],[148.994778,-35.262691],[148.995041,-35.262687],[148.995227,-35.262629],[148.9955,-35.262535],[148.995672,-35.262378],[148.995778,-35.262241],[148.995841,-35.262114],[148.995904,-35.26196],[148.99594,-35.261634],[148.995933,-35.261382],[148.995919,-35.261247],[148.995958,-35.261048],[148.995963,-35.260813],[148.995946,-35.260507],[148.995943,-35.259872],[148.996012,-35.25957],[148.996045,-35.259155],[148.996251,-35.258266],[148.996321,-35.258122],[148.996516,-35.257991],[148.997018,-35.258078],[148.997297,-35.258178],[148.997681,-35.258248],[148.997995,-35.258377],[148.998169,-35.258419],[148.998536,-35.258447],[148.998728,-35.258489],[148.998972,-35.258603],[148.999881,-35.259216],[149.00023,-35.259373],[149.000289,-35.25941],[149.000544,-35.259501],[149.000816,-35.259667],[149.000842,-35.259701],[149.000949,-35.259826],[149.001056,-35.259915],[149.001207,-35.260076],[149.001384,-35.260206],[149.001573,-35.260441],[149.001652,-35.260553],[149.001687,-35.260703],[149.001844,-35.2609],[149.001954,-35.261011],[149.00205,-35.26121],[149.002178,-35.261446],[149.00232,-35.261632],[149.002417,-35.261831],[149.002484,-35.26208],[149.00246,-35.262331],[149.002458,-35.262442],[149.002465,-35.262557],[149.002501,-35.262757],[149.002628,-35.262967],[149.002678,-35.263115],[149.002744,-35.263327],[149.002843,-35.263614],[149.002847,-35.263777],[149.002803,-35.263865],[149.002899,-35.264064],[149.003073,-35.264312],[149.003186,-35.264548],[149.003237,-35.264748],[149.003209,-35.264836],[149.003275,-35.26506],[149.003371,-35.265221],[149.003406,-35.265409],[149.003394,-35.265547],[149.00356,-35.266035],[149.003657,-35.266412],[149.003721,-35.266648],[149.003577,-35.266804],[149.003551,-35.266851],[149.00355,-35.267066],[149.003585,-35.267281],[149.003584,-35.267553],[149.003636,-35.26771],[149.003654,-35.267882],[149.003653,-35.268111],[149.003827,-35.268669],[149.003931,-35.26887],[149.003983,-35.268913],[149.00516,-35.270187],[149.006641,-35.271446],[149.007402,-35.27197],[149.007625,-35.272079],[149.007886,-35.272137],[149.008026,-35.272109],[149.008615,-35.272104],[149.009795,-35.272031],[149.01123,-35.271828],[149.011754,-35.271774],[149.013929,-35.271896],[149.01553,-35.271704],[149.016765,-35.271791],[149.017357,-35.27207],[149.017827,-35.272331],[149.018488,-35.273027],[149.018645,-35.274176],[149.018506,-35.275167],[149.018332,-35.276101],[149.018243,-35.276569],[149.018103,-35.276955],[149.018103,-35.277056],[149.017752,-35.278043],[149.017717,-35.2782],[149.017769,-35.278257],[149.017938,-35.278797],[149.018156,-35.279359],[149.018327,-35.279726],[149.018413,-35.279818],[149.018883,-35.280091],[149.019616,-35.280406],[149.019825,-35.28042],[149.019965,-35.280464],[149.02013,-35.280474],[149.020141,-35.280401],[149.020266,-35.280337],[149.020365,-35.280242],[149.020426,-35.280147],[149.020489,-35.28012],[149.020663,-35.280021],[149.020838,-35.279978],[149.021274,-35.279978],[149.021658,-35.279892],[149.021457,-35.279543],[149.021278,-35.279214],[149.022075,-35.278858],[149.024123,-35.277957],[149.023894,-35.276838],[149.026142,-35.274347],[149.027344,-35.273],[149.030347,-35.269779],[149.032288,-35.267687],[149.033922,-35.265958],[149.033661,-35.265232],[149.033361,-35.264655],[149.033152,-35.264298],[149.03293,-35.263946],[149.032662,-35.263559],[149.03241,-35.263221],[149.032279,-35.263055],[149.03211,-35.26285],[149.031836,-35.262545],[149.031552,-35.262246],[149.031301,-35.261995],[149.031,-35.261708],[149.030644,-35.261388],[149.030416,-35.261193],[149.028624,-35.25963],[149.028426,-35.259447],[149.028202,-35.259227],[149.028019,-35.259033],[149.027814,-35.258801],[149.02762,-35.258563],[149.027412,-35.258285],[149.02724,-35.258035],[149.027058,-35.257744],[149.026891,-35.257447],[149.026757,-35.257181],[149.026616,-35.256866],[149.026491,-35.256546],[149.026381,-35.256223],[149.026287,-35.255896],[149.026235,-35.25569],[149.026199,-35.255525],[149.026159,-35.255318],[149.026132,-35.255151],[149.026089,-35.254817],[149.026071,-35.254526],[149.026067,-35.254193],[149.026079,-35.25386],[149.026108,-35.253528],[149.026134,-35.25332],[149.026173,-35.253073],[149.026221,-35.252826],[149.026648,-35.250449],[149.027076,-35.24798],[149.027563,-35.245358],[149.027635,-35.245147],[149.027774,-35.244657],[149.028042,-35.243831],[149.028265,-35.243296],[149.028305,-35.243144],[149.02836,-35.242949],[149.028491,-35.242557],[149.028645,-35.242174],[149.028718,-35.242003],[149.028934,-35.241579],[149.029062,-35.241361],[149.030149,-35.239596],[149.030294,-35.239645],[149.033239,-35.240621],[149.033545,-35.240709],[149.033794,-35.240771],[149.034087,-35.240837],[149.034365,-35.240892],[149.034874,-35.240971],[149.035259,-35.24101],[149.035682,-35.241041],[149.035953,-35.24105],[149.036234,-35.241052],[149.036513,-35.241049],[149.038434,-35.240978],[149.038796,-35.240969],[149.038994,-35.240967],[149.039161,-35.240966],[149.03948,-35.240975],[149.03977,-35.240991],[149.04006,-35.241014],[149.040305,-35.241036],[149.040644,-35.241078],[149.040958,-35.241123],[149.041327,-35.241191],[149.041859,-35.241307],[149.042135,-35.241378],[149.042381,-35.241448],[149.042628,-35.241522],[149.042832,-35.24159],[149.043057,-35.241668],[149.043294,-35.241757],[149.043738,-35.241927],[149.044425,-35.24219],[149.045589,-35.242636],[149.045719,-35.242681],[149.046017,-35.242785],[149.046349,-35.242893],[149.046861,-35.243044],[149.047392,-35.243175],[149.047675,-35.24324],[149.047756,-35.243257],[149.04812,-35.243333],[149.048347,-35.243371],[149.048458,-35.24339],[149.048792,-35.243441],[149.049113,-35.243484],[149.049505,-35.243529],[149.049915,-35.243562],[149.05033,-35.243586],[149.050788,-35.243603],[149.053865,-35.243701],[149.055949,-35.243769],[149.056257,-35.243781],[149.056494,-35.243797],[149.057225,-35.243864],[149.057567,-35.243911],[149.057919,-35.243969],[149.058156,-35.244019],[149.058411,-35.244077],[149.058658,-35.244142],[149.058972,-35.244234],[149.059197,-35.244307],[149.05949,-35.244411],[149.059733,-35.244508],[149.060054,-35.244649],[149.060393,-35.244815],[149.063277,-35.246356],[149.063812,-35.246637],[149.064172,-35.246811],[149.064576,-35.246993],[149.064986,-35.247176],[149.065459,-35.247376],[149.06613,-35.247636],[149.066379,-35.247727],[149.066739,-35.247851],[149.067356,-35.248049],[149.067629,-35.248131],[149.068285,-35.248317],[149.068791,-35.248443],[149.072793,-35.24947],[149.075626,-35.250403],[149.075773,-35.250452],[149.075871,-35.25018],[149.075945,-35.249973],[149.076158,-35.249294],[149.076219,-35.248866],[149.076212,-35.248443],[149.076209,-35.248356],[149.076194,-35.248179],[149.076182,-35.248061],[149.076138,-35.247804],[149.076087,-35.247592],[149.07605,-35.247457],[149.076016,-35.247351],[149.075923,-35.247107],[149.075858,-35.246967],[149.075787,-35.246828],[149.075676,-35.246637],[149.074852,-35.245387],[149.07469,-35.245142],[149.074479,-35.244786],[149.074383,-35.244604],[149.074289,-35.244416],[149.074209,-35.244244],[149.074084,-35.243943],[149.074039,-35.243819],[149.073952,-35.243563],[149.073914,-35.243441],[149.073861,-35.243249],[149.073798,-35.242999],[149.07339,-35.241107],[149.074179,-35.241106],[149.074239,-35.241104],[149.074301,-35.241099],[149.074352,-35.241092],[149.074418,-35.241079],[149.07447,-35.241066],[149.074523,-35.24105],[149.074573,-35.241032],[149.07463,-35.241007],[149.074683,-35.24098],[149.074721,-35.240959],[149.074789,-35.240914],[149.074853,-35.240863],[149.074909,-35.240809],[149.07495,-35.240762],[149.075716,-35.239733],[149.076632,-35.238493],[149.076645,-35.238474],[149.076764,-35.238292],[149.076854,-35.238128],[149.076883,-35.238064],[149.07694,-35.237888],[149.077076,-35.237352],[149.077357,-35.236425],[149.077666,-35.235574],[149.07769,-35.235511],[149.077833,-35.235137],[149.077906,-35.234959],[149.078009,-35.23474],[149.078095,-35.234575],[149.078196,-35.234396],[149.078341,-35.234165],[149.078402,-35.234076],[149.078499,-35.233944],[149.079323,-35.232825],[149.079658,-35.232318],[149.079877,-35.231934],[149.08004,-35.231609],[149.080185,-35.231267],[149.080283,-35.231015],[149.080047,-35.230956],[149.079634,-35.230837],[149.079432,-35.230769],[149.079223,-35.230692],[149.079036,-35.230621],[149.078845,-35.230542],[149.078658,-35.230459],[149.078282,-35.230274],[149.078137,-35.230196],[149.077963,-35.230099],[149.07766,-35.229915],[149.077633,-35.229897],[149.077469,-35.229787],[149.077163,-35.229567],[149.076864,-35.229327],[149.076757,-35.229236],[149.076625,-35.229116],[149.076511,-35.229008],[149.076335,-35.228834],[149.076098,-35.228574],[149.075871,-35.228298],[149.075631,-35.227964],[149.075336,-35.227537],[149.074179,-35.225857],[149.074266,-35.225818],[149.074927,-35.225527],[149.07491,-35.225541],[149.075428,-35.225316],[149.075536,-35.225266],[149.075684,-35.225196],[149.075843,-35.225116],[149.075882,-35.225095],[149.075935,-35.225068],[149.076039,-35.225012],[149.076167,-35.22494],[149.076306,-35.224858],[149.076319,-35.224851],[149.076331,-35.224843],[149.076431,-35.224782],[149.076566,-35.224696],[149.076662,-35.224632],[149.076674,-35.224623],[149.076722,-35.224591],[149.076899,-35.224466],[149.07691,-35.224457],[149.076945,-35.224432],[149.076956,-35.224423],[149.077002,-35.224389],[149.077115,-35.224302],[149.077205,-35.22423],[149.077325,-35.224131],[149.077357,-35.224103],[149.077379,-35.224085],[149.077464,-35.22401],[149.077495,-35.223982],[149.077506,-35.223973],[149.077516,-35.223963],[149.077568,-35.223916],[149.077639,-35.223848],[149.07768,-35.22381],[149.07774,-35.223751],[149.077769,-35.223721],[149.077799,-35.223692],[149.077848,-35.223642],[149.077962,-35.223521],[149.078091,-35.223377],[149.078126,-35.223335],[149.078162,-35.223294],[149.07817,-35.223283],[149.078206,-35.223241],[149.078266,-35.223167],[149.078291,-35.223134],[149.078317,-35.223102],[149.078375,-35.223027],[149.078487,-35.222874],[149.078518,-35.22283],[149.078548,-35.222785],[149.078564,-35.222763],[149.078638,-35.222651],[149.078674,-35.222595],[149.078717,-35.222526],[149.078799,-35.222389],[149.078858,-35.222285],[149.078915,-35.22218],[149.078987,-35.222039],[149.078992,-35.222027],[149.079903,-35.220175],[149.079993,-35.219998],[149.080065,-35.219872],[149.08011,-35.219796],[149.080138,-35.21975],[149.080148,-35.219735],[149.080157,-35.219719],[149.0802,-35.219651],[149.080215,-35.219629],[149.080234,-35.219598],[149.080309,-35.219486],[149.080387,-35.219376],[149.08043,-35.219317],[149.080436,-35.21931],[149.080457,-35.219281],[149.080463,-35.219274],[149.080518,-35.219201],[149.080626,-35.219066],[149.080674,-35.21901],[149.080685,-35.218996],[149.080733,-35.21894],[149.08085,-35.218809],[149.080863,-35.218796],[149.080907,-35.218748],[149.080914,-35.218742],[149.080926,-35.218728],[149.081023,-35.218628],[149.08103,-35.218622],[149.081083,-35.218569],[149.08109,-35.218563],[149.081164,-35.218491],[149.08124,-35.218421],[149.081253,-35.218408],[149.081268,-35.218396],[149.081274,-35.218389],[149.081323,-35.218345],[149.081416,-35.218265],[149.081423,-35.218258],[149.081431,-35.218252],[149.081529,-35.21817],[149.081622,-35.218095],[149.0817,-35.218035],[149.081712,-35.218025],[149.081728,-35.218014],[149.081758,-35.21799],[149.081858,-35.217916],[149.08189,-35.217894],[149.081921,-35.217871],[149.082048,-35.217783],[149.082064,-35.217773],[149.082906,-35.217209],[149.084395,-35.216213],[149.084857,-35.215894],[149.084974,-35.215807],[149.085144,-35.215671],[149.085223,-35.215606],[149.085571,-35.215288],[149.085718,-35.215134],[149.085911,-35.214919],[149.086008,-35.214802],[149.086223,-35.214519],[149.086357,-35.214318],[149.086463,-35.214146],[149.086578,-35.213941],[149.086679,-35.213741],[149.086776,-35.213523],[149.086856,-35.213319],[149.086956,-35.213014],[149.087034,-35.212715],[149.087076,-35.21246],[149.087272,-35.211268],[149.087352,-35.210932],[149.087462,-35.210573],[149.087627,-35.210153],[149.087814,-35.209768],[149.088042,-35.209378],[149.088363,-35.2089],[149.088876,-35.208145],[149.089036,-35.207887],[149.089217,-35.20753],[149.089364,-35.207152],[149.089462,-35.206801],[149.089522,-35.206471],[149.089599,-35.205452],[149.089639,-35.205138],[149.089731,-35.204749],[149.089882,-35.204334],[149.090103,-35.203903],[149.090346,-35.203539],[149.090658,-35.20317],[149.090987,-35.202855],[149.091307,-35.202603],[149.09268,-35.201952],[149.09299,-35.201856],[149.093271,-35.201798],[149.093634,-35.201755],[149.094216,-35.201775],[149.094321,-35.201804],[149.094545,-35.201816],[149.094772,-35.201758],[149.094942,-35.201655],[149.094962,-35.201637],[149.095049,-35.201507],[149.095065,-35.201373],[149.095138,-35.201506],[149.095251,-35.201671],[149.095402,-35.201857],[149.095518,-35.201987],[149.095669,-35.20214],[149.096383,-35.202797],[149.096539,-35.202939],[149.097306,-35.203462],[149.098059,-35.203945],[149.098802,-35.204393],[149.099578,-35.204835],[149.100533,-35.205342],[149.103716,-35.206959],[149.107773,-35.20902],[149.108137,-35.209221],[149.108536,-35.20946],[149.108864,-35.209674],[149.108897,-35.209696],[149.109246,-35.209943],[149.109646,-35.210251],[149.110006,-35.210555],[149.110662,-35.211185],[149.111027,-35.211591],[149.112134,-35.212897],[149.112842,-35.213732],[149.11329,-35.214223],[149.113763,-35.214708],[149.114706,-35.215588],[149.116353,-35.216972],[149.117065,-35.21761],[149.117127,-35.217671],[149.117906,-35.218443],[149.119028,-35.219613],[149.119088,-35.219677],[149.119157,-35.219769],[149.119997,-35.220925],[149.120891,-35.222459],[149.121639,-35.223751],[149.122618,-35.225755],[149.122692,-35.225908],[149.124477,-35.229949],[149.124615,-35.230273],[149.12512,-35.231391],[149.134363,-35.228728],[149.135675,-35.22835],[149.142117,-35.225562],[149.143889,-35.225801],[149.143904,-35.225935],[149.144472,-35.226314],[149.151283,-35.230968],[149.151979,-35.23048],[149.152512,-35.23011],[149.153598,-35.229357],[149.154281,-35.228897],[149.155045,-35.228383],[149.155637,-35.228009],[149.156492,-35.227487],[149.15681,-35.227346],[149.158113,-35.22677],[149.165159,-35.224645],[149.171514,-35.222739],[149.172361,-35.222484],[149.173557,-35.222126],[149.174082,-35.221942],[149.177321,-35.220738],[149.177906,-35.220489],[149.178449,-35.220215],[149.179025,-35.21987],[149.179534,-35.219513],[149.189056,-35.2122],[149.189343,-35.211951],[149.189621,-35.211671],[149.189822,-35.211435],[149.190221,-35.210918],[149.191404,-35.20939],[149.191767,-35.208983],[149.19216,-35.208595],[149.192683,-35.208145],[149.193205,-35.207759],[149.193714,-35.207431],[149.194342,-35.207083],[149.194942,-35.2068],[149.195544,-35.206559]]],[[[150.593971,-35.185018],[150.59586864112313,-35.18306841870705],[150.59539475773389,-35.183657762777166],[150.59504026517942,-35.18432576496908],[150.5948178341735,-35.18504854871763],[150.59473541512176,-35.185800279387145],[150.59479595394848,-35.186554087685074],[150.5948611449947,-35.18679011730287],[150.60892554526333,-35.18919898662122],[150.63517092334502,-35.21720624912911],[150.64059376095352,-35.226980724993304],[150.63555272588516,-35.267760001485534],[150.63791567709697,-35.26974400555528],[150.6524586286991,-35.27970124018871],[150.66866330963563,-35.28663321527467],[150.68590825246176,-35.29027408189822],[150.70353209453816,-35.29048420879564],[150.72085894202002,-35.287255537367905],[150.73722429113377,-35.280711890736875],[150.7520005126323,-35.271104224991554],[150.75576139545217,-35.26809639987295],[150.75679438345057,-35.26797895980174],[150.7744465175175,-35.262125085386124],[150.78555963432285,-35.25565516270025],[150.7872722596693,-35.254768982080336],[150.7896321404334,-35.25406854567629],[150.8053944649173,-35.245721069118275],[150.8192010888122,-35.23442910849814],[150.8305097505931,-35.2206361607803],[150.83263875059313,-35.2174391607803],[150.83755178332547,-35.20912710743953],[150.84030378332545,-35.203843107439525],[150.84616129116273,-35.18981791655046],[150.84957515079125,-35.17500704419348],[150.8496420875465,-35.17384337118498],[150.8500174948194,-35.172543281583394],[150.83053109619746,-35.15798636747472],[150.82404926772614,-35.15206720221268],[150.79099811730936,-35.111256389546476],[150.78635491010317,-35.101481202891364],[150.7357019588864,-35.087857901896804],[150.7349023711859,-35.08744987068533],[150.7326464853407,-35.08992532941949],[150.72981946322028,-35.0975364957302],[150.7264932214761,-35.10091081913431],[150.72622435775628,-35.10129261102028],[150.72492243568092,-35.10431959737896],[150.7111803628563,-35.12547766698372],[150.708691,-35.122433],[150.701604,-35.122862],[150.661053,-35.117824],[150.6608208880659,-35.12154846921874],[150.66034685931209,-35.124888786273594],[150.657594,-35.129],[150.65488383349017,-35.13037899268763],[150.651131,-35.131817],[150.638248,-35.145859],[150.633225,-35.149115],[150.63164013926155,-35.14937259599113],[150.6254756468761,-35.14914626001073],[150.62235127177294,-35.14782781985234],[150.615275,-35.14279],[150.62122,-35.147863],[150.615435,-35.14856],[150.6150017406722,-35.14830950992682],[150.615391,-35.144781],[150.6135601127038,-35.1471674795353],[150.6114631364506,-35.146017737600936],[150.608059,-35.143609],[150.599637,-35.146319],[150.593969,-35.143836],[150.59411746439878,-35.14439340911616],[150.592868,-35.143937],[150.596246,-35.15218],[150.602606,-35.153179],[150.605105,-35.156175],[150.601016,-35.164528],[150.601334,-35.170066],[150.59781965466817,-35.1709044248754],[150.596386,-35.171087],[150.5961937197773,-35.17129232763668],[150.591249,-35.172472],[150.592547,-35.184281],[150.593971,-35.185018]]]]},"bbox":[148.86368705239306,-35.29048420879564,150.8500174948194,-35.08744987068533]}]}