{"type":"FeatureCollection","features":[
{"properties":{"electorateShortName":"fremantle","electorateName":"Fremantle","area":190.64,"state":"WA"},"type":"Feature","geometry":{"type":"Polygon","coordinates":[[[115.91549,-32.11593],[115.916173,-32.115337],[115.916107,-32.115211],[115.915967,-32.114884],[115.915903,-32.114519],[115.915544,-32.114513],[115.915382,-32.114509],[115.915165,-32.114488],[115.914946,-32.114441],[115.914729,-32.114365],[115.914519,-32.114259],[115.91433,-32.114128],[115.914245,-32.114054],[115.910281,-32.110743],[115.907696,-32.108577],[115.905421,-32.106672],[115.905192,-32.106479],[115.900619,-32.102653],[115.900537,-32.102601],[115.900403,-32.102517],[115.900214,-32.102361],[115.900055,-32.102187],[115.899987,-32.102095],[115.899632,-32.101576],[115.897466,-32.09842],[115.896792,-32.097438],[115.896781,-32.097422],[115.89662,-32.097197],[115.896141,-32.09654],[115.89556,-32.096063],[115.894824,-32.095489],[115.894196,-32.094981],[115.893318,-32.094257],[115.892538,-32.093617],[115.891823,-32.093051],[115.890624,-32.092087],[115.890696,-32.092002],[115.890711,-32.088696],[115.890686,-32.088228],[115.890046,-32.087443],[115.889682,-32.086993],[115.889689,-32.086934],[115.889805,-32.086647],[115.88992,-32.086457],[115.890046,-32.086335],[115.890602,-32.085917],[115.891012,-32.085565],[115.891129,-32.085177],[115.891452,-32.084171],[115.892108,-32.082241],[115.892013,-32.081803],[115.892017,-32.081769],[115.889318,-32.079434],[115.887528,-32.077869],[115.886151,-32.076662],[115.884598,-32.075286],[115.884363,-32.075088],[115.883153,-32.076293],[115.881839,-32.077587],[115.881399,-32.078017],[115.88096,-32.07842],[115.880226,-32.079057],[115.880172,-32.079105],[115.879744,-32.079433],[115.879146,-32.079888],[115.87868,-32.080238],[115.878282,-32.080531],[115.877868,-32.080819],[115.877092,-32.0813],[115.876698,-32.081537],[115.876483,-32.081661],[115.875618,-32.082134],[115.874968,-32.082489],[115.874858,-32.082548],[115.874181,-32.082888],[115.873416,-32.083249],[115.87281,-32.083498],[115.871924,-32.083868],[115.871235,-32.084137],[115.87056,-32.084375],[115.870243,-32.084472],[115.869736,-32.084631],[115.869071,-32.084817],[115.868446,-32.085004],[115.867641,-32.085247],[115.867216,-32.085368],[115.866846,-32.085478],[115.866263,-32.085651],[115.864821,-32.086077],[115.86429,-32.08622],[115.86336,-32.086498],[115.863108,-32.086579],[115.86225,-32.086819],[115.861767,-32.086965],[115.860743,-32.087268],[115.859661,-32.087595],[115.85908,-32.087725],[115.85875,-32.087788],[115.858208,-32.087875],[115.857931,-32.0879],[115.857409,-32.08794],[115.85675,-32.087972],[115.856308,-32.087946],[115.856104,-32.087943],[115.855896,-32.087928],[115.855788,-32.087913],[115.855591,-32.087894],[115.855175,-32.087859],[115.854771,-32.087822],[115.854276,-32.087768],[115.854111,-32.087745],[115.853703,-32.087703],[115.853356,-32.087654],[115.853004,-32.087582],[115.852707,-32.0875],[115.852464,-32.087419],[115.852194,-32.087315],[115.851956,-32.087208],[115.85177,-32.087109],[115.85127,-32.086836],[115.851177,-32.086782],[115.851055,-32.086716],[115.850814,-32.086588],[115.850626,-32.0865],[115.850375,-32.086394],[115.850114,-32.0863],[115.849867,-32.086222],[115.849614,-32.086153],[115.849516,-32.086134],[115.849396,-32.086108],[115.849087,-32.086043],[115.849086,-32.085949],[115.849083,-32.08566],[115.849063,-32.083632],[115.849078,-32.082436],[115.849136,-32.081569],[115.848994,-32.08159],[115.849007,-32.081292],[115.849027,-32.080839],[115.84911,-32.079807],[115.849178,-32.079009],[115.849211,-32.078664],[115.848915,-32.078674],[115.848723,-32.078686],[115.8485,-32.078697],[115.848102,-32.078724],[115.847597,-32.07877],[115.846413,-32.078959],[115.845144,-32.0792],[115.844349,-32.07935],[115.843842,-32.079436],[115.84372,-32.079457],[115.843137,-32.079539],[115.842709,-32.079586],[115.842481,-32.079608],[115.842202,-32.079632],[115.841282,-32.079693],[115.840178,-32.079705],[115.837981,-32.079715],[115.836602,-32.079726],[115.836154,-32.079726],[115.835773,-32.079723],[115.835131,-32.079685],[115.834902,-32.079627],[115.834637,-32.079548],[115.834377,-32.079457],[115.834124,-32.079354],[115.833878,-32.07924],[115.833605,-32.079089],[115.83334,-32.078928],[115.833085,-32.078756],[115.832839,-32.078575],[115.832618,-32.078398],[115.832402,-32.078212],[115.831436,-32.077287],[115.830514,-32.076435],[115.830006,-32.075974],[115.829673,-32.075694],[115.82912,-32.075319],[115.828599,-32.07501],[115.828044,-32.07469],[115.827834,-32.074584],[115.827636,-32.074501],[115.827377,-32.074401],[115.82711,-32.07431],[115.82684,-32.074229],[115.826565,-32.074157],[115.826459,-32.074134],[115.826287,-32.074095],[115.826005,-32.074043],[115.825723,-32.073999],[115.825472,-32.073952],[115.825215,-32.073916],[115.824957,-32.07389],[115.824698,-32.073875],[115.824439,-32.073871],[115.824181,-32.073877],[115.824114,-32.073882],[115.823942,-32.073894],[115.823705,-32.073918],[115.82347,-32.073952],[115.823236,-32.073995],[115.823006,-32.074046],[115.822778,-32.074107],[115.822407,-32.074246],[115.822236,-32.07433],[115.822055,-32.074417],[115.821726,-32.074619],[115.821432,-32.074841],[115.821215,-32.075041],[115.821165,-32.075086],[115.82044,-32.075851],[115.820307,-32.075981],[115.820166,-32.076105],[115.820016,-32.076222],[115.819858,-32.076331],[115.819693,-32.076432],[115.819656,-32.076452],[115.819522,-32.076524],[115.819347,-32.076608],[115.819164,-32.076683],[115.818977,-32.076748],[115.818728,-32.076819],[115.817283,-32.077236],[115.817235,-32.077101],[115.817152,-32.0769],[115.817057,-32.076703],[115.816952,-32.076509],[115.815902,-32.074589],[115.81586,-32.074514],[115.81561,-32.074055],[115.81549,-32.073809],[115.815384,-32.073557],[115.815293,-32.073301],[115.81522,-32.073067],[115.815161,-32.072831],[115.815113,-32.072593],[115.815062,-32.072181],[115.815027,-32.071767],[115.815015,-32.071508],[115.815006,-32.071325],[115.815003,-32.070964],[115.814995,-32.069934],[115.814973,-32.068654],[115.814157,-32.068662],[115.813862,-32.06866],[115.813815,-32.068659],[115.813569,-32.068649],[115.813224,-32.068616],[115.812976,-32.068577],[115.812696,-32.068533],[115.812431,-32.068486],[115.812154,-32.068424],[115.811888,-32.068356],[115.811626,-32.068277],[115.811369,-32.068189],[115.811338,-32.068177],[115.811115,-32.068092],[115.81091,-32.068003],[115.810868,-32.067985],[115.810626,-32.067869],[115.81039,-32.067745],[115.81032,-32.067708],[115.810005,-32.067557],[115.809684,-32.067419],[115.809356,-32.067291],[115.809033,-32.06718],[115.808705,-32.067079],[115.808372,-32.06699],[115.807996,-32.066903],[115.80735,-32.066755],[115.805676,-32.066371],[115.804243,-32.066042],[115.803986,-32.065983],[115.803274,-32.06582],[115.803271,-32.064851],[115.80327,-32.064593],[115.803272,-32.063752],[115.803273,-32.063427],[115.803273,-32.062507],[115.803272,-32.062415],[115.803172,-32.062413],[115.803172,-32.060228],[115.803176,-32.059727],[115.803187,-32.058572],[115.803196,-32.057556],[115.803202,-32.05679],[115.803205,-32.056437],[115.802877,-32.056451],[115.802576,-32.056472],[115.800948,-32.056496],[115.799996,-32.056504],[115.799745,-32.056506],[115.798233,-32.056522],[115.795852,-32.056549],[115.795289,-32.056554],[115.794924,-32.056563],[115.794881,-32.056565],[115.793805,-32.056609],[115.793621,-32.056642],[115.793594,-32.054897],[115.793462,-32.054889],[115.792955,-32.054888],[115.791605,-32.054887],[115.787497,-32.054898],[115.784012,-32.054883],[115.781283,-32.054896],[115.779584,-32.054911],[115.779525,-32.051887],[115.779522,-32.050616],[115.779519,-32.050535],[115.779514,-32.050406],[115.77957,-32.0504],[115.77957,-32.050309],[115.779568,-32.05025],[115.779568,-32.05019],[115.779551,-32.048992],[115.779518,-32.048238],[115.779531,-32.047101],[115.779484,-32.047103],[115.779478,-32.046997],[115.779155,-32.047002],[115.778633,-32.047003],[115.778235,-32.04702],[115.777663,-32.047027],[115.776261,-32.047047],[115.776258,-32.045935],[115.776235,-32.045423],[115.776237,-32.044822],[115.776212,-32.043692],[115.776201,-32.043347],[115.776197,-32.04259],[115.776181,-32.04146],[115.776164,-32.040805],[115.776157,-32.040334],[115.776161,-32.039197],[115.776135,-32.038299],[115.776047,-32.038323],[115.776088,-32.034832],[115.776101,-32.03384],[115.776114,-32.03283],[115.776138,-32.03166],[115.77616,-32.03061],[115.776161,-32.03052],[115.776162,-32.030411],[115.776165,-32.029759],[115.776163,-32.029296],[115.776162,-32.028826],[115.776173,-32.028818],[115.77621,-32.026327],[115.775886,-32.026464],[115.774482,-32.02679],[115.773893,-32.02679],[115.773123,-32.026617],[115.772354,-32.026349],[115.771584,-32.025984],[115.77052,-32.025619],[115.76973,-32.025433],[115.769297,-32.025331],[115.767984,-32.025024],[115.766738,-32.024698],[115.765108,-32.024583],[115.763727,-32.024602],[115.762549,-32.024756],[115.761259,-32.02512],[115.760353,-32.025543],[115.758878,-32.024032],[115.758701,-32.023886],[115.758133,-32.022908],[115.758574,-32.022723],[115.758326,-32.021918],[115.758111,-32.022036],[115.757497,-32.021174],[115.757346,-32.021209],[115.757101,-32.021265],[115.756868,-32.021315],[115.756719,-32.021349],[115.756578,-32.021381],[115.756327,-32.021437],[115.756015,-32.021507],[115.755937,-32.021501],[115.755716,-32.021485],[115.75541,-32.021463],[115.754981,-32.021433],[115.754328,-32.021383],[115.753806,-32.021346],[115.753646,-32.021452],[115.753537,-32.021525],[115.753025,-32.021471],[115.75298,-32.021487],[115.752362,-32.021711],[115.751844,-32.021673],[115.750871,-32.021603],[115.751592,-32.001348],[115.749997,-31.996945],[115.754246,-31.973838],[115.75483660884797,-31.931479414108175],[115.7515742404245,-31.931369095239678],[115.7484052404245,-31.931578095239676],[115.7484112162683,-31.931668705043304],[115.7459552903519,-31.93168906296766],[115.74302029035191,-31.931946062967658],[115.72484680006411,-31.935447669243874],[115.70777383462361,-31.94259265677508],[115.69252338443661,-31.953078874627494],[115.6797403684403,-31.966462876188764],[115.67448201743534,-31.974917005170262],[115.67050678525979,-31.97828682043617],[115.65972750398001,-31.99172910194859],[115.65955242302552,-31.99199631888843],[115.65371053913404,-31.998094173804457],[115.64797863590715,-32.00697008380679],[115.64800839432947,-31.99503437142644],[115.64474673820082,-31.978060897418555],[115.63830062671833,-31.962023913058857],[115.62890779981139,-31.947514880586162],[115.61691467562856,-31.93506890963435],[115.60886602954348,-31.929424553131856],[115.60526407472388,-31.925263552037833],[115.59160073849313,-31.91456738368491],[115.58804073849313,-31.912297383684912],[115.57290072173265,-31.904549340510602],[115.55657342357293,-31.899787868538404],[115.53964189441244,-31.89818300068519],[115.53717991578624,-31.898416974266418],[115.52626123391053,-31.897343753315447],[115.51664060588716,-31.8982099616632],[115.51089987425699,-31.897615090897858],[115.49158996980276,-31.899808431850666],[115.47320110075066,-31.90609593131794],[115.45529110075066,-31.914475931317938],[115.43520702167041,-31.927366487677585],[115.43318255331384,-31.929084117337602],[115.43128550976863,-31.929453895433245],[115.41529119206567,-31.93592617095676],[115.40082591311403,-31.945331714752133],[115.39437551028728,-31.951568156704155],[115.39386833091434,-31.95202636889747],[115.39138727967675,-31.953757241526446],[115.38791377001759,-31.957406028549222],[115.38739741948955,-31.957872526440518],[115.387137579849,-31.95822138618237],[115.37894362985988,-31.96682881248009],[115.36935816389787,-31.982120288218297],[115.36301632448668,-31.999016780778696],[115.36017312433927,-32.016838862612275],[115.35993312433926,-32.02098886261227],[115.36053446538688,-32.037790992823176],[115.36425039508173,-32.05418809796959],[115.37095123518884,-32.069607953109596],[115.38040314029423,-32.08351243729846],[115.39227625852456,-32.09541631289292],[115.40615624269297,-32.104904159337956],[115.42155871015608,-32.11164487048203],[115.43794614676298,-32.11540320949473],[115.45474666498373,-32.116048018143886],[115.46343666498373,-32.11556801814389],[115.48224157623683,-32.11250969332746],[115.48662805142966,-32.11079162240346],[115.4892832656493,-32.11021688014841],[115.49092703875145,-32.10968971136577],[115.5059660419724,-32.11498449794174],[115.52290180577592,-32.11750903033284],[115.54000918521675,-32.11678038222152],[115.55666894942465,-32.11282492827289],[115.56427184288357,-32.10939632915803],[115.56448564083385,-32.109384282776745],[115.58165465186126,-32.10493295787646],[115.59761728495835,-32.097200973808],[115.61175358055682,-32.08648862673654],[115.61270358055681,-32.08560862673654],[115.62402018392493,-32.07294082801344],[115.63275500114352,-32.0583723138669],[115.63473768299107,-32.052958934116596],[115.63472153980173,-32.06229727605927],[115.63793594245757,-32.07911721533555],[115.6442779801522,-32.09502385858834],[115.65214200635609,-32.10729426542421],[115.64964478871795,-32.11471466029845],[115.64738362913386,-32.13214997562629],[115.64855528310447,-32.14969221864761],[115.6531150392926,-32.16667196207178],[115.66088889342596,-32.18244124408331],[115.66494608339939,-32.18773774066546],[115.662936,-32.177123],[115.66156,-32.173801],[115.660053,-32.173632],[115.661775,-32.164785],[115.660534,-32.156225],[115.669118,-32.15602],[115.669541,-32.160433],[115.674637,-32.165189],[115.677182,-32.172242],[115.674959,-32.184634],[115.682311,-32.197432],[115.683319,-32.205863],[115.68428739559651,-32.207576353480626],[115.68478093522963,-32.208010501972474],[115.68532880362378,-32.208328427471805],[115.6857575855081,-32.20927359185277],[115.69213954128361,-32.217979376601434],[115.695298,-32.219856],[115.700388,-32.22636],[115.69823952394822,-32.22801538318743],[115.70763322379055,-32.24115480491495],[115.72165287518445,-32.25392993507038],[115.73803851804804,-32.26348322160647],[115.7421226856423,-32.264821765657466],[115.755206,-32.251149],[115.758484,-32.244809],[115.75989,-32.236549],[115.75835,-32.229445],[115.755144,-32.225876],[115.755697,-32.223666],[115.766549,-32.210844],[115.772648,-32.200397],[115.774645,-32.19316],[115.774924,-32.181389],[115.774952,-32.181389],[115.775595,-32.181227],[115.775633,-32.181172],[115.775673,-32.181303],[115.775782,-32.181264],[115.775921,-32.181234],[115.775978,-32.181226],[115.776107,-32.181198],[115.776291,-32.18115],[115.776495,-32.181107],[115.776602,-32.181097],[115.776815,-32.181097],[115.777324,-32.18113],[115.777377,-32.180951],[115.777397,-32.180854],[115.778563,-32.181096],[115.778966,-32.18116],[115.783486,-32.181048],[115.784196,-32.180867],[115.784711,-32.180865],[115.784711,-32.180558],[115.785266,-32.180559],[115.785266,-32.180458],[115.786117,-32.180447],[115.786118,-32.180984],[115.789229,-32.180908],[115.790854,-32.180869],[115.792392,-32.180831],[115.793215,-32.180836],[115.793649,-32.180815],[115.794246,-32.180787],[115.798624,-32.180773],[115.805961,-32.18075],[115.813147,-32.18075],[115.813254,-32.180749],[115.813361,-32.18075],[115.824855,-32.180747],[115.824927,-32.180788],[115.82494,-32.180791],[115.82509,-32.180829],[115.825464,-32.180843],[115.82826,-32.18082],[115.829901,-32.180816],[115.8318,-32.180819],[115.831848,-32.180827],[115.832048,-32.180745],[115.835084,-32.180744],[115.835437,-32.180743],[115.836226,-32.180744],[115.839612,-32.180742],[115.847437,-32.180738],[115.847611,-32.180532],[115.847622,-32.180519],[115.847662,-32.180573],[115.847684,-32.180594],[115.847766,-32.180638],[115.84785,-32.180658],[115.847937,-32.180655],[115.847979,-32.180647],[115.848752,-32.180638],[115.85034,-32.18062],[115.852065,-32.1806],[115.853298,-32.180592],[115.853299,-32.180592],[115.8539,-32.180598],[115.855857,-32.180631],[115.856288,-32.180638],[115.857035,-32.180646],[115.857179,-32.180644],[115.857854,-32.180635],[115.858368,-32.180612],[115.858608,-32.180602],[115.858947,-32.180589],[115.859569,-32.180558],[115.861114,-32.180532],[115.861115,-32.180518],[115.861117,-32.180504],[115.861127,-32.180479],[115.861135,-32.180467],[115.861143,-32.180456],[115.861153,-32.180447],[115.861165,-32.180437],[115.861176,-32.180429],[115.861189,-32.180422],[115.861203,-32.180415],[115.861233,-32.180408],[115.861259,-32.180406],[115.86128,-32.180406],[115.861296,-32.180408],[115.86131,-32.180412],[115.861352,-32.18043],[115.861363,-32.180439],[115.861375,-32.180449],[115.861384,-32.180459],[115.861392,-32.180469],[115.861405,-32.180494],[115.861415,-32.180536],[115.865796,-32.180504],[115.869175,-32.180466],[115.873855,-32.180444],[115.875189,-32.180437],[115.87857,-32.180406],[115.879106,-32.180401],[115.881317,-32.18038],[115.888762,-32.180304],[115.897821,-32.180244],[115.898546,-32.180241],[115.898628,-32.18024],[115.898356,-32.178373],[115.898347,-32.178281],[115.898307,-32.178098],[115.898245,-32.177929],[115.898161,-32.177772],[115.897777,-32.177215],[115.89784,-32.177146],[115.897804,-32.173701],[115.897771,-32.171085],[115.897743,-32.168213],[115.897739,-32.168031],[115.897678,-32.162582],[115.897617,-32.157135],[115.897503,-32.146942],[115.897487,-32.145752],[115.897464,-32.143598],[115.897445,-32.142036],[115.897426,-32.140356],[115.897425,-32.140142],[115.897388,-32.136836],[115.897381,-32.136348],[115.896914,-32.136137],[115.899089,-32.132368],[115.899152,-32.132252],[115.899233,-32.132122],[115.899324,-32.131998],[115.899425,-32.131879],[115.899635,-32.131673],[115.899855,-32.131502],[115.900096,-32.131355],[115.900223,-32.131289],[115.900515,-32.131104],[115.900807,-32.130918],[115.901015,-32.130793],[115.901213,-32.130658],[115.901405,-32.130514],[115.901705,-32.130249],[115.901974,-32.129961],[115.902059,-32.129855],[115.902097,-32.12981],[115.902198,-32.129694],[115.90236,-32.129463],[115.902486,-32.129237],[115.902538,-32.12912],[115.902544,-32.129102],[115.902747,-32.128619],[115.9028,-32.128473],[115.902861,-32.12833],[115.902934,-32.12819],[115.903101,-32.12793],[115.903294,-32.127696],[115.903403,-32.127586],[115.903663,-32.1272],[115.903928,-32.126749],[115.904284,-32.125966],[115.904428,-32.12569],[115.904587,-32.125461],[115.904606,-32.12543],[115.90471,-32.125307],[115.904825,-32.125188],[115.904946,-32.125076],[115.905074,-32.12497],[115.906446,-32.123781],[115.907915,-32.12251],[115.909322,-32.121292],[115.909477,-32.121157],[115.912879,-32.118195],[115.913351,-32.117784],[115.91549,-32.11593]],[[115.660617,-32.123113],[115.661071,-32.121844],[115.658971,-32.120278],[115.663584,-32.118366],[115.66496,-32.119212],[115.665463,-32.124483],[115.663376,-32.122566],[115.660617,-32.123113]]]},"bbox":[115.35993312433926,-32.264821765657466,115.916173,-31.897343753315447]}]}