{"type":"FeatureCollection","features":[
{"properties":{"electorateShortName":"gellibrand","electorateName":"Gellibrand","area":144.26,"state":"VIC"},"type":"Feature","geometry":{"type":"MultiPolygon","coordinates":[[[[144.740648,-37.940409],[144.740648,-37.94041],[144.74049,-37.941279],[144.7433262341032,-37.93966982884731],[144.742453504333,-37.940165242509984],[144.74282020755507,-37.941252839992764],[144.74409590170185,-37.94350130637766],[144.7400025371809,-37.94396004550502],[144.73914835921352,-37.948658024325745],[144.7391483592135,-37.94865802432576],[144.7382539320225,-37.95357737387625],[144.7382539320225,-37.95357737387626],[144.73735950483152,-37.958496723426755],[144.73646507764053,-37.96341607297725],[144.73646507764053,-37.96341607297726],[144.73557065044955,-37.96833542252775],[144.73557065044952,-37.96833542252776],[144.73467622325853,-37.973254772078256],[144.73378179606755,-37.978174121628754],[144.73378179606755,-37.97817412162876],[144.7330067273267,-37.98243699970343],[144.73375109447616,-37.98325051219737],[144.73252206649195,-37.98510263429458],[144.73226757645995,-37.98650232947072],[144.7328401746243,-37.98813712211921],[144.73525437179057,-37.98668451889284],[144.73459241631332,-37.98340347980412],[144.73965672145937,-37.98188112685078],[144.74175415021134,-37.97962364056397],[144.74597112070435,-37.97753329242463],[144.74813144654826,-37.97570117631271],[144.75221121774024,-37.97346780639279],[144.75441132197625,-37.97176099916902],[144.75843570005,-37.96946165632032],[144.76065981847265,-37.96781511676484],[144.76465433050444,-37.96547774329805],[144.76586604783145,-37.9646062314899],[144.77003981795522,-37.96465977368974],[144.77531321703316,-37.964267739897984],[144.78070717814126,-37.96341757039157],[144.78587304456022,-37.9621919830039],[144.78620123533608,-37.96218703575571],[144.78661724153486,-37.96215114384746],[144.79115471082804,-37.96301071159076],[144.79616962738623,-37.963600911374236],[144.80127473572028,-37.963848382409005],[144.8064700358304,-37.96375312469508],[144.81175552771649,-37.96331513823245],[144.81713121137852,-37.96253442302113],[144.82259708681664,-37.96141097906109],[144.86145712027366,-37.9511563298065],[144.86260281915742,-37.95094164106501],[144.859759787013,-37.9456540360578],[144.85562618234113,-37.93859463942203],[144.85142737237567,-37.93204244681872],[144.84375018815402,-37.92115869334776],[144.83905857807028,-37.906324544161095],[144.8475989280348,-37.87575815002298],[144.84832820973082,-37.87193391298511],[144.8483397901211,-37.86774857352874],[144.85954961279705,-37.867389974412454],[144.8638259423084,-37.86485964382746],[144.86487350119523,-37.86541592980227],[144.86981369451263,-37.866191699937986],[144.87123512188788,-37.865932562412496],[144.87432820010702,-37.87001823208815],[144.87912245801056,-37.871839872689634],[144.88444821405298,-37.869852443295834],[144.8854223989297,-37.86888836322212],[144.889236999458,-37.87171330346983],[144.89420329936075,-37.872301976410405],[144.8970802735019,-37.87111445963744],[144.89899480409147,-37.874143348083514],[144.90379076289904,-37.87595279887294],[144.9070277625266,-37.87421831493344],[144.90713388737836,-37.87238875827267],[144.9064554374672,-37.87133502079779],[144.902906,-37.872753],[144.908045,-37.8707],[144.915394,-37.865307],[144.91169685920724,-37.86218768793235],[144.91598608786524,-37.85770490226856],[144.91710584680519,-37.85806067252123],[144.9201555610652,-37.86055095712744],[144.92181180143928,-37.86122582508569],[144.92491505308462,-37.86362537944286],[144.92652052918197,-37.86436350097758],[144.9296557702376,-37.8667102419879],[144.93117856069085,-37.867462467200504],[144.93123326860726,-37.867461428087715],[144.93518034653195,-37.868077049631566],[144.936198395662,-37.86805863373201],[144.94014558374607,-37.86867333850723],[144.94116352332458,-37.868655833353436],[144.94511082012696,-37.86926963335443],[144.9461286515831,-37.86925302706951],[144.9500760556908,-37.86986593405681],[144.95109378042616,-37.8698502149947],[144.95504129045352,-37.87046224050103],[144.95605890984237,-37.87044739724054],[144.95938572259212,-37.870962442293404],[144.96149410718584,-37.86638702571153],[144.96724704301403,-37.85917841965515],[144.96809398107231,-37.85910273703141],[144.96365831928657,-37.855728411368034],[144.963316,-37.855468],[144.96168626252333,-37.85470850612471],[144.95768809748034,-37.854304987615755],[144.95768809748034,-37.85430498761576],[144.95271336968193,-37.8538029086065],[144.9527133696819,-37.853802908606504],[144.9477386418835,-37.85330082959724],[144.94276391408508,-37.85279875058797],[144.94276391408505,-37.85279875058798],[144.93778918628664,-37.85229667157871],[144.93778918628664,-37.85229667157872],[144.93281445848822,-37.851794592569455],[144.9328144584882,-37.851794592569455],[144.92783973068978,-37.85129251356019],[144.92783973068975,-37.851292513560196],[144.92286500289134,-37.85079043455093],[144.92286500289134,-37.85079043455094],[144.91789027509293,-37.85028835554167],[144.9178902750929,-37.85028835554167],[144.9130129684514,-37.84979610885287],[144.912638,-37.849999],[144.91243895060364,-37.849738175570096],[144.91254773834726,-37.84988072561914],[144.91238029475133,-37.84973225567389],[144.90917084527908,-37.849408339014204],[144.90808861693824,-37.85161693722097],[144.9103569052638,-37.85455763090647],[144.91240755609215,-37.85481958385871],[144.91531166720145,-37.8574682858107],[144.90969813280702,-37.86041890030458],[144.91048519462282,-37.86202104182372],[144.903923,-37.861733],[144.902042,-37.854318],[144.895504,-37.848029],[144.894424,-37.84792],[144.894304,-37.847504],[144.894279,-37.84739],[144.89427,-37.847289],[144.89427,-37.847209],[144.894282,-37.84704],[144.894414,-37.846573],[144.894977,-37.845404],[144.893539,-37.845248],[144.892295,-37.845112],[144.89247,-37.843944],[144.892552,-37.843396],[144.89262,-37.842986],[144.8927,-37.84251],[144.892759,-37.842158],[144.892898,-37.841325],[144.893038,-37.840485],[144.893191,-37.839545],[144.892438,-37.839479],[144.888441,-37.839045],[144.888302,-37.83911],[144.887929,-37.839071],[144.884096,-37.838663],[144.884493,-37.837127],[144.884274,-37.837103],[144.883699,-37.837041],[144.883694,-37.837024],[144.883688,-37.837008],[144.883686,-37.836999],[144.88368,-37.836983],[144.883678,-37.836974],[144.883663,-37.836933],[144.883655,-37.836907],[144.883646,-37.836882],[144.883639,-37.836866],[144.883637,-37.836857],[144.883612,-37.836791],[144.883605,-37.836775],[144.883585,-37.836735],[144.883576,-37.836719],[144.883573,-37.836711],[144.883565,-37.836695],[144.88356,-37.836687],[144.883553,-37.836671],[144.883539,-37.836647],[144.883532,-37.836631],[144.883523,-37.836615],[144.883513,-37.8366],[144.88351,-37.836592],[144.883496,-37.836568],[144.883488,-37.836552],[144.883478,-37.836537],[144.88347,-37.836521],[144.883451,-37.83649],[144.883447,-37.836481],[144.883432,-37.836459],[144.883428,-37.83645],[144.883423,-37.836443],[144.883394,-37.836396],[144.883379,-37.836374],[144.883374,-37.836365],[144.883369,-37.836358],[144.883365,-37.83635],[144.883355,-37.836337],[144.883345,-37.83632],[144.883334,-37.836304],[144.883328,-37.836297],[144.883319,-37.836282],[144.883308,-37.836266],[144.883302,-37.836259],[144.883298,-37.836251],[144.883292,-37.836244],[144.883277,-37.836221],[144.883265,-37.836206],[144.883255,-37.836191],[144.883249,-37.836184],[144.883228,-37.836153],[144.883205,-37.836124],[144.883199,-37.836116],[144.883195,-37.836109],[144.883177,-37.836087],[144.883166,-37.836072],[144.883154,-37.836058],[144.883149,-37.83605],[144.883137,-37.836036],[144.883119,-37.836013],[144.883113,-37.836007],[144.883108,-37.835999],[144.883096,-37.835985],[144.883089,-37.835978],[144.883084,-37.83597],[144.88306,-37.835941],[144.883034,-37.835912],[144.883024,-37.835899],[144.883011,-37.835884],[144.883004,-37.835878],[144.882999,-37.83587],[144.882985,-37.835856],[144.88298,-37.835849],[144.88296,-37.835828],[144.882916,-37.835779],[144.882902,-37.835765],[144.88289,-37.835751],[144.882876,-37.835738],[144.88285,-37.83571],[144.882836,-37.835697],[144.882803,-37.835662],[144.882768,-37.835629],[144.882762,-37.835622],[144.882748,-37.835609],[144.882742,-37.835602],[144.882734,-37.835596],[144.882713,-37.835576],[144.8827,-37.835562],[144.882692,-37.835556],[144.882664,-37.835529],[144.882636,-37.835504],[144.882628,-37.835498],[144.882563,-37.835439],[144.882551,-37.83543],[144.882416,-37.835313],[144.882285,-37.835199],[144.882272,-37.835189],[144.882265,-37.835182],[144.882225,-37.83515],[144.882191,-37.835124],[144.882178,-37.835113],[144.88217,-37.835108],[144.882124,-37.835071],[144.882116,-37.835066],[144.882096,-37.83505],[144.882089,-37.835046],[144.882027,-37.834998],[144.882019,-37.834994],[144.882006,-37.834983],[144.881998,-37.834979],[144.881987,-37.834943],[144.88195,-37.834943],[144.881934,-37.834933],[144.881751,-37.834808],[144.881582,-37.834695],[144.880491,-37.834097],[144.87834,-37.832562],[144.877095,-37.831471],[144.875779,-37.830513],[144.874844,-37.829849],[144.873939,-37.829191],[144.872889,-37.828436],[144.871236,-37.827245],[144.869708,-37.82614],[144.869475,-37.825978],[144.869215,-37.825791],[144.867617,-37.82464],[144.867207,-37.824642],[144.866995,-37.824642],[144.867085,-37.824185],[144.866264,-37.824196],[144.862488,-37.824295],[144.857789,-37.824447],[144.857625,-37.824452],[144.857621,-37.824554],[144.855617,-37.824624],[144.855316,-37.824631],[144.853442,-37.824676],[144.85306,-37.824685],[144.848923,-37.824785],[144.846988,-37.824796],[144.846841,-37.824816],[144.846027,-37.824926],[144.84555,-37.824963],[144.844305,-37.82506],[144.843109,-37.825153],[144.841869,-37.825254],[144.840652,-37.825354],[144.840504,-37.825366],[144.839328,-37.825443],[144.838905,-37.825537],[144.837859,-37.825542],[144.834958,-37.825555],[144.834831,-37.825556],[144.832761,-37.825565],[144.832153,-37.825604],[144.830942,-37.825633],[144.829364,-37.825636],[144.827513,-37.825659],[144.827177,-37.825652],[144.826643,-37.825645],[144.82248,-37.825739],[144.822104,-37.825737],[144.822473,-37.825416],[144.824007,-37.823984],[144.824266,-37.823834],[144.824781,-37.823587],[144.825506,-37.823307],[144.826098,-37.823119],[144.826522,-37.823085],[144.827414,-37.822832],[144.827371,-37.822769],[144.827247,-37.822634],[144.827199,-37.822559],[144.827144,-37.822487],[144.827094,-37.822411],[144.827034,-37.822343],[144.826967,-37.822279],[144.826884,-37.822228],[144.826818,-37.822163],[144.826749,-37.822101],[144.826687,-37.822035],[144.82662,-37.821972],[144.826548,-37.821913],[144.82648,-37.821849],[144.826426,-37.821777],[144.826374,-37.821704],[144.826324,-37.821627],[144.826264,-37.821561],[144.826211,-37.821488],[144.826168,-37.821408],[144.826137,-37.821318],[144.826111,-37.821226],[144.826082,-37.821134],[144.826058,-37.821042],[144.826008,-37.820966],[144.825953,-37.820893],[144.825907,-37.820815],[144.825857,-37.820738],[144.8258,-37.820666],[144.825707,-37.820517],[144.825666,-37.820435],[144.825636,-37.82035],[144.825584,-37.820276],[144.825545,-37.820192],[144.825518,-37.820106],[144.825486,-37.820022],[144.825481,-37.819998],[144.825464,-37.819928],[144.825419,-37.819851],[144.82537,-37.819776],[144.825353,-37.81968],[144.825316,-37.819595],[144.825299,-37.819496],[144.825292,-37.819391],[144.825275,-37.819293],[144.825238,-37.81921],[144.825223,-37.819111],[144.825192,-37.819022],[144.825193,-37.818911],[144.825207,-37.818688],[144.825195,-37.818585],[144.825153,-37.818505],[144.825138,-37.818404],[144.825147,-37.818291],[144.825178,-37.818195],[144.825233,-37.81812],[144.825294,-37.818052],[144.825319,-37.817954],[144.825357,-37.817867],[144.825423,-37.817802],[144.825483,-37.817735],[144.825564,-37.817681],[144.825628,-37.817615],[144.82572,-37.817572],[144.825806,-37.817527],[144.825875,-37.817463],[144.826019,-37.817349],[144.826104,-37.817305],[144.826179,-37.817247],[144.826263,-37.817199],[144.826354,-37.817154],[144.826439,-37.817106],[144.826508,-37.817044],[144.826594,-37.816996],[144.826677,-37.816944],[144.82676,-37.8169],[144.826586,-37.816872],[144.82522,-37.816758],[144.821973,-37.816487],[144.82069,-37.81638],[144.816933,-37.816066],[144.812845,-37.815732],[144.810062,-37.815504],[144.809089,-37.815419],[144.808313,-37.815348],[144.807567,-37.81528],[144.807148,-37.815249],[144.803927,-37.814966],[144.8003,-37.814649],[144.79823,-37.814469],[144.787461,-37.813562],[144.782318,-37.813129],[144.777214,-37.812699],[144.769138,-37.812017],[144.759223,-37.811169],[144.752309,-37.810578],[144.75097,-37.810463],[144.750776,-37.810371],[144.736954,-37.809216],[144.73684,-37.809207],[144.732663,-37.808857],[144.723387,-37.80808],[144.718754,-37.807692],[144.71435,-37.807321],[144.708886,-37.806863],[144.708523,-37.806788],[144.708538,-37.806884],[144.708716,-37.807301],[144.708789,-37.807494],[144.708866,-37.807614],[144.709017,-37.807812],[144.709232,-37.808097],[144.709538,-37.808253],[144.710078,-37.808359],[144.710221,-37.808493],[144.710394,-37.808848],[144.710742,-37.809067],[144.710806,-37.809128],[144.710878,-37.809314],[144.710924,-37.809787],[144.710989,-37.809973],[144.711853,-37.810596],[144.712207,-37.811253],[144.712262,-37.811625],[144.712238,-37.811699],[144.712148,-37.811806],[144.712107,-37.811871],[144.711859,-37.812094],[144.711092,-37.812483],[144.710729,-37.812798],[144.710527,-37.812914],[144.710389,-37.812951],[144.710183,-37.81294],[144.709757,-37.812824],[144.709516,-37.81283],[144.709201,-37.812924],[144.709031,-37.81302],[144.70883,-37.813149],[144.70864,-37.813329],[144.708484,-37.813499],[144.708246,-37.814058],[144.708133,-37.814173],[144.707597,-37.814719],[144.707217,-37.815216],[144.707006,-37.815567],[144.706244,-37.816221],[144.706173,-37.816303],[144.706046,-37.816562],[144.706033,-37.816743],[144.706104,-37.817041],[144.706237,-37.817599],[144.706572,-37.818353],[144.706636,-37.818557],[144.706679,-37.81895],[144.706602,-37.819277],[144.706468,-37.81934],[144.7063,-37.819316],[144.705999,-37.819251],[144.705858,-37.819258],[144.705687,-37.819284],[144.70558,-37.819311],[144.705002,-37.819521],[144.704928,-37.819555],[144.704788,-37.819645],[144.704621,-37.819877],[144.704581,-37.820062],[144.704573,-37.820389],[144.704628,-37.820866],[144.704648,-37.821031],[144.704292,-37.821121],[144.704288,-37.821122],[144.704066,-37.821177],[144.704121,-37.821366],[144.704187,-37.821607],[144.704241,-37.821853],[144.704335,-37.822216],[144.704469,-37.822582],[144.704505,-37.822682],[144.704808,-37.823283],[144.704918,-37.823647],[144.704906,-37.824032],[144.704851,-37.824321],[144.704751,-37.824609],[144.704644,-37.824821],[144.704458,-37.825041],[144.704244,-37.825268],[144.70393,-37.825568],[144.703388,-37.826187],[144.703225,-37.826507],[144.703119,-37.826818],[144.703157,-37.82711],[144.70328,-37.82731],[144.703696,-37.827622],[144.704241,-37.82796],[144.704751,-37.82826],[144.705079,-37.828515],[144.705065,-37.828542],[144.704944,-37.828634],[144.704572,-37.828818],[144.704542,-37.828848],[144.704521,-37.828883],[144.704529,-37.828923],[144.704555,-37.828968],[144.704576,-37.82899],[144.704608,-37.829021],[144.704619,-37.829051],[144.704575,-37.829315],[144.704532,-37.829385],[144.70448,-37.829493],[144.704473,-37.829505],[144.704437,-37.829552],[144.704427,-37.829578],[144.704423,-37.829726],[144.704419,-37.829794],[144.704408,-37.82983],[144.704381,-37.829892],[144.704349,-37.830006],[144.704295,-37.830162],[144.704279,-37.830299],[144.704218,-37.830498],[144.704016,-37.832073],[144.703989,-37.832497],[144.703985,-37.832583],[144.703977,-37.832664],[144.703968,-37.832722],[144.703931,-37.832901],[144.703843,-37.833123],[144.703575,-37.833465],[144.703538,-37.833504],[144.703484,-37.833551],[144.703266,-37.833708],[144.703126,-37.833826],[144.702977,-37.834008],[144.702802,-37.834282],[144.702685,-37.834554],[144.702657,-37.834728],[144.702655,-37.834831],[144.702666,-37.835004],[144.702684,-37.835088],[144.702723,-37.835212],[144.702741,-37.835259],[144.702753,-37.835287],[144.702776,-37.835335],[144.702793,-37.835367],[144.702871,-37.835501],[144.702886,-37.835511],[144.702999,-37.835715],[144.703237,-37.836089],[144.703299,-37.836271],[144.703363,-37.836407],[144.703416,-37.836586],[144.703449,-37.836758],[144.70347,-37.836883],[144.703512,-37.836994],[144.703571,-37.837078],[144.703692,-37.837207],[144.703844,-37.837357],[144.704045,-37.837646],[144.704075,-37.837693],[144.704145,-37.837807],[144.704225,-37.837943],[144.704293,-37.838196],[144.704325,-37.838379],[144.70436,-37.838566],[144.704394,-37.838799],[144.704403,-37.83891],[144.704391,-37.839049],[144.704359,-37.839121],[144.704358,-37.839186],[144.704375,-37.839257],[144.704415,-37.839348],[144.704441,-37.839386],[144.70447,-37.839403],[144.704503,-37.83941],[144.704576,-37.839434],[144.704618,-37.839457],[144.704653,-37.83952],[144.70467,-37.83957],[144.70469,-37.839612],[144.704684,-37.839645],[144.704654,-37.839688],[144.704631,-37.839729],[144.704623,-37.83976],[144.704625,-37.839795],[144.704634,-37.839828],[144.704644,-37.839849],[144.704662,-37.839877],[144.704701,-37.839916],[144.704734,-37.839939],[144.704772,-37.839957],[144.704832,-37.839977],[144.704881,-37.839996],[144.704907,-37.84001],[144.704924,-37.840023],[144.704957,-37.840055],[144.70498,-37.840083],[144.70501,-37.840115],[144.705044,-37.840145],[144.705086,-37.840171],[144.705127,-37.840188],[144.705181,-37.840206],[144.705248,-37.840223],[144.705323,-37.840239],[144.705377,-37.840242],[144.705432,-37.840237],[144.705472,-37.840225],[144.705538,-37.840202],[144.705665,-37.840167],[144.705823,-37.840145],[144.705986,-37.840136],[144.706143,-37.840141],[144.706294,-37.840168],[144.706523,-37.840249],[144.706638,-37.840313],[144.706724,-37.840374],[144.706783,-37.840427],[144.706828,-37.840472],[144.706866,-37.840525],[144.706897,-37.840577],[144.706934,-37.84066],[144.706955,-37.840715],[144.706962,-37.840744],[144.706983,-37.840855],[144.706998,-37.84094],[144.707007,-37.841012],[144.707003,-37.841065],[144.706994,-37.841115],[144.706972,-37.841209],[144.706959,-37.841249],[144.706934,-37.841366],[144.706927,-37.841417],[144.70689,-37.841468],[144.706856,-37.841502],[144.706794,-37.841568],[144.706763,-37.841607],[144.706744,-37.841624],[144.706709,-37.841646],[144.706668,-37.841679],[144.706639,-37.841711],[144.706621,-37.841742],[144.706618,-37.841762],[144.706598,-37.841806],[144.706549,-37.841898],[144.70651,-37.841982],[144.706488,-37.842013],[144.706452,-37.842054],[144.706429,-37.842077],[144.706405,-37.842092],[144.706372,-37.842101],[144.706344,-37.842116],[144.706265,-37.842199],[144.706224,-37.842228],[144.706166,-37.842258],[144.706133,-37.842278],[144.706075,-37.84232],[144.706016,-37.842378],[144.705942,-37.842485],[144.705891,-37.842573],[144.705863,-37.842673],[144.705807,-37.842828],[144.705759,-37.842953],[144.705724,-37.84308],[144.705707,-37.843185],[144.705682,-37.843268],[144.705652,-37.843376],[144.705657,-37.843443],[144.705683,-37.843575],[144.705812,-37.844],[144.705896,-37.844176],[144.705998,-37.844342],[144.706167,-37.844541],[144.70626,-37.844636],[144.706342,-37.844699],[144.706472,-37.84481],[144.706559,-37.844858],[144.706603,-37.844885],[144.706664,-37.844914],[144.706718,-37.844932],[144.706816,-37.844959],[144.706925,-37.844994],[144.707003,-37.845008],[144.70707,-37.845022],[144.707128,-37.845036],[144.707164,-37.845039],[144.707344,-37.845042],[144.70753,-37.845052],[144.707632,-37.845044],[144.707729,-37.84503],[144.7078,-37.845016],[144.707823,-37.845009],[144.707911,-37.844977],[144.70801,-37.844946],[144.708075,-37.844931],[144.708114,-37.844927],[144.708179,-37.844923],[144.708303,-37.844917],[144.708394,-37.844916],[144.708488,-37.844922],[144.708612,-37.844932],[144.7087,-37.844936],[144.708786,-37.844938],[144.708812,-37.844931],[144.708865,-37.844928],[144.708909,-37.844947],[144.708972,-37.844964],[144.70902,-37.844969],[144.709095,-37.844971],[144.709207,-37.844984],[144.709391,-37.844997],[144.709524,-37.844999],[144.709582,-37.845002],[144.709728,-37.845016],[144.709838,-37.845015],[144.709914,-37.845004],[144.709974,-37.845001],[144.71002,-37.845005],[144.710078,-37.845017],[144.710102,-37.84502],[144.710126,-37.84502],[144.710178,-37.845015],[144.710195,-37.845011],[144.71032,-37.844977],[144.710464,-37.844932],[144.71053,-37.844909],[144.710667,-37.844853],[144.710704,-37.844837],[144.710751,-37.844819],[144.710776,-37.844811],[144.710838,-37.844784],[144.710881,-37.84476],[144.710896,-37.844753],[144.710916,-37.844746],[144.710946,-37.844739],[144.710977,-37.844734],[144.711024,-37.844728],[144.711073,-37.84473],[144.711095,-37.844732],[144.711148,-37.844731],[144.711213,-37.844732],[144.711275,-37.844736],[144.711355,-37.844743],[144.711416,-37.844754],[144.711452,-37.844766],[144.711494,-37.84479],[144.711548,-37.844826],[144.711634,-37.844877],[144.711715,-37.844919],[144.711802,-37.844985],[144.711838,-37.845005],[144.711899,-37.845027],[144.711944,-37.845047],[144.711983,-37.845073],[144.71201,-37.845107],[144.712038,-37.845159],[144.712095,-37.845276],[144.71212,-37.845312],[144.712234,-37.845423],[144.712333,-37.845514],[144.712389,-37.845568],[144.712432,-37.845597],[144.712513,-37.84563],[144.712556,-37.845666],[144.712639,-37.845769],[144.712696,-37.845829],[144.7128,-37.8459],[144.712861,-37.845945],[144.712879,-37.845979],[144.712898,-37.846012],[144.712935,-37.846036],[144.712965,-37.846051],[144.712988,-37.846099],[144.713015,-37.846139],[144.713045,-37.846156],[144.713115,-37.846177],[144.713181,-37.846228],[144.713275,-37.846331],[144.713316,-37.846368],[144.713356,-37.8464],[144.713463,-37.846478],[144.71353,-37.846521],[144.713569,-37.846555],[144.713599,-37.84657],[144.713623,-37.846594],[144.713637,-37.846622],[144.713682,-37.84676],[144.713715,-37.84682],[144.713716,-37.846859],[144.713719,-37.84692],[144.713759,-37.847017],[144.713791,-37.847085],[144.713827,-37.847155],[144.713838,-37.847188],[144.713848,-37.847211],[144.713861,-37.847251],[144.713876,-37.847269],[144.713903,-37.847282],[144.713921,-37.847295],[144.713939,-37.84732],[144.713969,-37.847409],[144.713971,-37.847442],[144.713969,-37.847488],[144.713963,-37.847505],[144.713956,-37.847551],[144.713957,-37.847559],[144.713966,-37.847575],[144.713967,-37.847581],[144.713965,-37.847606],[144.713958,-37.847632],[144.71395,-37.847657],[144.713938,-37.847682],[144.713901,-37.847737],[144.713881,-37.847759],[144.71383,-37.847812],[144.713771,-37.847882],[144.713717,-37.847942],[144.71366,-37.848002],[144.713646,-37.84804],[144.713624,-37.848121],[144.713594,-37.848197],[144.713571,-37.848236],[144.713551,-37.848256],[144.71353,-37.848285],[144.713494,-37.848329],[144.713387,-37.84845],[144.713366,-37.848487],[144.713342,-37.848543],[144.713297,-37.84863],[144.713241,-37.848724],[144.713203,-37.848839],[144.713184,-37.848884],[144.713159,-37.848947],[144.713151,-37.848979],[144.713151,-37.849009],[144.713158,-37.849056],[144.713166,-37.849101],[144.713164,-37.84914],[144.71315,-37.8492],[144.713105,-37.84931],[144.713101,-37.849374],[144.713126,-37.849534],[144.713149,-37.849638],[144.713185,-37.849717],[144.713187,-37.849797],[144.713173,-37.849873],[144.71316,-37.849935],[144.713156,-37.849982],[144.713166,-37.85003],[144.713208,-37.850131],[144.71327,-37.850188],[144.71333,-37.850273],[144.713349,-37.85032],[144.713365,-37.85056],[144.713339,-37.850848],[144.713312,-37.851174],[144.713305,-37.851261],[144.713299,-37.851332],[144.713291,-37.851413],[144.713284,-37.851427],[144.713275,-37.851437],[144.713264,-37.851446],[144.713239,-37.851463],[144.713178,-37.851497],[144.713146,-37.851512],[144.713112,-37.851525],[144.712993,-37.851559],[144.712926,-37.851576],[144.712909,-37.851582],[144.712893,-37.851589],[144.712883,-37.851595],[144.712869,-37.851607],[144.712808,-37.851641],[144.712678,-37.851697],[144.712544,-37.851747],[144.71233,-37.851812],[144.712236,-37.851852],[144.712148,-37.8519],[144.712032,-37.851981],[144.711934,-37.852076],[144.711878,-37.852151],[144.711835,-37.852232],[144.711819,-37.852273],[144.71181,-37.852315],[144.711803,-37.852446],[144.711817,-37.852577],[144.711856,-37.85275],[144.711912,-37.85292],[144.711988,-37.8531],[144.712034,-37.853189],[144.712079,-37.853276],[144.712187,-37.853445],[144.712308,-37.85361],[144.712409,-37.853732],[144.71252,-37.85385],[144.712536,-37.853869],[144.712562,-37.853895],[144.712591,-37.85392],[144.712604,-37.85393],[144.712626,-37.853943],[144.71265,-37.853955],[144.713045,-37.854211],[144.71344,-37.85446],[144.713602,-37.854628],[144.713831,-37.854923],[144.713897,-37.855136],[144.714088,-37.855537],[144.714148,-37.855722],[144.714342,-37.856775],[144.714456,-37.857073],[144.714769,-37.857555],[144.714959,-37.857792],[144.715282,-37.857972],[144.71569,-37.858073],[144.716139,-37.858056],[144.716552,-37.857971],[144.716898,-37.858014],[144.717335,-37.858173],[144.717563,-37.85841],[144.717894,-37.858726],[144.718168,-37.858986],[144.718717,-37.859575],[144.719048,-37.859959],[144.719287,-37.860352],[144.719558,-37.86076],[144.719977,-37.861112],[144.720346,-37.861384],[144.72069,-37.861705],[144.720912,-37.86205],[144.721052,-37.862375],[144.721217,-37.862886],[144.721223,-37.86291],[144.721227,-37.862935],[144.721229,-37.862965],[144.721229,-37.862999],[144.721227,-37.863072],[144.721218,-37.863168],[144.72121,-37.86321],[144.721205,-37.863226],[144.721199,-37.86324],[144.721191,-37.863253],[144.721181,-37.863267],[144.721147,-37.863303],[144.721096,-37.863345],[144.721066,-37.863368],[144.721034,-37.86339],[144.721,-37.863411],[144.720965,-37.863431],[144.720893,-37.863466],[144.720846,-37.863484],[144.720785,-37.863505],[144.720752,-37.863515],[144.720694,-37.86353],[144.72067,-37.863536],[144.720607,-37.863549],[144.720569,-37.86356],[144.720525,-37.86358],[144.720459,-37.863614],[144.720449,-37.863618],[144.720439,-37.863621],[144.720396,-37.863625],[144.720376,-37.863628],[144.720353,-37.863632],[144.720329,-37.863638],[144.720283,-37.863652],[144.720237,-37.863668],[144.720174,-37.863692],[144.720137,-37.863705],[144.720084,-37.863728],[144.720048,-37.863747],[144.72003,-37.863759],[144.720013,-37.863772],[144.719975,-37.863805],[144.719949,-37.863832],[144.719937,-37.863841],[144.719871,-37.863852],[144.719846,-37.863859],[144.71979,-37.863877],[144.719724,-37.863904],[144.719651,-37.863937],[144.719539,-37.863991],[144.719293,-37.86412],[144.719258,-37.864136],[144.719229,-37.864148],[144.719207,-37.864155],[144.719181,-37.86416],[144.719141,-37.864163],[144.719123,-37.864166],[144.719078,-37.864175],[144.719053,-37.864181],[144.718971,-37.864207],[144.718882,-37.86424],[144.71882,-37.864264],[144.718652,-37.864335],[144.718472,-37.864417],[144.718421,-37.864441],[144.718218,-37.864537],[144.718055,-37.864616],[144.717987,-37.864653],[144.717955,-37.864673],[144.717924,-37.864694],[144.717894,-37.864718],[144.717864,-37.864742],[144.717837,-37.864767],[144.717786,-37.864819],[144.717744,-37.864866],[144.717686,-37.864936],[144.717644,-37.86499],[144.717607,-37.865036],[144.71756,-37.865099],[144.717534,-37.865131],[144.717508,-37.865165],[144.717406,-37.865292],[144.717364,-37.865348],[144.717324,-37.865403],[144.717285,-37.86546],[144.717255,-37.865502],[144.71724,-37.865525],[144.717223,-37.865548],[144.717188,-37.865598],[144.717117,-37.865703],[144.717083,-37.865757],[144.717008,-37.865883],[144.716973,-37.865949],[144.716951,-37.865993],[144.716929,-37.86604],[144.716906,-37.866092],[144.716869,-37.86618],[144.716731,-37.866516],[144.7167,-37.866597],[144.716694,-37.86661],[144.716643,-37.866752],[144.71663,-37.86679],[144.716607,-37.866865],[144.716573,-37.866985],[144.716546,-37.867102],[144.716538,-37.867149],[144.716533,-37.867181],[144.716529,-37.867223],[144.716527,-37.867267],[144.716528,-37.867314],[144.716534,-37.867363],[144.716543,-37.867415],[144.716558,-37.86747],[144.716577,-37.867529],[144.7166,-37.86759],[144.716626,-37.867653],[144.716655,-37.867717],[144.716687,-37.86778],[144.71672,-37.867842],[144.716753,-37.867901],[144.716787,-37.867957],[144.716821,-37.868008],[144.716855,-37.868056],[144.71689,-37.8681],[144.716925,-37.868141],[144.716962,-37.868178],[144.717,-37.868214],[144.717041,-37.868246],[144.717083,-37.868276],[144.717127,-37.868305],[144.717172,-37.868331],[144.717218,-37.868355],[144.717265,-37.868378],[144.717356,-37.868417],[144.717401,-37.868434],[144.717485,-37.868463],[144.717525,-37.868475],[144.717601,-37.868494],[144.717637,-37.868502],[144.717672,-37.868508],[144.71774,-37.868517],[144.717773,-37.86852],[144.717838,-37.868524],[144.717931,-37.868524],[144.717991,-37.868522],[144.718045,-37.868518],[144.718082,-37.868517],[144.718112,-37.868514],[144.718296,-37.868501],[144.718487,-37.868489],[144.718575,-37.868485],[144.718635,-37.868481],[144.718669,-37.86848],[144.718814,-37.868472],[144.718938,-37.868464],[144.719162,-37.868452],[144.719282,-37.868447],[144.71931,-37.868445],[144.719481,-37.868439],[144.719511,-37.868437],[144.719639,-37.868433],[144.719672,-37.868431],[144.719806,-37.868427],[144.71984,-37.868427],[144.719873,-37.868426],[144.720239,-37.868426],[144.72044,-37.868441],[144.720538,-37.868454],[144.720638,-37.868481],[144.720783,-37.868545],[144.721091,-37.868683],[144.721222,-37.868739],[144.721498,-37.868587],[144.723092,-37.867713],[144.726476,-37.865854],[144.727341,-37.865379],[144.727942,-37.865047],[144.728662,-37.864651],[144.72874,-37.864608],[144.729508,-37.864189],[144.731155,-37.863285],[144.731346,-37.863285],[144.732307,-37.864509],[144.73328,-37.865763],[144.734534,-37.867346],[144.734679,-37.867566],[144.734792,-37.867787],[144.734833,-37.868071],[144.734832,-37.868255],[144.734804,-37.868398],[144.734743,-37.868553],[144.734655,-37.868718],[144.734501,-37.86891],[144.7351,-37.869353],[144.735308,-37.869587],[144.735474,-37.869808],[144.735788,-37.870541],[144.736573,-37.872728],[144.736683,-37.873013],[144.73681,-37.873327],[144.736851,-37.873418],[144.73691,-37.873462],[144.73675,-37.873502],[144.735122,-37.873903],[144.733569,-37.874279],[144.732227,-37.874626],[144.730156,-37.875162],[144.729165,-37.875418],[144.727537,-37.875839],[144.725669,-37.876322],[144.723387,-37.876912],[144.723057,-37.876997],[144.721906,-37.877295],[144.718952,-37.878042],[144.71855,-37.878144],[144.716878,-37.878566],[144.715036,-37.879026],[144.714821,-37.879083],[144.714224,-37.87926],[144.71387,-37.879388],[144.713565,-37.879513],[144.713256,-37.879649],[144.713004,-37.879774],[144.712759,-37.879902],[144.712497,-37.880049],[144.712395,-37.880112],[144.712254,-37.8802],[144.711992,-37.880378],[144.71174,-37.880564],[144.711514,-37.880741],[144.711212,-37.881008],[144.71098,-37.881237],[144.710923,-37.881294],[144.71058,-37.881676],[144.710491,-37.88179],[144.710391,-37.881917],[144.710171,-37.882236],[144.709988,-37.88253],[144.709838,-37.88281],[144.709741,-37.883014],[144.709624,-37.883292],[144.70953,-37.88356],[144.709471,-37.883756],[144.709443,-37.883848],[144.709389,-37.884066],[144.709349,-37.884244],[144.709301,-37.884569],[144.709273,-37.884853],[144.709259,-37.885086],[144.709277,-37.885564],[144.709299,-37.885805],[144.709311,-37.885882],[144.709338,-37.88607],[144.709387,-37.886327],[144.709439,-37.886522],[144.709477,-37.886651],[144.70957,-37.886968],[144.709784,-37.887721],[144.710021,-37.888552],[144.710204,-37.889463],[144.710214,-37.889665],[144.710265,-37.890691],[144.710192,-37.89111],[144.71018,-37.891184],[144.710158,-37.891253],[144.710097,-37.891451],[144.709663,-37.892597],[144.709848,-37.892645],[144.709729,-37.892973],[144.709537,-37.894565],[144.709677,-37.89497],[144.709977,-37.895834],[144.711589,-37.897282],[144.712042,-37.897682],[144.712228,-37.897536],[144.712523,-37.897296],[144.712738,-37.897124],[144.712828,-37.897052],[144.713565,-37.89646],[144.714055,-37.896188],[144.714512,-37.896032],[144.714988,-37.895958],[144.715381,-37.895955],[144.715473,-37.895959],[144.715527,-37.895962],[144.715684,-37.89597],[144.716174,-37.89605],[144.716861,-37.896125],[144.716284,-37.899358],[144.716156,-37.900076],[144.716028,-37.900803],[144.715771,-37.902239],[144.715584,-37.903297],[144.715395,-37.904354],[144.715278,-37.905008],[144.715016,-37.906479],[144.714677,-37.908383],[144.714558,-37.909051],[144.714359,-37.910163],[144.714304,-37.910474],[144.714298,-37.910509],[144.71395,-37.912458],[144.713538,-37.914868],[144.713649,-37.914881],[144.714916,-37.915043],[144.715283,-37.915413],[144.715524,-37.915675],[144.715627,-37.916946],[144.717821,-37.91945],[144.725254,-37.923795],[144.725614,-37.924148],[144.726866,-37.925406],[144.726986,-37.925381],[144.728244,-37.926704],[144.728302,-37.927084],[144.729746,-37.927241],[144.729892,-37.927258],[144.738487,-37.928236],[144.741349,-37.928561],[144.742515,-37.928691],[144.742618,-37.928696],[144.7426,-37.928795],[144.742765,-37.928815],[144.740648,-37.940409]]],[[[144.72690378309585,-38.02774330057708],[144.7246039587664,-38.029464254241844],[144.7281655708365,-38.03025612522233],[144.7312978061086,-38.02854221385214],[144.73791846591485,-38.02826218058481],[144.74595423523343,-38.02612504647135],[144.75161996293082,-38.02538735759477],[144.75670204064627,-38.02418852684999],[144.7558044701495,-38.022834025598115],[144.75508173030812,-38.02150050674576],[144.75213423050832,-38.017084736623595],[144.7514281433316,-38.015737254552604],[144.74845833386945,-38.01133441910415],[144.74777692698976,-38.00996499394731],[144.74477175749496,-38.005582159814374],[144.7441308166327,-38.00417333059997],[144.7410610329303,-37.99982550994468],[144.74049938599435,-37.998325884321424],[144.737273619685,-37.9940549166785],[144.73695603392537,-37.99214373947941],[144.73282772592802,-37.988184427165145],[144.7318438042583,-37.98883307657963],[144.73109851449456,-37.992932170280255],[144.73109851449456,-37.99293217028026],[144.73020408730358,-37.99785151983076],[144.7293096601126,-38.00277086938126],[144.7293096601126,-38.002770869381266],[144.7284152329216,-38.00769021893176],[144.72841523292158,-38.00769021893177],[144.7275208057306,-38.01260956848226],[144.7275208057306,-38.01260956848227],[144.7266263785396,-38.01752891803276],[144.7266263785396,-38.01752891803277],[144.72573195134862,-38.022448267583265],[144.72504911656648,-38.02620385888513],[144.72690378309585,-38.02774330057708]]],[[[144.90296918038024,-37.85372702635313],[144.9026828221942,-37.85440738956725],[144.90266612105594,-37.8544843934557],[144.90366096044056,-37.853190331269325],[144.90372706644854,-37.852980557884386],[144.9036983001779,-37.85277682174555],[144.9033756827811,-37.85311086816571],[144.90296918038024,-37.85372702635313]]],[[[144.9051601109916,-37.85184234049448],[144.90449012477418,-37.8521522010798],[144.90425226593018,-37.852321291953665],[144.90606412014608,-37.852092306652715],[144.90705727973375,-37.85155335453065],[144.90638448403035,-37.85026765696074],[144.90604142791597,-37.85072341768425],[144.90572335986866,-37.85135093703285],[144.90558715125823,-37.85169090208441],[144.90554085277006,-37.85170732060506],[144.9042866923539,-37.8511137719112],[144.905593,-37.851732],[144.904227203695,-37.851275928655795],[144.90553029979645,-37.851711062934925],[144.9051601109916,-37.85184234049448]]]]},"bbox":[144.702655,-38.03025612522233,144.96809398107231,-37.806788]}]}