{"type":"FeatureCollection","features":[
{"properties":{"electorateShortName":"hughes","electorateName":"Hughes","area":379.92,"state":"NSW"},"type":"Feature","geometry":{"type":"Polygon","coordinates":[[[151.060403,-34.170943],[151.060313,-34.171458],[151.066158,-34.172329],[151.064977323206,-34.17313055687541],[151.06438583577847,-34.17362136925186],[151.06397911182353,-34.17411850356404],[151.0672170873357,-34.17621159524959],[151.06885323927725,-34.17273063445859],[151.0735760897539,-34.173434415941095],[151.0735760897539,-34.173434415941074],[151.07852148292318,-34.17417135990181],[151.0785214829232,-34.174171359901806],[151.08346687609247,-34.174908303862544],[151.08346687609247,-34.174908303862516],[151.08841226926174,-34.175645247823255],[151.08841226926177,-34.17564524782325],[151.09335766243103,-34.176382191783986],[151.09335766243103,-34.176382191783965],[151.0983030556003,-34.177119135744704],[151.09830305560033,-34.1771191357447],[151.1032484487696,-34.177856079705435],[151.1032484487696,-34.177856079705414],[151.10819384193886,-34.17859302366615],[151.10819384193888,-34.178593023666146],[151.11313923510815,-34.179329967626884],[151.11313923510815,-34.17932996762686],[151.11808462827742,-34.1800669115876],[151.11808462827744,-34.180066911587595],[151.1230300214467,-34.180803855548334],[151.1230300214467,-34.180803855548305],[151.12797541461597,-34.181540799509044],[151.127975414616,-34.18154079950904],[151.13292080778527,-34.182277743469776],[151.13292080778527,-34.182277743469754],[151.13786620095453,-34.18301468743049],[151.13786620095456,-34.183014687430486],[151.14281159412383,-34.183751631391225],[151.14281159412383,-34.1837516313912],[151.1477569872931,-34.18448857535194],[151.14775698729312,-34.184488575351935],[151.1527023804624,-34.185225519312674],[151.1527023804624,-34.18522551931265],[151.15764777363165,-34.18596246327339],[151.15764777363168,-34.185962463273384],[151.16259316680095,-34.18669940723412],[151.16259316680095,-34.186699407234094],[151.1675385599702,-34.18743635119483],[151.16753855997024,-34.187436351194826],[151.1724839531395,-34.188173295155565],[151.1724839531395,-34.18817329515554],[151.17742934630877,-34.18891023911628],[151.1774293463088,-34.188910239116275],[151.18237473947806,-34.189647183077014],[151.18237473947806,-34.18964718307699],[151.18732013264733,-34.19038412703773],[151.18732013264736,-34.190384127037724],[151.19226552581662,-34.19112107099846],[151.19226552581662,-34.19112107099844],[151.19920556300167,-34.1921552493369],[151.20058144870285,-34.19036681296027],[151.20409558622057,-34.18831661978321],[151.21661428744918,-34.17750953411257],[151.21921360896133,-34.174259634037924],[151.19726700905917,-34.15755773052447],[151.19280393243204,-34.153584115853434],[151.18841809434295,-34.149092178271694],[151.18429068762515,-34.14429261809684],[151.1846803996772,-34.143354004766785],[151.186414570544,-34.138386429735796],[151.18782297729672,-34.1334125900103],[151.18890561993533,-34.12843248559053],[151.18896304937638,-34.12805413638142],[151.19031365443323,-34.12345863870606],[151.190504260662,-34.122607248310146],[151.192321097599,-34.118496318911596],[151.19411754138716,-34.11352994143678],[151.1955188823326,-34.10855596583038],[151.1965251204353,-34.10357439209256],[151.19662154530124,-34.10278720100698],[151.1980513746028,-34.09860281866332],[151.19931291111007,-34.093626154510034],[151.20013829332206,-34.08864110277413],[151.20052752123883,-34.083647663455636],[151.20048059486032,-34.07864583655469],[151.2000061592454,-34.073725283283274],[151.2000384328842,-34.07363640896885],[151.20038927252122,-34.07233423628785],[151.20172563266112,-34.06866793064767],[151.2019820566322,-34.067702107611346],[151.20163341866186,-34.06704138253099],[151.19793917754606,-34.05811303517649],[151.19590773284978,-34.05040878901618],[151.19553908457283,-34.04392864404952],[151.19666087004848,-34.03937263274737],[151.19495909509936,-34.03751457984811],[151.194148,-34.036629],[151.19298325315677,-34.03633661033072],[151.18976240646364,-34.03552807214506],[151.18778205261478,-34.03821814818248],[151.1877820526148,-34.03821814818253],[151.1848178111307,-34.042244718984556],[151.1848178111307,-34.04224471898457],[151.1818535696466,-34.046271289786596],[151.18185356964662,-34.046271289786645],[151.1788893281625,-34.05029786058867],[151.1788893281625,-34.050297860588685],[151.1759250866784,-34.05432443139071],[151.17592508667843,-34.05432443139076],[151.17296084519432,-34.058351002192786],[151.17296084519432,-34.0583510021928],[151.16999660371022,-34.062377572994826],[151.16999660371025,-34.062377572994876],[151.16703236222614,-34.0664041437969],[151.16703236222614,-34.066404143796916],[151.1642015116088,-34.07024951891287],[151.16065273940862,-34.068981658506715],[151.1597209560076,-34.07097370002776],[151.1598320554254,-34.071072872087086],[151.16049923327859,-34.07146790860217],[151.16246969648154,-34.072389598680125],[151.162586,-34.072444],[151.16051,-34.075264],[151.152001,-34.077811],[151.138089,-34.077436],[151.131975,-34.070467],[151.112757,-34.075693],[151.109651,-34.073495],[151.10208,-34.062586],[151.096354,-34.056368],[151.093837,-34.057899],[151.093804,-34.057983],[151.093609,-34.05833],[151.093428,-34.058552],[151.093224,-34.05876],[151.093016,-34.058964],[151.092821,-34.059175],[151.092657,-34.059405],[151.092544,-34.059631],[151.092452,-34.05987],[151.092372,-34.060116],[151.092296,-34.060363],[151.092213,-34.060607],[151.092118,-34.060889],[151.092108,-34.060924],[151.09203,-34.061176],[151.091939,-34.06146],[151.091937,-34.061467],[151.091835,-34.061736],[151.091706,-34.061999],[151.09153,-34.062278],[151.09133,-34.062547],[151.09111,-34.062803],[151.090874,-34.063043],[151.090627,-34.063264],[151.090332,-34.063459],[151.090001,-34.063615],[151.089664,-34.063762],[151.089354,-34.06393],[151.089104,-34.06415],[151.089073,-34.064209],[151.088943,-34.064454],[151.088854,-34.064817],[151.088789,-34.0652],[151.088698,-34.065561],[151.08868,-34.065592],[151.088533,-34.065858],[151.088326,-34.066069],[151.088082,-34.066266],[151.087814,-34.066433],[151.087537,-34.066555],[151.087264,-34.066617],[151.086989,-34.066603],[151.086704,-34.066525],[151.086417,-34.066402],[151.086136,-34.066257],[151.085868,-34.066111],[151.085512,-34.06587],[151.085186,-34.065575],[151.08514,-34.065528],[151.084873,-34.065256],[151.084556,-34.06494],[151.084219,-34.064656],[151.083927,-34.064445],[151.08363,-34.06424],[151.083327,-34.064045],[151.083015,-34.063866],[151.082696,-34.063707],[151.082284,-34.063551],[151.081854,-34.063434],[151.081415,-34.063337],[151.080974,-34.063244],[151.080539,-34.063138],[151.080273,-34.063059],[151.080008,-34.062975],[151.079742,-34.062893],[151.079476,-34.062818],[151.079206,-34.062758],[151.078918,-34.062712],[151.078627,-34.062678],[151.078334,-34.062655],[151.07804,-34.06264],[151.077747,-34.062632],[151.077367,-34.062635],[151.076986,-34.062656],[151.076605,-34.062688],[151.076224,-34.062724],[151.075844,-34.062758],[151.075259,-34.062811],[151.074675,-34.062872],[151.074092,-34.062937],[151.073508,-34.063006],[151.072925,-34.063075],[151.072519,-34.063122],[151.072235,-34.063154],[151.07231,-34.062697],[151.07232,-34.062641],[151.072494,-34.061678],[151.072514,-34.061574],[151.072534,-34.061471],[151.072776,-34.06016],[151.072915,-34.059413],[151.072841,-34.059403],[151.072703,-34.059385],[151.071413,-34.05922],[151.071651,-34.057945],[151.073155,-34.058138],[151.073185,-34.058143],[151.073205,-34.058043],[151.073288,-34.058053],[151.073595,-34.056536],[151.073625,-34.056392],[151.073887,-34.055095],[151.074266,-34.053225],[151.074273,-34.053185],[151.074576,-34.051526],[151.074561,-34.051415],[151.074551,-34.051348],[151.074455,-34.05113],[151.074593,-34.05049],[151.074635,-34.050297],[151.074681,-34.050221],[151.074731,-34.050167],[151.074806,-34.050111],[151.074876,-34.050075],[151.074971,-34.050045],[151.075031,-34.050035],[151.076024,-34.049987],[151.076113,-34.049971],[151.075991,-34.0499],[151.075595,-34.049722],[151.075532,-34.049552],[151.075814,-34.049475],[151.075892,-34.049388],[151.075843,-34.049312],[151.075806,-34.049228],[151.075736,-34.04928],[151.075492,-34.049353],[151.075332,-34.049413],[151.075254,-34.049426],[151.075147,-34.049382],[151.075038,-34.049345],[151.074933,-34.049324],[151.074982,-34.049095],[151.0746,-34.049018],[151.074269,-34.048818],[151.074315,-34.048616],[151.074333,-34.048549],[151.074175,-34.048514],[151.074101,-34.048473],[151.074061,-34.048442],[151.073754,-34.048171],[151.073278,-34.047731],[151.073165,-34.047642],[151.073038,-34.047567],[151.072931,-34.047519],[151.072825,-34.047489],[151.072659,-34.047461],[151.072574,-34.047442],[151.072465,-34.047406],[151.072362,-34.047361],[151.072266,-34.047305],[151.07214,-34.047196],[151.071978,-34.047061],[151.071768,-34.046915],[151.071747,-34.046962],[151.071517,-34.046825],[151.071572,-34.046562],[151.071685,-34.046013],[151.071621,-34.045753],[151.071582,-34.045601],[151.071297,-34.045573],[151.071109,-34.045458],[151.071032,-34.04528],[151.070347,-34.045487],[151.069989,-34.045592],[151.06975,-34.045567],[151.067937,-34.044181],[151.067744,-34.044034],[151.067637,-34.044127],[151.067007,-34.043331],[151.067172,-34.04303],[151.067207,-34.042982],[151.067167,-34.042956],[151.067118,-34.042932],[151.067068,-34.04291],[151.06699,-34.042882],[151.066828,-34.042844],[151.066772,-34.042837],[151.066683,-34.042834],[151.066618,-34.042824],[151.066554,-34.042808],[151.066473,-34.042778],[151.066416,-34.042748],[151.066364,-34.042714],[151.066147,-34.042538],[151.065808,-34.042664],[151.065773,-34.042677],[151.065717,-34.042603],[151.065329,-34.042276],[151.065255,-34.042275],[151.06531,-34.041973],[151.065378,-34.041593],[151.06545,-34.041199],[151.065348,-34.041184],[151.064788,-34.041102],[151.064083,-34.041],[151.063254,-34.040879],[151.061302,-34.040595],[151.060627,-34.040496],[151.060022,-34.040412],[151.059434,-34.040295],[151.059772,-34.040158],[151.061595,-34.039433],[151.062573,-34.039048],[151.062917,-34.038909],[151.063657,-34.038617],[151.063778,-34.03857],[151.064142,-34.038415],[151.064285,-34.038347],[151.064446,-34.038262],[151.064602,-34.038167],[151.064748,-34.038064],[151.064885,-34.037952],[151.064971,-34.037874],[151.065014,-34.037833],[151.065174,-34.037668],[151.065289,-34.03754],[151.065464,-34.037319],[151.065586,-34.037131],[151.065664,-34.036985],[151.065701,-34.036903],[151.065782,-34.036681],[151.065836,-34.036473],[151.065886,-34.036265],[151.065944,-34.036004],[151.065987,-34.035799],[151.066032,-34.035585],[151.066084,-34.035323],[151.066132,-34.035088],[151.066204,-34.034748],[151.066326,-34.034228],[151.066364,-34.034047],[151.066526,-34.033288],[151.066571,-34.033079],[151.066687,-34.032504],[151.066717,-34.032348],[151.066818,-34.031878],[151.066962,-34.031548],[151.066288,-34.031307],[151.06554,-34.03101],[151.065336,-34.030932],[151.064376,-34.030566],[151.063774,-34.030332],[151.063553,-34.03025],[151.062914,-34.030021],[151.062738,-34.029959],[151.06255,-34.029887],[151.062146,-34.029748],[151.061969,-34.029696],[151.061631,-34.029601],[151.061162,-34.029428],[151.06061,-34.029228],[151.06049,-34.029189],[151.06037,-34.029153],[151.06025,-34.029118],[151.060128,-34.029086],[151.059945,-34.02904],[151.059821,-34.029012],[151.059634,-34.028976],[151.059208,-34.02891],[151.05922,-34.028892],[151.059599,-34.028424],[151.059843,-34.028106],[151.059882,-34.028054],[151.059962,-34.027945],[151.060629,-34.027008],[151.060858,-34.026681],[151.061352,-34.025977],[151.06159,-34.025651],[151.061784,-34.025397],[151.061857,-34.025304],[151.062377,-34.02464],[151.062567,-34.024382],[151.062769,-34.024094],[151.062966,-34.023802],[151.062994,-34.02376],[151.063158,-34.023507],[151.063344,-34.023208],[151.063523,-34.022906],[151.063677,-34.022637],[151.063827,-34.022367],[151.063972,-34.022093],[151.064089,-34.021852],[151.064107,-34.021815],[151.06423,-34.021533],[151.064336,-34.021261],[151.064433,-34.020985],[151.064521,-34.020705],[151.06456,-34.020568],[151.064599,-34.020423],[151.064645,-34.020231],[151.064667,-34.020139],[151.064722,-34.019868],[151.064769,-34.019594],[151.064788,-34.019454],[151.064792,-34.019421],[151.064806,-34.019319],[151.064834,-34.019042],[151.064854,-34.018766],[151.064858,-34.018642],[151.064864,-34.018484],[151.064865,-34.0182],[151.064856,-34.017917],[151.064838,-34.017634],[151.064819,-34.017434],[151.064816,-34.017357],[151.064814,-34.017292],[151.064806,-34.017149],[151.064797,-34.017032],[151.064767,-34.016722],[151.064669,-34.016087],[151.064637,-34.015876],[151.064626,-34.015783],[151.06454,-34.015253],[151.064527,-34.015146],[151.064464,-34.014717],[151.064433,-34.014534],[151.064416,-34.014429],[151.064388,-34.014219],[151.064377,-34.014098],[151.06437,-34.014008],[151.064365,-34.013895],[151.064363,-34.013762],[151.064363,-34.013668],[151.064366,-34.013555],[151.064372,-34.013421],[151.064378,-34.013326],[151.064389,-34.01321],[151.064401,-34.013094],[151.064416,-34.012979],[151.064433,-34.01287],[151.064446,-34.012765],[151.064461,-34.012667],[151.064484,-34.012543],[151.064505,-34.012448],[151.064532,-34.012339],[151.064549,-34.012282],[151.064563,-34.012231],[151.064597,-34.012124],[151.064637,-34.012012],[151.064682,-34.0119],[151.064729,-34.011792],[151.064832,-34.011571],[151.064893,-34.011447],[151.064957,-34.011323],[151.065024,-34.0112],[151.065094,-34.011079],[151.065168,-34.010959],[151.065258,-34.010822],[151.065352,-34.010686],[151.065451,-34.010553],[151.065555,-34.010422],[151.065662,-34.010293],[151.06583,-34.010111],[151.06589,-34.01005],[151.066004,-34.009934],[151.06618,-34.009764],[151.066346,-34.009613],[151.066434,-34.009537],[151.066522,-34.009462],[151.066611,-34.009392],[151.066975,-34.009119],[151.067154,-34.00898],[151.068415,-34.009087],[151.06872,-34.009156],[151.069366,-34.009217],[151.070019,-34.008612],[151.070231,-34.008289],[151.070357,-34.008085],[151.070455,-34.007939],[151.070784,-34.007621],[151.071143,-34.007349],[151.0712,-34.007293],[151.071298,-34.007148],[151.071497,-34.006751],[151.071543,-34.006611],[151.071549,-34.006478],[151.071502,-34.006151],[151.071468,-34.005977],[151.071386,-34.005802],[151.071166,-34.005531],[151.071033,-34.005417],[151.070912,-34.005344],[151.070726,-34.005272],[151.070628,-34.005216],[151.070574,-34.005159],[151.070507,-34.00507],[151.070469,-34.004961],[151.070414,-34.00476],[151.070389,-34.00463],[151.070389,-34.004569],[151.070418,-34.004369],[151.070475,-34.004158],[151.070488,-34.004056],[151.070486,-34.003926],[151.070475,-34.003817],[151.070448,-34.003729],[151.070419,-34.003654],[151.070235,-34.003369],[151.070005,-34.003055],[151.069705,-34.002634],[151.069583,-34.002529],[151.069718,-34.0024],[151.069992,-34.002287],[151.070161,-34.002275],[151.070129,-34.00214],[151.070122,-34.001928],[151.070084,-34.001746],[151.070126,-34.001544],[151.070432,-34.001177],[151.070596,-34.001026],[151.070867,-34.000864],[151.071045,-34.000679],[151.071337,-34.000479],[151.071486,-34.000266],[151.07156,-34.00013],[151.071663,-33.99988],[151.071717,-33.999738],[151.071754,-33.999522],[151.071804,-33.99941],[151.071858,-33.999125],[151.071972,-33.99884],[151.072183,-33.998665],[151.072459,-33.998232],[151.072545,-33.998108],[151.072703,-33.997881],[151.072824,-33.997682],[151.07291,-33.997547],[151.07304,-33.997224],[151.073262,-33.996591],[151.073279,-33.996091],[151.073289,-33.996058],[151.07327,-33.99586],[151.072604,-33.995809],[151.071017,-33.995166],[151.070665,-33.994986],[151.070411,-33.994864],[151.070287,-33.994783],[151.069427,-33.994221],[151.06871,-33.993352],[151.068331,-33.992369],[151.06799,-33.991386],[151.067612,-33.990441],[151.067007,-33.989799],[151.066138,-33.989459],[151.06523,-33.989383],[151.063982,-33.988892],[151.063111,-33.988174],[151.062242,-33.987342],[151.061371,-33.986662],[151.0602,-33.986473],[151.059179,-33.986775],[151.058495,-33.987158],[151.057969,-33.987872],[151.056948,-33.989308],[151.055775,-33.990631],[151.054375,-33.991878],[151.053014,-33.992634],[151.051917,-33.992936],[151.050593,-33.992974],[151.049459,-33.992898],[151.04821,-33.992634],[151.046282,-33.992407],[151.044618,-33.992331],[151.042689,-33.992218],[151.041176,-33.991953],[151.039814,-33.991689],[151.038717,-33.991765],[151.037582,-33.99184],[151.036183,-33.992029],[151.035313,-33.991916],[151.034708,-33.991575],[151.03433,-33.990971],[151.034179,-33.990215],[151.034065,-33.989761],[151.033838,-33.989005],[151.033498,-33.988514],[151.032931,-33.987872],[151.032363,-33.987191],[151.031947,-33.986737],[151.031682,-33.986133],[151.03172,-33.985339],[151.032174,-33.984545],[151.032892,-33.983676],[151.033687,-33.983298],[151.034481,-33.983185],[151.035427,-33.983185],[151.036713,-33.983185],[151.03762,-33.983033],[151.038301,-33.982693],[151.038642,-33.98224],[151.038717,-33.981673],[151.038415,-33.981143],[151.037809,-33.980766],[151.037166,-33.980312],[151.036751,-33.979631],[151.03641,-33.979178],[151.035956,-33.978384],[151.035744,-33.977918],[151.035578,-33.977553],[151.035237,-33.977062],[151.034746,-33.976646],[151.034065,-33.976457],[151.033271,-33.976457],[151.032514,-33.976532],[151.031417,-33.977099],[151.030094,-33.977515],[151.027635,-33.977742],[151.02582,-33.978006],[151.024837,-33.977931],[151.024042,-33.977591],[151.023513,-33.977137],[151.022794,-33.976683],[151.022733,-33.976673],[151.021924,-33.976532],[151.020865,-33.976721],[151.020033,-33.977175],[151.019352,-33.977704],[151.018407,-33.978876],[151.016894,-33.980652],[151.015684,-33.982013],[151.015583,-33.982079],[151.0147,-33.982655],[151.013452,-33.983185],[151.012091,-33.9836],[151.01141,-33.9836],[151.010729,-33.983487],[151.010124,-33.983071],[151.009632,-33.982693],[151.008914,-33.982391],[151.008119,-33.982315],[151.007418,-33.982484],[151.006644,-33.982618],[151.005926,-33.982542],[151.005455,-33.982259],[151.005225,-33.981855],[151.005063,-33.98117],[151.004914,-33.980261],[151.004451,-33.979631],[151.004223,-33.979367],[151.003749,-33.979385],[151.002978,-33.979851],[151.002599,-33.980165],[151.002165,-33.980693],[151.001651,-33.981467],[151.001461,-33.981714],[151.001299,-33.982006],[151.001015,-33.982253],[151.000784,-33.982444],[151.000297,-33.982657],[150.999173,-33.982904],[150.998147,-33.982648],[150.997139,-33.982325],[150.996059,-33.981677],[150.994727,-33.980201],[150.994521,-33.979816],[150.994113,-33.979049],[150.994546,-33.977826],[150.996274,-33.976314],[150.998147,-33.975126],[150.997427,-33.974047],[150.995734,-33.972931],[150.994496,-33.972047],[150.99401,-33.9717],[150.993969,-33.971671],[150.992529,-33.970088],[150.991232,-33.968072],[150.990725,-33.967524],[150.989722,-33.966439],[150.98888,-33.965888],[150.988092,-33.965598],[150.985857,-33.965625],[150.98495,-33.965705],[150.983754,-33.965809],[150.982413,-33.965493],[150.981151,-33.964915],[150.980797,-33.964238],[150.98052,-33.963707],[150.980309,-33.962183],[150.980453,-33.961291],[150.980625,-33.960213],[150.981124,-33.959056],[150.981992,-33.957973],[150.982281,-33.957611],[150.982912,-33.956534],[150.982807,-33.95572],[150.982045,-33.954932],[150.98123,-33.954433],[150.979862,-33.953644],[150.978943,-33.953292],[150.978183,-33.953001],[150.976973,-33.952829],[150.975532,-33.952714],[150.973804,-33.952081],[150.973284,-33.951405],[150.973227,-33.951333],[150.97219,-33.949605],[150.970865,-33.947186],[150.970677,-33.946946],[150.969827,-33.945862],[150.968675,-33.945171],[150.967119,-33.944538],[150.966197,-33.943616],[150.966087,-33.942919],[150.966024,-33.942522],[150.966485,-33.941313],[150.967926,-33.939931],[150.968617,-33.938203],[150.968486,-33.936891],[150.968444,-33.936476],[150.967695,-33.934978],[150.967522,-33.932848],[150.968598,-33.931074],[150.9686,-33.930582],[150.968569,-33.92977],[150.968784,-33.929767],[150.968894,-33.929762],[150.968845,-33.928482],[150.968094,-33.928502],[150.965673,-33.928571],[150.965234,-33.928586],[150.964106,-33.928624],[150.963595,-33.928638],[150.962701,-33.928661],[150.962275,-33.928675],[150.961487,-33.9287],[150.960968,-33.928713],[150.960592,-33.928725],[150.959888,-33.928748],[150.959249,-33.928765],[150.957128,-33.928832],[150.956692,-33.928849],[150.956308,-33.928861],[150.955777,-33.928872],[150.955699,-33.928875],[150.954468,-33.928909],[150.953334,-33.928945],[150.952996,-33.928954],[150.950058,-33.92904],[150.948152,-33.929096],[150.946998,-33.92913],[150.945286,-33.929181],[150.94372,-33.929227],[150.942992,-33.929247],[150.942506,-33.929262],[150.942057,-33.929287],[150.941615,-33.929345],[150.941241,-33.929415],[150.940941,-33.929494],[150.940813,-33.929526],[150.940668,-33.929572],[150.940451,-33.929637],[150.939795,-33.929845],[150.939314,-33.92999],[150.938822,-33.930107],[150.938632,-33.930137],[150.938379,-33.930167],[150.938223,-33.930176],[150.937996,-33.93019],[150.937739,-33.930192],[150.937483,-33.930181],[150.937039,-33.930132],[150.936663,-33.930063],[150.936296,-33.929969],[150.936176,-33.929931],[150.936051,-33.929888],[150.935824,-33.929805],[150.935706,-33.929763],[150.935473,-33.929674],[150.935242,-33.929585],[150.934484,-33.9293],[150.933844,-33.929055],[150.933029,-33.928745],[150.932191,-33.928474],[150.931604,-33.928285],[150.931124,-33.928135],[150.931026,-33.928102],[150.930547,-33.927922],[150.9302,-33.927776],[150.930092,-33.927729],[150.929824,-33.92761],[150.929494,-33.927457],[150.929083,-33.927288],[150.928596,-33.927097],[150.928113,-33.926893],[150.928103,-33.927],[150.928092,-33.927138],[150.927962,-33.927805],[150.927735,-33.928391],[150.927689,-33.92847],[150.927206,-33.929303],[150.926886,-33.929831],[150.926514,-33.930394],[150.926024,-33.930955],[150.925533,-33.931537],[150.924957,-33.93213],[150.924547,-33.932463],[150.923971,-33.932918],[150.923408,-33.933389],[150.922831,-33.93388],[150.922158,-33.934486],[150.92176,-33.93486],[150.921521,-33.935159],[150.921257,-33.935466],[150.921023,-33.935812],[150.920829,-33.93609],[150.920793,-33.936126],[150.920781,-33.936139],[150.920735,-33.936195],[150.920695,-33.936255],[150.920621,-33.936381],[150.920583,-33.936443],[150.920278,-33.9369],[150.920024,-33.937292],[150.919958,-33.937388],[150.919907,-33.937458],[150.91975,-33.937667],[150.919699,-33.937738],[150.919652,-33.937807],[150.91956,-33.937947],[150.919433,-33.938149],[150.919185,-33.938565],[150.91912,-33.938682],[150.919097,-33.938727],[150.919053,-33.938818],[150.919015,-33.938904],[150.918927,-33.939096],[150.918521,-33.939052],[150.918369,-33.939036],[150.917625,-33.940541],[150.915983,-33.943858],[150.915366,-33.945104],[150.915279,-33.945262],[150.915186,-33.945418],[150.91517,-33.945442],[150.915087,-33.945569],[150.914983,-33.945716],[150.914868,-33.945859],[150.914746,-33.945997],[150.91382,-33.946967],[150.913641,-33.947159],[150.913543,-33.94727],[150.913468,-33.947356],[150.913232,-33.947639],[150.913,-33.947927],[150.912779,-33.948223],[150.912572,-33.948527],[150.912417,-33.948789],[150.912386,-33.948841],[150.912231,-33.949131],[150.912086,-33.949429],[150.911957,-33.949733],[150.911848,-33.950043],[150.911767,-33.950357],[150.911722,-33.950651],[150.911702,-33.950932],[150.911697,-33.951225],[150.911705,-33.951811],[150.911722,-33.952116],[150.91179,-33.952725],[150.91181,-33.953028],[150.911798,-33.953327],[150.911754,-33.953618],[150.911689,-33.953908],[150.911605,-33.954194],[150.911506,-33.954476],[150.911396,-33.954751],[150.911272,-33.955015],[150.911212,-33.955124],[150.91113,-33.955273],[150.910977,-33.955525],[150.910654,-33.956019],[150.910421,-33.956362],[150.910178,-33.956699],[150.909924,-33.957028],[150.90966,-33.957348],[150.909386,-33.957659],[150.909145,-33.957912],[150.908894,-33.958156],[150.908638,-33.958394],[150.907905,-33.95906],[150.907473,-33.959445],[150.907037,-33.959825],[150.906975,-33.959879],[150.905435,-33.961248],[150.905265,-33.9614],[150.903038,-33.963378],[150.900744,-33.965416],[150.900904,-33.964701],[150.900696,-33.964825],[150.900413,-33.965044],[150.899979,-33.965365],[150.899454,-33.96576],[150.898727,-33.966366],[150.898209,-33.96619],[150.897797,-33.966147],[150.897537,-33.966179],[150.896827,-33.966124],[150.896358,-33.966057],[150.892808,-33.965548],[150.891735,-33.965394],[150.890857,-33.965259],[150.889122,-33.96502],[150.887608,-33.964812],[150.88731,-33.964772],[150.886365,-33.964653],[150.885098,-33.964496],[150.884312,-33.964399],[150.883067,-33.964227],[150.882807,-33.964196],[150.88008,-33.963815],[150.87958,-33.963622],[150.87935,-33.963769],[150.879,-33.964003],[150.877269,-33.965158],[150.875896,-33.966067],[150.874485,-33.966893],[150.872463,-33.96794],[150.871316,-33.968529],[150.870964,-33.968732],[150.87017,-33.969179],[150.869133,-33.969782],[150.867331,-33.970693],[150.866879,-33.970923],[150.866839,-33.970943],[150.865337,-33.971706],[150.864348,-33.972026],[150.86307,-33.972226],[150.862115,-33.972376],[150.861889,-33.972457],[150.861053,-33.972755],[150.860789,-33.972893],[150.8601,-33.973255],[150.859301,-33.973675],[150.858956,-33.973858],[150.85881,-33.973943],[150.858659,-33.973992],[150.858614,-33.974006],[150.856666,-33.974665],[150.856473,-33.97473],[150.856725,-33.975295],[150.857159,-33.976122],[150.857252,-33.976335],[150.857414,-33.976594],[150.857714,-33.977539],[150.857819,-33.977922],[150.857873,-33.978021],[150.857822,-33.97819],[150.857834,-33.978188],[150.857846,-33.978186],[150.857853,-33.978184],[150.857851,-33.978198],[150.857826,-33.978408],[150.85798,-33.978807],[150.858166,-33.979471],[150.858228,-33.979797],[150.858242,-33.979909],[150.858266,-33.98009],[150.858269,-33.980289],[150.858271,-33.980444],[150.858235,-33.980882],[150.858145,-33.981337],[150.858111,-33.981441],[150.858035,-33.981679],[150.857933,-33.981951],[150.857623,-33.98255],[150.857547,-33.982729],[150.857466,-33.982957],[150.85734,-33.983354],[150.857162,-33.983778],[150.856964,-33.98418],[150.85686,-33.984432],[150.856805,-33.984599],[150.856793,-33.98478],[150.856781,-33.985003],[150.856831,-33.985379],[150.856868,-33.98557],[150.856646,-33.985731],[150.856426,-33.985896],[150.856258,-33.986023],[150.856029,-33.986202],[150.855803,-33.986383],[150.855579,-33.986566],[150.855358,-33.986751],[150.855064,-33.987],[150.854773,-33.987251],[150.85466,-33.987352],[150.854451,-33.98751],[150.854315,-33.987619],[150.854248,-33.987675],[150.854201,-33.987716],[150.85422,-33.987759],[150.853945,-33.988038],[150.853733,-33.988269],[150.853527,-33.988504],[150.853329,-33.988744],[150.853137,-33.988988],[150.852954,-33.989235],[150.852749,-33.989485],[150.852547,-33.989735],[150.852347,-33.989987],[150.852148,-33.99024],[150.851951,-33.990494],[150.851746,-33.990764],[150.851545,-33.991035],[150.850688,-33.992203],[150.85018,-33.992904],[150.849921,-33.993252],[150.849655,-33.993596],[150.849407,-33.993905],[150.849154,-33.994211],[150.848897,-33.994514],[150.848636,-33.994815],[150.848371,-33.995113],[150.848109,-33.995403],[150.847843,-33.99569],[150.847572,-33.995975],[150.847296,-33.996256],[150.847012,-33.996531],[150.846691,-33.996823],[150.846358,-33.997106],[150.84602,-33.997386],[150.845679,-33.997664],[150.844807,-33.998426],[150.844724,-33.998496],[150.844582,-33.998611],[150.844438,-33.998723],[150.844257,-33.998856],[150.844072,-33.998986],[150.843884,-33.999113],[150.843031,-33.999684],[150.84255,-34.0],[150.842309,-34.000157],[150.841894,-34.00042],[150.841062,-34.000938],[150.84023,-34.001449],[150.839843,-34.001681],[150.83951,-34.002232],[150.839428,-34.002367],[150.839032,-34.003031],[150.838755,-34.003196],[150.837912,-34.003695],[150.837486,-34.00395],[150.836561,-34.004513],[150.836229,-34.00472],[150.836034,-34.004848],[150.835841,-34.004978],[150.835266,-34.00537],[150.834769,-34.005701],[150.834604,-34.005812],[150.834441,-34.005924],[150.834081,-34.00618],[150.833903,-34.006309],[150.833728,-34.006441],[150.833556,-34.006575],[150.833421,-34.006685],[150.833289,-34.006795],[150.832897,-34.007133],[150.832488,-34.007489],[150.832494,-34.006977],[150.828677,-34.010694],[150.827635,-34.012343],[150.827901,-34.012732],[150.828087,-34.013],[150.828186,-34.0129],[150.828344,-34.012716],[150.828421,-34.01263],[150.828501,-34.012546],[150.828587,-34.012465],[150.828676,-34.012386],[150.828769,-34.012311],[150.82882,-34.012272],[150.828865,-34.012238],[150.828966,-34.012169],[150.829069,-34.012103],[150.829171,-34.012043],[150.82926,-34.011994],[150.829314,-34.011967],[150.829361,-34.011943],[150.829492,-34.011883],[150.829589,-34.011843],[150.829706,-34.011798],[150.829828,-34.011757],[150.829916,-34.01173],[150.829998,-34.011708],[150.83007,-34.011689],[150.830148,-34.01167],[150.830232,-34.011653],[150.830321,-34.011636],[150.830406,-34.011622],[150.830502,-34.011609],[150.830624,-34.011595],[150.830706,-34.011588],[150.830757,-34.011585],[150.830847,-34.01158],[150.830946,-34.011578],[150.831033,-34.011577],[150.831139,-34.01158],[150.831839,-34.011607],[150.831992,-34.011609],[150.832803,-34.011646],[150.833353,-34.011672],[150.833941,-34.011701],[150.834205,-34.011713],[150.836966,-34.011828],[150.83702,-34.011838],[150.836988,-34.012084],[150.837317,-34.012114],[150.837426,-34.012121],[150.837455,-34.011909],[150.838041,-34.012009],[150.839663,-34.012283],[150.83997,-34.012334],[150.840427,-34.012412],[150.840533,-34.012429],[150.840914,-34.012494],[150.842176,-34.012707],[150.84236,-34.012735],[150.844114,-34.013026],[150.844913,-34.013162],[150.845551,-34.013268],[150.847717,-34.013605],[150.847949,-34.013653],[150.84822,-34.013709],[150.84936,-34.013904],[150.849524,-34.013312],[150.852268,-34.013826],[150.852241,-34.013924],[150.852111,-34.01438],[150.852659,-34.014477],[150.852741,-34.014556],[150.85275,-34.014535],[150.852854,-34.014334],[150.852976,-34.014235],[150.853181,-34.014085],[150.853188,-34.014099],[150.853422,-34.014613],[150.85432,-34.014762],[150.854975,-34.014869],[150.855703,-34.014989],[150.85606,-34.015047],[150.856424,-34.015108],[150.856606,-34.015137],[150.856978,-34.015199],[150.856993,-34.015204],[150.858066,-34.015388],[150.858208,-34.015413],[150.858359,-34.015438],[150.858908,-34.015533],[150.859494,-34.015632],[150.859447,-34.015798],[150.859768,-34.015854],[150.859528,-34.016648],[150.859541,-34.016925],[150.859685,-34.01691],[150.8598,-34.016887],[150.859902,-34.016862],[150.861195,-34.016464],[150.861424,-34.016393],[150.865909,-34.014987],[150.866784,-34.014701],[150.867054,-34.014613],[150.867716,-34.014404],[150.867895,-34.014347],[150.867918,-34.014484],[150.867838,-34.014699],[150.867737,-34.014916],[150.867688,-34.015028],[150.867375,-34.015777],[150.867319,-34.015915],[150.867235,-34.016128],[150.870586,-34.017198],[150.871058,-34.017564],[150.873237,-34.019252],[150.873316,-34.019313],[150.872568,-34.019975],[150.874568,-34.02154],[150.874626,-34.021474],[150.874711,-34.021408],[150.874804,-34.021355],[150.874882,-34.02127],[150.874971,-34.021215],[150.875138,-34.021208],[150.875324,-34.021218],[150.875531,-34.021299],[150.875607,-34.021389],[150.875718,-34.021478],[150.87586,-34.02159],[150.875996,-34.021701],[150.876116,-34.021797],[150.876215,-34.021851],[150.876316,-34.021824],[150.87642,-34.021735],[150.876447,-34.021702],[150.876512,-34.021618],[150.876602,-34.021536],[150.876688,-34.021445],[150.876774,-34.021282],[150.876801,-34.021244],[150.876868,-34.021167],[150.87698,-34.021057],[150.877075,-34.020988],[150.877116,-34.020927],[150.877213,-34.020787],[150.877295,-34.020688],[150.877317,-34.020662],[150.877461,-34.020527],[150.877643,-34.020397],[150.877755,-34.020356],[150.877862,-34.020298],[150.87799,-34.020243],[150.878014,-34.020261],[150.878125,-34.020349],[150.879045,-34.02107],[150.880586,-34.02228],[150.881465,-34.022969],[150.881465,-34.022923],[150.883216,-34.021726],[150.883644,-34.022534],[150.884345,-34.022411],[150.885234,-34.023673],[150.885264,-34.024443],[150.885517,-34.024942],[150.886365,-34.024936],[150.886481,-34.024934],[150.886478,-34.024965],[150.886491,-34.025037],[150.886495,-34.025054],[150.886503,-34.025461],[150.88647,-34.0257],[150.886406,-34.025865],[150.886364,-34.025927],[150.886332,-34.026009],[150.886331,-34.026052],[150.886296,-34.026094],[150.886277,-34.026356],[150.886282,-34.026581],[150.886282,-34.026802],[150.886273,-34.026995],[150.886254,-34.027082],[150.886266,-34.027143],[150.886252,-34.027182],[150.886245,-34.02744],[150.886222,-34.027683],[150.886179,-34.028041],[150.886176,-34.02817],[150.886152,-34.028427],[150.886112,-34.02867],[150.886191,-34.029128],[150.886221,-34.029427],[150.886235,-34.029571],[150.886235,-34.030015],[150.886302,-34.03048],[150.886347,-34.030747],[150.886438,-34.031082],[150.886443,-34.031269],[150.886486,-34.031443],[150.886537,-34.031644],[150.886598,-34.031931],[150.886657,-34.032115],[150.891967,-34.032905],[150.892767,-34.033861],[150.89534,-34.035267],[150.899819,-34.035805],[150.903698,-34.034035],[150.903808,-34.033986],[150.906394,-34.033475],[150.906602,-34.033483],[150.906686,-34.033679],[150.90673,-34.033777],[150.906775,-34.033874],[150.906823,-34.033971],[150.906914,-34.034142],[150.906962,-34.034227],[150.907012,-34.034311],[150.907064,-34.034394],[150.907119,-34.034476],[150.907175,-34.034557],[150.907233,-34.034637],[150.907293,-34.034716],[150.907355,-34.034794],[150.907465,-34.034923],[150.907582,-34.035049],[150.907704,-34.035173],[150.907863,-34.035331],[150.912361,-34.035975],[150.912607,-34.036011],[150.912597,-34.03598],[150.912639,-34.035766],[150.919198,-34.036725],[150.919184,-34.036731],[150.91913,-34.036806],[150.919035,-34.036927],[150.932997,-34.038926],[150.938662,-34.039733],[150.940791,-34.040033],[150.940735,-34.040232],[150.940733,-34.040276],[150.940609,-34.04046],[150.940343,-34.040781],[150.940256,-34.040812],[150.94001,-34.041052],[150.93992,-34.041236],[150.939981,-34.041524],[150.940098,-34.041698],[150.940282,-34.041887],[150.940365,-34.042018],[150.940382,-34.042033],[150.94043,-34.042176],[150.940441,-34.042449],[150.940367,-34.042634],[150.940313,-34.042747],[150.940258,-34.04289],[150.940245,-34.042907],[150.940205,-34.042961],[150.940204,-34.043004],[150.940005,-34.043387],[150.939864,-34.043557],[150.939846,-34.043599],[150.939668,-34.043774],[150.939373,-34.043936],[150.938832,-34.044314],[150.938553,-34.044481],[150.938377,-34.044636],[150.938307,-34.044677],[150.938235,-34.044805],[150.938201,-34.044819],[150.938174,-34.044889],[150.938164,-34.044933],[150.938019,-34.045246],[150.938013,-34.045461],[150.937975,-34.045646],[150.937932,-34.045989],[150.937911,-34.046132],[150.937866,-34.046259],[150.937856,-34.046289],[150.937794,-34.046732],[150.93779,-34.04689],[150.937912,-34.047522],[150.937903,-34.047909],[150.937867,-34.04798],[150.937866,-34.048038],[150.937794,-34.048208],[150.937542,-34.048662],[150.937505,-34.048762],[150.93747,-34.048804],[150.937379,-34.048975],[150.937326,-34.049017],[150.937274,-34.049074],[150.93715,-34.049201],[150.936818,-34.04941],[150.936766,-34.049423],[150.936679,-34.049479],[150.936558,-34.04952],[150.93581,-34.049909],[150.935653,-34.050016],[150.93565,-34.050121],[150.935614,-34.050207],[150.935586,-34.050607],[150.935694,-34.051139],[150.935705,-34.051426],[150.935733,-34.05167],[150.935714,-34.051742],[150.935743,-34.051971],[150.935802,-34.052388],[150.93583,-34.052532],[150.935832,-34.052546],[150.935899,-34.052619],[150.936013,-34.052907],[150.936228,-34.053254],[150.936262,-34.053284],[150.936495,-34.053603],[150.937129,-34.054401],[150.937161,-34.054502],[150.937151,-34.054903],[150.937113,-34.055032],[150.937076,-34.055087],[150.936989,-34.055216],[150.936813,-34.055371],[150.936655,-34.055497],[150.936359,-34.055664],[150.936254,-34.055748],[150.935572,-34.056196],[150.935432,-34.056308],[150.935415,-34.056308],[150.935185,-34.056562],[150.935168,-34.05659],[150.935127,-34.056847],[150.935143,-34.056891],[150.935157,-34.057034],[150.935132,-34.057334],[150.935124,-34.057693],[150.935069,-34.057806],[150.935016,-34.057877],[150.935015,-34.05792],[150.934927,-34.058019],[150.934839,-34.058075],[150.934734,-34.058173],[150.934577,-34.058271],[150.934454,-34.058384],[150.93433,-34.058539],[150.93431,-34.058639],[150.934309,-34.058696],[150.934324,-34.058783],[150.934322,-34.058869],[150.934371,-34.05897],[150.934807,-34.059435],[150.934891,-34.059523],[150.934975,-34.059596],[150.935125,-34.059799],[150.935391,-34.060147],[150.93554,-34.060408],[150.935588,-34.060523],[150.935604,-34.060609],[150.935602,-34.060681],[150.935618,-34.060724],[150.935589,-34.060938],[150.935576,-34.061039],[150.935581,-34.061526],[150.935559,-34.061741],[150.935522,-34.061854],[150.935533,-34.062084],[150.93555,-34.062127],[150.935563,-34.062271],[150.935776,-34.062733],[150.93592,-34.063165],[150.935967,-34.063366],[150.936031,-34.063554],[150.936196,-34.063843],[150.936381,-34.064033],[150.936668,-34.064238],[150.936872,-34.064327],[150.937282,-34.064449],[150.937417,-34.064537],[150.937467,-34.064609],[150.9375,-34.064653],[150.937418,-34.064821],[150.93741,-34.064838],[150.937356,-34.064909],[150.93732,-34.064994],[150.937231,-34.065121],[150.937018,-34.06539],[150.936947,-34.065503],[150.936841,-34.065631],[150.936465,-34.066226],[150.936301,-34.066596],[150.936264,-34.066739],[150.936242,-34.06691],[150.936224,-34.066953],[150.936223,-34.066982],[150.936216,-34.067268],[150.936125,-34.06751],[150.935943,-34.067908],[150.935889,-34.067993],[150.935688,-34.068506],[150.935703,-34.068578],[150.935717,-34.068736],[150.935732,-34.068808],[150.935714,-34.068864],[150.936081,-34.069329],[150.936417,-34.069621],[150.937022,-34.070233],[150.937392,-34.070555],[150.937733,-34.070689],[150.937937,-34.07075],[150.938057,-34.070833],[150.937983,-34.070994],[150.93784,-34.071236],[150.937769,-34.071321],[150.937607,-34.071604],[150.937589,-34.071661],[150.937536,-34.071732],[150.937444,-34.07196],[150.937441,-34.072103],[150.937466,-34.072476],[150.937444,-34.073393],[150.937337,-34.074236],[150.937304,-34.074909],[150.937269,-34.075067],[150.937173,-34.075351],[150.936889,-34.075705],[150.936644,-34.075916],[150.936591,-34.075943],[150.936451,-34.076056],[150.936277,-34.076167],[150.935684,-34.076487],[150.935182,-34.076622],[150.934941,-34.076647],[150.934647,-34.076728],[150.934384,-34.076924],[150.93426,-34.077094],[150.934241,-34.077151],[150.934063,-34.077406],[150.933922,-34.077532],[150.933607,-34.077756],[150.933466,-34.077926],[150.933435,-34.078041],[150.933428,-34.078069],[150.933426,-34.07814],[150.933455,-34.07837],[150.933582,-34.078816],[150.933622,-34.079304],[150.933812,-34.079981],[150.933872,-34.080311],[150.933986,-34.0806],[150.934185,-34.080876],[150.934247,-34.081178],[150.934226,-34.081333],[150.934226,-34.081335],[150.934221,-34.081564],[150.934164,-34.081778],[150.934126,-34.081906],[150.934001,-34.082119],[150.933894,-34.082261],[150.933366,-34.082753],[150.933068,-34.082992],[150.932908,-34.083146],[150.932892,-34.083161],[150.932785,-34.083317],[150.932749,-34.083402],[150.932696,-34.083473],[150.932603,-34.083729],[150.932493,-34.084014],[150.932436,-34.084181],[150.932345,-34.084441],[150.932289,-34.084641],[150.932096,-34.084796],[150.932009,-34.084823],[150.931642,-34.085089],[150.930647,-34.085703],[150.930158,-34.085996],[150.929881,-34.086077],[150.929638,-34.086158],[150.929552,-34.086186],[150.929411,-34.086268],[150.92936,-34.086297],[150.928995,-34.086449],[150.928713,-34.086613],[150.928611,-34.086672],[150.928524,-34.086713],[150.928144,-34.086822],[150.927866,-34.086903],[150.927572,-34.086998],[150.926895,-34.087259],[150.926476,-34.087496],[150.926389,-34.087552],[150.926354,-34.08758],[150.926337,-34.087594],[150.926267,-34.087621],[150.926076,-34.087704],[150.925816,-34.0878],[150.925522,-34.087867],[150.925298,-34.087863],[150.924971,-34.087879],[150.924933,-34.087933],[150.923393,-34.089694],[150.923338,-34.089807],[150.92339,-34.089864],[150.923439,-34.089917],[150.923487,-34.089972],[150.923534,-34.090026],[150.923579,-34.090082],[150.923622,-34.090139],[150.923661,-34.090195],[150.923699,-34.090251],[150.923735,-34.090309],[150.92377,-34.090367],[150.923804,-34.090424],[150.923839,-34.090487],[150.923873,-34.090551],[150.923906,-34.090614],[150.923939,-34.090678],[150.923972,-34.090741],[150.924002,-34.090798],[150.924033,-34.090854],[150.924064,-34.09091],[150.924126,-34.091022],[150.924188,-34.091093],[150.924248,-34.091166],[150.924306,-34.091241],[150.924362,-34.091316],[150.924417,-34.091391],[150.924473,-34.091477],[150.924526,-34.091564],[150.924576,-34.091651],[150.924627,-34.091739],[150.924681,-34.091826],[150.924733,-34.091904],[150.924787,-34.091981],[150.924841,-34.092058],[150.924895,-34.092136],[150.924946,-34.092214],[150.924991,-34.092283],[150.925035,-34.092353],[150.925078,-34.092423],[150.925119,-34.092493],[150.925157,-34.092565],[150.925181,-34.09261],[150.925204,-34.092656],[150.925226,-34.092702],[150.925245,-34.092748],[150.925262,-34.092795],[150.925279,-34.09287],[150.925287,-34.092947],[150.925291,-34.093024],[150.925292,-34.093102],[150.925296,-34.09318],[150.925305,-34.093277],[150.925304,-34.09335],[150.92531,-34.093351],[150.936595,-34.095129],[150.934054,-34.107341],[150.933527,-34.109405],[150.932683,-34.109559],[150.931218,-34.110689],[150.930465,-34.111568],[150.929166,-34.112698],[150.927994,-34.114037],[150.926737,-34.115879],[150.926025,-34.117511],[150.926737,-34.119687],[150.928245,-34.120985],[150.928999,-34.122366],[150.929191,-34.124428],[150.929181,-34.124478],[150.928334,-34.125466],[150.927316,-34.125851],[150.927288,-34.125861],[150.926046,-34.125607],[150.924831,-34.12572],[150.922684,-34.126427],[150.922289,-34.128544],[150.922732,-34.130009],[150.923326,-34.13024],[150.92813,-34.13075],[150.928539,-34.130901],[150.941122,-34.132814],[150.941855,-34.132914],[150.945934,-34.133541],[150.950524,-34.134333],[150.953207,-34.134549],[150.953647,-34.134662],[150.953749,-34.134638],[150.955032,-34.134781],[150.968635,-34.136813],[150.979872,-34.13841],[150.98195,-34.139808],[150.983748,-34.141066],[150.984397,-34.141526],[150.986816,-34.143198],[150.987572,-34.143681],[150.987633,-34.143744],[150.988128,-34.144053],[150.990057,-34.145326],[150.990304,-34.14553],[150.990562,-34.145697],[150.99087,-34.145887],[150.991107,-34.146034],[150.993024,-34.146755],[150.994972,-34.147523],[150.995633,-34.147714],[151.001158,-34.149813],[151.00527,-34.151327],[151.007178,-34.152057],[151.013652,-34.154531],[151.021984,-34.155689],[151.022131,-34.155713],[151.021994,-34.15582],[151.021847,-34.155942],[151.021636,-34.156126],[151.021396,-34.156368],[151.021058,-34.156591],[151.020688,-34.156775],[151.020347,-34.156774],[151.020198,-34.156488],[151.020134,-34.156355],[151.019897,-34.156184],[151.019628,-34.155962],[151.019395,-34.155857],[151.019201,-34.155831],[151.019054,-34.155862],[151.01889,-34.15595],[151.018782,-34.156035],[151.018697,-34.156125],[151.018633,-34.156248],[151.018505,-34.156393],[151.018368,-34.15652],[151.018224,-34.156692],[151.018067,-34.156991],[151.017861,-34.15733],[151.017697,-34.157574],[151.017534,-34.157771],[151.017359,-34.157946],[151.01712,-34.15815],[151.0169,-34.158316],[151.016651,-34.158522],[151.016454,-34.158709],[151.016301,-34.158877],[151.01613,-34.159034],[151.01592,-34.159281],[151.015796,-34.15949],[151.01574,-34.159666],[151.015722,-34.159906],[151.015764,-34.160102],[151.015803,-34.160399],[151.015804,-34.160584],[151.015799,-34.160797],[151.015724,-34.161012],[151.015628,-34.161215],[151.01553,-34.161368],[151.01536,-34.161591],[151.015225,-34.161792],[151.015072,-34.161949],[151.014937,-34.162104],[151.014776,-34.162218],[151.014629,-34.162363],[151.014467,-34.162525],[151.014333,-34.162649],[151.014222,-34.16281],[151.014113,-34.163031],[151.014081,-34.163253],[151.014159,-34.163566],[151.014258,-34.163771],[151.01443,-34.163981],[151.014584,-34.164187],[151.014702,-34.164353],[151.014838,-34.164518],[151.015002,-34.164703],[151.015153,-34.16488],[151.015229,-34.16501],[151.015356,-34.165324],[151.015469,-34.165572],[151.015568,-34.165781],[151.015709,-34.166007],[151.015797,-34.166152],[151.015885,-34.166319],[151.015923,-34.16644],[151.01602,-34.166455],[151.034783,-34.169071],[151.045294,-34.170382],[151.048204,-34.170744],[151.048254,-34.170751],[151.054478,-34.171526],[151.055163,-34.16772],[151.060833,-34.168514],[151.060403,-34.170943]]]},"bbox":[150.827635,-34.1921552493369,151.21921360896133,-33.926893]}]}