{"type":"FeatureCollection","features":[
{"properties":{"electorateShortName":"isaacs","electorateName":"Isaacs","area":158.32,"state":"VIC"},"type":"Feature","geometry":{"type":"Polygon","coordinates":[[[145.248989,-38.017011],[145.249206,-38.016135],[145.249969,-38.012591],[145.251563,-38.00519],[145.25162,-38.004909],[145.251828,-38.003805],[145.251854,-38.003635],[145.251279,-38.003558],[145.251137,-38.003541],[145.249209,-38.003299],[145.246821,-38.003011],[145.24533,-38.002835],[145.243499,-38.002615],[145.240682,-38.002285],[145.240245,-38.002232],[145.236769,-38.00183],[145.234825,-38.001592],[145.232907,-38.001372],[145.231251,-38.001164],[145.229466,-38.00095],[145.227955,-38.000777],[145.227449,-38.000772],[145.227324,-38.00077],[145.226548,-38.000719],[145.226199,-38.000683],[145.22592,-38.000629],[145.225532,-38.000534],[145.222702,-37.999116],[145.219118,-37.997073],[145.217351,-37.994848],[145.215882,-37.992622],[145.214607,-37.990116],[145.214549,-37.989661],[145.214351,-37.987742],[145.21407,-37.984894],[145.212488,-37.983207],[145.211873,-37.982667],[145.211832,-37.982631],[145.211575,-37.982405],[145.211257,-37.982126],[145.211209,-37.982088],[145.210407,-37.981368],[145.210371,-37.981336],[145.208844,-37.979964],[145.207743,-37.978975],[145.20758,-37.978829],[145.207199,-37.978486],[145.206841,-37.978165],[145.206568,-37.977919],[145.206037,-37.977442],[145.204435,-37.975999],[145.20392,-37.975535],[145.203622,-37.975266],[145.203143,-37.974835],[145.202725,-37.974459],[145.202372,-37.974141],[145.201856,-37.973677],[145.201551,-37.973403],[145.200799,-37.972727],[145.199722,-37.971742],[145.199086,-37.971161],[145.19769,-37.969884],[145.19645,-37.968773],[145.19519,-37.967645],[145.195078,-37.967544],[145.194049,-37.966611],[145.193222,-37.966678],[145.192631,-37.966749],[145.191997,-37.966955],[145.191346,-37.967162],[145.191095,-37.967131],[145.189538,-37.966939],[145.189453,-37.966929],[145.188184,-37.966772],[145.1872,-37.96665],[145.187084,-37.966638],[145.186106,-37.966524],[145.18482,-37.966374],[145.184735,-37.966364],[145.183426,-37.966212],[145.18305,-37.966168],[145.182306,-37.966082],[145.182003,-37.966047],[145.181305,-37.965967],[145.180632,-37.965889],[145.179858,-37.965801],[145.179042,-37.965702],[145.178815,-37.965675],[145.178534,-37.96564],[145.178058,-37.965587],[145.177418,-37.965512],[145.1769,-37.965452],[145.17515,-37.96524],[145.174125,-37.965116],[145.17332,-37.965018],[145.172735,-37.964946],[145.171642,-37.964815],[145.170955,-37.964731],[145.170208,-37.964641],[145.169672,-37.964576],[145.168559,-37.964441],[145.167332,-37.964277],[145.167061,-37.964244],[145.166725,-37.964202],[145.165711,-37.964078],[145.164652,-37.963947],[145.163548,-37.963812],[145.16309,-37.963755],[145.162477,-37.96368],[145.161657,-37.963579],[145.160982,-37.963493],[145.159442,-37.963299],[145.15798,-37.963115],[145.157819,-37.963094],[145.156407,-37.962919],[145.154948,-37.962738],[145.153673,-37.96258],[145.150361,-37.962169],[145.148037,-37.96188],[145.147447,-37.961809],[145.147048,-37.961761],[145.146315,-37.961672],[145.146157,-37.961653],[145.145398,-37.961562],[145.142414,-37.961201],[145.141652,-37.961109],[145.141031,-37.961034],[145.139689,-37.960871],[145.138961,-37.960783],[145.138082,-37.960677],[145.137784,-37.960642],[145.136807,-37.960524],[145.136582,-37.960497],[145.13492,-37.960296],[145.133448,-37.960119],[145.131932,-37.959938],[145.130766,-37.959799],[145.130645,-37.959784],[145.122719,-37.958769],[145.118089,-37.958176],[145.113401,-37.957603],[145.112297,-37.957468],[145.103944,-37.956437],[145.10314,-37.956338],[145.102374,-37.954314],[145.101024,-37.950876],[145.100841,-37.950386],[145.100621,-37.949804],[145.100207,-37.948775],[145.10014,-37.948698],[145.100041,-37.948613],[145.099734,-37.947641],[145.099396,-37.947019],[145.099033,-37.946512],[145.098909,-37.946339],[145.098376,-37.945649],[145.098208,-37.945484],[145.097168,-37.94446],[145.096516,-37.94395],[145.095967,-37.94345],[145.094932,-37.942661],[145.094362,-37.9423],[145.093879,-37.941967],[145.092901,-37.941527],[145.091592,-37.940937],[145.091433,-37.94088],[145.089597,-37.940215],[145.088686,-37.939965],[145.088474,-37.939923],[145.087119,-37.939654],[145.083497,-37.939186],[145.079533,-37.938752],[145.078279,-37.938635],[145.076716,-37.938391],[145.07658,-37.938369],[145.076526,-37.938361],[145.075154,-37.938126],[145.073467,-37.937836],[145.073423,-37.937828],[145.072904,-37.937762],[145.071201,-37.937543],[145.071075,-37.93753],[145.07077,-37.937513],[145.069718,-37.937456],[145.068603,-37.937395],[145.068256,-37.937347],[145.066854,-37.937148],[145.065733,-37.936987],[145.064999,-37.936895],[145.064542,-37.936838],[145.061802,-37.936497],[145.061337,-37.93644],[145.061323,-37.936529],[145.060772,-37.939053],[145.060751,-37.939147],[145.0603,-37.941216],[145.060245,-37.941468],[145.06016,-37.941897],[145.059918,-37.943115],[145.059733,-37.944047],[145.059377,-37.94584],[145.059098,-37.947249],[145.059024,-37.947633],[145.058586,-37.949921],[145.058561,-37.950053],[145.058403,-37.950877],[145.058256,-37.951643],[145.058142,-37.952239],[145.058056,-37.9527],[145.057823,-37.953939],[145.057811,-37.954],[145.057558,-37.955376],[145.057489,-37.955752],[145.057428,-37.956081],[145.057185,-37.957404],[145.057122,-37.957745],[145.057075,-37.957994],[145.057071,-37.95802],[145.056738,-37.959791],[145.05658,-37.960637],[145.056453,-37.961321],[145.056087,-37.9633],[145.056016,-37.963685],[145.055696,-37.965412],[145.055267,-37.967672],[145.05515,-37.968287],[145.054996,-37.969099],[145.054892,-37.969644],[145.05482,-37.970021],[145.054788,-37.970192],[145.054682,-37.970747],[145.054634,-37.970997],[145.054516,-37.971615],[145.054446,-37.971981],[145.054355,-37.972463],[145.054338,-37.972556],[145.054222,-37.973192],[145.05419,-37.973372],[145.054168,-37.973488],[145.054032,-37.974251],[145.054024,-37.974298],[145.053844,-37.975301],[145.053812,-37.97548],[145.053587,-37.976742],[145.053553,-37.976932],[145.053478,-37.977349],[145.053445,-37.977533],[145.053385,-37.977868],[145.053279,-37.978464],[145.053229,-37.978742],[145.053035,-37.979825],[145.052635,-37.981916],[145.052548,-37.982367],[145.052472,-37.982771],[145.052213,-37.984121],[145.051915,-37.985674],[145.051897,-37.985771],[145.051691,-37.98682],[145.069208,-37.995219],[145.080235,-38.004839],[145.084145,-38.011152],[145.086158,-38.010835],[145.090609,-38.014952],[145.101611,-38.030262],[145.112848,-38.052151],[145.113236,-38.052047],[145.113253,-38.052043],[145.113722,-38.051906],[145.114303,-38.051736],[145.114895,-38.051563],[145.115507,-38.051384],[145.115731,-38.051315],[145.115427,-38.050674],[145.115621,-38.050609],[145.117965,-38.04982],[145.119331,-38.04936],[145.119566,-38.049281],[145.121359,-38.048676],[145.122511,-38.048288],[145.12341,-38.047984],[145.123588,-38.047968],[145.123737,-38.047973],[145.123864,-38.047987],[145.124051,-38.04802],[145.124446,-38.048103],[145.124707,-38.048015],[145.125002,-38.047916],[145.127464,-38.047086],[145.129297,-38.046468],[145.129649,-38.046408],[145.129887,-38.046405],[145.130025,-38.046416],[145.130223,-38.046442],[145.130405,-38.046487],[145.130639,-38.046555],[145.131122,-38.046708],[145.131336,-38.046756],[145.131544,-38.046771],[145.131774,-38.046774],[145.132004,-38.046748],[145.132205,-38.046705],[145.132643,-38.046587],[145.133732,-38.046221],[145.133936,-38.046152],[145.134157,-38.046053],[145.134802,-38.045836],[145.135665,-38.045546],[145.13589,-38.04547],[145.136979,-38.045104],[145.13936,-38.044303],[145.139776,-38.044017],[145.141821,-38.043226],[145.143083,-38.046573],[145.143517,-38.047726],[145.143872,-38.048787],[145.144329,-38.050152],[145.144829,-38.051508],[145.145304,-38.052799],[145.145827,-38.054222],[145.146112,-38.054996],[145.146601,-38.056326],[145.146804,-38.056877],[145.146846,-38.056983],[145.147153,-38.057769],[145.147702,-38.059269],[145.148751,-38.062135],[145.148865,-38.062445],[145.14941,-38.063963],[145.149552,-38.064415],[145.149827,-38.065286],[145.15027,-38.067299],[145.154498,-38.067258],[145.154763,-38.067256],[145.155222,-38.067251],[145.156254,-38.067395],[145.157571,-38.067578],[145.166728,-38.068706],[145.167058,-38.068746],[145.168139,-38.068886],[145.181656,-38.070548],[145.194728,-38.072144],[145.202566,-38.073123],[145.203088,-38.073189],[145.212605,-38.074372],[145.221462,-38.075503],[145.227714,-38.076308],[145.231287,-38.076758],[145.235633,-38.077239],[145.239583,-38.077677],[145.240376,-38.073571],[145.240475,-38.073055],[145.240824,-38.071249],[145.240983,-38.070427],[145.241094,-38.069862],[145.241395,-38.068322],[145.24166,-38.066968],[145.241692,-38.066813],[145.241914,-38.065673],[145.24207,-38.064887],[145.242303,-38.063652],[145.242447,-38.062889],[145.242945,-38.060294],[145.243165,-38.05929],[145.243666,-38.056733],[145.243723,-38.056439],[145.243901,-38.055517],[145.244206,-38.053976],[145.244282,-38.053595],[145.244301,-38.053498],[145.244329,-38.053359],[145.245171,-38.04911],[145.245257,-38.048662],[145.245609,-38.046853],[145.245932,-38.04514],[145.246323,-38.04304],[145.246844,-38.040179],[145.247072,-38.038462],[145.247225,-38.03641],[145.246878,-38.036159],[145.246886,-38.035807],[145.246987,-38.03407],[145.246903,-38.032329],[145.24664,-38.02988],[145.246622,-38.029445],[145.246565,-38.028105],[145.246647,-38.026554],[145.246704,-38.02617],[145.246825,-38.02533],[145.247071,-38.024278],[145.247303,-38.023361],[145.247705,-38.021837],[145.248417,-38.019182],[145.248503,-38.018848],[145.248571,-38.018585],[145.248944,-38.017191],[145.248989,-38.017011]]]},"bbox":[145.051691,-38.077677,145.251854,-37.93644]}]}