{"type":"FeatureCollection","features":[
{"properties":{"electorateShortName":"mcpherson","electorateName":"McPherson","area":229.41645,"state":"QLD"},"type":"Feature","geometry":{"type":"Polygon","coordinates":[[[153.296827,-28.233555],[153.296652,-28.233986],[153.296863,-28.234233],[153.304239,-28.239667],[153.30449314890646,-28.23959332143285],[153.304761,-28.239695],[153.3096849438338,-28.23808820375789],[153.311776,-28.237482],[153.316685,-28.238717],[153.324189,-28.236483],[153.32980048109945,-28.237024213565537],[153.3315998049904,-28.244862793585828],[153.331698,-28.245415],[153.33518,-28.248412],[153.33667021467508,-28.249055163106355],[153.339104,-28.250546],[153.34585,-28.248454],[153.3509777329543,-28.248821740162892],[153.356812,-28.249619],[153.35948962168936,-28.24870473079129],[153.364723,-28.247354],[153.36745929186966,-28.245983500948284],[153.369669,-28.245229],[153.37282616644623,-28.24329544833248],[153.3894973752793,-28.234945507249815],[153.389527,-28.234935],[153.38952768441928,-28.234930326615014],[153.389724,-28.234832],[153.390812757813,-28.228434857012562],[153.40661,-28.210415],[153.414456,-28.20811],[153.41897371311111,-28.200076286115287],[153.424329,-28.197848],[153.424575936096,-28.19761733471957],[153.424947,-28.197475],[153.43181336662894,-28.19085678423487],[153.435757,-28.187173],[153.44072458601482,-28.185620410654735],[153.457134,-28.18054],[153.459246,-28.178111],[153.458678,-28.175157],[153.466665,-28.164603],[153.468504,-28.162512],[153.47247,-28.161953],[153.476931,-28.15702],[153.482617,-28.158431],[153.4858934451609,-28.15705139238873],[153.534649,-28.177643],[153.53792238158837,-28.173479023568046],[153.541487,-28.168967],[153.552171,-28.164408],[153.63844520845745,-28.127593687349542],[153.63415767354323,-28.124367951656293],[153.63109124857414,-28.118687852188206],[153.62082966988885,-28.105925994383963],[153.6197025450156,-28.104954516533315],[153.61201700047613,-28.0961100908245],[153.59881975929278,-28.08569114245695],[153.58447929623597,-28.07820356127219],[153.58391481787723,-28.077908830375325],[153.56782241694285,-28.073034787689476],[153.55826498331777,-28.072008251634216],[153.55042841762125,-28.06242585312164],[153.5423424914544,-28.05563689102241],[153.53973595845366,-28.049368672584446],[153.44759948780876,-28.076055645077677],[153.44769108262741,-28.07631582222828],[153.451892847871,-28.0860421814858],[153.447581,-28.076061],[153.446818,-28.076282],[153.446246,-28.076448],[153.445637,-28.076625],[153.445554,-28.07641],[153.445399,-28.075979],[153.445318,-28.075743],[153.445238,-28.075756],[153.445133,-28.075773],[153.444073,-28.075604],[153.442895,-28.075416],[153.442631,-28.075395],[153.4422,-28.075356],[153.441839,-28.075323],[153.440924,-28.075174],[153.440592,-28.075123],[153.439097,-28.074896],[153.438693,-28.074835],[153.438526,-28.074809],[153.43793,-28.074718],[153.437267,-28.074619],[153.436317,-28.07448],[153.436217,-28.074465],[153.43566,-28.074375],[153.435333,-28.074323],[153.435228,-28.074293],[153.434874,-28.074192],[153.434501,-28.074087],[153.434306,-28.074132],[153.43429,-28.074226],[153.434209,-28.074643],[153.434168,-28.074864],[153.43414,-28.075008],[153.434085,-28.075301],[153.434027,-28.075293],[153.433131,-28.075159],[153.433019,-28.075143],[153.432737,-28.0751],[153.432638,-28.075086],[153.432066,-28.075],[153.431203,-28.074872],[153.431258,-28.074579],[153.431267,-28.074538],[153.431288,-28.074419],[153.43138,-28.073938],[153.431384,-28.073913],[153.431441,-28.073618],[153.431098,-28.073567],[153.430987,-28.073554],[153.430898,-28.073537],[153.430271,-28.073443],[153.429092,-28.073268],[153.42822,-28.073137],[153.427852,-28.073083],[153.427614,-28.073047],[153.427328,-28.073005],[153.427119,-28.072973],[153.42711,-28.072971],[153.426981,-28.072953],[153.426935,-28.072945],[153.426033,-28.07281],[153.425939,-28.072797],[153.425683,-28.072758],[153.425583,-28.072744],[153.424705,-28.072613],[153.424535,-28.072587],[153.424591,-28.072294],[153.424616,-28.07217],[153.424652,-28.071983],[153.42467,-28.071894],[153.424729,-28.071587],[153.424737,-28.071551],[153.424814,-28.07116],[153.424956,-28.07043],[153.424971,-28.070344],[153.424985,-28.070272],[153.424991,-28.070251],[153.425086,-28.069756],[153.425183,-28.069676],[153.425298,-28.069131],[153.425343,-28.068915],[153.425378,-28.068758],[153.425283,-28.068743],[153.425429,-28.067996],[153.421505,-28.067339],[153.42115,-28.067279],[153.421039,-28.067675],[153.420744,-28.068279],[153.419998,-28.069387],[153.419168,-28.066648],[153.418762,-28.065312],[153.418723,-28.065148],[153.418273,-28.063549],[153.418037,-28.062889],[153.417792,-28.062209],[153.417639,-28.061956],[153.417258,-28.06132],[153.416614,-28.060488],[153.416313,-28.060093],[153.415311,-28.058782],[153.414932,-28.058284],[153.41426,-28.057404],[153.414021,-28.057097],[153.412974,-28.056059],[153.412141,-28.055478],[153.411316,-28.055026],[153.41075,-28.054652],[153.410572,-28.054531],[153.409901,-28.05396],[153.409229,-28.05324],[153.408683,-28.052447],[153.408383,-28.051863],[153.408117,-28.051224],[153.407895,-28.050576],[153.407625,-28.049664],[153.40741,-28.049068],[153.40727,-28.048441],[153.407213,-28.04828],[153.406995,-28.047622],[153.406935,-28.047412],[153.406804,-28.046657],[153.406793,-28.046593],[153.406762,-28.046316],[153.40678,-28.045871],[153.406913,-28.045007],[153.407223,-28.043713],[153.407291,-28.043341],[153.407451,-28.04247],[153.408116,-28.039365],[153.408347,-28.038233],[153.408392,-28.03801],[153.408534,-28.037272],[153.408726,-28.036275],[153.408774,-28.035588],[153.408801,-28.03519],[153.408727,-28.035162],[153.408102,-28.034946],[153.406938,-28.034254],[153.405946,-28.033541],[153.405318,-28.033087],[153.404887,-28.032779],[153.403146,-28.032165],[153.401102,-28.031885],[153.398212,-28.03141],[153.3981,-28.031387],[153.397432,-28.031271],[153.397235,-28.031237],[153.396891,-28.031178],[153.396023,-28.03103],[153.395781,-28.030988],[153.395328,-28.031161],[153.394842,-28.031236],[153.392085,-28.031836],[153.391821,-28.031895],[153.391157,-28.032046],[153.390628,-28.03215],[153.39007,-28.032199],[153.389045,-28.032238],[153.387362,-28.032303],[153.387106,-28.032357],[153.3869,-28.032462],[153.386784,-28.032591],[153.386789,-28.032558],[153.386792,-28.032526],[153.386792,-28.032494],[153.386788,-28.032462],[153.386781,-28.032431],[153.386773,-28.0324],[153.38676,-28.03237],[153.386745,-28.032342],[153.386732,-28.032322],[153.385422,-28.032583],[153.385088,-28.03265],[153.3844,-28.03286],[153.384375,-28.03287],[153.384365,-28.032873],[153.382404,-28.033657],[153.380594,-28.034469],[153.380077,-28.034775],[153.37936,-28.035274],[153.377988,-28.03688],[153.376464,-28.038664],[153.376442,-28.0387],[153.374925,-28.041139],[153.37424,-28.041885],[153.373164,-28.042841],[153.371431,-28.04423],[153.371218,-28.044418],[153.370806,-28.044843],[153.370115,-28.045366],[153.370063,-28.045405],[153.36965,-28.045639],[153.369058,-28.045926],[153.368976,-28.045955],[153.368455,-28.046136],[153.367503,-28.046392],[153.366477,-28.046629],[153.36551,-28.04682],[153.364273,-28.047055],[153.363784,-28.047134],[153.362541,-28.04733],[153.362442,-28.047359],[153.361619,-28.047553],[153.360489,-28.047905],[153.359544,-28.048149],[153.357211,-28.048659],[153.356671,-28.048851],[153.356397,-28.049031],[153.3563,-28.049057],[153.356209,-28.049258],[153.355967,-28.049285],[153.355927,-28.049358],[153.355797,-28.049479],[153.355703,-28.0495],[153.355337,-28.049581],[153.354941,-28.049761],[153.354917,-28.049771],[153.354887,-28.049791],[153.354863,-28.04981],[153.354842,-28.049833],[153.354825,-28.049857],[153.354809,-28.049891],[153.354794,-28.04994],[153.35479,-28.049966],[153.35479,-28.050014],[153.354788,-28.050119],[153.354771,-28.050213],[153.354723,-28.050305],[153.354603,-28.050546],[153.354507,-28.051013],[153.354437,-28.051343],[153.354442,-28.051674],[153.35452,-28.052047],[153.354855,-28.05278],[153.355204,-28.053763],[153.355358,-28.054318],[153.355461,-28.055023],[153.355505,-28.056328],[153.355494,-28.057637],[153.355694,-28.058821],[153.355743,-28.059406],[153.355682,-28.060101],[153.355666,-28.06015],[153.35555,-28.060701],[153.355304,-28.061191],[153.354812,-28.061827],[153.354528,-28.062298],[153.354361,-28.063424],[153.354646,-28.065121],[153.354776,-28.065892],[153.354618,-28.066755],[153.354138,-28.069375],[153.354089,-28.069784],[153.354112,-28.070074],[153.353429,-28.070342],[153.353044,-28.070769],[153.352909,-28.071947],[153.352812,-28.072795],[153.352753,-28.07332],[153.35267,-28.074043],[153.352378,-28.074785],[153.352204,-28.075227],[153.351743,-28.075647],[153.35123,-28.076115],[153.35108,-28.076361],[153.351185,-28.076399],[153.351357,-28.076425],[153.351195,-28.077258],[153.35101,-28.078184],[153.350828,-28.0791],[153.350732,-28.079584],[153.350696,-28.079763],[153.350639,-28.080048],[153.350612,-28.080139],[153.350224,-28.080118],[153.34979,-28.080074],[153.349184,-28.080052],[153.348549,-28.080029],[153.348312,-28.080022],[153.347508,-28.080068],[153.34694,-28.080139],[153.346718,-28.080179],[153.346496,-28.080233],[153.345645,-28.080525],[153.345451,-28.080575],[153.344881,-28.08072],[153.344501,-28.080817],[153.34409,-28.080921],[153.343934,-28.080981],[153.343541,-28.081132],[153.343165,-28.081373],[153.342942,-28.081516],[153.342204,-28.082288],[153.341927,-28.082399],[153.340879,-28.082876],[153.340552,-28.083017],[153.340185,-28.083222],[153.339833,-28.083418],[153.338925,-28.083888],[153.338456,-28.084315],[153.33831,-28.08451],[153.33826,-28.084667],[153.338311,-28.084852],[153.338458,-28.085147],[153.338636,-28.085424],[153.338752,-28.085655],[153.338893,-28.086076],[153.338995,-28.086617],[153.339108,-28.087253],[153.339545,-28.088116],[153.339863,-28.088265],[153.340062,-28.08827],[153.340395,-28.088086],[153.340651,-28.087962],[153.34103,-28.087904],[153.341408,-28.087973],[153.341956,-28.088135],[153.342163,-28.087911],[153.342561,-28.087636],[153.343224,-28.087404],[153.344459,-28.087073],[153.345036,-28.086944],[153.345501,-28.086815],[153.346351,-28.086642],[153.34741,-28.086454],[153.348292,-28.086295],[153.348923,-28.086145],[153.350139,-28.086803],[153.351298,-28.087137],[153.351348,-28.087187],[153.35181,-28.087648],[153.351908,-28.087769],[153.352001,-28.087604],[153.352208,-28.087157],[153.352317,-28.086992],[153.3524,-28.08702],[153.352658,-28.087176],[153.352787,-28.087235],[153.352915,-28.08731],[153.352979,-28.087367],[153.352978,-28.08748],[153.352996,-28.087596],[153.353015,-28.087664],[153.35306,-28.087665],[153.353105,-28.087682],[153.353364,-28.087683],[153.353818,-28.08763],[153.354012,-28.087632],[153.354142,-28.087617],[153.354336,-28.087618],[153.354531,-28.087562],[153.354661,-28.087508],[153.354921,-28.08743],[153.35505,-28.087413],[153.355374,-28.087417],[153.355504,-28.087378],[153.355569,-28.087379],[153.355634,-28.087363],[153.355763,-28.087346],[153.3559,-28.087308],[153.35603,-28.087252],[153.35616,-28.087213],[153.356283,-28.087209],[153.356384,-28.087131],[153.356723,-28.087012],[153.357094,-28.086849],[153.357298,-28.086764],[153.357413,-28.086708],[153.357579,-28.086651],[153.35788,-28.086505],[153.358122,-28.08642],[153.358314,-28.086347],[153.358608,-28.086217],[153.358921,-28.086082],[153.359183,-28.085958],[153.359382,-28.085879],[153.35958,-28.085783],[153.35972,-28.085699],[153.359784,-28.08562],[153.359895,-28.085515],[153.359922,-28.085396],[153.359944,-28.085325],[153.360014,-28.085283],[153.360137,-28.085272],[153.360266,-28.085308],[153.36033,-28.085365],[153.360375,-28.085423],[153.360394,-28.085479],[153.360405,-28.085644],[153.360378,-28.085758],[153.360377,-28.085815],[153.36037,-28.085872],[153.360376,-28.085929],[153.360375,-28.085986],[153.360368,-28.086043],[153.360404,-28.086282],[153.360448,-28.086397],[153.360446,-28.086624],[153.360496,-28.086784],[153.360514,-28.086897],[153.360559,-28.086956],[153.36059,-28.087024],[153.360655,-28.087041],[153.36072,-28.087043],[153.360772,-28.087009],[153.360819,-28.086895],[153.360832,-28.086838],[153.360833,-28.086781],[153.360853,-28.086725],[153.360854,-28.086588],[153.361067,-28.086095],[153.36108,-28.086038],[153.361081,-28.085981],[153.361101,-28.085924],[153.361102,-28.085867],[153.361083,-28.08581],[153.361103,-28.085752],[153.361103,-28.085696],[153.36113,-28.08564],[153.361169,-28.0856],[153.361234,-28.085584],[153.361299,-28.085584],[153.361634,-28.085718],[153.361763,-28.085798],[153.36202,-28.085914],[153.362149,-28.085989],[153.362245,-28.086105],[153.362308,-28.086276],[153.362305,-28.086504],[153.362478,-28.086671],[153.362543,-28.086717],[153.362607,-28.086757],[153.362723,-28.086775],[153.36282,-28.086759],[153.363005,-28.086595],[153.363139,-28.08646],[153.363226,-28.086398],[153.363363,-28.086251],[153.363418,-28.086209],[153.363423,-28.086206],[153.365208,-28.088903],[153.365828,-28.08984],[153.366144,-28.090317],[153.366106,-28.091998],[153.367016,-28.093019],[153.367278,-28.093532],[153.367874,-28.094688],[153.368436,-28.095446],[153.368509,-28.095544],[153.368941,-28.096696],[153.368958,-28.09674],[153.368569,-28.097418],[153.367083,-28.098251],[153.367235,-28.10037],[153.36747,-28.101159],[153.367778,-28.102101],[153.368503,-28.102985],[153.368707,-28.103872],[153.369829,-28.105456],[153.370122,-28.106398],[153.370059,-28.106485],[153.370007,-28.106547],[153.36981,-28.107101],[153.369763,-28.107332],[153.368949,-28.107797],[153.36864,-28.108971],[153.368163,-28.109869],[153.367009,-28.111599],[153.365709,-28.11185],[153.365685,-28.11185],[153.365694,-28.11186],[153.364751,-28.112402],[153.364135,-28.112968],[153.363684,-28.113269],[153.363506,-28.113884],[153.363342,-28.114474],[153.363032,-28.115566],[153.362784,-28.116332],[153.362537,-28.117571],[153.362274,-28.118651],[153.361994,-28.119381],[153.361705,-28.120297],[153.361579,-28.120767],[153.361188,-28.122385],[153.36084,-28.125157],[153.360716,-28.125505],[153.360592,-28.125727],[153.360289,-28.126029],[153.35979,-28.12641],[153.359042,-28.126966],[153.358311,-28.127411],[153.358115,-28.127555],[153.359798,-28.128785],[153.360838,-28.130033],[153.362789,-28.131152],[153.363883,-28.1324],[153.365224,-28.132919],[153.365423,-28.133742],[153.364891,-28.134725],[153.365198,-28.135507],[153.365083,-28.135825],[153.364593,-28.1363],[153.364583,-28.136628],[153.364061,-28.137706],[153.362954,-28.138147],[153.362843,-28.138183],[153.362523,-28.138529],[153.361995,-28.139638],[153.361587,-28.141644],[153.361535,-28.141991],[153.361381,-28.144321],[153.361681,-28.14525],[153.361575,-28.145263],[153.361443,-28.145644],[153.361902,-28.146737],[153.361652,-28.147692],[153.360553,-28.147633],[153.36046,-28.147623],[153.360403,-28.148283],[153.360091,-28.148253],[153.360028,-28.148631],[153.360005,-28.148762],[153.359968,-28.148969],[153.359556,-28.151283],[153.358489,-28.157291],[153.356086,-28.158513],[153.35516,-28.158694],[153.354427,-28.159061],[153.352407,-28.160071],[153.348522,-28.160563],[153.348467,-28.16087],[153.347707,-28.165363],[153.348018,-28.168213],[153.347772,-28.168597],[153.346354,-28.169334],[153.345255,-28.16936],[153.345195,-28.169328],[153.344079,-28.170564],[153.342825,-28.171327],[153.340592,-28.173369],[153.339519,-28.173612],[153.338088,-28.173338],[153.337392,-28.173312],[153.335251,-28.175299],[153.33465,-28.175757],[153.3324,-28.178971],[153.329567,-28.180981],[153.32905,-28.182107],[153.328749,-28.18289],[153.326924,-28.184909],[153.326534,-28.185578],[153.323451,-28.185863],[153.322601,-28.185643],[153.321594,-28.185691],[153.319658,-28.187666],[153.319904,-28.188391],[153.319504,-28.19128],[153.319476,-28.191276],[153.319722,-28.19263],[153.320104,-28.193426],[153.320209,-28.195053],[153.319609,-28.195935],[153.319617,-28.196323],[153.31954,-28.197365],[153.318474,-28.19773],[153.318185,-28.198016],[153.317347,-28.198449],[153.31649,-28.199184],[153.315824,-28.199658],[153.315653,-28.199711],[153.315303,-28.199882],[153.314628,-28.201511],[153.314677,-28.202417],[153.314149,-28.203058],[153.313093,-28.20364],[153.313171,-28.203802],[153.313171,-28.203935],[153.313149,-28.204046],[153.317285,-28.207015],[153.313153,-28.211547],[153.311844,-28.211353],[153.301409,-28.222594],[153.301298,-28.222742],[153.300753,-28.22238],[153.299259,-28.221931],[153.298937,-28.221042],[153.298792,-28.220683],[153.298366,-28.219508],[153.296474,-28.219145],[153.296497,-28.219274],[153.296307,-28.22084],[153.296371,-28.221243],[153.295365,-28.222876],[153.294303,-28.22832],[153.294263,-28.230486],[153.296643,-28.23266],[153.296827,-28.233555]],[[153.543606,-28.166862],[153.536585,-28.165053],[153.54044741591272,-28.166048173107264],[153.54117143789992,-28.166165284989134],[153.54190467198706,-28.16614823200448],[153.5426224667052,-28.165997587477886],[153.54330068966001,-28.16571841610687],[153.54391653886725,-28.165320103685804],[153.5444493093599,-28.164816041553735],[153.5446593495948,-28.164577174964844],[153.543606,-28.166862]]]},"bbox":[153.294263,-28.250546,153.63844520845745,-28.030988]}]}