{"type":"FeatureCollection","features":[
{"properties":{"electorateShortName":"new-england","electorateName":"New England","area":75236.55,"state":"NSW"},"type":"Feature","geometry":{"type":"Polygon","coordinates":[[[152.428078,-30.418897],[152.424197,-30.417938],[152.423335,-30.41625],[152.418225,-30.41101],[152.416297,-30.40693],[152.413678,-30.406313],[152.413114,-30.404723],[152.409379,-30.40186],[152.408253,-30.399368],[152.40424,-30.397937],[152.401941,-30.394744],[152.399579,-30.394415],[152.396828,-30.392564],[152.394419,-30.387025],[152.390374,-30.386282],[152.387531,-30.383159],[152.38817,-30.378689],[152.389916,-30.374706],[152.385967,-30.370863],[152.383528,-30.364052],[152.38192,-30.362628],[152.364574,-30.360976],[152.365554,-30.354135],[152.360832,-30.353455],[152.359397,-30.354886],[152.35514,-30.355882],[152.35178,-30.355359],[152.354768,-30.34037],[152.349464,-30.33955],[152.351448,-30.335266],[152.351166,-30.333711],[152.345622,-30.33295],[152.345887,-30.328297],[152.347016,-30.325947],[152.342873,-30.324239],[152.344599,-30.315088],[152.342286,-30.313618],[152.344473,-30.301603],[152.346957,-30.300368],[152.346825,-30.297623],[152.348253,-30.290701],[152.344275,-30.290217],[152.339349,-30.281979],[152.338817,-30.279209],[152.342175,-30.275967],[152.340404,-30.272066],[152.342243,-30.271272],[152.340635,-30.268089],[152.340286,-30.264412],[152.337677,-30.26243],[152.337486,-30.257203],[152.337896,-30.251819],[152.340599,-30.250774],[152.340248,-30.247102],[152.344235,-30.244941],[152.344663,-30.241665],[152.346551,-30.24216],[152.348672,-30.234165],[152.346129,-30.231007],[152.34513,-30.227531],[152.340905,-30.226971],[152.338675,-30.224594],[152.338329,-30.219391],[152.33581,-30.220343],[152.333181,-30.219499],[152.331176,-30.220241],[152.330277,-30.217354],[152.3286,-30.216099],[152.326105,-30.217225],[152.32333,-30.212698],[152.324229,-30.210059],[152.318389,-30.209862],[152.315421,-30.208575],[152.313886,-30.204545],[152.315846,-30.202231],[152.312953,-30.20039],[152.310012,-30.195352],[152.313365,-30.192512],[152.312209,-30.188238],[152.312588,-30.183776],[152.316999,-30.181972],[152.31164,-30.178619],[152.309708,-30.181283],[152.307729,-30.181156],[152.303203,-30.179112],[152.304534,-30.177327],[152.308728,-30.174394],[152.309762,-30.172173],[152.309928,-30.168312],[152.307024,-30.168126],[152.307119,-30.165131],[152.309124,-30.161204],[152.310531,-30.160436],[152.314829,-30.162929],[152.31622,-30.160965],[152.313121,-30.158502],[152.308577,-30.15805],[152.307862,-30.161591],[152.305624,-30.162046],[152.304407,-30.159898],[152.304969,-30.15729],[152.307995,-30.152488],[152.309672,-30.147907],[152.305498,-30.145053],[152.301128,-30.14477],[152.301242,-30.147812],[152.298828,-30.148225],[152.298003,-30.144475],[152.304861,-30.141257],[152.303507,-30.1385],[152.299738,-30.139806],[152.297503,-30.138918],[152.29656,-30.132758],[152.300369,-30.133291],[152.302269,-30.13201],[152.301612,-30.12944],[152.299652,-30.127594],[152.300088,-30.122888],[152.297462,-30.121845],[152.298318,-30.11844],[152.297236,-30.115096],[152.295454,-30.11381],[152.292328,-30.116324],[152.292672,-30.11253],[152.287509,-30.109716],[152.286687,-30.105731],[152.284557,-30.102824],[152.282066,-30.101967],[152.279555,-30.099624],[152.281003,-30.096807],[152.283952,-30.095289],[152.283388,-30.092407],[152.280366,-30.089891],[152.280721,-30.087436],[152.286336,-30.086548],[152.291227,-30.085056],[152.2937,-30.085508],[152.294542,-30.082122],[152.292128,-30.077188],[152.295494,-30.075522],[152.293662,-30.070516],[152.298392,-30.071752],[152.299776,-30.069875],[152.297586,-30.067299],[152.293282,-30.065425],[152.291865,-30.062152],[152.293161,-30.060241],[152.299613,-30.057872],[152.299935,-30.056575],[152.297501,-30.053255],[152.293122,-30.052432],[152.293955,-30.049561],[152.297132,-30.048963],[152.298929,-30.047008],[152.294901,-30.044096],[152.294461,-30.041799],[152.296979,-30.038795],[152.303636,-30.039372],[152.305566,-30.038446],[152.309025,-30.03433],[152.312789,-30.034805],[152.315172,-30.034209],[152.313319,-30.030123],[152.314272,-30.023098],[152.3156,-30.019061],[152.312936,-30.014076],[152.313601,-30.011928],[152.316263,-30.008243],[152.317087,-30.005942],[152.316419,-30.000565],[152.312828,-29.997637],[152.309674,-29.996191],[152.307984,-29.993371],[152.308681,-29.989387],[152.308029,-29.987215],[152.303525,-29.98772],[152.301231,-29.986512],[152.300858,-29.984185],[152.307677,-29.982301],[152.308005,-29.980175],[152.305146,-29.979113],[152.30228,-29.979272],[152.295691,-29.978132],[152.292028,-29.976949],[152.288306,-29.973654],[152.285967,-29.968703],[152.287691,-29.96644],[152.285664,-29.963744],[152.281949,-29.965369],[152.275042,-29.960416],[152.272385,-29.951399],[152.273493,-29.944915],[152.270534,-29.937484],[152.26944,-29.935937],[152.26983,-29.932062],[152.279945,-29.929209],[152.2833,-29.925514],[152.281881,-29.921786],[152.280097,-29.921076],[152.276483,-29.922306],[152.272127,-29.928374],[152.268484,-29.928857],[152.266924,-29.925116],[152.26942,-29.922148],[152.273174,-29.921186],[152.277896,-29.918786],[152.277111,-29.915999],[152.272,-29.916447],[152.270005,-29.915778],[152.268994,-29.91249],[152.271739,-29.910549],[152.278553,-29.911735],[152.284722,-29.909263],[152.285582,-29.907048],[152.283323,-29.902457],[152.281178,-29.900458],[152.280753,-29.895718],[152.282399,-29.890319],[152.284815,-29.887789],[152.284955,-29.884581],[152.281263,-29.878271],[152.282935,-29.876874],[152.287524,-29.875249],[152.286915,-29.871914],[152.284512,-29.869659],[152.278753,-29.86787],[152.277096,-29.866029],[152.276913,-29.863208],[152.277895,-29.860951],[152.282437,-29.858724],[152.28171,-29.85646],[152.275989,-29.853367],[152.273839,-29.846322],[152.271433,-29.848465],[152.267689,-29.847868],[152.265944,-29.850112],[152.261681,-29.853552],[152.257182,-29.860366],[152.25418,-29.861353],[152.251091,-29.864976],[152.247946,-29.863736],[152.242952,-29.862931],[152.240422,-29.863228],[152.238589,-29.864964],[152.234887,-29.864124],[152.228435,-29.865615],[152.228007,-29.868102],[152.220604,-29.87101],[152.216357,-29.871362],[152.213554,-29.869652],[152.210538,-29.868907],[152.209077,-29.866124],[152.204862,-29.86808],[152.20005,-29.868411],[152.197749,-29.872549],[152.197742,-29.875924],[152.190329,-29.875442],[152.179799,-29.87216],[152.176435,-29.872023],[152.168757,-29.869874],[152.168527,-29.865041],[152.169986,-29.863168],[152.169099,-29.860498],[152.169282,-29.855815],[152.173128,-29.849338],[152.175151,-29.850018],[152.177577,-29.847351],[152.175632,-29.845842],[152.175335,-29.842492],[152.170423,-29.841246],[152.172251,-29.836874],[152.174476,-29.836622],[152.175898,-29.834604],[152.17452,-29.831218],[152.177321,-29.82989],[152.17767,-29.82637],[152.174585,-29.825706],[152.176407,-29.823298],[152.173974,-29.822271],[152.171767,-29.823459],[152.170447,-29.821793],[152.17596,-29.817476],[152.1804,-29.806453],[152.185919,-29.804779],[152.192114,-29.807108],[152.190693,-29.804664],[152.186614,-29.802951],[152.187053,-29.800016],[152.193767,-29.800614],[152.19308,-29.798515],[152.190129,-29.796338],[152.190452,-29.79289],[152.192641,-29.791943],[152.190825,-29.78857],[152.192892,-29.787627],[152.196977,-29.788718],[152.200825,-29.787955],[152.202949,-29.786103],[152.201765,-29.780466],[152.20467,-29.779716],[152.206658,-29.777564],[152.20509,-29.773439],[152.205433,-29.771754],[152.209568,-29.769533],[152.21098,-29.767953],[152.213024,-29.763412],[152.217284,-29.760508],[152.220788,-29.761509],[152.225134,-29.761608],[152.226959,-29.760801],[152.228277,-29.75576],[152.230372,-29.754887],[152.233648,-29.7567],[152.236152,-29.756929],[152.241856,-29.754732],[152.246677,-29.756398],[152.25021,-29.755171],[152.252322,-29.753121],[152.254487,-29.752694],[152.254963,-29.756294],[152.256665,-29.75802],[152.260625,-29.757001],[152.261495,-29.754183],[152.264365,-29.750938],[152.263144,-29.747319],[152.258427,-29.744062],[152.259211,-29.739256],[152.255666,-29.736077],[152.255628,-29.732701],[152.259304,-29.730114],[152.261364,-29.727828],[152.264337,-29.728419],[152.265797,-29.725395],[152.26213,-29.714902],[152.262699,-29.711025],[152.264393,-29.709506],[152.269758,-29.708842],[152.269991,-29.705411],[152.267586,-29.703538],[152.261801,-29.701512],[152.262303,-29.696878],[152.265417,-29.69423],[152.269103,-29.692663],[152.271871,-29.685303],[152.274105,-29.684153],[152.276473,-29.68154],[152.277245,-29.676104],[152.276789,-29.672523],[152.279034,-29.669756],[152.280708,-29.665904],[152.28345,-29.665956],[152.285083,-29.671809],[152.287416,-29.675382],[152.289543,-29.676294],[152.295227,-29.66876],[152.30303,-29.66794],[152.30402,-29.667324],[152.304397,-29.662856],[152.306899,-29.662217],[152.307411,-29.664535],[152.310934,-29.665134],[152.312214,-29.663098],[152.310268,-29.655777],[152.312202,-29.651606],[152.315315,-29.65149],[152.322233,-29.655095],[152.325098,-29.655607],[152.327136,-29.65388],[152.325919,-29.649651],[152.327909,-29.646484],[152.330877,-29.645424],[152.336123,-29.640777],[152.3391,-29.623416],[152.354492,-29.545471],[152.357335,-29.543469],[152.358684,-29.540345],[152.363964,-29.538722],[152.369631,-29.534922],[152.371042,-29.534955],[152.378027,-29.531125],[152.38099,-29.531236],[152.383346,-29.52794],[152.387239,-29.527534],[152.386799,-29.524425],[152.389782,-29.52199],[152.392313,-29.522518],[152.393814,-29.520812],[152.400914,-29.51964],[152.40543,-29.516645],[152.406426,-29.51371],[152.409433,-29.511782],[152.408932,-29.508891],[152.412456,-29.50688],[152.406963,-29.492749],[152.388785,-29.445316],[152.394556,-29.446113],[152.397171,-29.431767],[152.404317,-29.432778],[152.410052,-29.400771],[152.410225,-29.398284],[152.413835,-29.399485],[152.416365,-29.398202],[152.418899,-29.398486],[152.421038,-29.397423],[152.421242,-29.395417],[152.425322,-29.39314],[152.429492,-29.391941],[152.432312,-29.392534],[152.433558,-29.389869],[152.433132,-29.387309],[152.436076,-29.38122],[152.434979,-29.378167],[152.439903,-29.376464],[152.441266,-29.374274],[152.440688,-29.371987],[152.444028,-29.370755],[152.442888,-29.367768],[152.445491,-29.366141],[152.447509,-29.360804],[152.451149,-29.360996],[152.451081,-29.358053],[152.420219,-29.353722],[152.331517,-29.341837],[152.335325,-29.340442],[152.336834,-29.337972],[152.336513,-29.334657],[152.331189,-29.32889],[152.326825,-29.32728],[152.322716,-29.326751],[152.319433,-29.324306],[152.310687,-29.32254],[152.307254,-29.320939],[152.303043,-29.31763],[152.300097,-29.313605],[152.301428,-29.310777],[152.298279,-29.307447],[152.300035,-29.304458],[152.304847,-29.304052],[152.308811,-29.304891],[152.309494,-29.302034],[152.313037,-29.300603],[152.314656,-29.298519],[152.312574,-29.29637],[152.310686,-29.292839],[152.311461,-29.29008],[152.308705,-29.287685],[152.306473,-29.283097],[152.311349,-29.28172],[152.314253,-29.282443],[152.315848,-29.279878],[152.320994,-29.277583],[152.321484,-29.273322],[152.32318,-29.269926],[152.328733,-29.268528],[152.333729,-29.264889],[152.336555,-29.264011],[152.33886,-29.261859],[152.340145,-29.257761],[152.34415,-29.254071],[152.346527,-29.253982],[152.351323,-29.249123],[152.353553,-29.248554],[152.357498,-29.250633],[152.36576,-29.246099],[152.369003,-29.246949],[152.374502,-29.244159],[152.376275,-29.243867],[152.379027,-29.245286],[152.384166,-29.242592],[152.387215,-29.240105],[152.394086,-29.24125],[152.399887,-29.236702],[152.404461,-29.235111],[152.412805,-29.230414],[152.414118,-29.228894],[152.411554,-29.226585],[152.411005,-29.219805],[152.407112,-29.214117],[152.405201,-29.212154],[152.405443,-29.210307],[152.410177,-29.200865],[152.413683,-29.196718],[152.415842,-29.19272],[152.418325,-29.190383],[152.420671,-29.18533],[152.421705,-29.180721],[152.424963,-29.178626],[152.421531,-29.17393],[152.417948,-29.172646],[152.417451,-29.170468],[152.418846,-29.168955],[152.414465,-29.165374],[152.413804,-29.161257],[152.415795,-29.158984],[152.41689,-29.153095],[152.419882,-29.151961],[152.423835,-29.152229],[152.425985,-29.150853],[152.429618,-29.150025],[152.433107,-29.146415],[152.435213,-29.14518],[152.441396,-29.14543],[152.444231,-29.144175],[152.449974,-29.116519],[152.449061,-29.116383],[152.451815,-29.101929],[152.452551,-29.102037],[152.455006,-29.089027],[152.421006,-29.084096],[152.418978,-29.081045],[152.421305,-29.080484],[152.421748,-29.078699],[152.42402,-29.077213],[152.42434,-29.075452],[152.428747,-29.07432],[152.43111,-29.071963],[152.431539,-29.069129],[152.430571,-29.064585],[152.433283,-29.060953],[152.435678,-29.059363],[152.436061,-29.056547],[152.441565,-29.052136],[152.443897,-29.039755],[152.424203,-29.036863],[152.425462,-29.035061],[152.429755,-29.03267],[152.437109,-29.032428],[152.446122,-29.02834],[152.449169,-29.029445],[152.453251,-29.032211],[152.456824,-29.033239],[152.45983,-29.031591],[152.459386,-29.029856],[152.455381,-29.027084],[152.454072,-29.024549],[152.455898,-29.019338],[152.459445,-29.01597],[152.462974,-29.011631],[152.46464,-29.008025],[152.467461,-29.005874],[152.471744,-29.004915],[152.471277,-29.002695],[152.464953,-28.998733],[152.463819,-28.992874],[152.46552,-28.99043],[152.473804,-28.991998],[152.476205,-28.990648],[152.473742,-28.981331],[152.470635,-28.979371],[152.464342,-28.979461],[152.462411,-28.978267],[152.462606,-28.975905],[152.467109,-28.973664],[152.477542,-28.972734],[152.485321,-28.976172],[152.488649,-28.977093],[152.489403,-28.975186],[152.487723,-28.973976],[152.486653,-28.969974],[152.509573,-28.973254],[152.508325,-28.980353],[152.516943,-28.981566],[152.516572,-28.983581],[152.525775,-28.984736],[152.529499,-28.987005],[152.534054,-28.985694],[152.549501,-28.987993],[152.551109,-28.988973],[152.558516,-28.990078],[152.560612,-28.986331],[152.558263,-28.974134],[152.555817,-28.965075],[152.553408,-28.960114],[152.553601,-28.955808],[152.550148,-28.954584],[152.549108,-28.94674],[152.545781,-28.942359],[152.54503,-28.939229],[152.545582,-28.936317],[152.548638,-28.932364],[152.554287,-28.930673],[152.560707,-28.930585],[152.562674,-28.929717],[152.563581,-28.92735],[152.565936,-28.926074],[152.57035,-28.928302],[152.571934,-28.930516],[152.577328,-28.932486],[152.579635,-28.931411],[152.580988,-28.928604],[152.58026,-28.917926],[152.580107,-28.911484],[152.573818,-28.908605],[152.571212,-28.905406],[152.567178,-28.904199],[152.565374,-28.905706],[152.563501,-28.909226],[152.555079,-28.912589],[152.550203,-28.910597],[152.548131,-28.908609],[152.550764,-28.906858],[152.554729,-28.902509],[152.554495,-28.899534],[152.557543,-28.894948],[152.557145,-28.89375],[152.564307,-28.887482],[152.565676,-28.884922],[152.568969,-28.874626],[152.573306,-28.86365],[152.567877,-28.858052],[152.564321,-28.857169],[152.561198,-28.857808],[152.556286,-28.856124],[152.548361,-28.854766],[152.544747,-28.85373],[152.540604,-28.851604],[152.537174,-28.847035],[152.542772,-28.841073],[152.545624,-28.837014],[152.552538,-28.830686],[152.556973,-28.824527],[152.557199,-28.822257],[152.55488,-28.817862],[152.544351,-28.81775],[152.540304,-28.816032],[152.53741,-28.806827],[152.537034,-28.803606],[152.540228,-28.797193],[152.543678,-28.787938],[152.542992,-28.78377],[152.54079,-28.781511],[152.536482,-28.781683],[152.533967,-28.780747],[152.530992,-28.781374],[152.528304,-28.784912],[152.525454,-28.787235],[152.521678,-28.793089],[152.519957,-28.794595],[152.517063,-28.794426],[152.514585,-28.792189],[152.514027,-28.789245],[152.515242,-28.784393],[152.51331,-28.780909],[152.511038,-28.779742],[152.508518,-28.780094],[152.505201,-28.782168],[152.50191,-28.785391],[152.496297,-28.785396],[152.490571,-28.782599],[152.480325,-28.780262],[152.477761,-28.777384],[152.47796,-28.775428],[152.480716,-28.772274],[152.490174,-28.768841],[152.492042,-28.764561],[152.488846,-28.758949],[152.48037,-28.753224],[152.479715,-28.751232],[152.481443,-28.749225],[152.486577,-28.748681],[152.490654,-28.750053],[152.493561,-28.749296],[152.498235,-28.74483],[152.499036,-28.741115],[152.497634,-28.737884],[152.495115,-28.736178],[152.492334,-28.735588],[152.484161,-28.738602],[152.47974,-28.742438],[152.477743,-28.746271],[152.473711,-28.747146],[152.471691,-28.746468],[152.471274,-28.742751],[152.474294,-28.738716],[152.476059,-28.737605],[152.475256,-28.73221],[152.472384,-28.730782],[152.467507,-28.735568],[152.465277,-28.735837],[152.459374,-28.733723],[152.455816,-28.731834],[152.450011,-28.730273],[152.440932,-28.729164],[152.437458,-28.727949],[152.435037,-28.725093],[152.429335,-28.725364],[152.426474,-28.724078],[152.421238,-28.718079],[152.418876,-28.718618],[152.414905,-28.723181],[152.412586,-28.724082],[152.407664,-28.723407],[152.406351,-28.715112],[152.404789,-28.710113],[152.406486,-28.705472],[152.4036,-28.70395],[152.401695,-28.70661],[152.397393,-28.706918],[152.391604,-28.703675],[152.385991,-28.701988],[152.378832,-28.703981],[152.376211,-28.702654],[152.375208,-28.699883],[152.376136,-28.69426],[152.373705,-28.687903],[152.374333,-28.685495],[152.378172,-28.684799],[152.384483,-28.686102],[152.389048,-28.681288],[152.386341,-28.676333],[152.391145,-28.670854],[152.391442,-28.669829],[152.389091,-28.665769],[152.390769,-28.664157],[152.394458,-28.663823],[152.397289,-28.665274],[152.398629,-28.662004],[152.402465,-28.659427],[152.403692,-28.656635],[152.403248,-28.652435],[152.398771,-28.647626],[152.399648,-28.645827],[152.402657,-28.645264],[152.407829,-28.642945],[152.408474,-28.639873],[152.408076,-28.636777],[152.409849,-28.634622],[152.412405,-28.633995],[152.413981,-28.632036],[152.408765,-28.628211],[152.411731,-28.627192],[152.411525,-28.625629],[152.407699,-28.624629],[152.405834,-28.62302],[152.406612,-28.620758],[152.409838,-28.620413],[152.413065,-28.621255],[152.416608,-28.618534],[152.418787,-28.620772],[152.421155,-28.621603],[152.42482,-28.620825],[152.424234,-28.618526],[152.420609,-28.618643],[152.417175,-28.615472],[152.417347,-28.612965],[152.420216,-28.608539],[152.422079,-28.606845],[152.425832,-28.605782],[152.428814,-28.603617],[152.434765,-28.602244],[152.439391,-28.604725],[152.44282,-28.603383],[152.441951,-28.60001],[152.439097,-28.598856],[152.441811,-28.592688],[152.440367,-28.590497],[152.440995,-28.587651],[152.438358,-28.584442],[152.43866,-28.582308],[152.440688,-28.580561],[152.442461,-28.581121],[152.444832,-28.584689],[152.446421,-28.584282],[152.447357,-28.576241],[152.445694,-28.576007],[152.441666,-28.577634],[152.441062,-28.574986],[152.443595,-28.572613],[152.45011,-28.567932],[152.455687,-28.569809],[152.457758,-28.568977],[152.456435,-28.565369],[152.454473,-28.565084],[152.451841,-28.562728],[152.447451,-28.555561],[152.442458,-28.556841],[152.441134,-28.553207],[152.443219,-28.550323],[152.441932,-28.547154],[152.444362,-28.546214],[152.445934,-28.542922],[152.446419,-28.539191],[152.444069,-28.536216],[152.442997,-28.532658],[152.440594,-28.530206],[152.443981,-28.529536],[152.447754,-28.527473],[152.454691,-28.527083],[152.456655,-28.52886],[152.460079,-28.52932],[152.462678,-28.528058],[152.459743,-28.522668],[152.463412,-28.52283],[152.463904,-28.525473],[152.466564,-28.526306],[152.469177,-28.520762],[152.472183,-28.519232],[152.475763,-28.519907],[152.476979,-28.522673],[152.475717,-28.524046],[152.476117,-28.52696],[152.483019,-28.525895],[152.485253,-28.53119],[152.487327,-28.527262],[152.493511,-28.527216],[152.500138,-28.528526],[152.502858,-28.52671],[152.499931,-28.523504],[152.500786,-28.521954],[152.50056,-28.517412],[152.503236,-28.511599],[152.506504,-28.511379],[152.508053,-28.513518],[152.510718,-28.513825],[152.518968,-28.51032],[152.522972,-28.510911],[152.525158,-28.513078],[152.528153,-28.511747],[152.530266,-28.515006],[152.533191,-28.513812],[152.536904,-28.506636],[152.537373,-28.501071],[152.536924,-28.499767],[152.527376,-28.497501],[152.530766,-28.492288],[152.534119,-28.489128],[152.535265,-28.486852],[152.537515,-28.485722],[152.540396,-28.482763],[152.542838,-28.482115],[152.543675,-28.47922],[152.54638,-28.477603],[152.547646,-28.478975],[152.551146,-28.479069],[152.55312,-28.477686],[152.552796,-28.474052],[152.548846,-28.470781],[152.551431,-28.466628],[152.554433,-28.465245],[152.558493,-28.469866],[152.561889,-28.465768],[152.561049,-28.460356],[152.561765,-28.455342],[152.566562,-28.450571],[152.564251,-28.447097],[152.566698,-28.442813],[152.565252,-28.440519],[152.567384,-28.437925],[152.572281,-28.436737],[152.577038,-28.437617],[152.578697,-28.435138],[152.578519,-28.432943],[152.580172,-28.425308],[152.582685,-28.422639],[152.581645,-28.420346],[152.57752,-28.418124],[152.576437,-28.416303],[152.57821,-28.414854],[152.583561,-28.41709],[152.58618,-28.416572],[152.586439,-28.414568],[152.589113,-28.413004],[152.594641,-28.408597],[152.593233,-28.401257],[152.595546,-28.399226],[152.598011,-28.39952],[152.599003,-28.397104],[152.597626,-28.39487],[152.60488,-28.391985],[152.605111,-28.385102],[152.602509,-28.384083],[152.602677,-28.379469],[152.609455,-28.376939],[152.611868,-28.373019],[152.610809,-28.372363],[152.611901,-28.367469],[152.614158,-28.366418],[152.615095,-28.364156],[152.614897,-28.361244],[152.612734,-28.357348],[152.615371,-28.356262],[152.615639,-28.352387],[152.618282,-28.350531],[152.618257,-28.348372],[152.621719,-28.346753],[152.624626,-28.348634],[152.627689,-28.347076],[152.627484,-28.344311],[152.6294,-28.343149],[152.630849,-28.338294],[152.629216,-28.334244],[152.627861,-28.327548],[152.626433,-28.326545],[152.622712,-28.327897],[152.619922,-28.324645],[152.617767,-28.320421],[152.615137,-28.319212],[152.612433,-28.320368],[152.607771,-28.320192],[152.602433,-28.318308],[152.597846,-28.314779],[152.597642,-28.314618],[152.597572,-28.314551],[152.596523,-28.318084],[152.593873,-28.319141],[152.58918,-28.325999],[152.585233,-28.328411],[152.579506,-28.339198],[152.57462,-28.334094],[152.572299,-28.326754],[152.564036,-28.323534],[152.556799,-28.324022],[152.554675,-28.325536],[152.554946,-28.31897],[152.549056,-28.321269],[152.547013,-28.320487],[152.544048,-28.31894],[152.543248,-28.315922],[152.538879,-28.311349],[152.533545,-28.310727],[152.525919,-28.305978],[152.525593,-28.301795],[152.529298,-28.297945],[152.528879,-28.286644],[152.532802,-28.279583],[152.532898,-28.272311],[152.536487,-28.265894],[152.533975,-28.262694],[152.521699,-28.260734],[152.518684,-28.256954],[152.516065,-28.256825],[152.515812,-28.251799],[152.507531,-28.249],[152.497194,-28.25335],[152.487893,-28.253199],[152.482866,-28.258017],[152.468237,-28.257757],[152.461331,-28.260935],[152.459494,-28.266686],[152.461228,-28.269753],[152.457959,-28.27238],[152.455141,-28.278408],[152.449262,-28.280688],[152.443162,-28.288923],[152.444181,-28.297245],[152.442945,-28.298428],[152.440457,-28.2976],[152.435654,-28.299493],[152.427752,-28.297308],[152.425391,-28.299614],[152.416744,-28.296816],[152.415173,-28.298073],[152.413216,-28.301582],[152.413889,-28.307139],[152.4107,-28.310447],[152.410571,-28.320408],[152.417299,-28.329874],[152.416362,-28.335003],[152.41024,-28.341494],[152.401119,-28.347069],[152.387971,-28.367464],[152.383425,-28.368848],[152.378359,-28.365636],[152.374757,-28.366958],[152.365173,-28.366149],[152.356632,-28.361187],[152.341853,-28.36797],[152.33569,-28.366629],[152.33194,-28.36829],[152.320358,-28.36695],[152.312827,-28.362494],[152.309367,-28.36284],[152.307341,-28.36904],[152.291754,-28.381265],[152.288609,-28.391503],[152.28175,-28.392828],[152.268244,-28.389531],[152.266677,-28.390742],[152.26038,-28.40077],[152.252449,-28.40728],[152.252075,-28.410599],[152.239161,-28.417868],[152.238062,-28.423477],[152.230983,-28.429585],[152.228676,-28.437025],[152.225691,-28.43724],[152.219625,-28.447797],[152.217235,-28.449114],[152.213976,-28.44599],[152.207271,-28.44523],[152.204702,-28.438071],[152.190219,-28.43404],[152.184266,-28.439044],[152.164688,-28.432592],[152.156414,-28.434585],[152.154493,-28.438027],[152.146337,-28.439309],[152.141966,-28.442435],[152.135412,-28.452164],[152.127921,-28.45395],[152.121239,-28.462649],[152.111776,-28.464346],[152.102805,-28.463302],[152.101594,-28.465069],[152.095918,-28.466095],[152.095701,-28.468689],[152.093821,-28.469739],[152.091038,-28.468366],[152.087652,-28.469655],[152.083806,-28.468748],[152.079795,-28.470625],[152.075588,-28.469966],[152.07408,-28.46803],[152.069682,-28.468535],[152.0687,-28.476477],[152.066817,-28.478727],[152.067119,-28.485152],[152.059663,-28.490847],[152.055112,-28.490651],[152.045553,-28.495219],[152.043769,-28.499314],[152.035733,-28.507459],[152.026935,-28.512917],[152.024266,-28.51294],[152.019602,-28.517319],[152.02002,-28.521201],[152.016708,-28.525233],[152.000453,-28.528124],[151.991759,-28.524752],[151.988794,-28.525617],[151.984457,-28.516901],[151.985591,-28.509941],[151.982626,-28.503328],[151.977801,-28.503068],[151.973187,-28.505049],[151.972504,-28.507559],[151.964092,-28.514544],[151.958186,-28.515945],[151.955352,-28.519191],[151.956377,-28.52819],[151.953223,-28.539938],[151.956273,-28.54293],[151.95407,-28.550517],[151.954514,-28.553519],[151.958297,-28.557132],[151.957333,-28.564747],[151.963592,-28.567627],[151.966834,-28.572579],[151.976088,-28.573541],[151.985938,-28.582131],[151.988309,-28.591981],[151.992118,-28.594874],[151.988903,-28.60266],[151.990851,-28.609629],[151.994006,-28.611945],[151.990124,-28.620728],[151.990987,-28.624585],[152.002412,-28.640299],[152.002042,-28.65064],[152.005934,-28.651735],[152.008903,-28.659218],[152.011596,-28.661847],[152.010495,-28.664987],[152.014193,-28.665777],[152.020754,-28.663885],[152.031614,-28.666158],[152.039056,-28.664577],[152.044905,-28.668324],[152.045736,-28.670886],[152.044489,-28.673081],[152.052543,-28.682229],[152.062002,-28.679389],[152.066446,-28.681191],[152.068052,-28.685124],[152.06466,-28.690654],[152.066075,-28.697586],[152.076035,-28.708345],[152.071329,-28.714959],[152.062127,-28.718238],[152.053881,-28.725549],[152.042291,-28.731828],[152.046097,-28.733854],[152.047698,-28.740431],[152.043767,-28.746043],[152.040872,-28.747511],[152.041083,-28.75336],[152.036073,-28.757271],[152.037519,-28.763783],[152.036522,-28.770352],[152.037928,-28.772733],[152.035639,-28.777157],[152.040543,-28.780549],[152.040487,-28.78219],[152.037817,-28.787008],[152.033967,-28.791124],[152.037847,-28.797408],[152.035223,-28.803652],[152.036498,-28.810729],[152.034593,-28.815157],[152.036603,-28.817792],[152.034126,-28.820023],[152.03338,-28.82807],[152.027762,-28.831651],[152.022937,-28.830948],[152.02112,-28.836633],[152.016925,-28.837932],[152.018098,-28.845437],[152.014915,-28.850232],[152.015359,-28.851704],[152.017637,-28.851473],[152.023088,-28.854668],[152.025984,-28.858239],[152.02953,-28.854265],[152.032225,-28.854522],[152.037562,-28.851641],[152.039002,-28.854602],[152.035504,-28.858437],[152.037544,-28.864355],[152.033934,-28.86566],[152.030141,-28.869945],[152.031384,-28.873921],[152.028202,-28.876566],[152.026391,-28.883193],[152.023854,-28.886384],[152.024364,-28.889636],[152.016432,-28.892693],[152.016253,-28.896796],[152.010697,-28.906685],[152.004766,-28.909063],[152.001616,-28.908491],[151.999685,-28.903503],[152.001299,-28.899752],[151.996311,-28.89479],[151.994803,-28.89874],[151.98073,-28.909169],[151.974485,-28.908562],[151.968491,-28.916683],[151.961012,-28.919116],[151.956236,-28.917151],[151.951703,-28.919524],[151.937128,-28.921876],[151.922854,-28.928165],[151.916316,-28.929342],[151.915588,-28.926812],[151.917058,-28.924821],[151.913691,-28.92012],[151.900334,-28.914665],[151.89558,-28.913451],[151.8927,-28.915443],[151.881543,-28.911492],[151.878232,-28.914575],[151.871595,-28.914295],[151.859768,-28.90681],[151.849775,-28.907624],[151.841344,-28.911473],[151.838224,-28.916363],[151.835152,-28.932077],[151.836518,-28.9367],[151.839829,-28.939497],[151.839903,-28.942779],[151.835985,-28.948414],[151.835554,-28.956773],[151.83066,-28.961747],[151.825738,-28.963974],[151.813315,-28.959812],[151.811749,-28.95573],[151.815096,-28.953813],[151.814619,-28.950608],[151.810284,-28.949779],[151.808779,-28.945849],[151.8069,-28.945298],[151.793431,-28.949471],[151.789264,-28.95343],[151.78281,-28.953959],[151.777397,-28.957172],[151.776898,-28.959001],[151.77063,-28.955765],[151.773767,-28.947863],[151.773339,-28.938076],[151.76283,-28.935097],[151.761766,-28.932354],[151.758294,-28.930027],[151.759752,-28.926208],[151.755482,-28.924417],[151.754825,-28.922164],[151.750794,-28.922622],[151.742439,-28.918503],[151.745964,-28.91532],[151.739453,-28.901337],[151.74092,-28.89752],[151.73673,-28.895654],[151.73643,-28.89195],[151.731755,-28.882422],[151.733663,-28.878503],[151.733862,-28.871455],[151.726416,-28.866955],[151.72262,-28.868464],[151.722611,-28.870168],[151.716492,-28.874952],[151.713207,-28.875476],[151.71104,-28.871185],[151.706368,-28.871719],[151.702067,-28.882137],[151.69565,-28.884453],[151.695847,-28.888458],[151.688609,-28.88696],[151.686377,-28.888986],[151.685226,-28.893201],[151.677809,-28.900221],[151.677618,-28.903837],[151.674772,-28.907749],[151.666013,-28.905613],[151.651541,-28.917295],[151.644191,-28.91736],[151.637128,-28.922412],[151.635185,-28.929578],[151.633266,-28.930301],[151.625976,-28.923851],[151.616952,-28.926333],[151.609782,-28.923458],[151.605232,-28.925254],[151.60358,-28.927614],[151.588469,-28.932062],[151.57894,-28.94412],[151.572047,-28.944727],[151.566706,-28.941837],[151.548109,-28.952947],[151.544829,-28.953286],[151.541801,-28.968718],[151.535889,-28.975083],[151.537289,-28.979804],[151.531697,-28.98541],[151.52364,-28.989001],[151.521069,-28.995595],[151.516327,-28.99689],[151.509141,-29.005479],[151.50607,-29.006767],[151.50278,-29.015802],[151.500164,-29.016937],[151.497799,-29.02088],[151.498031,-29.025598],[151.494912,-29.032914],[151.497256,-29.042233],[151.490092,-29.056575],[151.502375,-29.065521],[151.502776,-29.069867],[151.499897,-29.072683],[151.496739,-29.070394],[151.493429,-29.071771],[151.494431,-29.074631],[151.485341,-29.089335],[151.476729,-29.091305],[151.462942,-29.098313],[151.457829,-29.117142],[151.452744,-29.126252],[151.432354,-29.140094],[151.428579,-29.147122],[151.423627,-29.149276],[151.416468,-29.149166],[151.409894,-29.153933],[151.402526,-29.165856],[151.402117,-29.171349],[151.394116,-29.178028],[151.387552,-29.175145],[151.376945,-29.176801],[151.363017,-29.172349],[151.35847,-29.172279],[151.353201,-29.17572],[151.338428,-29.179266],[151.33573,-29.177929],[151.334895,-29.174831],[151.322252,-29.166676],[151.315597,-29.166093],[151.312067,-29.161927],[151.309311,-29.146588],[151.318009,-29.138057],[151.30426,-29.121138],[151.303493,-29.116651],[151.301073,-29.114013],[151.297829,-29.112604],[151.290347,-29.113887],[151.28647,-29.107269],[151.280468,-29.102157],[151.278225,-29.092653],[151.279192,-29.086534],[151.274628,-29.081833],[151.275132,-29.076424],[151.28551,-29.065447],[151.285421,-29.058162],[151.288243,-29.05697],[151.290545,-29.051096],[151.285791,-29.047397],[151.28651,-29.036742],[151.283694,-29.035391],[151.276381,-29.03571],[151.271676,-29.030392],[151.273984,-29.024654],[151.283506,-29.017495],[151.284103,-29.006822],[151.283161,-29.002701],[151.278693,-28.99686],[151.276392,-28.987063],[151.276623,-28.984709],[151.281711,-28.982579],[151.282087,-28.98096],[151.271939,-28.972733],[151.273318,-28.967698],[151.280424,-28.964971],[151.279866,-28.960568],[151.281528,-28.958492],[151.281613,-28.949009],[151.275861,-28.942717],[151.274167,-28.937912],[151.266156,-28.935446],[151.264264,-28.93211],[151.257813,-28.932061],[151.25014,-28.92619],[151.242318,-28.923373],[151.238629,-28.909303],[151.234642,-28.904803],[151.229385,-28.908803],[151.214966,-28.904299],[151.207008,-28.898337],[151.206773,-28.891979],[151.19959,-28.884255],[151.184,-28.87822],[151.178443,-28.880449],[151.172985,-28.880302],[151.163027,-28.870328],[151.161066,-28.86538],[151.151617,-28.865439],[151.143574,-28.860149],[151.139792,-28.863091],[151.131898,-28.860063],[151.12515,-28.850556],[151.115349,-28.850528],[151.108624,-28.842729],[151.104492,-28.844069],[151.103329,-28.836584],[151.099626,-28.836498],[151.09684,-28.838391],[151.090408,-28.835299],[151.082664,-28.834515],[151.07217,-28.840705],[151.071491,-28.844912],[151.058844,-28.846251],[151.053691,-28.849818],[151.051585,-28.848716],[151.053018,-28.844923],[151.050248,-28.843548],[151.046884,-28.845351],[151.044403,-28.843892],[151.043461,-28.840041],[151.038916,-28.838305],[151.03922,-28.83653],[151.042683,-28.835243],[151.042994,-28.833079],[151.03657,-28.825693],[151.037586,-28.818435],[151.04226,-28.815764],[151.040886,-28.810118],[151.042704,-28.801597],[151.041089,-28.797634],[151.037699,-28.797602],[151.033281,-28.793931],[151.024087,-28.793484],[151.025954,-28.788522],[151.025816,-28.781957],[151.02336,-28.775841],[151.018588,-28.773111],[151.019568,-28.771329],[151.028534,-28.770532],[151.028225,-28.761975],[151.024567,-28.753062],[151.012,-28.744525],[151.009923,-28.740947],[151.002891,-28.740702],[150.989548,-28.73607],[150.98342,-28.736168],[150.97949,-28.732628],[150.970428,-28.732074],[150.963344,-28.737839],[150.958078,-28.735226],[150.955217,-28.737131],[150.95244,-28.736701],[150.94746,-28.733797],[150.94592,-28.728823],[150.943014,-28.728642],[150.938421,-28.731247],[150.938182,-28.725656],[150.932405,-28.722346],[150.930615,-28.705109],[150.924764,-28.699019],[150.919848,-28.700701],[150.915416,-28.698518],[150.911384,-28.695399],[150.907437,-28.688525],[150.9043,-28.68732],[150.894726,-28.688474],[150.89197,-28.691224],[150.890934,-28.695005],[150.885897,-28.695844],[150.884423,-28.695033],[150.884431,-28.690495],[150.880253,-28.689051],[150.877173,-28.693546],[150.874065,-28.694394],[150.870051,-28.686264],[150.863498,-28.688262],[150.852186,-28.680187],[150.849048,-28.673719],[150.839294,-28.672514],[150.828523,-28.667188],[150.818775,-28.666694],[150.81635,-28.662485],[150.818978,-28.659848],[150.818597,-28.657553],[150.814834,-28.657671],[150.804498,-28.653704],[150.799226,-28.653975],[150.796334,-28.656128],[150.782486,-28.645526],[150.772026,-28.644775],[150.767152,-28.638463],[150.754375,-28.640089],[150.751259,-28.63425],[150.745855,-28.635715],[150.744102,-28.634547],[150.727285,-28.635564],[150.725655,-28.636844],[150.726648,-28.638867],[150.724245,-28.640969],[150.71027,-28.645515],[150.708888,-28.647673],[150.710369,-28.650644],[150.709552,-28.652157],[150.701365,-28.655359],[150.692013,-28.653895],[150.687888,-28.658185],[150.681372,-28.661674],[150.676055,-28.655747],[150.676179,-28.652105],[150.673421,-28.650462],[150.664806,-28.656546],[150.64152,-28.665359],[150.63223,-28.67709],[150.626879,-28.672917],[150.626821,-28.669963],[150.625395,-28.669047],[150.620388,-28.669065],[150.617982,-28.673995],[150.610361,-28.671692],[150.600452,-28.671328],[150.599945,-28.665075],[150.580625,-28.655833],[150.57358,-28.658751],[150.566902,-28.658518],[150.56089,-28.662304],[150.555935,-28.654039],[150.552689,-28.653639],[150.548318,-28.658194],[150.548357,-28.659767],[150.55442,-28.664272],[150.551024,-28.6716],[150.537986,-28.670896],[150.534972,-28.672449],[150.527466,-28.669331],[150.525559,-28.665553],[150.532405,-28.66181],[150.536934,-28.662547],[150.539286,-28.660048],[150.537733,-28.657241],[150.530694,-28.655323],[150.521782,-28.65531],[150.518786,-28.66077],[150.513845,-28.662307],[150.486323,-28.657359],[150.483832,-28.662259],[150.486248,-28.663812],[150.48542,-28.666146],[150.481603,-28.671042],[150.477481,-28.673234],[150.467746,-28.686157],[150.460684,-28.69586],[150.444783,-28.71824],[150.427894,-28.742266],[150.420939,-28.751976],[150.408465,-28.764115],[150.383723,-28.789905],[150.343136,-28.827026],[150.343964,-28.827542],[150.279708,-28.845325],[150.23033,-28.859069],[150.169218,-28.876344],[150.168961,-28.875999],[150.148546,-28.889263],[150.157444,-28.899055],[150.192621,-28.938647],[150.202218,-28.949213],[150.222815,-28.972282],[150.24335,-28.995425],[150.24631,-28.998429],[150.259498,-29.013903],[150.252614,-29.051194],[150.250652,-29.053682],[150.252127,-29.055384],[150.251534,-29.0581],[150.253133,-29.060131],[150.251848,-29.062568],[150.252327,-29.064522],[150.251383,-29.070588],[150.249834,-29.072625],[150.25007,-29.076044],[150.252288,-29.079517],[150.247215,-29.078831],[150.245383,-29.088835],[150.244334,-29.088651],[150.239673,-29.114568],[150.245076,-29.115315],[150.24578,-29.116176],[150.231215,-29.193327],[150.230161,-29.195738],[150.213609,-29.282788],[150.213337,-29.282748],[150.195876,-29.373763],[150.196032,-29.373786],[150.189362,-29.407308],[150.183563,-29.437825],[150.181427,-29.440994],[150.179453,-29.451659],[150.180628,-29.455484],[150.179177,-29.463113],[150.175322,-29.462575],[150.169228,-29.495984],[150.172437,-29.496745],[150.177599,-29.495765],[150.184194,-29.493246],[150.192619,-29.49395],[150.195434,-29.493412],[150.1974,-29.491211],[150.198809,-29.487374],[150.200376,-29.485475],[150.205956,-29.483191],[150.210234,-29.486237],[150.212633,-29.491135],[150.214837,-29.492854],[150.219462,-29.497948],[150.2183,-29.499486],[150.21035,-29.499928],[150.206247,-29.502228],[150.206099,-29.50374],[150.208179,-29.506577],[150.204039,-29.511836],[150.201266,-29.513925],[150.198977,-29.51402],[150.194526,-29.518855],[150.194868,-29.522347],[150.197938,-29.524202],[150.202316,-29.52507],[150.207946,-29.528673],[150.211639,-29.529801],[150.209999,-29.538517],[150.208968,-29.540883],[150.208305,-29.546691],[150.210401,-29.551353],[150.207468,-29.550905],[150.204194,-29.56758],[150.20357,-29.571918],[150.201818,-29.574193],[150.202373,-29.578211],[150.194619,-29.620235],[150.215942,-29.648851],[150.218816,-29.659719],[150.225559,-29.659542],[150.23183,-29.66296],[150.236048,-29.660473],[150.24049,-29.66179],[150.24225,-29.665288],[150.241034,-29.667977],[150.24467,-29.671423],[150.246744,-29.670718],[150.252457,-29.672759],[150.25705,-29.676585],[150.262893,-29.679026],[150.263512,-29.686945],[150.264137,-29.688573],[150.271045,-29.690605],[150.272589,-29.691971],[150.273333,-29.697701],[150.272068,-29.704023],[150.274617,-29.707316],[150.280958,-29.70647],[150.28389,-29.708973],[150.284118,-29.711735],[150.285779,-29.71364],[150.288549,-29.713463],[150.288894,-29.716637],[150.287829,-29.721939],[150.28923,-29.723294],[150.293205,-29.723818],[150.294355,-29.725825],[150.297477,-29.726324],[150.302529,-29.731788],[150.302421,-29.735565],[150.299332,-29.739125],[150.298058,-29.744221],[150.293222,-29.74609],[150.290861,-29.748845],[150.28796,-29.749832],[150.29005,-29.753588],[150.291971,-29.75543],[150.294436,-29.755873],[150.291917,-29.758926],[150.293547,-29.761594],[150.293233,-29.763954],[150.290687,-29.767209],[150.292081,-29.769602],[150.290127,-29.774071],[150.291336,-29.776167],[150.290037,-29.778722],[150.290052,-29.781563],[150.289016,-29.785962],[150.287323,-29.787441],[150.289255,-29.789468],[150.291359,-29.793316],[150.292227,-29.796397],[150.29072,-29.802698],[150.294148,-29.80241],[150.295634,-29.803303],[150.294216,-29.805709],[150.298251,-29.808285],[150.298924,-29.812111],[150.298281,-29.814688],[150.29936,-29.817174],[150.303868,-29.81826],[150.306484,-29.81985],[150.307027,-29.825922],[150.302375,-29.827035],[150.301353,-29.831057],[150.301779,-29.840026],[150.300742,-29.843303],[150.296801,-29.843317],[150.296591,-29.84523],[150.294081,-29.846606],[150.293951,-29.848771],[150.296765,-29.850213],[150.294258,-29.857041],[150.291249,-29.861316],[150.29359,-29.861967],[150.294381,-29.866538],[150.293831,-29.870525],[150.295121,-29.873468],[150.297749,-29.872402],[150.301511,-29.873729],[150.302552,-29.878517],[150.306053,-29.885274],[150.305017,-29.889455],[150.308543,-29.891504],[150.312409,-29.892556],[150.313714,-29.897114],[150.31172,-29.904676],[150.312038,-29.90691],[150.306912,-29.913797],[150.305387,-29.914405],[150.303087,-29.91829],[150.300511,-29.920914],[150.300422,-29.927467],[150.301567,-29.927982],[150.300885,-29.932541],[150.302123,-29.9349],[150.30252,-29.938875],[150.298682,-29.946048],[150.300025,-29.948739],[150.302223,-29.949311],[150.302724,-29.95245],[150.301924,-29.957239],[150.297188,-29.959028],[150.295295,-29.963553],[150.292467,-29.963772],[150.290744,-29.96698],[150.292127,-29.968961],[150.291865,-29.971527],[150.29259,-29.97651],[150.292408,-29.98068],[150.293514,-29.983085],[150.292859,-29.990531],[150.290319,-29.992285],[150.285923,-29.991851],[150.285121,-29.996387],[150.278474,-29.995908],[150.275564,-29.994282],[150.274879,-29.991018],[150.272628,-29.989392],[150.268455,-29.990904],[150.264322,-29.98866],[150.260676,-29.990104],[150.254329,-29.989891],[150.253404,-29.9932],[150.248852,-29.99348],[150.250069,-29.997549],[150.250842,-30.002715],[150.249035,-30.006148],[150.248841,-30.010267],[150.245146,-30.009724],[150.243488,-30.011497],[150.24093,-30.011333],[150.236102,-30.012698],[150.236992,-30.016169],[150.234258,-30.019356],[150.233962,-30.022041],[150.231681,-30.024417],[150.224954,-30.027031],[150.223323,-30.029619],[150.217412,-30.035496],[150.215915,-30.038871],[150.21378,-30.039823],[150.213702,-30.042997],[150.210645,-30.046891],[150.204337,-30.053722],[150.200962,-30.055795],[150.197854,-30.060439],[150.197512,-30.062574],[150.188487,-30.065706],[150.186885,-30.064832],[150.182099,-30.064621],[150.179171,-30.065514],[150.178284,-30.063579],[150.175734,-30.062271],[150.171956,-30.062964],[150.168363,-30.066965],[150.164022,-30.070652],[150.163766,-30.072944],[150.162021,-30.074676],[150.162812,-30.078139],[150.161466,-30.080726],[150.158003,-30.082769],[150.153588,-30.082015],[150.150702,-30.083226],[150.149143,-30.08547],[150.144869,-30.087298],[150.139505,-30.086488],[150.136577,-30.083861],[150.135323,-30.081178],[150.133197,-30.079815],[150.133124,-30.077685],[150.131015,-30.077221],[150.124153,-30.070046],[150.122808,-30.069459],[150.119478,-30.07208],[150.120279,-30.074873],[150.118096,-30.077794],[150.113319,-30.080521],[150.109414,-30.080445],[150.108366,-30.082149],[150.105604,-30.081217],[150.102979,-30.081962],[150.101185,-30.085002],[150.097022,-30.086885],[150.091529,-30.092626],[150.091593,-30.096286],[150.088234,-30.096173],[150.086835,-30.097334],[150.083633,-30.097049],[150.082056,-30.100197],[150.079349,-30.102334],[150.078239,-30.105464],[150.07417,-30.10495],[150.07566,-30.107363],[150.074464,-30.113683],[150.075774,-30.119613],[150.077205,-30.12205],[150.074876,-30.12775],[150.074841,-30.130883],[150.076534,-30.132673],[150.074402,-30.137122],[150.076406,-30.139499],[150.080728,-30.140085],[150.083128,-30.145918],[150.082972,-30.148723],[150.085033,-30.151249],[150.085303,-30.155467],[150.088669,-30.158066],[150.089932,-30.160608],[150.090429,-30.164582],[150.088906,-30.168183],[150.089365,-30.171677],[150.09705,-30.182317],[150.097899,-30.185486],[150.100706,-30.188012],[150.102263,-30.191946],[150.105671,-30.193431],[150.111106,-30.194335],[150.114433,-30.193371],[150.116491,-30.19455],[150.125231,-30.19599],[150.128105,-30.198556],[150.129844,-30.203072],[150.132676,-30.203341],[150.136509,-30.20072],[150.144859,-30.202355],[150.145636,-30.21062],[150.14733,-30.212581],[150.146369,-30.215644],[150.149727,-30.218001],[150.150543,-30.220029],[150.153065,-30.219826],[150.158769,-30.222448],[150.16293,-30.221816],[150.167062,-30.228544],[150.169035,-30.237471],[150.168487,-30.239443],[150.173049,-30.243568],[150.17393,-30.248429],[150.171438,-30.251593],[150.17117,-30.255697],[150.174054,-30.260458],[150.175503,-30.265359],[150.169542,-30.267385],[150.16855,-30.271682],[150.166115,-30.273919],[150.169036,-30.274894],[150.172995,-30.278854],[150.177096,-30.277598],[150.181347,-30.279575],[150.182559,-30.283309],[150.18474,-30.284339],[150.184263,-30.287797],[150.186723,-30.290665],[150.193656,-30.293246],[150.187054,-30.297302],[150.183615,-30.296835],[150.182964,-30.299506],[150.18481,-30.302767],[150.189526,-30.307726],[150.193747,-30.316389],[150.193438,-30.318876],[150.194998,-30.321087],[150.194029,-30.32382],[150.191254,-30.32616],[150.191636,-30.328476],[150.194135,-30.331729],[150.193603,-30.333009],[150.193704,-30.340276],[150.195547,-30.345626],[150.190969,-30.354415],[150.188644,-30.357256],[150.188295,-30.359725],[150.192199,-30.366188],[150.19855,-30.371474],[150.200959,-30.373952],[150.203418,-30.375046],[150.213486,-30.372652],[150.216517,-30.373167],[150.22047,-30.371473],[150.224023,-30.370921],[150.228799,-30.376523],[150.235857,-30.378521],[150.238545,-30.382079],[150.237671,-30.384604],[150.227391,-30.391036],[150.225261,-30.394324],[150.225751,-30.399298],[150.229654,-30.402077],[150.237378,-30.402349],[150.239201,-30.40157],[150.245546,-30.406038],[150.248907,-30.41164],[150.25277,-30.413992],[150.25576,-30.413848],[150.263307,-30.415754],[150.26749,-30.417915],[150.27017,-30.420651],[150.274604,-30.421448],[150.277632,-30.424305],[150.279108,-30.427759],[150.283241,-30.430848],[150.29346,-30.428206],[150.295379,-30.430302],[150.298584,-30.4301],[150.300528,-30.432724],[150.303818,-30.43154],[150.306453,-30.431809],[150.310606,-30.427866],[150.314174,-30.429023],[150.319199,-30.425522],[150.321723,-30.422217],[150.322614,-30.419724],[150.322457,-30.414816],[150.319713,-30.411142],[150.322216,-30.407071],[150.324957,-30.406091],[150.328624,-30.402452],[150.330695,-30.403547],[150.332571,-30.406792],[150.331636,-30.408904],[150.33489,-30.410234],[150.336403,-30.413347],[150.338779,-30.41508],[150.342131,-30.412245],[150.344603,-30.412213],[150.347642,-30.415174],[150.34931,-30.414959],[150.351488,-30.418184],[150.353256,-30.424667],[150.355119,-30.424998],[150.355686,-30.428051],[150.358655,-30.430735],[150.360755,-30.431023],[150.362791,-30.433258],[150.362424,-30.436095],[150.363302,-30.44339],[150.364082,-30.445719],[150.360984,-30.454077],[150.357194,-30.456189],[150.351826,-30.457706],[150.351238,-30.459324],[150.35188,-30.465212],[150.349997,-30.467502],[150.346536,-30.469539],[150.34665,-30.473195],[150.350862,-30.472987],[150.356376,-30.470352],[150.359359,-30.470059],[150.36321,-30.468485],[150.367582,-30.470081],[150.364157,-30.489295],[150.359619,-30.490241],[150.355201,-30.493255],[150.352922,-30.492399],[150.348877,-30.494017],[150.348388,-30.496715],[150.36257,-30.498579],[150.358849,-30.519138],[150.356477,-30.519738],[150.354745,-30.528235],[150.368537,-30.530077],[150.366127,-30.543415],[150.393759,-30.547065],[150.390988,-30.548232],[150.388654,-30.551035],[150.38847,-30.553496],[150.390518,-30.557689],[150.388263,-30.559908],[150.39169,-30.562965],[150.390702,-30.56932],[150.372742,-30.566742],[150.373754,-30.561229],[150.360449,-30.55944],[150.358876,-30.566618],[150.359985,-30.570019],[150.366634,-30.575504],[150.370236,-30.576225],[150.36824,-30.579705],[150.368006,-30.581758],[150.36502,-30.583433],[150.367284,-30.585538],[150.370267,-30.586716],[150.371989,-30.588984],[150.371104,-30.592245],[150.371693,-30.594562],[150.374067,-30.596414],[150.3752,-30.598658],[150.377127,-30.599395],[150.378269,-30.602705],[150.384609,-30.602017],[150.38679,-30.603775],[150.390829,-30.605231],[150.394623,-30.602644],[150.394235,-30.596257],[150.396077,-30.593689],[150.402578,-30.593862],[150.404273,-30.59087],[150.406907,-30.591356],[150.410649,-30.589852],[150.411864,-30.593768],[150.415801,-30.591339],[150.420946,-30.592643],[150.421935,-30.597152],[150.425261,-30.599409],[150.430031,-30.60087],[150.430929,-30.602725],[150.437868,-30.597427],[150.439714,-30.599344],[150.441236,-30.604886],[150.443856,-30.604431],[150.449033,-30.604869],[150.451831,-30.607163],[150.454351,-30.607517],[150.45442,-30.610514],[150.455788,-30.61224],[150.454791,-30.615393],[150.456351,-30.619198],[150.461953,-30.621007],[150.463558,-30.623478],[150.468508,-30.628335],[150.47185,-30.628479],[150.472672,-30.626492],[150.475413,-30.626218],[150.478788,-30.628852],[150.481422,-30.628888],[150.48611,-30.63214],[150.490168,-30.636809],[150.49296,-30.635832],[150.494753,-30.638642],[150.499184,-30.638655],[150.503219,-30.640449],[150.502756,-30.642227],[150.507405,-30.651059],[150.507701,-30.652797],[150.506386,-30.656015],[150.509647,-30.660088],[150.479295,-30.677629],[150.478774,-30.680345],[150.475354,-30.679836],[150.457961,-30.690158],[150.460677,-30.694214],[150.457425,-30.693739],[150.453462,-30.715383],[150.464497,-30.717095],[150.463406,-30.718784],[150.464263,-30.721246],[150.464447,-30.725508],[150.466884,-30.73142],[150.467057,-30.734025],[150.464656,-30.737017],[150.463847,-30.739544],[150.465847,-30.741427],[150.467178,-30.745206],[150.462271,-30.746575],[150.461478,-30.748737],[150.458334,-30.748598],[150.457013,-30.75189],[150.452613,-30.757233],[150.467416,-30.759534],[150.466331,-30.764641],[150.457808,-30.763312],[150.456319,-30.772761],[150.464437,-30.773983],[150.463393,-30.778957],[150.468902,-30.77997],[150.490387,-30.783325],[150.487268,-30.798984],[150.501624,-30.801019],[150.501927,-30.799419],[150.515322,-30.801635],[150.520149,-30.800458],[150.525065,-30.80222],[150.531308,-30.806557],[150.54384,-30.813422],[150.549331,-30.813202],[150.555378,-30.810253],[150.559266,-30.810814],[150.55599,-30.828422],[150.563202,-30.829941],[150.561702,-30.837589],[150.55754,-30.836976],[150.555997,-30.844956],[150.549465,-30.843992],[150.54661,-30.858757],[150.527063,-30.855819],[150.522809,-30.847189],[150.523054,-30.853784],[150.521061,-30.854963],[150.530401,-30.875117],[150.531694,-30.889384],[150.530215,-30.903012],[150.525403,-30.902247],[150.52454,-30.906436],[150.520057,-30.905757],[150.520933,-30.901552],[150.51677,-30.900918],[150.515505,-30.907365],[150.507019,-30.90615],[150.506294,-30.909852],[150.499366,-30.908822],[150.498687,-30.912981],[150.49664,-30.915186],[150.493029,-30.916593],[150.49177,-30.92138],[150.500552,-30.922243],[150.507692,-30.92107],[150.510418,-30.921303],[150.512144,-30.926876],[150.51357,-30.928452],[150.518269,-30.928084],[150.518609,-30.924324],[150.519776,-30.922154],[150.522263,-30.923575],[150.523233,-30.928141],[150.525873,-30.930764],[150.528592,-30.938181],[150.533062,-30.9405],[150.530596,-30.952479],[150.527741,-30.968574],[150.528269,-30.970917],[150.533144,-30.978633],[150.535771,-30.980159],[150.539871,-30.986252],[150.541176,-30.99157],[150.543864,-30.996895],[150.544419,-30.999412],[150.549726,-31.005414],[150.551811,-31.011416],[150.55572,-31.013207],[150.555236,-31.015069],[150.5579,-31.016074],[150.561927,-31.014672],[150.575263,-31.020065],[150.575162,-31.022472],[150.576352,-31.02599],[150.578,-31.028097],[150.583118,-31.028432],[150.585825,-31.030221],[150.587483,-31.032483],[150.586749,-31.034418],[150.589728,-31.036198],[150.595879,-31.03697],[150.59772,-31.038342],[150.59591,-31.041065],[150.596476,-31.043532],[150.599399,-31.046846],[150.597384,-31.059179],[150.596757,-31.059287],[150.590661,-31.091237],[150.58431,-31.125056],[150.580899,-31.141223],[150.590495,-31.142482],[150.589532,-31.147311],[150.581669,-31.146311],[150.579729,-31.147056],[150.577427,-31.159233],[150.578303,-31.15943],[150.57664,-31.173109],[150.572125,-31.206047],[150.571431,-31.208215],[150.586718,-31.210359],[150.585536,-31.217611],[150.583666,-31.218684],[150.580918,-31.218318],[150.580167,-31.222317],[150.569044,-31.220816],[150.569509,-31.218361],[150.561964,-31.217305],[150.56046,-31.225274],[150.564196,-31.225842],[150.562324,-31.235923],[150.576721,-31.230981],[150.581635,-31.228642],[150.583751,-31.228476],[150.575295,-31.273798],[150.56586,-31.272451],[150.566555,-31.268537],[150.556253,-31.267097],[150.556253,-31.266058],[150.548416,-31.264927],[150.546033,-31.277541],[150.550391,-31.278162],[150.548966,-31.285435],[150.550753,-31.285687],[150.550514,-31.289523],[150.546772,-31.309566],[150.551579,-31.310253],[150.549849,-31.319229],[150.548091,-31.318962],[150.546135,-31.3292],[150.537653,-31.328101],[150.534605,-31.343092],[150.539759,-31.343969],[150.542125,-31.343546],[150.549846,-31.343969],[150.547014,-31.357459],[150.54452,-31.357076],[150.543292,-31.36287],[150.535416,-31.361709],[150.532884,-31.360397],[150.518266,-31.358407],[150.516695,-31.366749],[150.505697,-31.367288],[150.507647,-31.356856],[150.497969,-31.355606],[150.498841,-31.350986],[150.485538,-31.349161],[150.484234,-31.356201],[150.468341,-31.353996],[150.469625,-31.346978],[150.456475,-31.345041],[150.419482,-31.34003],[150.419538,-31.342863],[150.422506,-31.343287],[150.427821,-31.350392],[150.429569,-31.351883],[150.427303,-31.353799],[150.426929,-31.357941],[150.430346,-31.362335],[150.433278,-31.36388],[150.432245,-31.373132],[150.433251,-31.37443],[150.43187,-31.377709],[150.433392,-31.380318],[150.429634,-31.384383],[150.434163,-31.387001],[150.430939,-31.388562],[150.431925,-31.39073],[150.433914,-31.390753],[150.434616,-31.3933],[150.418905,-31.391036],[150.417667,-31.397631],[150.382465,-31.392679],[150.383718,-31.386122],[150.370359,-31.384207],[150.370726,-31.382279],[150.367125,-31.381797],[150.366284,-31.386459],[150.351856,-31.384543],[150.350951,-31.389338],[150.338623,-31.387612],[150.33888,-31.386238],[150.303409,-31.381349],[150.304184,-31.37732],[150.294431,-31.375959],[150.285675,-31.375049],[150.285905,-31.373839],[150.237969,-31.367195],[150.237233,-31.371153],[150.226534,-31.369676],[150.227149,-31.366392],[150.200263,-31.362883],[150.201711,-31.354087],[150.192906,-31.352953],[150.191955,-31.358432],[150.174012,-31.356094],[150.173929,-31.356568],[150.160961,-31.354959],[150.163276,-31.34153],[150.15888,-31.340962],[150.160931,-31.329103],[150.156807,-31.328574],[150.15936,-31.313773],[150.151496,-31.312758],[150.152988,-31.304395],[150.148646,-31.303841],[150.157848,-31.252418],[150.154467,-31.251937],[150.156288,-31.242337],[150.163289,-31.243325],[150.165295,-31.233006],[150.159665,-31.232256],[150.158496,-31.237667],[150.152989,-31.236943],[150.153514,-31.234177],[150.149613,-31.23368],[150.148932,-31.23728],[150.144799,-31.236738],[150.146168,-31.233242],[150.147657,-31.225161],[150.138318,-31.223918],[150.134651,-31.244313],[150.103379,-31.240018],[150.096406,-31.278328],[150.094952,-31.278132],[150.091357,-31.297896],[150.086472,-31.297257],[150.078838,-31.338094],[150.039868,-31.332773],[150.041308,-31.325018],[150.006557,-31.320806],[150.005558,-31.326216],[149.994616,-31.324779],[149.986677,-31.329315],[149.99871,-31.344639],[149.995759,-31.360109],[149.999201,-31.361647],[149.98813,-31.427367],[150.004391,-31.429592],[150.00321,-31.43603],[150.004013,-31.436268],[150.002257,-31.445629],[149.999306,-31.447979],[149.986349,-31.45443],[149.971349,-31.45803],[149.968049,-31.45813],[149.953049,-31.45613],[149.943549,-31.45513],[149.93685,-31.45683],[149.89765,-31.45113],[149.882911,-31.451994],[149.878737,-31.474673],[149.866949,-31.537269],[149.874525,-31.538332],[149.875955,-31.534964],[149.892615,-31.537123],[149.890379,-31.535269],[149.904408,-31.536897],[149.904346,-31.53941],[149.905761,-31.543933],[149.903174,-31.54531],[149.911777,-31.552989],[149.912587,-31.556949],[149.914757,-31.559525],[149.913288,-31.561597],[149.912686,-31.567151],[149.914117,-31.567986],[149.914094,-31.572537],[149.911314,-31.572789],[149.911718,-31.577396],[149.908173,-31.576634],[149.907187,-31.578927],[149.90412,-31.579502],[149.903661,-31.581599],[149.901521,-31.58433],[149.899503,-31.584291],[149.89714,-31.587846],[149.894704,-31.58962],[149.89291,-31.592553],[149.892543,-31.59537],[149.894688,-31.598192],[149.896758,-31.602487],[149.895892,-31.605249],[149.897236,-31.608005],[149.897107,-31.610738],[149.895418,-31.613206],[149.898799,-31.617178],[149.89666,-31.620186],[149.900606,-31.623142],[149.901069,-31.624427],[149.887015,-31.622489],[149.887255,-31.621153],[149.87203,-31.619162],[149.863643,-31.617768],[149.863255,-31.619773],[149.857331,-31.618312],[149.840889,-31.616108],[149.842905,-31.619753],[149.849681,-31.623959],[149.851432,-31.628732],[149.853194,-31.630069],[149.858218,-31.631792],[149.860506,-31.634214],[149.864563,-31.636342],[149.865577,-31.637998],[149.864961,-31.640949],[149.863071,-31.643363],[149.866465,-31.651505],[149.86475,-31.65512],[149.864316,-31.66039],[149.864676,-31.664367],[149.863574,-31.669611],[149.865267,-31.673009],[149.86681,-31.678956],[149.870213,-31.683005],[149.877771,-31.683283],[149.879684,-31.689171],[149.878832,-31.691837],[149.883716,-31.694618],[149.890059,-31.69556],[149.892587,-31.698467],[149.897302,-31.698558],[149.904783,-31.706764],[149.907964,-31.707349],[149.919362,-31.706317],[149.921994,-31.704958],[149.925439,-31.700331],[149.928468,-31.698168],[149.930174,-31.698388],[149.933434,-31.705155],[149.93933,-31.706498],[149.93942,-31.709732],[149.941737,-31.711008],[149.945201,-31.709043],[149.944412,-31.706384],[149.946991,-31.702277],[149.95421,-31.701694],[149.958312,-31.700183],[149.965541,-31.700973],[149.971833,-31.706119],[149.971625,-31.709498],[149.973989,-31.71249],[149.977589,-31.715189],[149.980844,-31.718763],[149.981931,-31.723065],[149.979712,-31.725883],[149.98412,-31.727937],[149.993737,-31.721789],[149.990545,-31.713973],[149.995779,-31.714723],[150.002707,-31.707615],[150.004382,-31.702569],[150.009998,-31.706996],[150.01387,-31.704792],[150.013668,-31.697585],[150.02086,-31.696345],[150.022654,-31.694752],[150.027473,-31.693363],[150.028509,-31.690756],[150.030212,-31.69088],[150.034021,-31.693173],[150.038454,-31.694272],[150.041785,-31.692285],[150.044312,-31.695854],[150.052178,-31.698507],[150.050581,-31.700745],[150.052021,-31.704352],[150.050241,-31.704444],[150.047764,-31.708502],[150.044686,-31.710931],[150.045769,-31.714157],[150.051531,-31.721227],[150.054075,-31.721805],[150.057577,-31.719709],[150.059513,-31.722969],[150.063188,-31.725806],[150.069684,-31.733553],[150.071646,-31.734524],[150.075072,-31.739869],[150.078715,-31.741679],[150.083021,-31.741159],[150.087071,-31.742291],[150.091419,-31.741997],[150.094151,-31.740402],[150.102595,-31.740355],[150.104099,-31.743043],[150.107992,-31.744409],[150.110638,-31.746135],[150.110257,-31.748919],[150.105898,-31.74844],[150.099944,-31.748999],[150.094161,-31.752488],[150.089364,-31.754411],[150.084247,-31.758537],[150.081349,-31.759504],[150.07678,-31.76238],[150.07438,-31.762649],[150.069755,-31.76552],[150.069522,-31.770858],[150.068656,-31.772915],[150.065227,-31.775724],[150.061711,-31.776951],[150.054722,-31.782257],[150.051459,-31.785986],[150.049893,-31.786316],[150.047589,-31.790419],[150.045344,-31.797175],[150.041336,-31.798357],[150.040473,-31.801542],[150.041078,-31.804479],[150.039359,-31.808273],[150.036363,-31.812036],[150.034337,-31.816898],[150.029673,-31.820598],[150.025732,-31.824981],[150.023983,-31.828752],[150.018505,-31.83114],[150.015334,-31.834578],[150.013151,-31.834594],[150.009959,-31.837442],[150.006645,-31.835658],[150.004247,-31.836573],[150.002157,-31.839717],[149.99719,-31.84226],[149.994467,-31.842177],[149.992219,-31.843498],[149.991623,-31.845753],[149.986155,-31.849877],[149.978572,-31.85351],[149.977285,-31.857501],[149.973486,-31.857642],[149.973044,-31.859388],[149.97024,-31.859576],[149.968322,-31.861497],[149.959059,-31.863238],[149.955981,-31.865162],[149.953608,-31.867952],[149.9509,-31.869702],[149.948615,-31.869021],[149.946454,-31.872028],[149.947177,-31.873864],[149.941452,-31.878752],[149.933259,-31.881685],[149.92829,-31.881696],[149.924604,-31.886163],[149.922305,-31.88503],[149.919587,-31.886679],[149.920301,-31.888834],[149.918639,-31.891226],[149.919454,-31.893978],[149.914575,-31.895948],[149.913861,-31.898922],[149.911879,-31.900221],[149.909069,-31.899965],[149.908727,-31.902232],[149.905532,-31.904501],[149.900954,-31.909194],[149.900176,-31.911182],[149.897359,-31.912621],[149.897233,-31.915417],[149.898585,-31.918615],[149.896099,-31.920664],[149.890936,-31.926804],[149.88787,-31.927052],[149.888344,-31.929688],[149.886594,-31.93404],[149.883684,-31.934247],[149.883297,-31.937943],[149.878336,-31.939045],[149.876285,-31.942428],[149.873155,-31.943996],[149.872871,-31.947597],[149.871661,-31.949886],[149.869418,-31.950598],[149.869154,-31.953621],[149.866233,-31.956917],[149.866099,-31.961503],[149.863504,-31.961374],[149.861535,-31.964761],[149.857302,-31.966203],[149.855717,-31.967738],[149.856576,-31.970078],[149.851323,-31.970932],[149.848195,-31.972952],[149.848978,-31.975171],[149.846548,-31.978413],[149.846338,-31.98054],[149.843314,-31.981455],[149.839116,-31.987378],[149.857806,-31.989533],[149.858932,-31.982647],[149.875564,-31.984515],[149.873787,-31.995918],[149.882515,-31.996894],[149.879703,-31.999875],[149.873485,-32.01204],[149.873743,-32.017069],[149.872892,-32.018975],[149.87485,-32.031064],[149.868526,-32.03024],[149.869721,-32.023779],[149.859837,-32.02253],[149.858374,-32.03043],[149.856565,-32.030026],[149.849875,-32.025559],[149.847287,-32.026577],[149.840599,-32.030793],[149.827619,-32.034151],[149.825749,-32.037255],[149.821872,-32.038459],[149.813342,-32.039654],[149.80816,-32.039277],[149.805267,-32.055177],[149.802337,-32.054787],[149.80291,-32.057922],[149.797573,-32.057559],[149.795665,-32.05809],[149.791608,-32.079359],[149.79754,-32.080168],[149.795238,-32.092721],[149.802182,-32.093675],[149.803022,-32.089331],[149.81249,-32.090657],[149.812097,-32.092904],[149.816395,-32.093521],[149.815993,-32.095748],[149.820768,-32.096376],[149.81943,-32.103624],[149.828796,-32.104842],[149.828982,-32.103896],[149.845959,-32.10608],[149.845278,-32.109937],[149.845941,-32.112347],[149.845189,-32.11697],[149.848468,-32.117368],[149.849847,-32.109167],[149.86088,-32.110573],[149.861229,-32.108567],[149.892267,-32.11267],[149.893578,-32.105359],[149.894837,-32.105335],[149.892261,-32.118032],[149.893982,-32.119893],[149.904049,-32.120877],[149.921931,-32.123016],[149.922783,-32.11806],[149.932317,-32.119232],[149.930319,-32.131107],[149.921928,-32.13009],[149.920746,-32.137522],[149.923281,-32.136409],[149.930668,-32.134855],[149.934142,-32.133478],[149.940534,-32.134608],[149.947996,-32.134952],[149.945177,-32.139058],[149.944886,-32.141092],[149.940363,-32.152712],[149.939343,-32.157041],[149.964628,-32.160154],[149.960754,-32.181876],[149.982621,-32.184721],[149.985142,-32.170585],[149.98935,-32.171135],[149.990684,-32.163682],[150.00064,-32.164655],[150.001156,-32.161588],[150.00946,-32.162659],[150.008928,-32.165892],[150.010805,-32.166149],[150.00917,-32.169692],[150.008146,-32.176603],[150.013036,-32.177356],[150.015475,-32.178376],[150.013982,-32.186598],[150.017097,-32.186711],[150.023077,-32.183632],[150.026527,-32.187155],[150.028746,-32.187263],[150.03024,-32.191447],[150.02754,-32.191082],[150.026908,-32.194864],[150.034803,-32.195905],[150.035499,-32.198773],[150.033177,-32.202218],[150.036485,-32.201649],[150.038172,-32.197766],[150.03576,-32.190264],[150.036649,-32.189031],[150.041517,-32.188707],[150.043245,-32.190365],[150.044026,-32.193203],[150.047602,-32.192793],[150.05283,-32.18826],[150.054286,-32.188441],[150.059025,-32.192885],[150.061082,-32.191775],[150.061046,-32.188419],[150.062069,-32.184882],[150.063661,-32.184184],[150.067069,-32.186933],[150.069619,-32.187978],[150.072225,-32.192222],[150.069022,-32.195875],[150.065847,-32.196602],[150.064016,-32.200977],[150.062718,-32.208113],[150.058896,-32.207632],[150.05774,-32.214676],[150.051395,-32.21388],[150.050903,-32.216508],[150.04884,-32.216252],[150.047941,-32.221496],[150.049508,-32.225449],[150.060244,-32.22725],[150.059027,-32.234529],[150.055302,-32.238879],[150.057101,-32.241219],[150.061163,-32.24248],[150.063026,-32.245722],[150.058409,-32.250987],[150.04972,-32.245648],[150.04636,-32.24395],[150.045858,-32.251468],[150.051597,-32.253584],[150.053208,-32.25836],[150.046132,-32.261741],[150.042512,-32.261049],[150.041874,-32.262327],[150.043045,-32.268501],[150.044162,-32.270311],[150.045582,-32.275714],[150.043814,-32.279264],[150.042813,-32.284617],[150.0404,-32.286637],[150.035306,-32.285594],[150.033104,-32.287964],[150.03296,-32.289923],[150.036473,-32.291455],[150.03689,-32.294037],[150.033709,-32.294938],[150.029817,-32.291444],[150.028126,-32.291394],[150.026691,-32.296238],[150.024548,-32.300227],[150.021791,-32.303785],[150.021827,-32.305597],[150.026571,-32.311259],[150.031734,-32.314812],[150.031963,-32.316378],[150.028066,-32.323301],[150.027635,-32.325191],[150.028387,-32.331351],[150.029841,-32.333768],[150.031782,-32.333599],[150.036684,-32.328438],[150.040038,-32.328598],[150.04238,-32.332218],[150.046824,-32.336822],[150.050704,-32.346435],[150.054166,-32.351038],[150.062394,-32.354734],[150.067369,-32.356095],[150.069401,-32.354905],[150.068728,-32.352232],[150.065913,-32.347152],[150.065569,-32.344741],[150.067344,-32.343768],[150.073847,-32.344729],[150.078961,-32.343433],[150.08648,-32.342172],[150.092369,-32.342027],[150.102236,-32.34281],[150.107346,-32.341639],[150.112909,-32.341069],[150.117963,-32.339408],[150.125329,-32.341418],[150.128478,-32.340468],[150.131082,-32.337609],[150.133246,-32.336956],[150.139049,-32.340621],[150.142133,-32.341593],[150.14507,-32.340047],[150.146384,-32.337497],[150.149553,-32.335101],[150.151717,-32.329691],[150.153944,-32.327705],[150.158363,-32.326058],[150.1596,-32.326599],[150.159545,-32.331003],[150.162459,-32.333555],[150.165269,-32.330626],[150.165396,-32.328068],[150.164171,-32.325499],[150.164314,-32.320185],[150.167656,-32.320613],[150.170902,-32.324651],[150.175524,-32.325244],[150.178496,-32.327449],[150.179192,-32.333169],[150.180969,-32.333941],[150.184138,-32.332628],[150.186688,-32.332859],[150.187925,-32.334637],[150.18621,-32.344456],[150.186975,-32.348795],[150.189897,-32.349592],[150.190169,-32.346061],[150.191867,-32.342211],[150.195617,-32.339101],[150.196349,-32.333014],[150.205217,-32.333366],[150.206473,-32.33425],[150.206122,-32.337828],[150.209565,-32.339506],[150.215825,-32.338424],[150.217873,-32.336569],[150.214936,-32.332473],[150.215168,-32.32969],[150.212843,-32.327756],[150.207767,-32.326769],[150.206289,-32.325134],[150.206672,-32.321609],[150.207826,-32.319102],[150.211381,-32.318097],[150.212652,-32.321491],[150.214764,-32.323427],[150.218176,-32.321329],[150.220177,-32.316352],[150.222278,-32.314542],[150.231552,-32.314233],[150.235107,-32.308823],[150.238499,-32.308189],[150.242714,-32.312048],[150.246423,-32.311951],[150.247384,-32.308283],[150.249328,-32.305731],[150.25472,-32.302836],[150.255358,-32.304078],[150.252722,-32.307834],[150.252753,-32.309842],[150.256779,-32.314877],[150.260885,-32.314707],[150.26078,-32.317813],[150.255765,-32.319712],[150.252168,-32.322763],[150.252305,-32.325528],[150.259338,-32.327551],[150.261264,-32.326814],[150.266559,-32.32132],[150.269194,-32.320736],[150.270771,-32.323477],[150.270044,-32.325218],[150.260255,-32.334436],[150.259657,-32.339123],[150.261173,-32.342805],[150.260377,-32.345878],[150.261904,-32.348596],[150.261472,-32.351818],[150.263786,-32.353869],[150.263142,-32.356004],[150.258524,-32.356619],[150.259604,-32.359615],[150.263195,-32.360815],[150.264748,-32.364423],[150.264788,-32.367942],[150.267923,-32.371134],[150.266698,-32.375736],[150.267519,-32.377568],[150.270753,-32.377926],[150.273199,-32.380431],[150.276674,-32.381121],[150.278991,-32.375824],[150.283886,-32.374372],[150.287422,-32.378052],[150.285834,-32.381382],[150.281621,-32.382949],[150.284272,-32.386347],[150.287713,-32.386767],[150.295695,-32.384213],[150.297803,-32.380369],[150.300297,-32.378421],[150.301992,-32.37497],[150.304179,-32.373515],[150.306961,-32.37541],[150.306283,-32.380559],[150.309038,-32.386031],[150.311259,-32.38623],[150.316692,-32.385182],[150.318969,-32.387418],[150.319109,-32.390806],[150.316096,-32.391893],[150.314548,-32.394704],[150.315628,-32.398266],[150.315056,-32.40128],[150.316118,-32.404372],[150.318632,-32.406823],[150.317714,-32.409655],[150.310552,-32.409165],[150.309574,-32.41408],[150.305081,-32.415573],[150.302781,-32.415342],[150.299748,-32.419382],[150.291462,-32.42082],[150.287944,-32.422454],[150.283476,-32.420523],[150.279603,-32.422298],[150.27891,-32.426921],[150.279758,-32.428957],[150.276118,-32.431556],[150.276914,-32.434433],[150.275987,-32.436198],[150.273145,-32.435946],[150.270776,-32.440339],[150.271876,-32.441155],[150.269396,-32.444123],[150.269158,-32.447312],[150.267406,-32.44944],[150.258352,-32.454303],[150.254504,-32.457659],[150.246977,-32.460298],[150.245457,-32.457733],[150.2408,-32.458593],[150.236048,-32.456852],[150.234448,-32.454258],[150.229732,-32.455908],[150.22741,-32.455727],[150.22644,-32.458959],[150.226655,-32.462928],[150.231324,-32.465127],[150.234768,-32.468446],[150.238273,-32.472883],[150.236547,-32.476123],[150.237284,-32.479717],[150.240237,-32.480603],[150.24592,-32.480509],[150.247522,-32.482822],[150.246508,-32.488264],[150.244718,-32.490698],[150.240483,-32.494422],[150.240182,-32.498325],[150.24212,-32.500526],[150.243035,-32.50418],[150.241115,-32.509881],[150.242674,-32.514653],[150.24714,-32.519241],[150.248736,-32.523589],[150.248291,-32.524499],[150.243594,-32.526318],[150.242873,-32.527768],[150.243284,-32.53202],[150.241839,-32.538423],[150.243585,-32.541271],[150.243148,-32.547816],[150.247538,-32.549987],[150.242646,-32.557352],[150.237577,-32.566814],[150.236833,-32.574043],[150.266043,-32.577718],[150.265117,-32.580913],[150.262564,-32.584787],[150.260643,-32.595697],[150.25947,-32.597717],[150.255352,-32.600161],[150.252703,-32.600801],[150.247357,-32.600271],[150.243596,-32.601612],[150.239685,-32.601556],[150.236928,-32.605845],[150.236447,-32.608444],[150.231994,-32.609606],[150.227662,-32.612344],[150.251156,-32.61527],[150.311343,-32.646919],[150.320162,-32.647922],[150.318916,-32.655081],[150.320424,-32.655334],[150.319289,-32.660848],[150.318043,-32.660719],[150.313294,-32.664021],[150.311295,-32.663798],[150.3081,-32.66522],[150.307966,-32.668462],[150.306115,-32.67116],[150.306265,-32.674395],[150.304872,-32.678377],[150.305992,-32.680232],[150.30247,-32.683096],[150.300603,-32.686295],[150.300003,-32.689704],[150.29694,-32.691551],[150.290842,-32.72089],[150.277383,-32.732025],[150.276693,-32.734323],[150.277494,-32.739769],[150.276439,-32.741511],[150.276593,-32.745279],[150.275476,-32.747621],[150.27894,-32.752397],[150.281894,-32.755317],[150.282637,-32.757667],[150.287547,-32.762997],[150.288566,-32.765054],[150.291245,-32.765797],[150.293672,-32.764996],[150.29686,-32.76675],[150.300133,-32.772236],[150.302154,-32.773937],[150.307349,-32.775533],[150.309282,-32.777335],[150.313981,-32.779773],[150.317335,-32.784304],[150.320653,-32.783406],[150.325149,-32.785928],[150.327133,-32.783692],[150.328944,-32.783983],[150.332125,-32.788549],[150.334525,-32.789914],[150.337975,-32.790387],[150.339746,-32.793758],[150.341362,-32.794598],[150.338417,-32.797973],[150.339917,-32.801823],[150.337374,-32.804023],[150.33854,-32.808963],[150.342757,-32.815279],[150.349214,-32.817999],[150.350546,-32.821862],[150.350869,-32.827428],[150.353266,-32.832651],[150.356219,-32.840729],[150.3622,-32.845066],[150.362598,-32.845913],[150.371333,-32.842882],[150.3738,-32.840027],[150.379035,-32.83897],[150.384121,-32.840177],[150.385959,-32.839508],[150.387145,-32.833068],[150.388886,-32.826471],[150.389708,-32.825985],[150.396492,-32.826819],[150.400709,-32.826269],[150.403329,-32.824779],[150.407822,-32.824801],[150.412753,-32.824092],[150.417586,-32.821071],[150.421196,-32.820694],[150.422539,-32.818597],[150.422823,-32.815748],[150.429555,-32.810938],[150.430051,-32.806392],[150.432049,-32.803894],[150.432361,-32.801027],[150.434616,-32.798675],[150.436951,-32.797823],[150.44008,-32.794277],[150.444698,-32.792363],[150.451875,-32.795382],[150.461168,-32.794695],[150.462348,-32.793743],[150.463262,-32.789578],[150.465474,-32.787497],[150.463065,-32.783933],[150.464503,-32.780318],[150.469614,-32.777154],[150.473529,-32.773531],[150.475633,-32.775202],[150.478027,-32.772956],[150.483185,-32.772136],[150.485426,-32.768342],[150.489073,-32.767565],[150.492341,-32.765301],[150.490856,-32.760843],[150.494098,-32.756958],[150.494135,-32.751937],[150.501487,-32.752996],[150.50771,-32.751322],[150.509563,-32.751751],[150.515052,-32.748725],[150.518173,-32.749337],[150.522349,-32.753521],[150.523796,-32.757448],[150.526978,-32.759688],[150.532692,-32.759664],[150.53533,-32.756903],[150.54106,-32.754256],[150.545308,-32.756174],[150.546287,-32.759521],[150.551976,-32.758468],[150.556609,-32.758462],[150.567453,-32.753361],[150.568991,-32.751222],[150.572079,-32.749785],[150.574765,-32.75105],[150.578166,-32.749891],[150.581546,-32.747072],[150.582752,-32.742461],[150.585316,-32.736682],[150.590285,-32.737799],[150.595655,-32.734171],[150.597899,-32.730924],[150.594577,-32.727544],[150.603086,-32.71812],[150.606251,-32.718295],[150.610377,-32.716249],[150.610899,-32.713138],[150.614336,-32.712999],[150.616962,-32.7151],[150.622867,-32.71335],[150.62391,-32.710954],[150.628479,-32.707051],[150.630839,-32.706128],[150.634164,-32.702287],[150.638229,-32.702415],[150.64649,-32.70086],[150.652217,-32.700667],[150.655482,-32.704675],[150.655594,-32.706181],[150.660799,-32.706861],[150.665631,-32.70494],[150.66929,-32.702345],[150.667961,-32.700211],[150.67129,-32.698479],[150.681227,-32.636831],[150.681978,-32.632525],[150.744565,-32.641325],[150.761791,-32.55617],[150.773575,-32.498261],[150.799883,-32.501657],[150.795469,-32.497812],[150.790282,-32.491199],[150.780835,-32.483943],[150.776458,-32.482391],[150.778138,-32.473783],[150.78833,-32.472572],[150.79185,-32.470778],[150.795888,-32.467311],[150.798642,-32.466028],[150.802536,-32.466129],[150.805106,-32.46803],[150.806089,-32.472022],[150.80944,-32.473068],[150.817495,-32.472639],[150.822501,-32.476398],[150.824389,-32.48009],[150.827998,-32.48399],[150.83349,-32.486456],[150.836942,-32.485358],[150.841389,-32.482066],[150.84305,-32.480091],[150.844366,-32.475637],[150.845625,-32.464361],[150.846795,-32.45871],[150.848787,-32.455067],[150.852744,-32.451088],[150.856588,-32.45101],[150.859244,-32.45229],[150.863412,-32.456459],[150.877267,-32.466771],[150.883068,-32.470205],[150.890914,-32.426111],[150.893218,-32.414368],[150.89735,-32.414895],[150.895429,-32.41127],[150.898029,-32.397086],[150.915066,-32.399533],[150.914908,-32.400567],[150.948046,-32.404997],[150.94902,-32.39957],[150.96067,-32.401234],[150.960299,-32.405445],[150.976696,-32.40783],[150.975863,-32.412005],[150.981311,-32.412776],[150.984204,-32.397603],[151.017862,-32.402065],[151.020315,-32.387661],[151.028602,-32.344626],[151.045525,-32.346769],[151.048094,-32.332335],[151.06483,-32.334481],[151.073495,-32.33586],[151.074064,-32.332273],[151.099023,-32.335295],[151.099606,-32.335576],[151.101452,-32.324328],[151.089243,-32.323256],[151.090024,-32.322161],[151.094824,-32.320954],[151.09561,-32.319099],[151.094476,-32.317098],[151.096899,-32.316051],[151.095871,-32.312058],[151.099741,-32.306795],[151.101578,-32.307584],[151.103793,-32.306214],[151.102342,-32.302117],[151.105327,-32.299497],[151.10375,-32.29761],[151.108309,-32.290881],[151.108151,-32.288107],[151.109563,-32.281652],[151.126307,-32.283977],[151.129091,-32.269651],[151.140776,-32.271259],[151.142827,-32.270136],[151.142415,-32.266064],[151.144793,-32.266054],[151.148746,-32.269143],[151.151448,-32.268898],[151.153743,-32.267006],[151.155948,-32.266688],[151.157983,-32.264232],[151.159566,-32.259411],[151.163265,-32.256785],[151.162273,-32.25486],[151.163954,-32.253059],[151.165768,-32.249084],[151.167331,-32.24842],[151.166741,-32.245278],[151.169039,-32.243566],[151.168732,-32.239635],[151.16971,-32.238248],[151.168242,-32.235435],[151.164724,-32.232711],[151.163851,-32.229197],[151.159927,-32.229238],[151.159624,-32.226102],[151.15708,-32.221261],[151.159242,-32.211122],[151.168509,-32.21249],[151.16892,-32.210638],[151.174018,-32.211807],[151.176313,-32.213776],[151.18143,-32.219999],[151.184688,-32.223143],[151.186215,-32.228198],[151.190637,-32.231647],[151.196823,-32.23366],[151.200324,-32.232528],[151.201036,-32.227704],[151.205917,-32.226091],[151.207227,-32.224839],[151.20759,-32.221614],[151.208815,-32.220166],[151.215261,-32.218238],[151.217578,-32.215945],[151.222955,-32.217273],[151.226163,-32.211824],[151.229018,-32.211464],[151.230916,-32.209607],[151.234216,-32.20947],[151.238403,-32.207745],[151.241574,-32.20943],[151.246256,-32.209568],[151.248315,-32.205313],[151.25055,-32.203792],[151.251788,-32.201318],[151.25433,-32.200551],[151.257556,-32.195998],[151.259881,-32.194272],[151.264773,-32.188641],[151.267904,-32.187309],[151.269863,-32.183694],[151.275794,-32.180203],[151.278529,-32.180633],[151.284939,-32.178413],[151.29484,-32.169154],[151.296656,-32.164173],[151.298975,-32.162671],[151.302543,-32.156814],[151.302447,-32.154043],[151.305207,-32.151563],[151.307236,-32.147613],[151.307686,-32.142392],[151.309698,-32.138984],[151.308333,-32.134833],[151.30999,-32.12933],[151.311869,-32.127092],[151.310275,-32.125173],[151.310287,-32.121363],[151.307475,-32.118768],[151.304009,-32.11873],[151.303943,-32.116747],[151.312247,-32.111336],[151.316505,-32.106585],[151.318691,-32.104995],[151.320672,-32.102083],[151.320766,-32.098468],[151.324628,-32.094257],[151.328732,-32.094955],[151.334411,-32.091944],[151.334035,-32.090034],[151.335448,-32.082403],[151.341812,-32.081838],[151.352109,-32.080392],[151.363162,-32.083102],[151.367701,-32.081511],[151.378641,-32.081882],[151.387447,-32.083526],[151.389553,-32.083241],[151.392307,-32.081226],[151.393628,-32.076069],[151.394632,-32.069713],[151.398361,-32.06748],[151.400821,-32.066893],[151.404323,-32.061319],[151.406738,-32.058774],[151.405956,-32.054495],[151.406667,-32.050359],[151.405563,-32.047555],[151.405995,-32.044979],[151.404028,-32.043871],[151.402881,-32.040946],[151.404973,-32.036653],[151.408589,-32.032685],[151.417461,-32.026382],[151.421012,-32.022047],[151.427854,-32.018273],[151.433128,-32.016711],[151.437358,-32.018144],[151.436349,-32.01388],[151.437999,-32.011461],[151.44328,-32.009733],[151.442454,-32.006725],[151.447404,-32.00226],[151.450874,-32.000743],[151.454726,-31.995979],[151.454637,-31.993265],[151.451139,-31.99095],[151.449478,-31.987238],[151.448894,-31.982641],[151.450136,-31.979219],[151.449756,-31.977066],[151.446969,-31.975108],[151.446091,-31.970044],[151.44804,-31.966574],[151.448739,-31.961657],[151.446358,-31.959605],[151.44618,-31.956585],[151.44468,-31.953268],[151.442812,-31.951658],[151.442452,-31.949366],[151.443801,-31.947418],[151.450361,-31.944195],[151.451976,-31.938106],[151.451805,-31.935519],[151.453284,-31.933449],[151.455799,-31.923058],[151.457448,-31.921396],[151.460027,-31.920881],[151.462026,-31.915806],[151.465612,-31.913151],[151.469226,-31.906085],[151.467828,-31.900363],[151.469467,-31.896611],[151.474586,-31.895508],[151.476862,-31.893325],[151.48233,-31.892092],[151.484698,-31.892795],[151.487154,-31.889089],[151.489983,-31.888137],[151.490632,-31.885178],[151.488098,-31.883171],[151.491173,-31.878161],[151.493747,-31.875873],[151.495432,-31.876834],[151.505763,-31.873053],[151.510657,-31.868853],[151.512882,-31.868579],[151.515154,-31.865728],[151.51354,-31.862453],[151.512161,-31.857692],[151.512683,-31.856244],[151.516642,-31.852535],[151.520591,-31.85103],[151.522528,-31.851196],[151.528393,-31.847622],[151.532314,-31.84691],[151.535463,-31.84554],[151.546805,-31.848645],[151.548112,-31.850321],[151.551372,-31.848553],[151.556427,-31.849326],[151.555217,-31.85149],[151.556439,-31.852918],[151.555353,-31.858359],[151.550962,-31.859438],[151.552803,-31.86131],[151.556248,-31.861963],[151.562864,-31.861629],[151.566129,-31.860415],[151.56774,-31.857967],[151.570992,-31.856272],[151.574267,-31.856427],[151.57678,-31.85484],[151.578871,-31.851254],[151.577467,-31.850161],[151.577421,-31.846384],[151.581486,-31.845016],[151.58242,-31.840784],[151.584899,-31.837576],[151.585507,-31.833857],[151.584638,-31.831588],[151.585887,-31.823519],[151.587194,-31.822102],[151.585374,-31.81926],[151.58954,-31.816479],[151.588801,-31.814006],[151.594022,-31.78969],[151.590993,-31.788273],[151.586263,-31.788113],[151.584317,-31.785223],[151.582784,-31.788527],[151.580199,-31.787248],[151.578621,-31.788723],[151.572235,-31.787187],[151.571651,-31.789092],[151.56779,-31.790512],[151.563724,-31.78943],[151.562078,-31.788075],[151.558579,-31.787524],[151.556633,-31.785357],[151.55445,-31.787303],[151.551459,-31.78469],[151.545109,-31.782132],[151.54256,-31.780081],[151.542526,-31.778141],[151.540731,-31.775763],[151.537298,-31.774313],[151.535891,-31.775703],[151.532135,-31.773089],[151.527473,-31.77232],[151.526145,-31.770249],[151.522236,-31.770965],[151.520297,-31.768612],[151.517871,-31.768467],[151.523332,-31.741067],[151.532389,-31.697316],[151.534772,-31.694157],[151.532752,-31.690746],[151.525366,-31.683568],[151.522775,-31.679596],[151.523516,-31.678214],[151.521103,-31.675951],[151.522519,-31.671332],[151.522227,-31.667179],[151.520908,-31.664807],[151.524081,-31.659787],[151.530779,-31.623418],[151.535647,-31.596086],[151.536255,-31.598101],[151.542857,-31.601594],[151.546609,-31.602046],[151.557171,-31.60081],[151.557492,-31.602814],[151.560257,-31.602706],[151.561148,-31.60625],[151.565951,-31.607028],[151.567235,-31.608878],[151.569917,-31.60962],[151.570674,-31.606469],[151.575413,-31.604737],[151.576362,-31.602482],[151.579923,-31.6032],[151.580266,-31.604788],[151.584911,-31.604352],[151.585832,-31.602491],[151.590968,-31.602467],[151.593242,-31.599537],[151.596635,-31.59971],[151.598054,-31.597519],[151.60098,-31.595677],[151.602413,-31.599445],[151.605675,-31.599034],[151.606488,-31.600878],[151.60937,-31.60289],[151.61184,-31.606796],[151.617655,-31.607527],[151.619498,-31.608428],[151.623258,-31.606884],[151.627777,-31.60806],[151.628635,-31.612045],[151.630448,-31.611938],[151.634236,-31.614806],[151.636787,-31.610432],[151.638661,-31.611143],[151.643779,-31.611317],[151.644641,-31.609645],[151.642394,-31.608319],[151.641406,-31.605737],[151.647504,-31.606935],[151.652578,-31.60266],[151.656004,-31.604124],[151.656306,-31.607891],[151.659055,-31.609],[151.656747,-31.612485],[151.659977,-31.61219],[151.665059,-31.613128],[151.667407,-31.611394],[151.669637,-31.611413],[151.673062,-31.612886],[151.675169,-31.612689],[151.678958,-31.609633],[151.681943,-31.608751],[151.683927,-31.611195],[151.691483,-31.61575],[151.688956,-31.617059],[151.688217,-31.619522],[151.690203,-31.622344],[151.695759,-31.62198],[151.699912,-31.62284],[151.700904,-31.619967],[151.706549,-31.622942],[151.710995,-31.623573],[151.713415,-31.620684],[151.718951,-31.626444],[151.724748,-31.629069],[151.726264,-31.626912],[151.733097,-31.628452],[151.736224,-31.631241],[151.740025,-31.6359],[151.756867,-31.638158],[151.753968,-31.633893],[151.755929,-31.631821],[151.755821,-31.625355],[151.75881,-31.625101],[151.756247,-31.621489],[151.758415,-31.619087],[151.75759,-31.614408],[151.755296,-31.611447],[151.757288,-31.607456],[151.757149,-31.601741],[151.775327,-31.59042],[151.775115,-31.591723],[151.781646,-31.592628],[151.783284,-31.585595],[151.802497,-31.573861],[151.800421,-31.567626],[151.792802,-31.564847],[151.788201,-31.559293],[151.787466,-31.549545],[151.786608,-31.547811],[151.783054,-31.547231],[151.78041,-31.545198],[151.773447,-31.544387],[151.763901,-31.540943],[151.761719,-31.537356],[151.758457,-31.535372],[151.759741,-31.530675],[151.754767,-31.526993],[151.753741,-31.524385],[151.756638,-31.520256],[151.754713,-31.518372],[151.753343,-31.514308],[151.7607,-31.515421],[151.761575,-31.511185],[151.768447,-31.51232],[151.769711,-31.511756],[151.774371,-31.513092],[151.777422,-31.511729],[151.780585,-31.513627],[151.787331,-31.515163],[151.789327,-31.514938],[151.792112,-31.512401],[151.795334,-31.510786],[151.79737,-31.506929],[151.801197,-31.50611],[151.802351,-31.505003],[151.817453,-31.507163],[151.817896,-31.505699],[151.842759,-31.509038],[151.84458,-31.499475],[151.915755,-31.510067],[151.918336,-31.508291],[151.918625,-31.506647],[151.916966,-31.504183],[151.913028,-31.503777],[151.911067,-31.499202],[151.912998,-31.497516],[151.914658,-31.493625],[151.912147,-31.492129],[151.912266,-31.487655],[151.909703,-31.486386],[151.91408,-31.484796],[151.915377,-31.482671],[151.911358,-31.482175],[151.910799,-31.479401],[151.91277,-31.4767],[151.948381,-31.481738],[151.976509,-31.485864],[151.980718,-31.486175],[152.00692,-31.489958],[152.044495,-31.494938],[152.07001,-31.498415],[152.083657,-31.500485],[152.083977,-31.497907],[152.087032,-31.496032],[152.083843,-31.49334],[152.082114,-31.490563],[152.083324,-31.487757],[152.081713,-31.485222],[152.084147,-31.482546],[152.080791,-31.480083],[152.082336,-31.477091],[152.082218,-31.474815],[152.079116,-31.474412],[152.080809,-31.471364],[152.079485,-31.465738],[152.079653,-31.46276],[152.083128,-31.459067],[152.08609,-31.459377],[152.087676,-31.455776],[152.086384,-31.454172],[152.085306,-31.449821],[152.082912,-31.448001],[152.080059,-31.4476],[152.075463,-31.44548],[152.074431,-31.443514],[152.071386,-31.442844],[152.064663,-31.438591],[152.065802,-31.435384],[152.063989,-31.431533],[152.061895,-31.429235],[152.065575,-31.409145],[152.067857,-31.398397],[152.069455,-31.39978],[152.06905,-31.403177],[152.072896,-31.403032],[152.074459,-31.400452],[152.076859,-31.401305],[152.078352,-31.398438],[152.08157,-31.39706],[152.087244,-31.391719],[152.092323,-31.392091],[152.096636,-31.38825],[152.09976,-31.392027],[152.103123,-31.373415],[152.123679,-31.278729],[152.128782,-31.281115],[152.133207,-31.279433],[152.136909,-31.281776],[152.137785,-31.284686],[152.140121,-31.284946],[152.141555,-31.282444],[152.1475,-31.279899],[152.150356,-31.275457],[152.15303,-31.272551],[152.152258,-31.268575],[152.154477,-31.260671],[152.157775,-31.252088],[152.157693,-31.248307],[152.159974,-31.245028],[152.160941,-31.240885],[152.159682,-31.23537],[152.160655,-31.230368],[152.156513,-31.229464],[152.152551,-31.227505],[152.149626,-31.223774],[152.150169,-31.221594],[152.153548,-31.219007],[152.152741,-31.214794],[152.154124,-31.209319],[152.152496,-31.205937],[152.149213,-31.20552],[152.147466,-31.202172],[152.14755,-31.196017],[152.151437,-31.190241],[152.152879,-31.187264],[152.157201,-31.186285],[152.160504,-31.188778],[152.163944,-31.188815],[152.167083,-31.19126],[152.170211,-31.190611],[152.17309,-31.193814],[152.173429,-31.196161],[152.175595,-31.19851],[152.178964,-31.199509],[152.182362,-31.197735],[152.188251,-31.197206],[152.190785,-31.1957],[152.197088,-31.193678],[152.199673,-31.193581],[152.202712,-31.195075],[152.203685,-31.196628],[152.206952,-31.198257],[152.209412,-31.197584],[152.212483,-31.202024],[152.21735,-31.202238],[152.219671,-31.203692],[152.223397,-31.207902],[152.23206,-31.205451],[152.233054,-31.201984],[152.232366,-31.199593],[152.234107,-31.197461],[152.23713,-31.199962],[152.240152,-31.200939],[152.24245,-31.204362],[152.246017,-31.205072],[152.249432,-31.206676],[152.253103,-31.205393],[152.255913,-31.201262],[152.256969,-31.198432],[152.254681,-31.194535],[152.316572,-31.202936],[152.330897,-31.127464],[152.334462,-31.127005],[152.340047,-31.128032],[152.342684,-31.127637],[152.343458,-31.124362],[152.341151,-31.122342],[152.336641,-31.116269],[152.33795,-31.114426],[152.3419,-31.1145],[152.344322,-31.11601],[152.349587,-31.117004],[152.349606,-31.113551],[152.34815,-31.109224],[152.342982,-31.106365],[152.338112,-31.106029],[152.334987,-31.096198],[152.335077,-31.091283],[152.336743,-31.088797],[152.334937,-31.084906],[152.337351,-31.080097],[152.336205,-31.076951],[152.334219,-31.075715],[152.337535,-31.072619],[152.336799,-31.071404],[152.340634,-31.06821],[152.337633,-31.065899],[152.331245,-31.057657],[152.331474,-31.05557],[152.341265,-31.051754],[152.34517,-31.050618],[152.344365,-31.047838],[152.344607,-31.042386],[152.34335,-31.039945],[152.340845,-31.038671],[152.340341,-31.036442],[152.337163,-31.035065],[152.334049,-31.035471],[152.333579,-31.033385],[152.33116,-31.031617],[152.326425,-31.030117],[152.325546,-31.026059],[152.324392,-31.024857],[152.319215,-31.025088],[152.315267,-31.02785],[152.311316,-31.024989],[152.307849,-31.025194],[152.299635,-31.019833],[152.299045,-31.017317],[152.294233,-31.016354],[152.291689,-31.01435],[152.292555,-31.011466],[152.28911,-31.011624],[152.287774,-31.012709],[152.285222,-31.010356],[152.282155,-31.010445],[152.278819,-31.008803],[152.275066,-31.008692],[152.273443,-31.003872],[152.271085,-31.001777],[152.269825,-30.999147],[152.270845,-30.996295],[152.275195,-30.993949],[152.278298,-30.989489],[152.282404,-30.985676],[152.283201,-30.980436],[152.284119,-30.979437],[152.288659,-30.980927],[152.29117,-30.975444],[152.294141,-30.973082],[152.291893,-30.971993],[152.291524,-30.968167],[152.287964,-30.966871],[152.288733,-30.963787],[152.290658,-30.961333],[152.28599,-30.959675],[152.287238,-30.956807],[152.286524,-30.952654],[152.285015,-30.952304],[152.284306,-30.949125],[152.285448,-30.94682],[152.285433,-30.943909],[152.288377,-30.943579],[152.288302,-30.941029],[152.290302,-30.938176],[152.293185,-30.936259],[152.293454,-30.933151],[152.296107,-30.930719],[152.295131,-30.928065],[152.293051,-30.927217],[152.291013,-30.924718],[152.291549,-30.921597],[152.293296,-30.91878],[152.293296,-30.915066],[152.295004,-30.912432],[152.294739,-30.910623],[152.291747,-30.906489],[152.289493,-30.900382],[152.287243,-30.89997],[152.28898,-30.89161],[152.290594,-30.888218],[152.290613,-30.882266],[152.294013,-30.876665],[152.295075,-30.872234],[152.299116,-30.868431],[152.299031,-30.864954],[152.296218,-30.862705],[152.296535,-30.859042],[152.294238,-30.857384],[152.28951,-30.844152],[152.28557,-30.842967],[152.28454,-30.841506],[152.288597,-30.832337],[152.286781,-30.829869],[152.291453,-30.823737],[152.293805,-30.822879],[152.298103,-30.823219],[152.304217,-30.816397],[152.303904,-30.814047],[152.307469,-30.811645],[152.307443,-30.809487],[152.310699,-30.804966],[152.316736,-30.802765],[152.31791,-30.800261],[152.316112,-30.799135],[152.315094,-30.796546],[152.315673,-30.793799],[152.321037,-30.790831],[152.324515,-30.791848],[152.329885,-30.791003],[152.333339,-30.789489],[152.337298,-30.79039],[152.341232,-30.792067],[152.343857,-30.791901],[152.347185,-30.783656],[152.347029,-30.781129],[152.348538,-30.779729],[152.353822,-30.77941],[152.354998,-30.77812],[152.352957,-30.773352],[152.351956,-30.769156],[152.357768,-30.763766],[152.361448,-30.757902],[152.365477,-30.758481],[152.36675,-30.751786],[152.369569,-30.750492],[152.371133,-30.748541],[152.375309,-30.745347],[152.375758,-30.740978],[152.37586,-30.731802],[152.371082,-30.728387],[152.371882,-30.721824],[152.369392,-30.711234],[152.367003,-30.708878],[152.365677,-30.704628],[152.365915,-30.702985],[152.368582,-30.700957],[152.369327,-30.698688],[152.366724,-30.694202],[152.362344,-30.690139],[152.360526,-30.686497],[152.358405,-30.684213],[152.359015,-30.681763],[152.357992,-30.678444],[152.359642,-30.676313],[152.359475,-30.673425],[152.364359,-30.663496],[152.368954,-30.660564],[152.369291,-30.658905],[152.364491,-30.654615],[152.357599,-30.650808],[152.355535,-30.64877],[152.350185,-30.647314],[152.349223,-30.643146],[152.343798,-30.639482],[152.337037,-30.640624],[152.333571,-30.63659],[152.333096,-30.631196],[152.331578,-30.628318],[152.333891,-30.624023],[152.333149,-30.620307],[152.327898,-30.61853],[152.321906,-30.615829],[152.317822,-30.611685],[152.317059,-30.60611],[152.316055,-30.602971],[152.313198,-30.602583],[152.311722,-30.600191],[152.312851,-30.597709],[152.315,-30.596828],[152.317728,-30.593425],[152.322966,-30.590328],[152.329911,-30.584223],[152.331026,-30.582383],[152.330239,-30.579028],[152.335719,-30.57348],[152.336489,-30.570902],[152.335809,-30.567038],[152.338687,-30.565848],[152.343383,-30.565586],[152.348328,-30.563125],[152.348813,-30.561204],[152.350889,-30.560244],[152.352503,-30.556123],[152.360216,-30.555993],[152.361994,-30.555286],[152.362161,-30.551085],[152.363597,-30.548502],[152.363655,-30.546112],[152.365391,-30.544122],[152.368345,-30.542896],[152.37254,-30.543139],[152.376388,-30.540287],[152.376725,-30.535486],[152.381702,-30.532958],[152.386854,-30.528965],[152.388156,-30.526408],[152.386866,-30.521258],[152.384513,-30.520968],[152.382551,-30.519325],[152.383524,-30.515658],[152.382797,-30.514723],[152.38499,-30.511588],[152.384567,-30.50899],[152.385807,-30.505194],[152.388619,-30.502365],[152.392128,-30.500786],[152.400253,-30.500942],[152.40466,-30.495843],[152.408423,-30.489261],[152.403551,-30.48701],[152.399699,-30.483783],[152.398057,-30.481549],[152.394568,-30.479499],[152.393237,-30.476415],[152.392931,-30.4725],[152.39526,-30.470183],[152.395074,-30.468166],[152.39281,-30.4622],[152.393134,-30.46115],[152.391035,-30.457488],[152.389645,-30.453052],[152.39205,-30.442917],[152.396846,-30.442124],[152.398155,-30.439332],[152.401805,-30.435009],[152.405172,-30.435196],[152.411021,-30.437011],[152.414874,-30.437267],[152.41753,-30.436503],[152.41855,-30.430352],[152.419692,-30.426637],[152.425068,-30.423699],[152.428078,-30.418897]]]},"bbox":[149.791608,-32.845913,152.630849,-28.249]}]}