{"type":"FeatureCollection","features":[
{"properties":{"electorateShortName":"nicholls","electorateName":"Nicholls","area":14115.78,"state":"VIC"},"type":"Feature","geometry":{"type":"Polygon","coordinates":[[[145.195382,-37.29412],[145.19555,-37.278296],[145.192637,-37.279338],[145.189772,-37.279226],[145.189129,-37.278498],[145.186919,-37.278246],[145.187019,-37.271736],[145.180581,-37.271771],[145.180641,-37.264416],[145.171825,-37.266303],[145.17193,-37.278503],[145.168139,-37.281286],[145.163003,-37.277628],[145.165194,-37.27319],[145.164834,-37.271961],[145.165535,-37.26927],[145.168493,-37.266641],[145.168704,-37.265471],[145.167636,-37.263691],[145.170119,-37.263922],[145.171793,-37.262035],[145.173129,-37.261161],[145.172881,-37.258216],[145.170497,-37.256066],[145.167369,-37.255282],[145.165838,-37.253763],[145.165887,-37.251673],[145.166753,-37.25095],[145.16828,-37.250994],[145.170679,-37.249768],[145.170117,-37.247687],[145.171611,-37.247023],[145.169444,-37.244822],[145.168224,-37.242842],[145.167774,-37.240246],[145.169697,-37.239568],[145.170927,-37.238415],[145.172821,-37.238479],[145.177204,-37.235936],[145.17681,-37.234145],[145.174551,-37.232705],[145.171513,-37.228651],[145.169527,-37.226634],[145.169459,-37.224918],[145.167992,-37.223015],[145.166323,-37.219877],[145.163598,-37.217325],[145.163807,-37.215771],[145.165318,-37.215056],[145.16731,-37.216412],[145.169615,-37.217262],[145.172023,-37.216804],[145.172741,-37.215212],[145.174527,-37.213984],[145.174277,-37.211887],[145.175104,-37.209434],[145.175966,-37.208206],[145.174878,-37.204911],[145.186372,-37.204833],[145.18637,-37.203728],[145.191135,-37.203811],[145.196381,-37.206096],[145.196369,-37.199889],[145.202165,-37.199842],[145.202019,-37.18717],[145.207459,-37.187107],[145.207534,-37.191117],[145.219437,-37.191084],[145.219516,-37.186115],[145.225368,-37.186081],[145.225393,-37.183014],[145.227768,-37.183011],[145.228191,-37.181402],[145.229488,-37.180062],[145.231703,-37.179622],[145.234518,-37.177878],[145.237585,-37.177897],[145.241132,-37.17698],[145.241086,-37.168623],[145.232335,-37.168556],[145.231721,-37.167534],[145.231732,-37.157269],[145.23503,-37.157291],[145.234064,-37.155223],[145.232144,-37.152847],[145.232018,-37.150798],[145.231258,-37.14931],[145.231169,-37.146984],[145.232556,-37.145946],[145.232283,-37.144679],[145.230033,-37.141502],[145.228845,-37.137569],[145.228562,-37.134631],[145.230435,-37.133254],[145.231187,-37.134354],[145.231741,-37.137413],[145.235302,-37.140015],[145.237702,-37.141501],[145.243202,-37.143928],[145.244136,-37.143359],[145.248357,-37.142515],[145.252045,-37.141411],[145.254748,-37.138968],[145.256362,-37.135313],[145.2571,-37.134989],[145.261041,-37.135306],[145.264699,-37.135973],[145.267722,-37.136172],[145.269846,-37.137521],[145.272551,-37.140224],[145.273373,-37.142007],[145.275686,-37.142202],[145.278902,-37.143059],[145.279032,-37.139538],[145.284608,-37.138546],[145.284605,-37.129078],[145.285253,-37.127566],[145.28716,-37.125455],[145.287098,-37.123675],[145.288239,-37.122217],[145.287203,-37.120457],[145.28994,-37.116812],[145.289657,-37.114509],[145.290829,-37.110828],[145.290473,-37.10868],[145.288561,-37.106482],[145.289301,-37.102314],[145.288494,-37.101193],[145.288296,-37.099599],[145.303141,-37.099621],[145.304345,-37.103721],[145.321037,-37.103798],[145.32059,-37.101544],[145.321577,-37.100414],[145.322915,-37.101877],[145.325808,-37.101095],[145.327344,-37.101253],[145.328677,-37.100284],[145.331517,-37.099683],[145.341522,-37.09973],[145.341566,-37.101358],[145.352816,-37.101393],[145.355217,-37.099521],[145.355871,-37.097652],[145.366206,-37.097634],[145.3663,-37.091178],[145.367647,-37.092362],[145.372209,-37.093919],[145.372294,-37.084982],[145.374721,-37.084984],[145.374743,-37.076176],[145.392731,-37.076286],[145.392724,-37.061482],[145.392837,-37.061442],[145.392793,-37.043635],[145.396785,-37.042412],[145.400929,-37.039395],[145.404992,-37.038696],[145.408635,-37.035908],[145.409957,-37.032668],[145.411083,-37.030559],[145.415074,-37.029888],[145.41727,-37.028336],[145.420806,-37.026527],[145.425609,-37.024884],[145.429474,-37.021674],[145.429492,-37.020114],[145.428529,-37.01648],[145.428707,-37.014749],[145.427904,-37.012303],[145.428155,-37.009799],[145.427423,-37.008998],[145.427214,-37.005738],[145.425058,-37.005035],[145.4231,-37.004806],[145.423122,-37.00373],[145.424881,-37.001933],[145.425903,-36.999742],[145.425709,-36.999019],[145.423627,-36.998399],[145.421521,-36.99729],[145.420237,-36.995434],[145.416201,-36.994202],[145.413615,-36.995126],[145.412462,-36.994415],[145.413063,-36.992423],[145.415338,-36.990468],[145.41559,-36.98883],[145.418648,-36.986308],[145.418724,-36.984413],[145.421414,-36.98128],[145.42148,-36.980609],[145.424135,-36.97758],[145.423687,-36.975704],[145.426142,-36.970182],[145.425713,-36.968009],[145.4265,-36.96663],[145.425438,-36.965827],[145.426414,-36.963858],[145.428161,-36.963292],[145.430199,-36.961568],[145.429821,-36.959546],[145.431535,-36.958374],[145.43175,-36.956841],[145.433908,-36.955843],[145.434317,-36.954358],[145.435289,-36.952936],[145.437329,-36.952093],[145.437301,-36.950384],[145.438897,-36.948633],[145.440286,-36.945335],[145.441531,-36.943637],[145.444745,-36.941103],[145.445057,-36.939924],[145.446615,-36.938702],[145.447399,-36.935926],[145.449762,-36.933447],[145.452787,-36.931588],[145.453299,-36.930797],[145.453357,-36.928839],[145.454027,-36.927529],[145.454089,-36.92545],[145.455222,-36.924226],[145.455333,-36.922134],[145.454778,-36.920078],[145.45604,-36.918733],[145.456445,-36.917643],[145.458245,-36.915118],[145.457564,-36.911587],[145.458646,-36.910051],[145.459953,-36.91035],[145.461734,-36.909871],[145.463844,-36.909814],[145.463838,-36.901673],[145.46783,-36.901694],[145.464445,-36.896729],[145.462183,-36.894603],[145.461734,-36.893223],[145.460415,-36.892431],[145.454997,-36.891262],[145.455665,-36.889414],[145.460195,-36.883309],[145.461147,-36.880396],[145.45997,-36.878875],[145.460857,-36.877808],[145.461238,-36.875528],[145.466143,-36.875562],[145.467926,-36.870229],[145.476596,-36.872038],[145.477522,-36.870674],[145.479663,-36.870211],[145.481825,-36.870357],[145.481769,-36.865853],[145.484056,-36.858995],[145.484504,-36.856982],[145.484537,-36.8475],[145.482309,-36.847492],[145.48248,-36.846557],[145.48445,-36.845143],[145.484418,-36.843418],[145.485001,-36.842756],[145.484315,-36.840287],[145.46983,-36.840079],[145.469771,-36.83372],[145.466696,-36.834502],[145.462634,-36.828708],[145.46468,-36.828133],[145.463638,-36.825788],[145.469391,-36.8221],[145.467913,-36.822007],[145.466164,-36.820934],[145.464091,-36.820214],[145.46363,-36.819038],[145.471322,-36.82001],[145.47524,-36.799744],[145.474847,-36.799318],[145.486305,-36.792227],[145.48418,-36.791727],[145.483409,-36.792407],[145.482138,-36.792175],[145.481415,-36.790465],[145.480283,-36.789664],[145.477539,-36.788714],[145.472985,-36.788151],[145.472246,-36.787599],[145.4659,-36.787245],[145.46176,-36.786377],[145.459289,-36.783292],[145.458358,-36.782925],[145.45664,-36.781054],[145.456997,-36.778727],[145.45512,-36.778225],[145.455167,-36.774059],[145.453097,-36.774061],[145.453196,-36.752356],[145.453244,-36.730375],[145.473298,-36.730341],[145.496032,-36.730223],[145.496016,-36.715583],[145.494134,-36.715583],[145.494195,-36.699973],[145.498187,-36.69997],[145.498172,-36.687049],[145.513473,-36.687044],[145.513413,-36.698037],[145.513609,-36.699695],[145.515939,-36.701648],[145.522755,-36.701603],[145.572181,-36.701565],[145.584771,-36.708923],[145.597024,-36.695214],[145.596823,-36.693532],[145.597551,-36.690899],[145.596222,-36.688453],[145.595854,-36.686388],[145.593699,-36.683239],[145.592551,-36.683854],[145.589376,-36.681939],[145.627596,-36.63947],[145.634655,-36.631734],[145.634706,-36.622292],[145.644547,-36.623091],[145.644505,-36.590785],[145.642532,-36.589747],[145.639271,-36.590196],[145.634493,-36.590362],[145.629098,-36.589984],[145.626266,-36.590056],[145.626268,-36.586071],[145.62377,-36.578147],[145.614728,-36.563293],[145.631723,-36.563298],[145.63156,-36.499046],[145.64973,-36.499081],[145.73187,-36.499036],[145.732191,-36.486326],[145.731308,-36.48525],[145.731335,-36.47564],[145.731292,-36.456892],[145.731316,-36.442633],[145.724403,-36.434473],[145.724427,-36.424608],[145.728405,-36.425769],[145.731212,-36.425644],[145.73517,-36.426133],[145.736929,-36.428551],[145.73884,-36.429226],[145.739833,-36.432417],[145.737812,-36.433707],[145.740582,-36.434186],[145.740861,-36.4348],[145.742793,-36.434892],[145.744409,-36.433885],[145.746599,-36.434518],[145.748794,-36.43437],[145.751127,-36.434758],[145.753365,-36.435713],[145.756493,-36.434973],[145.758932,-36.435688],[145.760043,-36.435628],[145.762407,-36.436906],[145.763802,-36.436167],[145.765319,-36.437311],[145.764723,-36.439011],[145.766126,-36.441729],[145.768378,-36.441421],[145.76881,-36.442348],[145.770434,-36.443402],[145.771,-36.444435],[145.77294,-36.444821],[145.775229,-36.443786],[145.777088,-36.435013],[145.782897,-36.406966],[145.790376,-36.370739],[145.795898,-36.343642],[145.796995,-36.341405],[145.796657,-36.33992],[145.798504,-36.330831],[145.798391,-36.323887],[145.799175,-36.322495],[145.798528,-36.320894],[145.798509,-36.29897],[145.831483,-36.299002],[145.860375,-36.298974],[145.931093,-36.299047],[145.958236,-36.299192],[145.990707,-36.299216],[146.030938,-36.299009],[146.0311,-36.285798],[146.031198,-36.265443],[146.0329,-36.26408],[146.036903,-36.255063],[146.055411,-36.255052],[146.084825,-36.255187],[146.086398,-36.255147],[146.113097,-36.255076],[146.131425,-36.255122],[146.131256,-36.242192],[146.131306,-36.199114],[146.130998,-36.199114],[146.131052,-36.186791],[146.132,-36.186815],[146.166966,-36.186756],[146.20296,-36.186754],[146.220983,-36.186711],[146.223621,-36.186875],[146.223375,-36.185677],[146.220889,-36.185445],[146.220923,-36.182968],[146.234055,-36.182997],[146.234057,-36.185805],[146.233091,-36.187848],[146.233451,-36.18864],[146.235757,-36.188205],[146.237426,-36.186557],[146.238437,-36.184559],[146.23923,-36.181052],[146.241553,-36.180859],[146.243868,-36.182093],[146.24467,-36.18116],[146.242294,-36.180262],[146.24529,-36.178805],[146.246486,-36.176512],[146.245377,-36.175718],[146.245561,-36.174049],[146.244737,-36.173455],[146.244314,-36.1721],[146.242871,-36.170574],[146.243202,-36.169163],[146.245042,-36.168833],[146.245386,-36.1677],[146.243591,-36.167476],[146.242205,-36.168404],[146.240987,-36.168295],[146.239572,-36.169044],[146.239376,-36.171406],[146.238194,-36.171248],[146.238376,-36.170033],[146.237571,-36.169351],[146.236229,-36.171292],[146.233433,-36.169841],[146.23129,-36.170831],[146.229329,-36.169453],[146.228847,-36.167115],[146.230064,-36.166514],[146.231215,-36.166982],[146.232442,-36.164971],[146.233413,-36.165397],[146.233851,-36.166633],[146.236246,-36.164891],[146.235777,-36.163402],[146.235951,-36.161987],[146.237352,-36.160417],[146.236197,-36.159823],[146.236185,-36.158477],[146.237944,-36.158294],[146.238015,-36.157524],[146.235481,-36.157126],[146.23722,-36.155184],[146.235664,-36.155006],[146.23493,-36.15409],[146.236333,-36.152791],[146.239219,-36.152329],[146.239008,-36.149294],[146.2369,-36.149734],[146.236446,-36.147344],[146.237308,-36.146119],[146.240618,-36.148572],[146.24077,-36.147533],[146.239719,-36.145979],[146.240355,-36.14409],[146.239792,-36.143303],[146.237472,-36.142903],[146.237149,-36.14236],[146.238378,-36.139489],[146.239028,-36.1393],[146.241318,-36.140134],[146.242756,-36.141266],[146.243585,-36.138567],[146.241431,-36.136587],[146.239297,-36.136545],[146.238734,-36.135767],[146.241316,-36.133263],[146.238919,-36.13093],[146.238054,-36.129527],[146.235792,-36.128502],[146.233785,-36.128625],[146.231299,-36.128326],[146.229997,-36.128676],[146.229093,-36.13159],[146.227714,-36.131604],[146.226224,-36.130255],[146.222505,-36.128799],[146.219975,-36.129151],[146.218686,-36.127606],[146.2148,-36.127809],[146.211011,-36.126508],[146.208502,-36.125907],[146.206895,-36.126677],[146.204529,-36.12577],[146.204769,-36.12424],[146.205967,-36.123055],[146.206816,-36.119134],[146.206763,-36.115944],[146.205642,-36.113524],[146.206355,-36.112522],[146.20887,-36.111915],[146.210554,-36.11366],[146.209654,-36.114642],[146.210743,-36.115372],[146.212668,-36.114916],[146.213343,-36.114233],[146.215844,-36.114518],[146.215643,-36.111065],[146.21365,-36.109742],[146.213545,-36.108315],[146.216757,-36.107598],[146.216396,-36.106558],[146.215192,-36.106086],[146.212452,-36.107269],[146.211143,-36.105847],[146.20938,-36.106834],[146.208885,-36.105519],[146.206375,-36.10505],[146.204836,-36.10527],[146.20623,-36.10336],[146.207046,-36.102926],[146.208567,-36.103474],[146.210673,-36.102888],[146.210533,-36.101147],[146.209505,-36.099855],[146.210022,-36.099042],[146.211456,-36.099547],[146.21266,-36.098334],[146.210295,-36.097788],[146.210991,-36.096445],[146.213813,-36.097133],[146.214699,-36.098452],[146.216448,-36.097333],[146.216172,-36.095761],[146.213996,-36.092075],[146.213709,-36.093763],[146.21215,-36.09371],[146.210223,-36.091623],[146.213555,-36.091148],[146.213884,-36.090032],[146.215234,-36.089042],[146.212541,-36.087319],[146.211098,-36.087949],[146.206327,-36.086928],[146.204488,-36.085261],[146.201774,-36.086208],[146.200306,-36.085014],[146.198396,-36.086429],[146.19667,-36.085595],[146.196227,-36.084182],[146.197536,-36.084039],[146.199594,-36.083176],[146.200521,-36.080858],[146.201616,-36.080336],[146.200717,-36.078525],[146.200677,-36.075827],[146.200975,-36.074613],[146.202245,-36.072878],[146.200745,-36.071738],[146.200942,-36.070946],[146.202862,-36.06994],[146.200686,-36.068586],[146.199604,-36.066824],[146.200455,-36.064511],[146.198614,-36.06376],[146.196351,-36.061181],[146.196977,-36.054631],[146.197974,-36.052474],[146.197726,-36.04929],[146.199424,-36.047716],[146.198098,-36.044443],[146.196601,-36.043918],[146.193488,-36.044777],[146.192702,-36.047169],[146.192147,-36.047543],[146.188493,-36.046657],[146.185517,-36.04559],[146.184604,-36.046256],[146.181642,-36.049339],[146.181699,-36.051212],[146.179228,-36.051366],[146.178476,-36.050795],[146.177715,-36.047789],[146.175238,-36.041756],[146.175168,-36.04051],[146.175708,-36.038036],[146.176807,-36.037101],[146.177275,-36.034041],[146.176459,-36.033557],[146.17678,-36.032217],[146.178137,-36.029875],[146.177915,-36.027513],[146.175234,-36.024789],[146.174292,-36.02253],[146.174499,-36.021355],[146.173874,-36.019726],[146.171883,-36.019741],[146.17069,-36.020954],[146.168395,-36.022212],[146.165574,-36.022997],[146.163549,-36.024149],[146.160215,-36.024118],[146.157164,-36.021315],[146.156144,-36.021736],[146.155494,-36.02332],[146.15587,-36.024464],[146.15468,-36.025159],[146.152001,-36.024312],[146.147445,-36.021566],[146.146307,-36.020294],[146.145664,-36.017827],[146.14644,-36.014346],[146.145863,-36.013776],[146.143722,-36.014427],[146.141672,-36.016598],[146.139644,-36.017468],[146.137024,-36.017777],[146.13508,-36.019312],[146.133686,-36.019959],[146.13153,-36.01954],[146.131007,-36.017831],[146.131569,-36.016343],[146.133085,-36.014826],[146.131986,-36.012404],[146.13169,-36.010541],[146.133279,-36.00948],[146.135999,-36.009281],[146.138789,-36.009955],[146.140304,-36.009766],[146.14065,-36.008522],[146.137135,-36.003806],[146.134761,-36.002547],[146.132024,-36.003124],[146.130955,-36.004116],[146.130626,-36.006765],[146.12991,-36.008228],[146.128435,-36.009379],[146.125236,-36.01009],[146.124466,-36.014302],[146.122423,-36.015106],[146.119794,-36.014081],[146.119227,-36.014958],[146.119886,-36.017431],[146.117913,-36.018074],[146.113159,-36.015509],[146.109428,-36.015334],[146.107678,-36.014369],[146.107583,-36.01203],[146.110106,-36.009787],[146.112325,-36.009035],[146.112904,-36.007611],[146.111551,-36.006641],[146.106976,-36.007418],[146.10461,-36.008474],[146.102904,-36.01177],[146.101624,-36.012708],[146.09996,-36.013092],[146.097835,-36.012829],[146.096047,-36.012215],[146.09478,-36.011307],[146.093453,-36.009545],[146.092302,-36.009325],[146.089549,-36.010692],[146.089131,-36.011851],[146.089581,-36.013157],[146.090972,-36.013439],[146.095547,-36.015615],[146.096634,-36.017297],[146.09554,-36.020293],[146.094427,-36.020881],[146.092199,-36.021266],[146.0908,-36.020822],[146.089304,-36.019205],[146.087997,-36.018727],[146.086574,-36.019299],[146.084613,-36.019413],[146.081685,-36.017817],[146.080526,-36.017527],[146.077065,-36.018346],[146.075639,-36.018177],[146.074355,-36.016662],[146.074408,-36.01418],[146.073707,-36.011941],[146.073698,-36.00974],[146.071526,-36.009964],[146.073386,-36.012647],[146.072807,-36.014322],[146.071958,-36.015367],[146.070626,-36.015778],[146.064667,-36.014837],[146.062418,-36.015525],[146.060802,-36.015392],[146.059295,-36.014548],[146.057723,-36.013044],[146.057162,-36.010335],[146.057445,-36.0087],[146.056489,-36.002478],[146.056642,-36.00011],[146.056015,-35.998672],[146.053494,-35.996217],[146.052346,-35.995465],[146.05137,-35.995814],[146.051184,-35.997556],[146.051802,-36.00022],[146.051281,-36.002125],[146.049175,-36.003167],[146.046726,-36.002882],[146.044721,-36.000559],[146.043532,-35.999708],[146.042249,-35.999992],[146.039767,-36.001873],[146.038099,-36.000983],[146.035943,-35.997901],[146.033609,-35.99523],[146.032803,-35.994774],[146.030717,-35.994849],[146.029545,-35.995472],[146.027421,-35.99731],[146.024346,-35.997905],[146.02241,-35.999559],[146.020059,-36.000986],[146.018785,-36.003781],[146.017319,-36.006358],[146.015565,-36.007118],[146.013123,-36.006952],[146.00994,-36.004368],[146.006762,-36.003395],[146.005013,-36.003875],[146.003832,-36.005035],[146.003183,-36.007112],[146.001818,-36.008261],[145.999702,-36.008892],[145.998112,-36.009846],[145.991343,-36.012458],[145.989127,-36.013079],[145.986695,-36.013257],[145.98171,-36.011727],[145.978765,-36.009439],[145.977454,-36.009344],[145.975298,-36.011039],[145.974949,-36.013617],[145.973501,-36.015786],[145.971573,-36.015572],[145.969435,-36.013551],[145.969573,-36.012327],[145.971291,-36.009925],[145.97319,-36.00895],[145.97347,-36.007933],[145.971314,-36.005652],[145.969742,-36.005368],[145.967772,-36.005838],[145.96529,-36.00725],[145.963347,-36.009],[145.961312,-36.009388],[145.959021,-36.00807],[145.958263,-36.00663],[145.958269,-36.004493],[145.959333,-36.002907],[145.962172,-35.999622],[145.964501,-35.997898],[145.964818,-35.99677],[145.963663,-35.996016],[145.959802,-35.995887],[145.958227,-35.995015],[145.956544,-35.993058],[145.954385,-35.992435],[145.952516,-35.992491],[145.952147,-35.991537],[145.952566,-35.987361],[145.952178,-35.983879],[145.950917,-35.983258],[145.949749,-35.983497],[145.948779,-35.984744],[145.947476,-35.985098],[145.946414,-35.984642],[145.944895,-35.981118],[145.946434,-35.978899],[145.948759,-35.979178],[145.950656,-35.978441],[145.951014,-35.977804],[145.950694,-35.974942],[145.949595,-35.973296],[145.947017,-35.970581],[145.94469,-35.969541],[145.944083,-35.967446],[145.944401,-35.966444],[145.946106,-35.96524],[145.949002,-35.964605],[145.951545,-35.965208],[145.954409,-35.964623],[145.954998,-35.962906],[145.953087,-35.961134],[145.950682,-35.961368],[145.946074,-35.961334],[145.943577,-35.962816],[145.942896,-35.964154],[145.941096,-35.966355],[145.939791,-35.96684],[145.938733,-35.968543],[145.936317,-35.969195],[145.935566,-35.969819],[145.934625,-35.972692],[145.933032,-35.973136],[145.929986,-35.972925],[145.928704,-35.973893],[145.926569,-35.973497],[145.925343,-35.972424],[145.925023,-35.97057],[145.926111,-35.969167],[145.927948,-35.968147],[145.928145,-35.966472],[145.926912,-35.965089],[145.924338,-35.964288],[145.92254,-35.964282],[145.918629,-35.964795],[145.91489,-35.964542],[145.914178,-35.965538],[145.915086,-35.968],[145.914502,-35.969509],[145.912577,-35.969202],[145.910741,-35.96676],[145.909101,-35.966349],[145.907704,-35.965218],[145.906918,-35.963456],[145.904901,-35.964073],[145.904499,-35.966904],[145.904976,-35.9686],[145.903751,-35.969382],[145.901737,-35.967349],[145.900138,-35.964452],[145.900756,-35.961529],[145.901709,-35.960671],[145.903748,-35.959727],[145.906267,-35.959505],[145.908793,-35.958404],[145.910244,-35.956441],[145.909874,-35.954802],[145.908007,-35.953565],[145.905989,-35.953361],[145.902693,-35.952496],[145.900861,-35.952482],[145.898039,-35.953135],[145.894426,-35.95325],[145.892673,-35.954045],[145.891406,-35.956479],[145.889719,-35.957327],[145.888405,-35.957105],[145.885268,-35.955358],[145.883121,-35.95728],[145.879855,-35.957726],[145.878666,-35.957233],[145.876365,-35.955344],[145.870564,-35.955476],[145.868633,-35.957042],[145.865848,-35.958335],[145.863278,-35.958656],[145.862305,-35.959736],[145.860595,-35.96054],[145.858318,-35.960651],[145.856779,-35.959887],[145.855007,-35.959644],[145.853,-35.96067],[145.852604,-35.96163],[145.853574,-35.963131],[145.854059,-35.964872],[145.853665,-35.965936],[145.852177,-35.966977],[145.849048,-35.967618],[145.847975,-35.968689],[145.848998,-35.969258],[145.857044,-35.970656],[145.859313,-35.971565],[145.859796,-35.973016],[145.859319,-35.974104],[145.857217,-35.975692],[145.853802,-35.97661],[145.851196,-35.975526],[145.84835,-35.973003],[145.845882,-35.973316],[145.844546,-35.974027],[145.844439,-35.975035],[145.84568,-35.976723],[145.847396,-35.977554],[145.848767,-35.97889],[145.848925,-35.980143],[145.847818,-35.981659],[145.84426,-35.983005],[145.842275,-35.982679],[145.840293,-35.983236],[145.837005,-35.983088],[145.83585,-35.980979],[145.836357,-35.977866],[145.835551,-35.976743],[145.834185,-35.976602],[145.831484,-35.977014],[145.828413,-35.975575],[145.827294,-35.975553],[145.824906,-35.978104],[145.824932,-35.979772],[145.8282,-35.980014],[145.828951,-35.980406],[145.828974,-35.98205],[145.827334,-35.983609],[145.824936,-35.984673],[145.822602,-35.984416],[145.81891,-35.982489],[145.817863,-35.982312],[145.815105,-35.982926],[145.814232,-35.983444],[145.811353,-35.984102],[145.811475,-35.985517],[145.815489,-35.986619],[145.816673,-35.988409],[145.815576,-35.990524],[145.813911,-35.991568],[145.812159,-35.991838],[145.810035,-35.991367],[145.807484,-35.989845],[145.806732,-35.988555],[145.807255,-35.986535],[145.808444,-35.984416],[145.806018,-35.982839],[145.803301,-35.983644],[145.801073,-35.9836],[145.798677,-35.982971],[145.796309,-35.983614],[145.795025,-35.983573],[145.793445,-35.982817],[145.792862,-35.981829],[145.793119,-35.979431],[145.792543,-35.977136],[145.792971,-35.972999],[145.791506,-35.972872],[145.78932,-35.975034],[145.786864,-35.974816],[145.784552,-35.97199],[145.781528,-35.972296],[145.777988,-35.972972],[145.776883,-35.972441],[145.777188,-35.970364],[145.778265,-35.969578],[145.778544,-35.967465],[145.781389,-35.963791],[145.780772,-35.96217],[145.778211,-35.960244],[145.776637,-35.960631],[145.774295,-35.962303],[145.772069,-35.963001],[145.76852,-35.962991],[145.76759,-35.964191],[145.767539,-35.965646],[145.766105,-35.966688],[145.764834,-35.966385],[145.763966,-35.96535],[145.762958,-35.961449],[145.759,-35.959067],[145.75811,-35.958161],[145.756865,-35.958348],[145.755645,-35.960184],[145.75417,-35.96135],[145.748689,-35.963075],[145.746964,-35.964157],[145.74462,-35.963727],[145.743607,-35.962571],[145.743913,-35.96079],[145.744773,-35.959708],[145.743807,-35.959058],[145.74224,-35.959276],[145.739016,-35.95907],[145.735279,-35.959779],[145.733784,-35.96035],[145.732141,-35.9598],[145.730709,-35.95849],[145.730659,-35.957661],[145.732135,-35.955978],[145.735734,-35.955574],[145.7368,-35.954819],[145.734829,-35.951841],[145.7335,-35.951097],[145.730029,-35.951087],[145.727847,-35.952326],[145.726182,-35.953832],[145.723841,-35.953934],[145.721682,-35.951657],[145.720658,-35.951249],[145.718364,-35.951227],[145.716129,-35.950169],[145.715638,-35.948347],[145.717197,-35.945136],[145.718786,-35.944233],[145.721072,-35.944104],[145.722197,-35.94445],[145.72515,-35.94632],[145.72667,-35.946255],[145.727242,-35.945162],[145.726301,-35.942312],[145.724226,-35.940361],[145.722517,-35.938368],[145.721457,-35.935382],[145.719661,-35.934668],[145.717954,-35.936724],[145.716204,-35.937327],[145.713028,-35.936987],[145.710843,-35.935656],[145.709685,-35.933281],[145.708369,-35.932384],[145.706456,-35.932093],[145.700168,-35.937028],[145.699168,-35.937153],[145.697327,-35.936502],[145.69617,-35.934082],[145.69762,-35.930167],[145.697263,-35.928964],[145.695503,-35.926772],[145.695923,-35.925524],[145.697709,-35.924741],[145.7003,-35.925553],[145.701844,-35.926751],[145.703268,-35.925703],[145.702764,-35.924038],[145.701835,-35.923217],[145.698433,-35.921115],[145.695629,-35.920472],[145.688436,-35.923107],[145.686853,-35.924343],[145.686245,-35.925599],[145.687425,-35.927965],[145.687555,-35.929463],[145.685362,-35.930692],[145.682788,-35.930213],[145.680461,-35.928826],[145.678783,-35.926382],[145.674808,-35.926158],[145.673865,-35.925893],[145.673288,-35.924547],[145.673505,-35.923178],[145.674579,-35.921928],[145.677684,-35.920501],[145.678799,-35.919441],[145.67948,-35.917789],[145.678592,-35.916563],[145.676304,-35.916862],[145.674916,-35.91837],[145.670455,-35.919926],[145.669121,-35.919586],[145.668354,-35.918415],[145.668914,-35.914716],[145.668557,-35.912891],[145.667159,-35.912325],[145.664051,-35.913318],[145.662997,-35.913388],[145.661528,-35.912416],[145.661013,-35.910102],[145.660019,-35.907233],[145.658834,-35.902649],[145.657448,-35.900686],[145.655864,-35.900047],[145.652582,-35.900127],[145.650365,-35.898903],[145.648984,-35.89603],[145.648559,-35.894357],[145.647712,-35.893338],[145.646044,-35.893058],[145.643401,-35.89466],[145.641602,-35.894901],[145.639446,-35.894029],[145.636779,-35.889311],[145.634167,-35.889164],[145.632215,-35.888655],[145.631323,-35.88704],[145.631541,-35.884653],[145.630756,-35.882012],[145.629362,-35.879994],[145.627299,-35.879892],[145.62532,-35.883103],[145.622811,-35.88467],[145.620419,-35.884012],[145.620027,-35.882331],[145.620903,-35.880357],[145.624347,-35.878513],[145.625465,-35.87729],[145.62711,-35.876931],[145.628254,-35.876105],[145.627962,-35.875074],[145.626007,-35.873483],[145.62443,-35.873077],[145.622445,-35.87319],[145.620277,-35.874959],[145.618948,-35.875566],[145.616724,-35.875423],[145.615683,-35.874762],[145.614857,-35.872571],[145.616509,-35.870606],[145.61926,-35.869105],[145.621828,-35.868549],[145.627327,-35.868242],[145.628778,-35.866969],[145.628623,-35.86566],[145.626347,-35.862758],[145.624984,-35.862166],[145.622753,-35.863069],[145.617348,-35.864386],[145.614021,-35.86588],[145.612621,-35.867451],[145.611026,-35.869948],[145.608493,-35.870433],[145.606112,-35.869756],[145.603321,-35.867866],[145.601748,-35.867857],[145.601373,-35.869647],[145.602387,-35.871191],[145.605401,-35.874273],[145.605302,-35.874894],[145.603586,-35.875478],[145.601135,-35.875008],[145.599854,-35.873534],[145.596975,-35.871579],[145.59568,-35.870265],[145.595209,-35.867483],[145.596056,-35.86532],[145.598046,-35.862973],[145.598254,-35.861857],[145.596751,-35.861037],[145.593349,-35.86116],[145.590958,-35.862376],[145.588695,-35.862565],[145.587321,-35.861999],[145.586736,-35.860613],[145.588149,-35.857736],[145.591998,-35.856167],[145.592842,-35.85478],[145.593727,-35.851058],[145.593641,-35.849659],[145.592459,-35.848861],[145.590196,-35.849123],[145.588798,-35.848656],[145.5824,-35.848499],[145.580515,-35.847386],[145.579065,-35.844268],[145.577066,-35.842766],[145.57645,-35.841262],[145.57642,-35.839846],[145.574532,-35.837714],[145.571208,-35.837224],[145.570302,-35.836519],[145.569281,-35.83419],[145.566823,-35.833601],[145.56508,-35.834446],[145.563902,-35.834089],[145.563487,-35.833165],[145.563703,-35.831635],[145.566702,-35.829218],[145.567527,-35.827668],[145.56684,-35.826497],[145.565325,-35.825758],[145.562729,-35.826728],[145.561552,-35.828129],[145.559615,-35.828746],[145.557997,-35.828231],[145.557175,-35.826526],[145.557321,-35.825788],[145.559486,-35.823614],[145.55989,-35.822691],[145.559147,-35.821564],[145.55722,-35.820186],[145.557012,-35.81905],[145.557993,-35.817421],[145.559386,-35.816897],[145.562841,-35.816217],[145.563601,-35.814576],[145.562268,-35.813019],[145.560819,-35.812929],[145.558666,-35.81385],[145.555842,-35.814555],[145.553915,-35.81464],[145.551421,-35.814222],[145.548315,-35.812769],[145.546412,-35.81306],[145.544797,-35.815125],[145.542635,-35.821364],[145.541113,-35.822247],[145.538764,-35.821813],[145.537417,-35.820994],[145.536673,-35.819912],[145.536408,-35.818061],[145.536897,-35.816138],[145.538138,-35.814305],[145.540056,-35.8123],[145.541896,-35.809094],[145.540665,-35.808061],[145.539583,-35.807885],[145.53623,-35.808512],[145.53524,-35.808184],[145.534,-35.806375],[145.534075,-35.805294],[145.535789,-35.802953],[145.53473,-35.802209],[145.53239,-35.804858],[145.530993,-35.805626],[145.528194,-35.806159],[145.526667,-35.807313],[145.526613,-35.80843],[145.528435,-35.810463],[145.527842,-35.811997],[145.526554,-35.812838],[145.523669,-35.813839],[145.523259,-35.815078],[145.524014,-35.81671],[145.525179,-35.817175],[145.5232,-35.81826],[145.521322,-35.818651],[145.518935,-35.817847],[145.51577,-35.817185],[145.513249,-35.815847],[145.512443,-35.814557],[145.512348,-35.812563],[145.511641,-35.811914],[145.509698,-35.811611],[145.506547,-35.812032],[145.504553,-35.810943],[145.503544,-35.809894],[145.501538,-35.809445],[145.500625,-35.810267],[145.499283,-35.810171],[145.49709,-35.808924],[145.495691,-35.808942],[145.49456,-35.810199],[145.494727,-35.812331],[145.494301,-35.813983],[145.49268,-35.815053],[145.490195,-35.81472],[145.488763,-35.813896],[145.487716,-35.812554],[145.485819,-35.812517],[145.48376,-35.81379],[145.480364,-35.812608],[145.479331,-35.811318],[145.477656,-35.810841],[145.47636,-35.812315],[145.474371,-35.812322],[145.473463,-35.811783],[145.472818,-35.80978],[145.471795,-35.809532],[145.471522,-35.811322],[145.468947,-35.812635],[145.467883,-35.81352],[145.467741,-35.814493],[145.468771,-35.816149],[145.469091,-35.818175],[145.466972,-35.820346],[145.464542,-35.821347],[145.463812,-35.82318],[145.464365,-35.825228],[145.462025,-35.827077],[145.46021,-35.827212],[145.459169,-35.826552],[145.456778,-35.825989],[145.454868,-35.82456],[145.45374,-35.821826],[145.45218,-35.821115],[145.450332,-35.821679],[145.448165,-35.82614],[145.447926,-35.82737],[145.448479,-35.829424],[145.447562,-35.831261],[145.444353,-35.832772],[145.443962,-35.834214],[145.442293,-35.835642],[145.439888,-35.835535],[145.439025,-35.834721],[145.436677,-35.829865],[145.434421,-35.829853],[145.431947,-35.833395],[145.430854,-35.834268],[145.429425,-35.834457],[145.427794,-35.83386],[145.426679,-35.832414],[145.426323,-35.830344],[145.424978,-35.828741],[145.423178,-35.82875],[145.419874,-35.828174],[145.41892,-35.828584],[145.417937,-35.830856],[145.415561,-35.831398],[145.413623,-35.831239],[145.415199,-35.833462],[145.417526,-35.834672],[145.419603,-35.835009],[145.420887,-35.83589],[145.420101,-35.837516],[145.416771,-35.837941],[145.413889,-35.837231],[145.411242,-35.835465],[145.409778,-35.836448],[145.4098,-35.837605],[145.410912,-35.839246],[145.410908,-35.841344],[145.410081,-35.842582],[145.410229,-35.844111],[145.411946,-35.846411],[145.411529,-35.847795],[145.410328,-35.848783],[145.406944,-35.850537],[145.40436,-35.850853],[145.399932,-35.849807],[145.39795,-35.849675],[145.392047,-35.850714],[145.38715,-35.850142],[145.384383,-35.85248],[145.380527,-35.854551],[145.379497,-35.85557],[145.378314,-35.858],[145.375973,-35.859354],[145.374558,-35.859522],[145.36997,-35.858308],[145.368941,-35.858502],[145.366075,-35.860173],[145.361719,-35.860878],[145.360268,-35.861579],[145.359456,-35.86437],[145.358171,-35.866011],[145.356764,-35.866806],[145.354826,-35.867049],[145.352396,-35.865795],[145.350668,-35.861149],[145.350066,-35.860461],[145.3479,-35.860312],[145.344538,-35.862467],[145.34301,-35.862778],[145.341485,-35.862385],[145.338797,-35.860804],[145.33541,-35.85807],[145.333768,-35.85533],[145.332877,-35.854801],[145.329383,-35.854265],[145.327473,-35.853619],[145.325502,-35.852297],[145.324755,-35.850767],[145.322277,-35.851556],[145.319905,-35.853759],[145.318044,-35.855007],[145.313548,-35.855287],[145.311618,-35.856249],[145.309999,-35.859867],[145.30904,-35.860465],[145.307473,-35.860464],[145.301889,-35.858504],[145.300875,-35.858679],[145.296851,-35.860533],[145.295354,-35.86038],[145.293706,-35.859305],[145.292734,-35.857974],[145.292537,-35.856371],[145.293058,-35.854443],[145.291736,-35.853838],[145.287883,-35.855082],[145.286048,-35.856362],[145.284146,-35.856572],[145.283047,-35.854784],[145.283603,-35.853437],[145.284856,-35.851969],[145.285158,-35.850718],[145.283455,-35.850769],[145.282131,-35.851584],[145.280664,-35.85337],[145.27866,-35.853356],[145.277748,-35.852399],[145.277786,-35.850648],[145.276887,-35.848757],[145.273575,-35.846131],[145.273147,-35.845378],[145.271516,-35.845274],[145.270166,-35.846587],[145.269519,-35.848574],[145.267935,-35.851894],[145.266448,-35.85257],[145.263096,-35.851435],[145.26233,-35.850033],[145.261137,-35.849841],[145.259769,-35.850528],[145.258384,-35.850609],[145.257718,-35.848608],[145.259073,-35.846867],[145.264068,-35.842529],[145.26316,-35.841152],[145.260325,-35.84001],[145.259611,-35.839298],[145.259705,-35.837261],[145.260799,-35.835587],[145.260149,-35.835187],[145.258435,-35.83569],[145.255629,-35.835812],[145.252958,-35.83502],[145.248747,-35.832236],[145.246515,-35.830412],[145.245644,-35.830505],[145.242906,-35.832793],[145.240722,-35.833643],[145.238077,-35.833171],[145.23629,-35.831862],[145.235563,-35.829916],[145.234614,-35.829831],[145.230893,-35.832721],[145.229136,-35.833348],[145.227414,-35.833155],[145.225915,-35.832218],[145.224446,-35.832689],[145.223824,-35.83455],[145.22282,-35.835942],[145.220691,-35.83634],[145.220742,-35.837342],[145.223295,-35.838558],[145.224493,-35.84032],[145.223792,-35.841913],[145.222784,-35.842451],[145.21864,-35.842405],[145.215925,-35.841423],[145.215663,-35.840078],[145.216849,-35.838582],[145.217093,-35.837391],[145.216164,-35.836614],[145.213105,-35.835798],[145.211517,-35.836183],[145.208967,-35.837634],[145.207378,-35.837974],[145.20477,-35.837621],[145.201732,-35.836542],[145.199691,-35.835067],[145.197603,-35.834816],[145.196514,-35.835213],[145.194836,-35.83739],[145.192777,-35.837534],[145.191834,-35.836642],[145.190897,-35.834702],[145.188942,-35.834383],[145.186216,-35.835278],[145.18282,-35.835103],[145.181726,-35.838007],[145.182369,-35.840651],[145.181013,-35.842027],[145.17922,-35.841764],[145.175809,-35.840084],[145.17282,-35.838895],[145.171428,-35.83881],[145.170445,-35.839732],[145.169526,-35.841634],[145.168352,-35.842476],[145.166342,-35.842849],[145.163607,-35.842937],[145.161589,-35.842188],[145.157111,-35.842082],[145.154827,-35.843045],[145.152984,-35.842685],[145.153047,-35.841139],[145.15583,-35.839964],[145.157502,-35.838108],[145.1583,-35.833705],[145.159234,-35.832256],[145.158805,-35.830779],[145.156829,-35.830202],[145.154889,-35.830203],[145.152008,-35.831711],[145.150462,-35.832919],[145.148408,-35.833575],[145.146804,-35.833342],[145.14385,-35.832192],[145.143041,-35.831569],[145.140774,-35.828819],[145.139579,-35.828539],[145.138792,-35.82977],[145.138821,-35.832232],[145.138358,-35.833623],[145.137276,-35.834288],[145.135877,-35.834008],[145.134639,-35.832686],[145.134104,-35.830316],[145.13423,-35.827608],[145.133245,-35.827373],[145.131285,-35.828175],[145.12957,-35.827821],[145.128627,-35.826865],[145.127917,-35.824323],[145.12819,-35.821026],[145.126756,-35.82102],[145.126159,-35.821828],[145.125935,-35.825085],[145.127405,-35.827913],[145.126274,-35.82974],[145.124186,-35.829454],[145.123321,-35.828716],[145.122505,-35.82689],[145.121999,-35.823638],[145.122582,-35.821571],[145.121274,-35.820581],[145.120178,-35.821463],[145.119257,-35.823204],[145.116798,-35.825592],[145.11516,-35.826027],[145.11431,-35.825638],[145.114,-35.824058],[145.114998,-35.822913],[145.115546,-35.821418],[145.113923,-35.820588],[145.111786,-35.822255],[145.11031,-35.824018],[145.106761,-35.826131],[145.103985,-35.828553],[145.102452,-35.828668],[145.100829,-35.827478],[145.100232,-35.825783],[145.098861,-35.826665],[145.098615,-35.828399],[145.097019,-35.830111],[145.094432,-35.831772],[145.093427,-35.83484],[145.092625,-35.835773],[145.09091,-35.835625],[145.089385,-35.832212],[145.089165,-35.831153],[145.090883,-35.829585],[145.093266,-35.828657],[145.093378,-35.82777],[145.092015,-35.826098],[145.090462,-35.825503],[145.087166,-35.825949],[145.08571,-35.827426],[145.083531,-35.828102],[145.082266,-35.827678],[145.077423,-35.827408],[145.078027,-35.829721],[145.077746,-35.831055],[145.07648,-35.831822],[145.075489,-35.831467],[145.075124,-35.829801],[145.075491,-35.827265],[145.07412,-35.826732],[145.072862,-35.827757],[145.073233,-35.830912],[145.071672,-35.83335],[145.069007,-35.835033],[145.06656,-35.835742],[145.064578,-35.835919],[145.061055,-35.83731],[145.059347,-35.837057],[145.057991,-35.835769],[145.054407,-35.835241],[145.054307,-35.837811],[145.053196,-35.83859],[145.051206,-35.838818],[145.049611,-35.837999],[145.049513,-35.83655],[145.051392,-35.834811],[145.050739,-35.833643],[145.048763,-35.834128],[145.047102,-35.837093],[145.044668,-35.839371],[145.040976,-35.841654],[145.03924,-35.840886],[145.039523,-35.838653],[145.038799,-35.838372],[145.037793,-35.839757],[145.037025,-35.842024],[145.037838,-35.844372],[145.037485,-35.845917],[145.036191,-35.846959],[145.03354,-35.847896],[145.031528,-35.84912],[145.030044,-35.84956],[145.027605,-35.848763],[145.025547,-35.847279],[145.024577,-35.84713],[145.024187,-35.850135],[145.022763,-35.853518],[145.020321,-35.856001],[145.018766,-35.856681],[145.015265,-35.85688],[145.013548,-35.85764],[145.009873,-35.856286],[145.007086,-35.856012],[145.004784,-35.85472],[145.003748,-35.85149],[145.001048,-35.849412],[145.000163,-35.850159],[145.000327,-35.853631],[144.999981,-35.854736],[144.998673,-35.855006],[144.994752,-35.852386],[144.992263,-35.852339],[144.992095,-35.852834],[144.993881,-35.854227],[144.993373,-35.855896],[144.991257,-35.856398],[144.991655,-35.858129],[144.990735,-35.859149],[144.987772,-35.857565],[144.984987,-35.857517],[144.983468,-35.858041],[144.98199,-35.859934],[144.979344,-35.858355],[144.9759,-35.860644],[144.973911,-35.861119],[144.971285,-35.860897],[144.970785,-35.863597],[144.968464,-35.865166],[144.968179,-35.865842],[144.969694,-35.867878],[144.968899,-35.870538],[144.969455,-35.871613],[144.971516,-35.872432],[144.972389,-35.873516],[144.972391,-35.874776],[144.97071,-35.876121],[144.971024,-35.877037],[144.9697,-35.878418],[144.970979,-35.879814],[144.97266,-35.880633],[144.975001,-35.883433],[144.97389,-35.885276],[144.973149,-35.887771],[144.971852,-35.889215],[144.968475,-35.891328],[144.966056,-35.894511],[144.964745,-35.895903],[144.965473,-35.898459],[144.96723,-35.900991],[144.967278,-35.904268],[144.966814,-35.905325],[144.96502,-35.905564],[144.964086,-35.90789],[144.962237,-35.910206],[144.962186,-35.91107],[144.960997,-35.911863],[144.959047,-35.91132],[144.957061,-35.9127],[144.955285,-35.915317],[144.952877,-35.916534],[144.952194,-35.918973],[144.952986,-35.920694],[144.95173,-35.922648],[144.952033,-35.924234],[144.950016,-35.926372],[144.949593,-35.930543],[144.949012,-35.931999],[144.951359,-35.934817],[144.951362,-35.935796],[144.950458,-35.937229],[144.950084,-35.940166],[144.950466,-35.941977],[144.951704,-35.942812],[144.952889,-35.945128],[144.954797,-35.945677],[144.955293,-35.946613],[144.95399,-35.952495],[144.955637,-35.954619],[144.957455,-35.957829],[144.957745,-35.959637],[144.957378,-35.961006],[144.95625,-35.962092],[144.95297,-35.962551],[144.950066,-35.963423],[144.945389,-35.963164],[144.944241,-35.963683],[144.942576,-35.965928],[144.941531,-35.966787],[144.93926,-35.967005],[144.9368,-35.966182],[144.933904,-35.967821],[144.932659,-35.967748],[144.930904,-35.968554],[144.929753,-35.970258],[144.92928,-35.972133],[144.927286,-35.97294],[144.926256,-35.97377],[144.925636,-35.975638],[144.925489,-35.978229],[144.924044,-35.981399],[144.924188,-35.98363],[144.923616,-35.988951],[144.924535,-35.989878],[144.927705,-35.989653],[144.929694,-35.990598],[144.931384,-35.992225],[144.932102,-35.99517],[144.934586,-35.997372],[144.935865,-35.999166],[144.938344,-36.000669],[144.941933,-36.001695],[144.944935,-36.003595],[144.946451,-36.005122],[144.947064,-36.007039],[144.946721,-36.009566],[144.945265,-36.010947],[144.945197,-36.011865],[144.946338,-36.012795],[144.950855,-36.015306],[144.953795,-36.016168],[144.954513,-36.01673],[144.954211,-36.018528],[144.958388,-36.019617],[144.960154,-36.017845],[144.96155,-36.017931],[144.962051,-36.019148],[144.961845,-36.022407],[144.962281,-36.024434],[144.962244,-36.026714],[144.963041,-36.027656],[144.965626,-36.028529],[144.966556,-36.029915],[144.966702,-36.032892],[144.965531,-36.036983],[144.965844,-36.038205],[144.96696,-36.039234],[144.967808,-36.042078],[144.968573,-36.043002],[144.970002,-36.04354],[144.972598,-36.045315],[144.974091,-36.045502],[144.97662,-36.046879],[144.982057,-36.048278],[144.983093,-36.049431],[144.984049,-36.052872],[144.984054,-36.054847],[144.985932,-36.05651],[144.986482,-36.061044],[144.987023,-36.062468],[144.986877,-36.064296],[144.984992,-36.066806],[144.983269,-36.068165],[144.982405,-36.071558],[144.981636,-36.072573],[144.979234,-36.073551],[144.976492,-36.073558],[144.975398,-36.07418],[144.973894,-36.076129],[144.97063,-36.076542],[144.967237,-36.078513],[144.964728,-36.079335],[144.961857,-36.078728],[144.959464,-36.079787],[144.956585,-36.079909],[144.953843,-36.079429],[144.953319,-36.0808],[144.951777,-36.082459],[144.948411,-36.082915],[144.946483,-36.082332],[144.944928,-36.080205],[144.94361,-36.079236],[144.940102,-36.078328],[144.937699,-36.076403],[144.936547,-36.07587],[144.936771,-36.07408],[144.93808,-36.073291],[144.937711,-36.069985],[144.936635,-36.069084],[144.93397,-36.069092],[144.932614,-36.067049],[144.929428,-36.067039],[144.925915,-36.065933],[144.922105,-36.065587],[144.919024,-36.064128],[144.916351,-36.064],[144.913623,-36.063051],[144.910524,-36.063971],[144.908534,-36.064044],[144.907329,-36.063437],[144.905001,-36.061224],[144.903778,-36.060869],[144.902639,-36.061544],[144.902155,-36.063464],[144.90096,-36.063723],[144.89855,-36.062518],[144.897405,-36.06257],[144.895635,-36.063602],[144.892726,-36.063163],[144.888575,-36.063568],[144.885941,-36.061575],[144.883614,-36.061831],[144.881032,-36.06001],[144.878282,-36.059474],[144.876737,-36.05832],[144.874824,-36.057628],[144.873233,-36.057735],[144.870792,-36.058917],[144.869333,-36.058675],[144.866577,-36.059618],[144.86346,-36.059111],[144.862654,-36.059755],[144.863776,-36.061398],[144.863677,-36.063415],[144.864272,-36.064399],[144.863836,-36.068204],[144.862379,-36.069098],[144.860611,-36.06921],[144.861486,-36.071732],[144.859652,-36.071798],[144.85768,-36.069212],[144.857964,-36.06773],[144.860403,-36.067061],[144.860433,-36.066359],[144.85801,-36.065207],[144.856312,-36.065627],[144.855072,-36.066723],[144.853876,-36.069441],[144.854567,-36.070986],[144.85653,-36.072292],[144.856474,-36.073553],[144.85505,-36.074041],[144.852929,-36.074076],[144.851701,-36.073089],[144.851447,-36.071795],[144.849153,-36.071222],[144.847316,-36.072632],[144.847192,-36.073918],[144.849528,-36.076223],[144.849826,-36.079158],[144.850754,-36.080148],[144.85061,-36.081335],[144.848674,-36.081904],[144.846877,-36.081016],[144.844819,-36.083178],[144.84204,-36.082885],[144.842509,-36.08521],[144.841562,-36.08695],[144.842637,-36.089043],[144.842757,-36.090343],[144.843703,-36.091496],[144.843691,-36.092731],[144.842201,-36.093641],[144.840043,-36.094161],[144.841106,-36.095073],[144.842578,-36.095288],[144.843371,-36.096736],[144.842734,-36.099708],[144.840806,-36.100755],[144.837423,-36.099792],[144.836299,-36.098663],[144.835032,-36.098695],[144.834106,-36.100454],[144.832522,-36.101101],[144.830221,-36.10279],[144.824151,-36.102563],[144.821534,-36.105634],[144.820896,-36.107425],[144.818931,-36.10775],[144.817672,-36.106285],[144.817209,-36.104987],[144.81143,-36.102259],[144.809818,-36.102716],[144.810377,-36.103808],[144.815356,-36.108496],[144.81634,-36.109866],[144.814714,-36.110819],[144.813343,-36.110586],[144.811075,-36.109058],[144.80746,-36.107243],[144.806301,-36.107762],[144.807796,-36.109935],[144.807705,-36.11161],[144.807031,-36.113076],[144.807828,-36.113559],[144.811886,-36.11266],[144.813306,-36.113533],[144.812769,-36.115651],[144.810115,-36.11763],[144.809277,-36.120202],[144.809118,-36.122317],[144.80787,-36.123628],[144.805787,-36.123842],[144.803283,-36.122372],[144.802584,-36.120764],[144.801143,-36.119854],[144.797577,-36.120221],[144.796513,-36.11976],[144.795534,-36.117822],[144.796198,-36.116726],[144.799536,-36.11612],[144.800541,-36.11476],[144.799441,-36.11318],[144.797083,-36.11365],[144.79559,-36.116219],[144.793746,-36.118186],[144.792515,-36.120489],[144.79199,-36.122561],[144.790179,-36.12296],[144.788038,-36.121262],[144.785457,-36.122179],[144.7855,-36.123009],[144.788111,-36.124966],[144.788206,-36.126375],[144.786868,-36.127681],[144.785706,-36.127935],[144.780771,-36.128317],[144.777974,-36.129919],[144.77582,-36.128871],[144.775157,-36.127228],[144.77345,-36.125438],[144.773034,-36.123493],[144.773574,-36.120814],[144.771795,-36.120096],[144.771143,-36.1192],[144.771555,-36.116017],[144.768505,-36.115816],[144.76739,-36.117544],[144.765829,-36.118921],[144.764132,-36.119611],[144.762414,-36.119452],[144.760522,-36.118795],[144.757426,-36.118683],[144.755832,-36.119627],[144.754492,-36.122242],[144.753507,-36.122467],[144.75081,-36.121623],[144.748559,-36.121834],[144.747587,-36.121229],[144.746579,-36.118443],[144.744794,-36.116363],[144.744038,-36.112879],[144.743423,-36.112263],[144.743472,-36.109001],[144.740347,-36.107572],[144.735117,-36.110214],[144.734151,-36.110962],[144.731406,-36.111793],[144.731301,-36.112341],[144.73369,-36.113864],[144.735146,-36.115379],[144.734783,-36.116418],[144.732584,-36.11717],[144.729753,-36.117107],[144.727108,-36.117913],[144.72568,-36.116985],[144.725092,-36.115396],[144.725191,-36.112369],[144.723285,-36.114127],[144.72106,-36.114634],[144.718402,-36.113565],[144.717445,-36.112114],[144.717603,-36.110089],[144.719654,-36.106414],[144.719652,-36.104539],[144.718986,-36.102237],[144.719131,-36.10068],[144.720941,-36.099931],[144.722762,-36.099929],[144.725231,-36.099048],[144.725439,-36.098394],[144.723864,-36.096759],[144.723346,-36.094712],[144.723711,-36.092826],[144.726029,-36.090635],[144.725101,-36.089328],[144.721446,-36.090899],[144.71966,-36.090451],[144.719163,-36.08881],[144.719668,-36.087495],[144.719473,-36.086166],[144.718527,-36.085841],[144.715127,-36.08629],[144.714602,-36.086794],[144.713749,-36.089392],[144.711636,-36.091425],[144.708089,-36.092718],[144.70614,-36.092915],[144.703251,-36.091436],[144.702156,-36.089368],[144.701103,-36.088167],[144.699197,-36.087266],[144.698353,-36.088034],[144.698413,-36.090522],[144.698026,-36.093526],[144.696919,-36.094153],[144.695716,-36.093887],[144.694502,-36.092881],[144.69359,-36.091403],[144.69256,-36.091302],[144.691415,-36.093254],[144.689084,-36.095472],[144.687778,-36.096077],[144.685976,-36.096187],[144.683907,-36.095138],[144.683687,-36.093952],[144.684781,-36.091486],[144.684235,-36.087771],[144.682496,-36.084961],[144.682381,-36.083976],[144.683191,-36.082856],[144.685498,-36.081801],[144.686328,-36.079645],[144.68578,-36.076732],[144.686481,-36.075195],[144.688656,-36.074065],[144.691538,-36.07312],[144.692392,-36.069351],[144.691863,-36.068818],[144.68911,-36.068044],[144.687899,-36.0662],[144.688016,-36.065238],[144.689644,-36.062349],[144.687899,-36.061261],[144.686199,-36.062066],[144.682989,-36.062518],[144.679565,-36.062299],[144.678417,-36.063214],[144.679397,-36.064612],[144.679484,-36.065812],[144.678895,-36.067333],[144.679192,-36.068556],[144.678538,-36.069273],[144.676951,-36.06926],[144.674647,-36.067954],[144.673651,-36.068223],[144.671798,-36.07081],[144.669733,-36.071563],[144.668815,-36.071076],[144.66827,-36.068867],[144.665701,-36.071629],[144.666362,-36.074075],[144.666295,-36.075201],[144.664734,-36.076531],[144.662542,-36.076705],[144.661161,-36.076083],[144.660274,-36.07493],[144.660078,-36.072565],[144.658525,-36.070651],[144.657223,-36.070751],[144.65649,-36.072621],[144.656386,-36.074638],[144.655308,-36.07541],[144.65368,-36.074882],[144.652922,-36.073876],[144.653931,-36.069047],[144.654147,-36.067023],[144.653725,-36.065527],[144.652442,-36.063852],[144.652269,-36.062605],[144.653473,-36.059447],[144.652904,-36.05657],[144.653579,-36.054384],[144.653191,-36.05324],[144.651083,-36.051712],[144.649637,-36.051071],[144.647391,-36.050828],[144.646154,-36.051759],[144.646307,-36.056287],[144.644473,-36.056756],[144.641401,-36.055542],[144.640334,-36.052997],[144.638852,-36.050958],[144.637464,-36.04764],[144.632744,-36.048097],[144.631692,-36.048762],[144.629359,-36.051041],[144.626105,-36.051472],[144.624999,-36.052081],[144.625729,-36.055485],[144.627408,-36.058348],[144.627282,-36.060698],[144.626289,-36.061801],[144.624882,-36.062015],[144.622598,-36.060279],[144.619681,-36.059345],[144.618547,-36.059411],[144.618277,-36.060466],[144.619037,-36.062482],[144.619725,-36.063171],[144.62466,-36.063236],[144.62785,-36.064324],[144.628222,-36.06526],[144.627637,-36.066618],[144.624566,-36.067945],[144.620976,-36.07102],[144.621081,-36.072329],[144.622269,-36.074903],[144.621969,-36.076394],[144.619705,-36.077475],[144.616754,-36.07666],[144.615548,-36.07504],[144.613895,-36.073538],[144.610867,-36.071946],[144.610909,-36.070198],[144.615435,-36.067395],[144.615237,-36.066228],[144.612646,-36.066717],[144.611413,-36.066386],[144.608914,-36.064948],[144.608486,-36.063326],[144.610298,-36.060695],[144.610957,-36.059085],[144.610819,-36.057037],[144.611455,-36.055463],[144.61355,-36.05299],[144.613542,-36.051421],[144.614374,-36.050329],[144.616988,-36.048308],[144.617569,-36.045607],[144.616798,-36.044681],[144.613187,-36.042951],[144.613328,-36.041592],[144.614076,-36.041093],[144.617181,-36.040425],[144.618703,-36.039635],[144.618444,-36.037935],[144.615842,-36.036279],[144.615181,-36.034995],[144.615875,-36.032972],[144.615153,-36.031524],[144.610759,-36.032978],[144.60859,-36.03499],[144.606073,-36.036373],[144.606402,-36.037957],[144.60969,-36.03896],[144.610195,-36.039862],[144.609738,-36.041061],[144.607367,-36.042393],[144.605702,-36.042765],[144.603901,-36.042495],[144.601945,-36.041104],[144.59952,-36.037639],[144.597918,-36.03776],[144.594299,-36.041807],[144.592054,-36.043393],[144.590651,-36.043185],[144.589838,-36.042159],[144.589025,-36.038609],[144.588027,-36.038247],[144.586303,-36.039095],[144.583275,-36.039025],[144.582565,-36.03829],[144.582426,-36.036683],[144.583381,-36.033746],[144.583193,-36.032651],[144.581343,-36.03037],[144.581673,-36.029358],[144.5833,-36.028769],[144.585188,-36.029095],[144.586348,-36.028542],[144.586445,-36.027182],[144.583628,-36.024963],[144.581942,-36.022378],[144.579618,-36.021123],[144.578053,-36.021128],[144.576191,-36.022163],[144.573536,-36.024425],[144.571128,-36.024079],[144.570668,-36.02315],[144.570815,-36.018016],[144.569963,-36.016845],[144.566402,-36.01826],[144.564913,-36.017644],[144.563825,-36.016198],[144.564091,-36.014058],[144.565084,-36.013168],[144.565169,-36.010411],[144.563786,-36.008103],[144.5624,-36.007371],[144.561195,-36.00796],[144.561654,-36.010691],[144.56155,-36.012276],[144.560367,-36.013568],[144.558651,-36.014191],[144.55677,-36.013647],[144.555438,-36.010087],[144.554955,-36.005976],[144.553573,-36.002946],[144.551773,-36.003423],[144.549043,-36.005234],[144.546743,-36.004646],[144.546746,-36.002762],[144.547585,-36.001103],[144.547083,-36.000488],[144.54234,-36.001779],[144.539276,-36.001122],[144.536604,-36.000012],[144.534444,-35.998554],[144.533244,-35.996783],[144.529754,-35.994404],[144.526548,-35.994016],[144.523315,-35.995251],[144.52039,-35.995961],[144.517916,-35.995938],[144.515786,-35.99444],[144.515045,-35.992689],[144.515269,-35.991797],[144.51237,-35.989212],[144.51265,-35.988068],[144.513943,-35.987268],[144.516418,-35.986535],[144.51695,-35.984544],[144.516075,-35.982531],[144.516804,-35.978688],[144.517534,-35.977224],[144.520202,-35.974845],[144.52169,-35.972581],[144.521379,-35.970888],[144.520225,-35.969698],[144.517891,-35.969149],[144.515587,-35.971505],[144.51424,-35.974182],[144.511795,-35.974387],[144.509854,-35.972763],[144.509853,-35.971733],[144.510863,-35.969515],[144.512745,-35.967822],[144.51491,-35.967158],[144.515441,-35.965695],[144.514261,-35.965123],[144.512405,-35.965237],[144.511113,-35.966357],[144.509514,-35.969491],[144.50735,-35.970932],[144.50572,-35.971344],[144.503161,-35.971229],[144.501289,-35.970678],[144.499614,-35.969422],[144.499286,-35.96764],[144.500311,-35.966078],[144.502088,-35.964481],[144.502902,-35.962948],[144.502844,-35.960203],[144.503377,-35.958991],[144.502308,-35.958052],[144.500999,-35.958166],[144.500202,-35.959555],[144.499756,-35.961736],[144.500238,-35.964035],[144.49978,-35.96518],[144.498628,-35.96621],[144.497326,-35.968454],[144.495588,-35.969094],[144.493353,-35.968218],[144.491575,-35.965207],[144.489453,-35.965685],[144.487589,-35.964348],[144.487227,-35.963502],[144.488827,-35.957821],[144.487376,-35.957052],[144.484181,-35.959581],[144.483047,-35.960035],[144.481618,-35.959293],[144.481335,-35.957024],[144.483555,-35.954845],[144.483087,-35.95387],[144.481832,-35.953601],[144.482379,-35.951755],[144.483273,-35.951179],[144.487513,-35.951358],[144.488053,-35.950396],[144.487582,-35.949512],[144.484309,-35.948911],[144.48288,-35.949567],[144.481966,-35.950791],[144.481258,-35.952831],[144.479659,-35.953276],[144.478696,-35.952886],[144.477677,-35.95144],[144.478253,-35.950082],[144.48062,-35.947789],[144.480851,-35.94682],[144.47976,-35.945562],[144.478599,-35.945114],[144.476383,-35.94578],[144.475602,-35.947692],[144.473086,-35.947333],[144.47176,-35.945818],[144.470462,-35.945835],[144.468835,-35.946801],[144.466926,-35.946202],[144.466551,-35.944401],[144.468285,-35.942851],[144.472049,-35.941623],[144.471873,-35.940169],[144.470343,-35.939514],[144.467274,-35.940162],[144.465945,-35.941001],[144.464427,-35.941173],[144.463247,-35.939238],[144.463873,-35.938035],[144.467603,-35.935067],[144.466206,-35.933343],[144.463877,-35.933361],[144.461827,-35.934422],[144.461409,-35.935729],[144.461822,-35.938406],[144.460553,-35.939596],[144.459515,-35.939475],[144.458441,-35.938398],[144.45844,-35.936378],[144.457672,-35.935767],[144.453617,-35.937105],[144.451871,-35.936969],[144.449395,-35.935357],[144.447756,-35.935674],[144.446131,-35.934873],[144.445467,-35.933444],[144.444381,-35.932429],[144.442115,-35.932931],[144.441016,-35.932646],[144.439135,-35.931164],[144.438657,-35.929153],[144.440115,-35.925876],[144.439345,-35.924652],[144.436198,-35.92499],[144.43454,-35.924189],[144.433506,-35.922562],[144.433378,-35.920694],[144.431048,-35.919445],[144.427327,-35.919365],[144.426077,-35.91795],[144.426077,-35.915553],[144.426856,-35.914416],[144.425917,-35.912972],[144.423936,-35.912884],[144.422927,-35.911537],[144.422781,-35.910236],[144.423797,-35.90659],[144.422589,-35.90559],[144.421315,-35.905572],[144.42016,-35.906674],[144.420801,-35.910843],[144.418363,-35.911178],[144.416979,-35.910472],[144.415773,-35.909058],[144.415796,-35.908022],[144.416945,-35.905722],[144.417792,-35.904892],[144.421111,-35.902647],[144.423017,-35.902301],[144.424661,-35.902498],[144.425193,-35.901122],[144.424294,-35.900138],[144.422625,-35.899706],[144.419806,-35.89987],[144.417764,-35.900989],[144.416559,-35.902604],[144.415778,-35.90448],[144.413382,-35.904924],[144.411782,-35.904394],[144.410095,-35.904808],[144.408187,-35.904217],[144.40733,-35.90163],[144.407726,-35.900007],[144.408538,-35.898891],[144.404135,-35.89502],[144.400481,-35.893066],[144.394651,-35.891635],[144.388386,-35.888462],[144.385175,-35.886407],[144.383908,-35.885911],[144.381896,-35.88437],[144.379623,-35.884252],[144.377599,-35.885389],[144.37524,-35.884565],[144.372042,-35.884222],[144.37011,-35.88539],[144.368714,-35.885634],[144.365358,-35.885459],[144.361715,-35.886296],[144.361049,-35.887141],[144.356145,-35.889302],[144.352784,-35.890119],[144.350223,-35.891308],[144.349797,-35.893727],[144.347635,-35.894357],[144.344521,-35.893857],[144.343562,-35.894326],[144.343081,-35.896885],[144.344173,-35.900634],[144.343914,-35.903789],[144.342332,-35.905664],[144.342414,-35.90739],[144.34712,-35.906878],[144.348305,-35.910054],[144.350033,-35.910952],[144.351539,-35.908624],[144.353907,-35.908449],[144.354843,-35.909304],[144.355142,-35.910687],[144.354775,-35.912378],[144.352432,-35.915124],[144.352149,-35.916141],[144.35341,-35.919533],[144.352873,-35.92055],[144.351314,-35.920088],[144.35007,-35.921023],[144.350495,-35.922689],[144.349766,-35.924301],[144.346036,-35.928128],[144.344041,-35.926357],[144.34147,-35.925503],[144.338636,-35.925218],[144.333329,-35.926418],[144.330883,-35.927562],[144.335568,-35.934197],[144.306199,-35.934155],[144.301514,-35.930284],[144.301512,-35.928745],[144.294658,-35.925451],[144.288564,-35.923655],[144.283733,-35.923652],[144.283583,-35.924568],[144.266472,-35.929307],[144.266033,-35.930324],[144.262964,-35.931463],[144.263307,-35.933136],[144.260296,-35.941869],[144.259311,-35.946635],[144.26005,-35.949007],[144.264939,-35.955818],[144.264879,-35.956118],[144.267734,-35.960066],[144.272148,-35.964081],[144.280057,-35.969997],[144.284161,-35.974298],[144.285655,-35.977108],[144.288097,-35.980748],[144.291402,-35.984427],[144.288302,-35.984512],[144.287418,-35.985468],[144.288729,-35.986707],[144.288815,-35.988075],[144.285678,-35.987711],[144.285718,-35.989092],[144.284407,-35.989817],[144.283792,-35.989147],[144.281692,-35.988953],[144.280403,-35.99031],[144.280761,-35.992476],[144.280374,-35.993282],[144.278302,-35.992737],[144.276943,-35.993994],[144.277375,-35.995768],[144.279867,-35.998561],[144.27941,-35.999647],[144.277001,-35.999577],[144.276864,-36.001795],[144.27629,-36.003865],[144.276971,-36.004804],[144.279161,-36.00598],[144.279534,-36.007853],[144.279132,-36.009389],[144.280171,-36.013572],[144.282681,-36.014349],[144.283389,-36.015003],[144.284263,-36.017251],[144.286161,-36.018502],[144.287878,-36.018997],[144.290517,-36.018669],[144.292486,-36.020233],[144.292511,-36.023202],[144.293454,-36.024545],[144.296015,-36.025878],[144.29768,-36.027181],[144.298115,-36.028365],[144.299199,-36.028745],[144.300225,-36.029953],[144.301642,-36.030658],[144.3035,-36.030761],[144.304363,-36.032346],[144.306916,-36.032257],[144.30644,-36.03319],[144.307484,-36.033821],[144.307925,-36.036149],[144.309157,-36.03692],[144.308259,-36.040708],[144.308847,-36.042735],[144.31074,-36.043594],[144.312708,-36.043493],[144.313908,-36.042656],[144.316478,-36.044204],[144.315049,-36.045216],[144.315098,-36.046687],[144.317288,-36.04787],[144.317842,-36.04984],[144.317289,-36.050405],[144.313833,-36.050545],[144.313235,-36.051911],[144.311934,-36.052535],[144.310129,-36.052547],[144.308978,-36.05556],[144.307179,-36.055698],[144.305292,-36.058117],[144.303933,-36.061304],[144.304602,-36.062085],[144.30603,-36.061874],[144.306812,-36.064024],[144.307755,-36.064854],[144.307638,-36.066495],[144.306251,-36.067874],[144.306702,-36.068966],[144.306098,-36.070292],[144.306446,-36.07199],[144.310522,-36.073706],[144.312789,-36.07497],[144.313249,-36.075926],[144.312733,-36.078523],[144.313425,-36.080666],[144.313723,-36.085653],[144.315396,-36.087379],[144.315691,-36.088871],[144.317969,-36.091068],[144.318722,-36.096593],[144.318299,-36.098035],[144.318668,-36.101199],[144.316896,-36.100559],[144.314821,-36.100275],[144.3139,-36.101986],[144.311674,-36.10257],[144.310352,-36.104591],[144.309053,-36.10537],[144.30896,-36.107246],[144.30766,-36.109541],[144.306936,-36.110161],[144.308517,-36.111543],[144.308727,-36.113039],[144.308251,-36.11467],[144.307471,-36.115272],[144.305518,-36.115248],[144.304889,-36.116384],[144.306058,-36.117915],[144.304071,-36.121026],[144.302665,-36.121889],[144.303078,-36.123232],[144.302259,-36.125433],[144.299692,-36.124976],[144.295842,-36.122844],[144.295085,-36.123426],[144.295076,-36.12579],[144.29413,-36.126119],[144.291465,-36.125661],[144.291005,-36.127915],[144.289237,-36.129188],[144.29026,-36.130884],[144.290136,-36.131874],[144.288707,-36.132941],[144.288255,-36.134817],[144.289181,-36.136296],[144.28695,-36.138357],[144.28668,-36.14068],[144.285746,-36.143139],[144.28557,-36.145005],[144.286679,-36.14823],[144.286646,-36.149329],[144.284697,-36.149667],[144.28317,-36.152337],[144.284389,-36.152723],[144.285738,-36.152246],[144.286524,-36.153444],[144.286298,-36.155217],[144.285065,-36.158454],[144.286648,-36.161434],[144.286556,-36.163214],[144.289553,-36.163684],[144.289471,-36.164897],[144.288578,-36.165897],[144.288785,-36.167145],[144.285429,-36.169885],[144.285162,-36.171338],[144.283757,-36.171392],[144.281821,-36.173688],[144.281,-36.174224],[144.282356,-36.17579],[144.281895,-36.176252],[144.28207,-36.178439],[144.281236,-36.180515],[144.282361,-36.181622],[144.281546,-36.182267],[144.280668,-36.184823],[144.27977,-36.185113],[144.278187,-36.18721],[144.276744,-36.188162],[144.278448,-36.19073],[144.27885,-36.194371],[144.277282,-36.197882],[144.275481,-36.198261],[144.273523,-36.199995],[144.272231,-36.202088],[144.272503,-36.204601],[144.271248,-36.20877],[144.270222,-36.21012],[144.271809,-36.211484],[144.270284,-36.213381],[144.270371,-36.214572],[144.271158,-36.215466],[144.270152,-36.217994],[144.270667,-36.219844],[144.268711,-36.221702],[144.267668,-36.222041],[144.2676,-36.223727],[144.266785,-36.224797],[144.26686,-36.225875],[144.269144,-36.226201],[144.27045,-36.226789],[144.271115,-36.227919],[144.272983,-36.229403],[144.271036,-36.231234],[144.271037,-36.232613],[144.272229,-36.233046],[144.272259,-36.234202],[144.273511,-36.235441],[144.272679,-36.236721],[144.270751,-36.236865],[144.269787,-36.237664],[144.271285,-36.239013],[144.270588,-36.242404],[144.270948,-36.24389],[144.275069,-36.247365],[144.273682,-36.248398],[144.274108,-36.251272],[144.275274,-36.253716],[144.274078,-36.255322],[144.331849,-36.255252],[144.331857,-36.261404],[144.381742,-36.261565],[144.381742,-36.261481],[144.431844,-36.261524],[144.431854,-36.285856],[144.471479,-36.285909],[144.471471,-36.298989],[144.479782,-36.298971],[144.479786,-36.305595],[144.48797,-36.305607],[144.487993,-36.315743],[144.518766,-36.315755],[144.529922,-36.315648],[144.576166,-36.315687],[144.594332,-36.315664],[144.615371,-36.315579],[144.629799,-36.315626],[144.629794,-36.31456],[144.63767,-36.314591],[144.64035,-36.315467],[144.673409,-36.315495],[144.685407,-36.31543],[144.685395,-36.312007],[144.687639,-36.312005],[144.690089,-36.311469],[144.691165,-36.310875],[144.689883,-36.309379],[144.689809,-36.308332],[144.69211,-36.307954],[144.691809,-36.306681],[144.693922,-36.306245],[144.695051,-36.30511],[144.696637,-36.30617],[144.698002,-36.305344],[144.697248,-36.303977],[144.69714,-36.302521],[144.69868,-36.301237],[144.699934,-36.301496],[144.699551,-36.303117],[144.700358,-36.304024],[144.70184,-36.303662],[144.702798,-36.301298],[144.702326,-36.300023],[144.703191,-36.298854],[144.742724,-36.298865],[144.75932,-36.298899],[144.759315,-36.312609],[144.759365,-36.357333],[144.756884,-36.357333],[144.757121,-36.358474],[144.759376,-36.359834],[144.759387,-36.371614],[144.759472,-36.386174],[144.777623,-36.386086],[144.777668,-36.399067],[144.768082,-36.39908],[144.768107,-36.427295],[144.751288,-36.427304],[144.713843,-36.427382],[144.71403,-36.441925],[144.695754,-36.442025],[144.673074,-36.442037],[144.671241,-36.442102],[144.672341,-36.443886],[144.672626,-36.445415],[144.673735,-36.447266],[144.67198,-36.44814],[144.669947,-36.447898],[144.670074,-36.448936],[144.668388,-36.451002],[144.669846,-36.451889],[144.670435,-36.454431],[144.671444,-36.454984],[144.671547,-36.457118],[144.669976,-36.458632],[144.667992,-36.458359],[144.666991,-36.45876],[144.667401,-36.46055],[144.665561,-36.461056],[144.664526,-36.460596],[144.663292,-36.458858],[144.661307,-36.45919],[144.659704,-36.461752],[144.659235,-36.463762],[144.657275,-36.463349],[144.65587,-36.464532],[144.653515,-36.465458],[144.653065,-36.466363],[144.654034,-36.468869],[144.653526,-36.47121],[144.654744,-36.472642],[144.651815,-36.473234],[144.649988,-36.474115],[144.648844,-36.474166],[144.648304,-36.472378],[144.646457,-36.471588],[144.645747,-36.472361],[144.643088,-36.472459],[144.638924,-36.474596],[144.63623,-36.478425],[144.634788,-36.47884],[144.633859,-36.480634],[144.631971,-36.480699],[144.629855,-36.477852],[144.627667,-36.478774],[144.62533,-36.478067],[144.623823,-36.478574],[144.622636,-36.480508],[144.620617,-36.481336],[144.621537,-36.482321],[144.621467,-36.484624],[144.623245,-36.484685],[144.623069,-36.487408],[144.624303,-36.488201],[144.623922,-36.489731],[144.625499,-36.490232],[144.626028,-36.490986],[144.623723,-36.493051],[144.623449,-36.494304],[144.621154,-36.494697],[144.619638,-36.492735],[144.618341,-36.493935],[144.615609,-36.494953],[144.61469,-36.496068],[144.613667,-36.496085],[144.611792,-36.49749],[144.611292,-36.498626],[144.612672,-36.49991],[144.612538,-36.501513],[144.613027,-36.502672],[144.61481,-36.504296],[144.616395,-36.504054],[144.61632,-36.502325],[144.619658,-36.502498],[144.621608,-36.501844],[144.623498,-36.503959],[144.622561,-36.5063],[144.62107,-36.5073],[144.61953,-36.509057],[144.618291,-36.508501],[144.615911,-36.50924],[144.613466,-36.510911],[144.6129,-36.512309],[144.611411,-36.512855],[144.610255,-36.516766],[144.611963,-36.518792],[144.612913,-36.520727],[144.614624,-36.520051],[144.615843,-36.520906],[144.617862,-36.51983],[144.620936,-36.520545],[144.621649,-36.521742],[144.623483,-36.522667],[144.626439,-36.52491],[144.626025,-36.527385],[144.624648,-36.528389],[144.621483,-36.527409],[144.620115,-36.525899],[144.618627,-36.527233],[144.614818,-36.527835],[144.613451,-36.528687],[144.611896,-36.528366],[144.610928,-36.528849],[144.608767,-36.528789],[144.608328,-36.530475],[144.609289,-36.532203],[144.610066,-36.532648],[144.612962,-36.532819],[144.613764,-36.535231],[144.61631,-36.534518],[144.61627,-36.536849],[144.61711,-36.538408],[144.61624,-36.539648],[144.615127,-36.542677],[144.614138,-36.543298],[144.612342,-36.543419],[144.608044,-36.545225],[144.606677,-36.546164],[144.606402,-36.547161],[144.608886,-36.550037],[144.608167,-36.551536],[144.609341,-36.552947],[144.610832,-36.552488],[144.61176,-36.553739],[144.610535,-36.55593],[144.608869,-36.557133],[144.607497,-36.555839],[144.605353,-36.554595],[144.601831,-36.554487],[144.599584,-36.555551],[144.595766,-36.556551],[144.593088,-36.556704],[144.591068,-36.557744],[144.589543,-36.557083],[144.587219,-36.557899],[144.586843,-36.562048],[144.587659,-36.563035],[144.592685,-36.565867],[144.594014,-36.566828],[144.596718,-36.570036],[144.596488,-36.572171],[144.598269,-36.574124],[144.598159,-36.575156],[144.595015,-36.578923],[144.592854,-36.580206],[144.592672,-36.581455],[144.590531,-36.581853],[144.588799,-36.58401],[144.587666,-36.58326],[144.585336,-36.582984],[144.58393,-36.58407],[144.583412,-36.585239],[144.585176,-36.586572],[144.586293,-36.589791],[144.587857,-36.591548],[144.589545,-36.592648],[144.58989,-36.59418],[144.586818,-36.597962],[144.584222,-36.598376],[144.581281,-36.596831],[144.577407,-36.599227],[144.577799,-36.601],[144.578967,-36.602489],[144.574901,-36.606508],[144.573537,-36.607323],[144.57109,-36.607929],[144.57024,-36.60953],[144.571184,-36.610731],[144.570091,-36.611967],[144.567252,-36.612703],[144.566771,-36.614311],[144.564617,-36.613975],[144.563269,-36.612817],[144.561835,-36.61344],[144.560765,-36.614725],[144.560386,-36.61692],[144.563412,-36.618527],[144.563645,-36.621058],[144.56245,-36.622212],[144.560616,-36.62305],[144.55958,-36.624316],[144.560609,-36.625859],[144.559304,-36.627465],[144.556664,-36.627784],[144.551874,-36.630575],[144.55052,-36.630915],[144.548672,-36.632869],[144.546555,-36.637448],[144.545314,-36.640654],[144.543836,-36.641664],[144.544163,-36.643001],[144.545547,-36.643883],[144.545924,-36.646431],[144.544576,-36.647395],[144.543109,-36.647589],[144.539702,-36.649121],[144.538872,-36.649828],[144.538326,-36.652475],[144.538955,-36.65387],[144.537233,-36.655589],[144.534005,-36.656671],[144.531168,-36.659081],[144.528755,-36.659496],[144.526127,-36.6595],[144.525364,-36.660015],[144.525159,-36.662992],[144.526964,-36.66506],[144.528668,-36.665733],[144.529161,-36.667885],[144.528324,-36.670296],[144.530356,-36.6715],[144.531031,-36.672308],[144.530764,-36.675556],[144.530024,-36.677721],[144.529942,-36.680088],[144.530857,-36.681739],[144.531789,-36.685832],[144.533018,-36.68712],[144.534578,-36.687643],[144.534574,-36.688501],[144.532628,-36.691778],[144.531033,-36.691718],[144.531425,-36.690656],[144.528521,-36.689775],[144.527741,-36.690104],[144.526191,-36.689271],[144.524728,-36.689961],[144.523674,-36.692109],[144.522547,-36.693033],[144.522829,-36.694327],[144.525064,-36.697372],[144.525465,-36.69918],[144.526433,-36.700993],[144.526528,-36.702414],[144.525097,-36.706328],[144.523249,-36.708745],[144.519957,-36.711034],[144.518883,-36.714397],[144.520715,-36.716109],[144.52008,-36.718479],[144.519224,-36.719337],[144.51993,-36.722062],[144.518553,-36.72392],[144.519165,-36.72529],[144.563249,-36.725293],[144.579519,-36.725354],[144.62469,-36.725383],[144.667106,-36.725403],[144.666165,-36.725853],[144.666159,-36.762612],[144.66641,-36.762429],[144.675413,-36.761485],[144.677729,-36.761567],[144.679141,-36.761229],[144.691564,-36.761273],[144.715144,-36.761286],[144.72295,-36.760988],[144.727614,-36.759269],[144.728822,-36.758204],[144.734508,-36.758591],[144.738078,-36.757667],[144.740896,-36.755786],[144.750316,-36.757557],[144.751743,-36.754231],[144.752845,-36.753023],[144.757416,-36.750121],[144.760759,-36.750099],[144.76284,-36.749524],[144.766927,-36.747257],[144.771998,-36.749816],[144.77203,-36.751131],[144.775124,-36.750609],[144.776609,-36.750662],[144.794685,-36.750723],[144.794799,-36.754528],[144.792405,-36.755965],[144.794786,-36.758047],[144.794741,-36.770671],[144.784806,-36.770658],[144.784767,-36.780526],[144.78659,-36.780039],[144.791703,-36.780037],[144.791693,-36.789909],[144.791998,-36.789908],[144.792005,-36.799704],[144.78675,-36.799701],[144.787314,-36.80533],[144.794227,-36.821325],[144.798547,-36.832621],[144.801094,-36.835452],[144.803618,-36.839857],[144.81108,-36.839844],[144.812177,-36.843414],[144.818798,-36.852356],[144.821336,-36.8542],[144.819418,-36.856224],[144.820224,-36.85672],[144.821439,-36.85549],[144.831189,-36.85547],[144.831201,-36.859264],[144.830215,-36.859699],[144.840617,-36.867501],[144.839803,-36.868196],[144.844182,-36.872213],[144.846663,-36.874071],[144.848695,-36.874911],[144.849674,-36.874001],[144.852979,-36.875031],[144.850913,-36.879454],[144.853563,-36.88025],[144.850675,-36.882299],[144.847871,-36.885142],[144.837236,-36.892729],[144.828703,-36.896364],[144.822386,-36.899709],[144.81971,-36.903418],[144.816577,-36.911633],[144.812035,-36.917383],[144.809549,-36.919501],[144.804267,-36.925888],[144.80308,-36.929731],[144.801445,-36.937892],[144.800207,-36.939435],[144.804558,-36.950563],[144.806316,-36.955643],[144.80244,-36.956615],[144.799017,-36.955789],[144.791267,-36.95203],[144.796573,-36.965539],[144.787661,-36.967796],[144.788907,-36.969112],[144.790709,-36.969928],[144.794579,-36.969885],[144.79632,-36.970661],[144.799413,-36.971332],[144.804679,-36.973518],[144.807623,-36.978983],[144.810385,-36.982332],[144.814102,-36.985508],[144.814248,-36.989492],[144.814635,-36.993039],[144.813259,-36.994181],[144.810435,-37.00627],[144.816887,-37.007252],[144.817186,-37.00593],[144.821313,-37.005928],[144.820479,-37.009536],[144.818657,-37.009264],[144.816301,-37.019559],[144.819786,-37.015924],[144.825322,-37.014366],[144.829343,-37.013986],[144.838792,-37.017324],[144.839748,-37.018085],[144.842032,-37.022263],[144.846257,-37.024787],[144.848227,-37.024911],[144.861217,-37.02199],[144.881181,-37.02203],[144.890333,-37.022115],[144.893263,-37.023125],[144.897049,-37.026429],[144.898071,-37.026742],[144.900615,-37.024385],[144.902879,-37.025762],[144.907229,-37.021747],[144.905761,-37.020762],[144.906558,-37.016602],[144.910446,-37.018212],[144.912298,-37.018495],[144.91276,-37.019263],[144.915112,-37.008388],[144.927263,-37.009997],[144.926955,-37.012195],[144.928726,-37.01244],[144.93394,-37.00943],[144.936762,-37.011043],[144.942344,-37.011758],[144.938531,-37.013977],[144.93732,-37.019827],[144.93673,-37.019749],[144.93209,-37.043055],[144.927513,-37.043203],[144.92748,-37.047709],[144.920607,-37.047713],[144.909935,-37.046345],[144.910867,-37.048886],[144.905484,-37.047286],[144.904225,-37.04749],[144.903388,-37.051521],[144.90745,-37.052036],[144.90459,-37.066287],[144.904215,-37.067637],[144.911571,-37.068538],[144.909325,-37.0804],[144.912004,-37.082916],[144.906325,-37.086976],[144.90632,-37.090407],[144.913774,-37.090459],[144.915351,-37.092709],[144.916554,-37.092287],[144.918297,-37.097924],[144.918326,-37.101025],[144.919591,-37.104144],[144.919599,-37.105465],[144.918787,-37.108356],[144.919306,-37.109244],[144.913885,-37.113746],[144.923647,-37.121015],[144.923014,-37.121509],[144.920724,-37.121173],[144.918565,-37.123134],[144.91581,-37.123363],[144.914139,-37.124148],[144.912562,-37.125778],[144.911185,-37.126189],[144.908641,-37.128653],[144.909044,-37.130828],[144.908123,-37.132925],[144.906352,-37.135526],[144.904856,-37.135839],[144.904467,-37.13734],[144.903394,-37.138192],[144.902893,-37.140365],[144.90424,-37.141996],[144.906086,-37.142036],[144.907019,-37.144016],[144.908855,-37.146259],[144.908973,-37.148279],[144.908244,-37.150553],[144.908081,-37.152318],[144.905663,-37.153255],[144.905535,-37.154194],[144.904144,-37.155945],[144.908069,-37.157962],[144.892237,-37.168906],[144.889243,-37.16616],[144.88585,-37.168553],[144.877687,-37.172693],[144.879813,-37.175042],[144.865524,-37.174962],[144.86366,-37.173865],[144.857174,-37.167627],[144.850325,-37.166088],[144.842592,-37.165871],[144.842476,-37.170191],[144.836471,-37.169993],[144.836388,-37.171746],[144.827875,-37.171435],[144.820909,-37.17132],[144.819173,-37.171173],[144.807882,-37.17134],[144.807963,-37.177535],[144.807753,-37.177611],[144.807975,-37.195004],[144.810975,-37.19716],[144.812673,-37.197338],[144.81303,-37.209054],[144.812352,-37.213926],[144.811183,-37.21741],[144.82007,-37.219205],[144.818808,-37.222797],[144.816677,-37.230191],[144.825675,-37.231408],[144.829043,-37.235668],[144.826368,-37.249543],[144.822288,-37.271993],[144.824149,-37.279314],[144.824965,-37.280613],[144.825211,-37.284065],[144.828153,-37.285824],[144.835546,-37.287649],[144.837389,-37.288529],[144.84128,-37.288076],[144.845674,-37.290099],[144.84833,-37.288744],[144.853047,-37.287974],[144.855794,-37.285474],[144.85132,-37.310803],[144.849218,-37.322316],[144.850704,-37.321996],[144.856341,-37.32299],[144.857036,-37.323675],[144.856986,-37.325505],[144.858091,-37.326519],[144.860937,-37.326429],[144.860296,-37.325501],[144.864746,-37.324394],[144.865142,-37.326224],[144.86629,-37.329096],[144.868841,-37.33005],[144.870706,-37.328532],[144.871012,-37.329532],[144.87415,-37.330729],[144.874765,-37.334216],[144.876299,-37.33396],[144.876979,-37.335792],[144.878085,-37.337166],[144.879248,-37.337382],[144.883294,-37.336571],[144.88319,-37.334711],[144.885388,-37.334913],[144.885226,-37.335929],[144.887474,-37.337233],[144.886757,-37.338477],[144.887667,-37.339279],[144.887389,-37.341057],[144.889733,-37.3426],[144.892547,-37.34239],[144.893173,-37.343037],[144.892158,-37.345186],[144.917897,-37.347999],[144.921104,-37.332662],[144.921901,-37.333391],[144.923922,-37.336998],[144.925981,-37.33609],[144.927268,-37.336748],[144.929358,-37.336372],[144.931778,-37.33804],[144.932311,-37.335427],[144.953343,-37.337899],[144.958011,-37.338338],[144.957881,-37.337498],[144.960207,-37.337549],[144.960504,-37.338697],[144.981662,-37.341211],[144.982258,-37.338082],[144.986922,-37.338719],[144.991083,-37.341299],[144.991609,-37.341193],[144.991754,-37.337475],[144.993721,-37.335529],[144.996116,-37.33484],[144.997035,-37.333288],[145.001499,-37.331481],[145.002871,-37.3306],[145.00407,-37.331737],[145.005685,-37.330014],[145.007754,-37.330068],[145.010291,-37.330536],[145.011459,-37.328703],[145.013361,-37.33059],[145.018451,-37.328319],[145.030432,-37.329578],[145.031105,-37.326415],[145.031903,-37.324859],[145.034507,-37.322755],[145.037397,-37.321373],[145.043988,-37.320224],[145.045614,-37.319493],[145.047175,-37.317961],[145.048393,-37.315654],[145.050749,-37.308227],[145.052637,-37.304645],[145.053278,-37.3029],[145.053851,-37.299689],[145.05389,-37.297932],[145.054657,-37.291912],[145.055739,-37.281711],[145.055827,-37.278366],[145.056242,-37.275764],[145.056238,-37.273208],[145.055699,-37.270122],[145.056073,-37.263703],[145.057148,-37.263455],[145.075451,-37.263566],[145.086421,-37.263473],[145.096791,-37.263307],[145.099119,-37.263466],[145.102028,-37.263248],[145.109685,-37.263285],[145.109837,-37.26315],[145.117602,-37.263218],[145.118122,-37.265416],[145.116645,-37.266895],[145.125056,-37.269033],[145.124901,-37.27639],[145.120911,-37.27641],[145.125267,-37.293897],[145.195382,-37.29412]]]},"bbox":[144.259311,-37.347999,146.246486,-35.802209]}]}