{"type":"FeatureCollection","features":[
{"properties":{"electorateShortName":"bean","electorateName":"Bean","area":1913.8,"state":null},"type":"Feature","geometry":{"type":"MultiPolygon","coordinates":[[[[149.205725,-35.34634],[149.205905,-35.346202],[149.206091,-35.34607],[149.206283,-35.345943],[149.206345,-35.345905],[149.205945,-35.345217],[149.205352,-35.344552],[149.204581,-35.34406],[149.203401,-35.343707],[149.202076,-35.343648],[149.200943,-35.343825],[149.200121,-35.343992],[149.199083,-35.344084],[149.198065,-35.34413],[149.195946,-35.344127],[149.195603,-35.344118],[149.194341,-35.344098],[149.193132,-35.344098],[149.191732,-35.344058],[149.190353,-35.343839],[149.189879,-35.343664],[149.189759,-35.343621],[149.188626,-35.343178],[149.188701,-35.34301],[149.188565,-35.342968],[149.188226,-35.342861],[149.18789,-35.342749],[149.187423,-35.342584],[149.187202,-35.342502],[149.187017,-35.342432],[149.186529,-35.342237],[149.1863,-35.342141],[149.186016,-35.342018],[149.185761,-35.341903],[149.185483,-35.341774],[149.184487,-35.341303],[149.182036,-35.33982],[149.181812,-35.339689],[149.181466,-35.339504],[149.181189,-35.339371],[149.180987,-35.339281],[149.1807,-35.339163],[149.180365,-35.33904],[149.179851,-35.338879],[149.17829,-35.338439],[149.177822,-35.338401],[149.176379,-35.337722],[149.176195,-35.337632],[149.175731,-35.337952],[149.175374,-35.338179],[149.174466,-35.338696],[149.173515,-35.339083],[149.172846,-35.339315],[149.172151,-35.339472],[149.171421,-35.339607],[149.168905,-35.339962],[149.162961,-35.340786],[149.162134,-35.340914],[149.161854,-35.340953],[149.161528,-35.341003],[149.161377,-35.341028],[149.161203,-35.341058],[149.161041,-35.341088],[149.160891,-35.341116],[149.160684,-35.341157],[149.160489,-35.341198],[149.160283,-35.341243],[149.16002,-35.341303],[149.159759,-35.341367],[149.159567,-35.341416],[149.159308,-35.341486],[149.159173,-35.341523],[149.158994,-35.341575],[149.15875,-35.341648],[149.158407,-35.341756],[149.158056,-35.341874],[149.154284,-35.3431],[149.147553,-35.34524],[149.147269,-35.345328],[149.146799,-35.345453],[149.146284,-35.34556],[149.14608,-35.345595],[149.145874,-35.345625],[149.145668,-35.345651],[149.145442,-35.345675],[149.145083,-35.345701],[149.144798,-35.345713],[149.144627,-35.345716],[149.144362,-35.345715],[149.144039,-35.345704],[149.143793,-35.345689],[149.143548,-35.345667],[149.143322,-35.345642],[149.143116,-35.345614],[149.142892,-35.345579],[149.142762,-35.345556],[149.142559,-35.345517],[149.142412,-35.345485],[149.14223,-35.345443],[149.14194,-35.345368],[149.141725,-35.345306],[149.14153,-35.345245],[149.141285,-35.345161],[149.141095,-35.345091],[149.14094,-35.34503],[149.140574,-35.344882],[149.140451,-35.344834],[149.140338,-35.344791],[149.140203,-35.344743],[149.140068,-35.344697],[149.139916,-35.344648],[149.139804,-35.344614],[149.139671,-35.344575],[149.139552,-35.344543],[149.139381,-35.344499],[149.139282,-35.344475],[149.139152,-35.344445],[149.139041,-35.344421],[149.138899,-35.344393],[149.138759,-35.344367],[149.138408,-35.34431],[149.137952,-35.344251],[149.137366,-35.3442],[149.136828,-35.344177],[149.136322,-35.344177],[149.135619,-35.344209],[149.133501,-35.344386],[149.133047,-35.344504],[149.13131,-35.344908],[149.130882,-35.345037],[149.130636,-35.345135],[149.130399,-35.345248],[149.130197,-35.34536],[149.129846,-35.345598],[149.129098,-35.346189],[149.12879,-35.346402],[149.128545,-35.346545],[149.128229,-35.346701],[149.127898,-35.346835],[149.127418,-35.346995],[149.125311,-35.347694],[149.124974,-35.347795],[149.1247,-35.347863],[149.124421,-35.347919],[149.124288,-35.347874],[149.123889,-35.347938],[149.123418,-35.347972],[149.122923,-35.347964],[149.122413,-35.347906],[149.121932,-35.347806],[149.121537,-35.347681],[149.121189,-35.347546],[149.117862,-35.345953],[149.117372,-35.34575],[149.116855,-35.345571],[149.11605,-35.345358],[149.115639,-35.345269],[149.115611,-35.345268],[149.115177,-35.34521],[149.114785,-35.345171],[149.114291,-35.345143],[149.113895,-35.345138],[149.113799,-35.345141],[149.113444,-35.345153],[149.112941,-35.345195],[149.11255,-35.345245],[149.11213,-35.345317],[149.111705,-35.34541],[149.111206,-35.345554],[149.110917,-35.345638],[149.110172,-35.345928],[149.109735,-35.346137],[149.109315,-35.346368],[149.10742,-35.347517],[149.105439,-35.348716],[149.105314,-35.348791],[149.104002,-35.349587],[149.103842,-35.34968],[149.103488,-35.349886],[149.10309,-35.350096],[149.102652,-35.350284],[149.102245,-35.350423],[149.101774,-35.350547],[149.101302,-35.350635],[149.101128,-35.350652],[149.100823,-35.350686],[149.100461,-35.350697],[149.100432,-35.349645],[149.100405,-35.349258],[149.100322,-35.348668],[149.100204,-35.348145],[149.09996,-35.347295],[149.099391,-35.345316],[149.099305,-35.345055],[149.09916,-35.344715],[149.099005,-35.344426],[149.098832,-35.344155],[149.098612,-35.343853],[149.098386,-35.343597],[149.098132,-35.343348],[149.097839,-35.343104],[149.097593,-35.342924],[149.097316,-35.342746],[149.095488,-35.341672],[149.094647,-35.341095],[149.094229,-35.340809],[149.092242,-35.339427],[149.091498,-35.338914],[149.091394,-35.338841],[149.089765,-35.337709],[149.089519,-35.337529],[149.089359,-35.337398],[149.088741,-35.336927],[149.087684,-35.33667],[149.087541,-35.336643],[149.087514,-35.33664],[149.087227,-35.336611],[149.08701,-35.3366],[149.086763,-35.33661],[149.086675,-35.336618],[149.086508,-35.336635],[149.086301,-35.33667],[149.08603,-35.336737],[149.085799,-35.336816],[149.085562,-35.336918],[149.085354,-35.337028],[149.085027,-35.337296],[149.084394,-35.337904],[149.083579,-35.338635],[149.083555,-35.338612],[149.083432,-35.338499],[149.083107,-35.338806],[149.082838,-35.339146],[149.082634,-35.339486],[149.082437,-35.339949],[149.082425,-35.339994],[149.082334,-35.340357],[149.082296,-35.340707],[149.082344,-35.342129],[149.08236,-35.34275],[149.082397,-35.343523],[149.082422,-35.343827],[149.082475,-35.344075],[149.082507,-35.344222],[149.08262,-35.344654],[149.082995,-35.345723],[149.08337,-35.34679],[149.084029,-35.348661],[149.084113,-35.34887],[149.083655,-35.348812],[149.083128,-35.348721],[149.081153,-35.348293],[149.081142,-35.348291],[149.081013,-35.348263],[149.080126,-35.348079],[149.079035,-35.347854],[149.078092,-35.347702],[149.077283,-35.347632],[149.076701,-35.347619],[149.076414,-35.347613],[149.075822,-35.347634],[149.075548,-35.347656],[149.074545,-35.347782],[149.074412,-35.347797],[149.073086,-35.347957],[149.071947,-35.348093],[149.071326,-35.348167],[149.070672,-35.348246],[149.069922,-35.348332],[149.069556,-35.34837],[149.06951,-35.348199],[149.069377,-35.347735],[149.069283,-35.347444],[149.069205,-35.347213],[149.068997,-35.346642],[149.0686,-35.345732],[149.068586,-35.345684],[149.068289,-35.344745],[149.067874,-35.343634],[149.067679,-35.343294],[149.066581,-35.341387],[149.066292,-35.340885],[149.065782,-35.339887],[149.065411,-35.339071],[149.065178,-35.338516],[149.064803,-35.337577],[149.064395,-35.336374],[149.063986,-35.334908],[149.063824,-35.334214],[149.063707,-35.333639],[149.063682,-35.33351],[149.063674,-35.333467],[149.063561,-35.33281],[149.063483,-35.332092],[149.063437,-35.331451],[149.063428,-35.330617],[149.063438,-35.330267],[149.063454,-35.329694],[149.063499,-35.329164],[149.063554,-35.328769],[149.063689,-35.328003],[149.063695,-35.32797],[149.063707,-35.327903],[149.064026,-35.326271],[149.064081,-35.325884],[149.064111,-35.325727],[149.064179,-35.325027],[149.064189,-35.324535],[149.064118,-35.324049],[149.06385,-35.322214],[149.063796,-35.322037],[149.063707,-35.321814],[149.063552,-35.321532],[149.063285,-35.321117],[149.062941,-35.320363],[149.062856,-35.320152],[149.062803,-35.319934],[149.06278,-35.319748],[149.062786,-35.319452],[149.062818,-35.319261],[149.062949,-35.318747],[149.063,-35.318478],[149.063041,-35.318328],[149.063067,-35.318177],[149.063081,-35.318003],[149.063079,-35.317829],[149.062981,-35.316897],[149.062964,-35.316406],[149.062655,-35.314756],[149.062469,-35.313803],[149.062464,-35.313786],[149.061983,-35.31133],[149.06194,-35.311091],[149.061904,-35.310852],[149.06186,-35.310468],[149.06184,-35.310228],[149.06183,-35.310035],[149.061822,-35.309794],[149.06182,-35.309601],[149.061822,-35.309408],[149.061831,-35.309167],[149.061843,-35.308975],[149.061878,-35.308539],[149.061903,-35.308298],[149.061936,-35.308056],[149.061975,-35.307815],[149.06202,-35.307575],[149.062072,-35.307336],[149.062143,-35.307051],[149.062208,-35.306814],[149.06228,-35.306578],[149.062358,-35.306344],[149.062416,-35.30619],[149.062523,-35.305922],[149.062659,-35.305604],[149.062803,-35.305287],[149.06293,-35.305026],[149.06309,-35.304714],[149.063257,-35.304406],[149.063492,-35.304028],[149.063741,-35.303656],[149.063971,-35.303336],[149.064247,-35.302976],[149.064537,-35.302625],[149.06484,-35.302281],[149.065156,-35.301945],[149.065423,-35.301688],[149.065743,-35.301394],[149.066118,-35.301065],[149.066505,-35.300746],[149.067201,-35.30016],[149.067568,-35.299836],[149.067926,-35.299504],[149.068274,-35.299167],[149.068661,-35.298773],[149.068992,-35.298408],[149.069311,-35.298035],[149.069541,-35.297751],[149.069799,-35.297414],[149.070047,-35.297072],[149.070285,-35.296725],[149.070511,-35.296373],[149.071704,-35.294443],[149.071819,-35.294266],[149.071915,-35.294126],[149.072117,-35.293851],[149.072333,-35.293584],[149.072563,-35.293325],[149.072775,-35.293104],[149.073047,-35.292833],[149.073224,-35.292669],[149.073369,-35.292539],[149.073554,-35.292381],[149.073705,-35.292256],[149.073859,-35.292134],[149.074056,-35.291986],[149.074338,-35.291783],[149.074628,-35.291589],[149.074797,-35.291482],[149.075487,-35.291056],[149.076063,-35.2907],[149.078106,-35.289436],[149.079415,-35.288627],[149.079594,-35.288522],[149.080724,-35.287819],[149.081075,-35.287593],[149.081423,-35.287364],[149.082637,-35.286509],[149.08335,-35.285999],[149.083611,-35.285805],[149.083824,-35.28564],[149.084022,-35.285479],[149.084233,-35.285291],[149.084407,-35.285124],[149.084574,-35.284952],[149.084759,-35.284746],[149.084992,-35.284476],[149.085244,-35.284099],[149.085431,-35.284054],[149.085454,-35.284017],[149.085645,-35.283678],[149.08578,-35.283409],[149.085937,-35.283058],[149.086059,-35.282742],[149.086179,-35.282381],[149.086278,-35.282016],[149.086371,-35.281566],[149.086403,-35.28136],[149.086465,-35.28063],[149.086319,-35.280445],[149.086172,-35.280255],[149.086067,-35.280123],[149.085964,-35.280014],[149.085834,-35.279897],[149.085692,-35.27979],[149.08546,-35.279649],[149.085378,-35.279608],[149.085053,-35.27948],[149.0848,-35.279414],[149.084577,-35.279377],[149.084509,-35.27937],[149.083933,-35.279287],[149.083786,-35.279265],[149.083511,-35.279228],[149.083284,-35.279188],[149.083183,-35.279167],[149.083015,-35.279128],[149.082646,-35.279024],[149.082481,-35.278969],[149.082318,-35.278909],[149.082127,-35.278831],[149.081817,-35.278686],[149.081672,-35.278609],[149.080874,-35.278241],[149.078887,-35.277311],[149.078216,-35.277047],[149.077632,-35.276866],[149.076988,-35.276716],[149.076551,-35.276641],[149.075692,-35.276556],[149.072839,-35.276329],[149.071393,-35.276189],[149.071204,-35.276174],[149.070588,-35.276095],[149.070083,-35.276018],[149.069509,-35.275917],[149.069081,-35.275833],[149.068487,-35.275708],[149.06825,-35.275652],[149.067755,-35.275514],[149.067428,-35.275405],[149.067186,-35.275316],[149.066756,-35.275138],[149.066586,-35.275062],[149.066284,-35.274937],[149.065932,-35.274805],[149.065619,-35.2747],[149.065256,-35.274591],[149.064794,-35.274472],[149.06421,-35.274332],[149.063663,-35.274184],[149.063185,-35.274041],[149.062606,-35.273849],[149.062151,-35.273681],[149.061646,-35.273478],[149.061206,-35.273285],[149.05732,-35.271566],[149.055151,-35.270674],[149.053062,-35.269817],[149.052622,-35.269644],[149.052207,-35.2695],[149.051555,-35.269315],[149.051131,-35.269218],[149.050496,-35.26911],[149.050144,-35.269068],[149.04975,-35.269034],[149.049226,-35.268997],[149.048862,-35.268992],[149.048538,-35.269002],[149.048303,-35.269022],[149.048289,-35.269017],[149.047654,-35.269053],[149.047054,-35.269107],[149.046398,-35.269189],[149.045865,-35.269275],[149.045454,-35.269353],[149.043645,-35.269675],[149.043049,-35.269789],[149.042257,-35.269887],[149.041547,-35.269925],[149.040692,-35.269908],[149.039703,-35.269803],[149.038884,-35.269666],[149.038075,-35.269461],[149.037416,-35.269225],[149.036719,-35.268897],[149.036371,-35.268699],[149.035917,-35.268397],[149.035415,-35.267985],[149.035118,-35.267689],[149.034706,-35.267202],[149.034473,-35.26687],[149.03415,-35.266302],[149.03396,-35.265887],[149.02698,-35.273368],[149.023903,-35.276835],[149.024123,-35.277957],[149.021278,-35.279214],[149.021843,-35.280221],[149.021235,-35.280324],[149.021044,-35.280356],[149.020141,-35.280401],[149.019965,-35.280464],[149.019825,-35.28042],[149.019616,-35.280406],[149.018883,-35.280091],[149.018413,-35.279818],[149.018327,-35.279726],[149.018156,-35.279359],[149.017938,-35.278797],[149.017769,-35.278257],[149.017717,-35.2782],[149.017752,-35.278043],[149.018103,-35.277056],[149.018103,-35.276955],[149.018243,-35.276569],[149.018332,-35.276101],[149.018506,-35.275167],[149.018645,-35.274176],[149.018488,-35.273027],[149.017827,-35.272331],[149.017357,-35.27207],[149.016765,-35.271791],[149.01553,-35.271704],[149.013929,-35.271896],[149.011754,-35.271774],[149.01123,-35.271828],[149.009795,-35.272031],[149.008615,-35.272104],[149.008026,-35.272109],[149.007886,-35.272137],[149.007625,-35.272079],[149.007402,-35.27197],[149.006641,-35.271446],[149.00516,-35.270187],[149.003983,-35.268913],[149.003931,-35.26887],[149.003827,-35.268669],[149.003653,-35.268111],[149.003654,-35.267882],[149.003636,-35.26771],[149.003584,-35.267553],[149.003585,-35.267281],[149.00355,-35.267066],[149.003551,-35.266851],[149.003577,-35.266804],[149.003721,-35.266648],[149.003657,-35.266412],[149.00356,-35.266035],[149.003394,-35.265547],[149.003406,-35.265409],[149.003371,-35.265221],[149.003275,-35.26506],[149.003209,-35.264836],[149.003237,-35.264748],[149.003186,-35.264548],[149.003073,-35.264312],[149.002899,-35.264064],[149.002803,-35.263865],[149.002847,-35.263777],[149.002843,-35.263614],[149.002744,-35.263327],[149.002678,-35.263115],[149.002628,-35.262967],[149.002501,-35.262757],[149.002465,-35.262557],[149.002458,-35.262442],[149.00246,-35.262331],[149.002484,-35.26208],[149.002417,-35.261831],[149.00232,-35.261632],[149.002178,-35.261446],[149.00205,-35.26121],[149.001954,-35.261011],[149.001844,-35.2609],[149.001687,-35.260703],[149.001652,-35.260553],[149.001573,-35.260441],[149.001384,-35.260206],[149.001207,-35.260076],[149.001056,-35.259915],[149.000949,-35.259826],[149.000842,-35.259701],[149.000816,-35.259667],[149.000544,-35.259501],[149.000289,-35.25941],[149.00023,-35.259373],[148.999881,-35.259216],[148.998972,-35.258603],[148.998728,-35.258489],[148.998536,-35.258447],[148.998169,-35.258419],[148.997995,-35.258377],[148.997681,-35.258248],[148.997297,-35.258178],[148.997018,-35.258078],[148.996516,-35.257991],[148.996321,-35.258122],[148.996251,-35.258266],[148.996045,-35.259155],[148.996012,-35.25957],[148.995943,-35.259872],[148.995946,-35.260507],[148.995963,-35.260813],[148.995958,-35.261048],[148.995919,-35.261247],[148.995933,-35.261382],[148.99594,-35.261634],[148.995904,-35.26196],[148.995841,-35.262114],[148.995778,-35.262241],[148.995672,-35.262378],[148.9955,-35.262535],[148.995227,-35.262629],[148.995041,-35.262687],[148.994778,-35.262691],[148.994524,-35.262659],[148.99428,-35.262573],[148.993881,-35.262471],[148.99366,-35.262403],[148.993329,-35.262354],[148.99281,-35.262317],[148.992469,-35.262287],[148.992323,-35.262181],[148.992252,-35.261975],[148.992059,-35.261726],[148.991657,-35.261489],[148.991137,-35.261326],[148.990739,-35.261233],[148.990407,-35.261184],[148.989794,-35.261204],[148.98955,-35.261233],[148.989212,-35.261321],[148.988919,-35.26148],[148.988692,-35.261664],[148.988553,-35.2618],[148.9884,-35.261982],[148.988359,-35.262083],[148.988251,-35.262202],[148.988006,-35.262317],[148.987715,-35.262346],[148.98757,-35.262276],[148.987211,-35.262065],[148.986687,-35.261811],[148.986407,-35.261635],[148.985783,-35.261383],[148.985437,-35.261199],[148.985153,-35.261088],[148.984613,-35.260866],[148.98418,-35.260844],[148.983901,-35.260788],[148.983709,-35.260717],[148.983028,-35.260561],[148.982732,-35.260447],[148.982539,-35.260304],[148.982329,-35.260075],[148.982189,-35.259818],[148.982066,-35.259388],[148.981978,-35.259274],[148.981769,-35.259102],[148.981629,-35.259031],[148.98128,-35.259017],[148.980897,-35.259061],[148.980531,-35.259048],[148.980008,-35.259149],[148.979653,-35.25937],[148.979441,-35.25937],[148.978936,-35.259209],[148.978213,-35.258773],[148.97788,-35.258348],[148.977743,-35.257969],[148.977857,-35.25751],[148.978041,-35.257154],[148.978248,-35.256741],[148.978282,-35.256385],[148.978202,-35.256087],[148.977949,-35.255754],[148.977731,-35.255593],[148.977272,-35.255386],[148.976962,-35.255341],[148.976434,-35.255318],[148.976124,-35.255364],[148.975826,-35.25541],[148.975574,-35.25546],[148.975298,-35.255617],[148.975091,-35.255862],[148.974988,-35.255981],[148.974749,-35.256057],[148.974462,-35.256073],[148.974082,-35.256068],[148.973588,-35.256084],[148.973181,-35.255997],[148.972879,-35.255753],[148.972726,-35.255449],[148.972644,-35.25495],[148.972693,-35.254673],[148.972758,-35.254505],[148.972872,-35.254407],[148.972878,-35.25406],[148.972791,-35.253794],[148.972639,-35.253593],[148.972411,-35.253365],[148.972229,-35.253073],[148.971962,-35.252684],[148.971341,-35.251979],[148.971111,-35.251444],[148.971013,-35.250982],[148.970855,-35.250617],[148.970491,-35.250143],[148.970043,-35.24962],[148.969451,-35.249201],[148.969076,-35.248886],[148.968735,-35.248642],[148.968233,-35.248444],[148.967974,-35.248341],[148.967786,-35.248301],[148.967515,-35.248289],[148.967216,-35.248204],[148.966891,-35.248049],[148.966436,-35.24786],[148.965972,-35.24771],[148.96536,-35.247555],[148.964781,-35.247392],[148.963887,-35.24718],[148.962999,-35.24683],[148.962135,-35.246415],[148.961655,-35.246081],[148.961345,-35.2456],[148.96137,-35.24525],[148.961531,-35.244924],[148.961638,-35.24472],[148.961792,-35.244557],[148.962176,-35.244223],[148.962525,-35.243979],[148.963269,-35.24375],[148.964093,-35.243564],[148.964979,-35.243439],[148.965757,-35.243299],[148.96613,-35.243019],[148.966705,-35.242848],[148.967032,-35.2426],[148.967545,-35.242195],[148.967724,-35.241932],[148.96807,-35.241726],[148.968184,-35.241762],[148.968354,-35.241762],[148.968884,-35.241743],[148.969577,-35.241667],[148.971217,-35.24144],[148.972396,-35.2412],[148.973045,-35.240967],[148.973625,-35.240797],[148.973896,-35.240784],[148.974123,-35.240747],[148.974483,-35.240724],[148.975484,-35.240089],[148.975985,-35.239492],[148.976254,-35.238837],[148.975985,-35.238106],[148.975368,-35.237663],[148.974926,-35.236854],[148.973616,-35.235218],[148.972962,-35.234813],[148.972019,-35.234217],[148.971207,-35.233829],[148.971006,-35.233615],[148.970628,-35.233162],[148.969973,-35.232507],[148.969558,-35.232117],[148.96913,-35.231651],[148.968677,-35.231135],[148.968337,-35.230329],[148.96806,-35.229725],[148.967632,-35.229058],[148.967456,-35.228466],[148.967306,-35.227888],[148.96732,-35.227751],[148.967251,-35.227354],[148.967087,-35.226943],[148.966909,-35.226614],[148.966553,-35.226258],[148.96621,-35.225888],[148.965772,-35.225258],[148.965361,-35.224751],[148.964964,-35.224148],[148.964553,-35.223627],[148.964128,-35.223161],[148.963566,-35.222476],[148.962972,-35.221707],[148.962412,-35.220081],[148.962128,-35.219361],[148.96187,-35.218659],[148.961731,-35.218467],[148.961438,-35.218639],[148.950291,-35.225195],[148.949905,-35.225144],[148.949837,-35.225462],[148.948071,-35.226501],[148.944892,-35.228369],[148.938716,-35.232],[148.926306,-35.239294],[148.917979,-35.244187],[148.896603,-35.256742],[148.883991,-35.264146],[148.882466,-35.265038],[148.874222,-35.269877],[148.849257,-35.28452],[148.810134,-35.307449],[148.809671,-35.308109],[148.807961,-35.309786],[148.807799,-35.310402],[148.807337,-35.310938],[148.806988,-35.311624],[148.805318,-35.314696],[148.803729,-35.316768],[148.80347,-35.318061],[148.802837,-35.319819],[148.801069,-35.321771],[148.802084,-35.324345],[148.802286,-35.325624],[148.802136,-35.326561],[148.801712,-35.329175],[148.800396,-35.330481],[148.798505,-35.33209],[148.797653,-35.333828],[148.795269,-35.336488],[148.794372,-35.338158],[148.793547,-35.339122],[148.795494,-35.341932],[148.796032,-35.34365],[148.796664,-35.345864],[148.796904,-35.346391],[148.798729,-35.34815],[148.799294,-35.35037],[148.799397,-35.353388],[148.799244,-35.354293],[148.798684,-35.355663],[148.79769,-35.356819],[148.796698,-35.358414],[148.799553,-35.358972],[148.800295,-35.359759],[148.800788,-35.360281],[148.800736,-35.361685],[148.801488,-35.36261],[148.802765,-35.363023],[148.803285,-35.363192],[148.80491,-35.364691],[148.805696,-35.365156],[148.805727,-35.366105],[148.805012,-35.367475],[148.804431,-35.368355],[148.804232,-35.369381],[148.804286,-35.370329],[148.803926,-35.372309],[148.803907,-35.374043],[148.804164,-35.375224],[148.804064,-35.376204],[148.804582,-35.377686],[148.805298,-35.378914],[148.806923,-35.379296],[148.807862,-35.379926],[148.808632,-35.380665],[148.808715,-35.381595],[148.80866,-35.382455],[148.807871,-35.382964],[148.80606,-35.384056],[148.804788,-35.385111],[148.804765,-35.387006],[148.80361,-35.38882],[148.802101,-35.389348],[148.801147,-35.389721],[148.79941,-35.390241],[148.796723,-35.391717],[148.795688,-35.393003],[148.795854,-35.394418],[148.795816,-35.396459],[148.79607,-35.398507],[148.79569,-35.400142],[148.796127,-35.401471],[148.795825,-35.402463],[148.796357,-35.403852],[148.796088,-35.404951],[148.796193,-35.405978],[148.795976,-35.406637],[148.79531,-35.407099],[148.792525,-35.407391],[148.790211,-35.407916],[148.788318,-35.408221],[148.787508,-35.408559],[148.785795,-35.408911],[148.785778,-35.410682],[148.786287,-35.412791],[148.78721,-35.414127],[148.787993,-35.414454],[148.788009,-35.414478],[148.788441,-35.414642],[148.788767,-35.414778],[148.789562,-35.415277],[148.790158,-35.41565],[148.789718,-35.41703],[148.788926,-35.418006],[148.789324,-35.419626],[148.788907,-35.421063],[148.788882,-35.422091],[148.787611,-35.423198],[148.788335,-35.424839],[148.78857,-35.425969],[148.788917,-35.426495],[148.788334,-35.426919],[148.787348,-35.427566],[148.78621,-35.429011],[148.785328,-35.430368],[148.785081,-35.431571],[148.784205,-35.432374],[148.783555,-35.432727],[148.781028,-35.433339],[148.78028,-35.435214],[148.778691,-35.437555],[148.77771,-35.440042],[148.774841,-35.441835],[148.774354,-35.444117],[148.774598,-35.446084],[148.774293,-35.446968],[148.773885,-35.447707],[148.773014,-35.449498],[148.773755,-35.451643],[148.774617,-35.452839],[148.775112,-35.454067],[148.775985,-35.454888],[148.774908,-35.456058],[148.774678,-35.457694],[148.773451,-35.45922],[148.772983,-35.460276],[148.772707,-35.460892],[148.772877,-35.462391],[148.771684,-35.463477],[148.770213,-35.463841],[148.769017,-35.464909],[148.767152,-35.465494],[148.766742,-35.467181],[148.766846,-35.468948],[148.766868,-35.470438],[148.766846,-35.471196],[148.768163,-35.47247],[148.769281,-35.474319],[148.769298,-35.474268],[148.769335,-35.474327],[148.769467,-35.474464],[148.769459,-35.474483],[148.770561,-35.475607],[148.770451,-35.477043],[148.77025,-35.478545],[148.770842,-35.480061],[148.771917,-35.481454],[148.772994,-35.482635],[148.77364,-35.483802],[148.774473,-35.485023],[148.77448,-35.485634],[148.774381,-35.486145],[148.77385,-35.486438],[148.773185,-35.486667],[148.771863,-35.487365],[148.770889,-35.487862],[148.769846,-35.487927],[148.768766,-35.488782],[148.767007,-35.489714],[148.765185,-35.490897],[148.764523,-35.491875],[148.763706,-35.493569],[148.76348,-35.494043],[148.763355,-35.494307],[148.76279,-35.495499],[148.762945,-35.496584],[148.764031,-35.497912],[148.764419,-35.499635],[148.764257,-35.501404],[148.76436,-35.50315],[148.765188,-35.50527],[148.766912,-35.506506],[148.767835,-35.507068],[148.76832,-35.508278],[148.76605,-35.510901],[148.766992,-35.512018],[148.767246,-35.513424],[148.767052,-35.514453],[148.7669,-35.515337],[148.767166,-35.51684],[148.76725,-35.5187],[148.767497,-35.520184],[148.768008,-35.521585],[148.767665,-35.52346],[148.767972,-35.52498],[148.769615,-35.526664],[148.770958,-35.528215],[148.771493,-35.528912],[148.771896,-35.529331],[148.772248,-35.529852],[148.772195,-35.53132],[148.771691,-35.533136],[148.771217,-35.534449],[148.77028,-35.536054],[148.770252,-35.536149],[148.769995,-35.536993],[148.769797,-35.538141],[148.769927,-35.540347],[148.769839,-35.542],[148.769658,-35.542623],[148.769407,-35.543693],[148.769672,-35.544387],[148.769997,-35.545581],[148.770882,-35.546691],[148.771403,-35.547346],[148.773238,-35.548875],[148.774094,-35.550599],[148.774681,-35.551948],[148.775227,-35.553154],[148.775422,-35.554482],[148.77612,-35.555074],[148.776871,-35.556415],[148.777385,-35.557118],[148.777949,-35.55852],[148.778524,-35.563531],[148.77294,-35.567798],[148.773126,-35.568218],[148.773623,-35.56926],[148.775193,-35.570863],[148.777075,-35.573503],[148.779634,-35.576489],[148.780343,-35.577254],[148.780624,-35.577838],[148.781524,-35.578587],[148.782148,-35.579237],[148.782199,-35.580296],[148.782556,-35.581253],[148.783926,-35.581624],[148.784975,-35.581987],[148.786124,-35.582473],[148.786597,-35.583632],[148.787067,-35.584554],[148.787229,-35.585097],[148.787797,-35.586106],[148.78821,-35.586405],[148.788477,-35.587347],[148.788632,-35.587817],[148.788773,-35.58834],[148.788309,-35.58913],[148.787493,-35.590617],[148.785654,-35.592085],[148.783955,-35.593428],[148.783191,-35.595406],[148.780255,-35.59606],[148.778336,-35.596628],[148.776622,-35.597341],[148.775591,-35.59757],[148.774518,-35.597999],[148.773614,-35.598565],[148.773305,-35.599487],[148.772531,-35.600342],[148.772163,-35.601398],[148.770963,-35.602062],[148.769586,-35.602631],[148.769045,-35.602752],[148.768434,-35.603306],[148.768896,-35.604262],[148.76977,-35.605361],[148.770619,-35.606335],[148.771014,-35.607152],[148.771625,-35.608151],[148.772666,-35.609442],[148.773719,-35.610061],[148.774865,-35.610713],[148.776264,-35.611665],[148.778174,-35.613428],[148.779064,-35.614799],[148.779588,-35.616197],[148.780388,-35.617621],[148.780337,-35.618302],[148.780622,-35.620337],[148.779838,-35.621727],[148.77949,-35.622615],[148.779622,-35.623739],[148.780433,-35.624993],[148.780698,-35.625989],[148.78236,-35.626197],[148.783095,-35.627386],[148.783442,-35.62851],[148.782961,-35.629869],[148.782367,-35.630256],[148.781707,-35.630827],[148.780419,-35.632945],[148.780273,-35.633016],[148.78038,-35.633003],[148.776229,-35.636455],[148.775668,-35.636571],[148.770858,-35.640034],[148.771228,-35.640661],[148.771958,-35.641235],[148.771708,-35.642377],[148.771417,-35.643355],[148.771746,-35.64486],[148.771361,-35.645858],[148.770432,-35.646262],[148.769124,-35.645873],[148.76811,-35.646897],[148.767498,-35.647413],[148.767963,-35.647973],[148.768443,-35.648625],[148.769563,-35.649535],[148.770188,-35.649874],[148.771761,-35.649739],[148.772828,-35.650047],[148.772957,-35.650772],[148.77307,-35.651972],[148.772204,-35.653691],[148.772511,-35.65426],[148.77308,-35.655095],[148.773502,-35.655502],[148.774667,-35.655627],[148.775323,-35.655817],[148.776379,-35.655798],[148.777614,-35.655832],[148.778279,-35.655946],[148.779922,-35.655977],[148.78096,-35.65598],[148.781722,-35.655818],[148.782666,-35.656115],[148.783343,-35.656292],[148.784224,-35.656847],[148.785231,-35.657119],[148.786089,-35.657393],[148.786448,-35.657883],[148.786347,-35.658522],[148.786999,-35.66044],[148.787592,-35.66059],[148.789786,-35.659756],[148.790554,-35.65932],[148.791676,-35.660097],[148.792627,-35.661058],[148.793818,-35.662095],[148.794315,-35.662807],[148.794834,-35.663499],[148.796422,-35.66424],[148.796336,-35.664833],[148.796739,-35.665272],[148.797378,-35.665931],[148.798448,-35.666596],[148.798521,-35.666979],[148.797954,-35.667959],[148.797532,-35.668775],[148.797451,-35.669983],[148.797338,-35.670944],[148.79717,-35.671683],[148.797293,-35.672452],[148.797697,-35.673249],[148.798011,-35.674124],[148.798084,-35.675398],[148.798388,-35.676148],[148.798243,-35.677106],[148.798153,-35.677622],[148.797976,-35.678387],[148.797529,-35.679188],[148.797669,-35.679663],[148.797502,-35.680426],[148.797142,-35.681449],[148.796619,-35.682554],[148.79657,-35.682657],[148.795683,-35.683598],[148.795476,-35.684136],[148.794572,-35.685109],[148.794112,-35.68571],[148.793695,-35.686142],[148.793248,-35.686789],[148.793026,-35.687439],[148.792914,-35.688033],[148.792614,-35.688818],[148.79237,-35.689326],[148.791376,-35.689646],[148.791326,-35.690128],[148.791167,-35.690836],[148.791345,-35.691279],[148.791526,-35.691741],[148.791169,-35.69221],[148.791152,-35.692744],[148.791397,-35.693321],[148.790436,-35.694717],[148.790141,-35.69527],[148.789628,-35.695866],[148.78936,-35.696494],[148.788729,-35.697182],[148.788443,-35.697807],[148.788895,-35.698771],[148.789276,-35.699607],[148.789643,-35.700267],[148.790121,-35.701028],[148.790316,-35.701672],[148.790623,-35.702357],[148.791111,-35.702873],[148.791098,-35.703425],[148.791479,-35.703778],[148.7921,-35.70414],[148.792799,-35.704589],[148.793316,-35.705134],[148.793206,-35.705739],[148.793772,-35.706193],[148.79427,-35.706449],[148.795373,-35.707415],[148.796159,-35.707945],[148.796531,-35.708811],[148.796282,-35.709352],[148.79696,-35.709657],[148.798053,-35.710281],[148.798982,-35.71047],[148.799464,-35.710937],[148.800138,-35.711437],[148.800911,-35.711728],[148.801795,-35.712099],[148.802408,-35.71263],[148.803141,-35.713322],[148.804147,-35.714019],[148.805274,-35.714012],[148.807315,-35.715554],[148.808558,-35.717215],[148.810385,-35.718044],[148.811494,-35.718227],[148.811875,-35.719041],[148.812719,-35.719786],[148.813276,-35.719905],[148.814138,-35.719859],[148.815823,-35.719493],[148.816938,-35.719088],[148.818749,-35.718718],[148.820684,-35.719515],[148.822495,-35.720971],[148.822605,-35.721579],[148.823104,-35.722599],[148.823144,-35.723238],[148.823575,-35.724213],[148.824906,-35.724984],[148.825788,-35.725213],[148.827871,-35.726148],[148.829033,-35.727701],[148.829238,-35.728466],[148.829383,-35.729368],[148.829478,-35.729952],[148.830182,-35.732159],[148.831341,-35.733907],[148.832873,-35.735021],[148.833047,-35.736324],[148.834032,-35.738138],[148.834726,-35.740511],[148.835193,-35.741061],[148.835715,-35.741884],[148.837171,-35.743153],[148.83765,-35.743509],[148.83863,-35.744237],[148.839623,-35.74548],[148.840738,-35.746444],[148.84267,-35.747506],[148.844513,-35.74895],[148.846045,-35.749445],[148.847093,-35.750469],[148.84878,-35.751016],[148.849538,-35.750866],[148.850972,-35.751247],[148.853457,-35.75098],[148.854026,-35.751082],[148.856132,-35.753518],[148.854938,-35.759197],[148.855652,-35.760874],[148.857501,-35.761397],[148.859648,-35.760626],[148.861175,-35.759203],[148.862456,-35.75755],[148.861176,-35.75434],[148.860737,-35.752874],[148.861439,-35.7501],[148.862743,-35.749388],[148.863899,-35.748104],[148.864071,-35.746922],[148.864253,-35.746203],[148.864884,-35.743749],[148.864863,-35.742375],[148.866738,-35.740665],[148.867477,-35.738702],[148.866792,-35.737165],[148.86407,-35.733869],[148.865765,-35.731624],[148.867246,-35.731907],[148.868591,-35.731092],[148.868659,-35.729963],[148.869366,-35.72922],[148.870416,-35.727717],[148.870959,-35.726793],[148.871608,-35.725564],[148.872115,-35.723931],[148.872305,-35.722937],[148.872491,-35.721422],[148.874087,-35.720192],[148.877693,-35.714936],[148.878164,-35.715348],[148.880343,-35.715793],[148.883614,-35.717122],[148.884942,-35.717854],[148.886633,-35.719136],[148.887192,-35.7204],[148.888026,-35.721649],[148.889403,-35.722723],[148.890487,-35.724541],[148.892315,-35.728359],[148.892479,-35.730487],[148.888368,-35.733671],[148.888036,-35.7356],[148.888087,-35.737026],[148.890314,-35.739423],[148.890855,-35.740469],[148.891726,-35.744151],[148.893008,-35.746052],[148.894087,-35.751288],[148.895105,-35.751446],[148.897428,-35.750955],[148.898777,-35.751215],[148.901043,-35.754871],[148.902395,-35.755956],[148.902902,-35.756505],[148.90327,-35.757375],[148.903348,-35.757798],[148.902833,-35.759272],[148.902352,-35.760206],[148.901774,-35.761702],[148.902177,-35.762698],[148.902312,-35.763202],[148.901885,-35.763644],[148.900486,-35.765485],[148.900124,-35.766471],[148.899418,-35.767601],[148.897224,-35.768825],[148.896138,-35.769899],[148.895221,-35.770611],[148.894887,-35.771654],[148.894793,-35.773229],[148.895284,-35.775342],[148.895044,-35.777043],[148.894688,-35.777668],[148.895501,-35.779265],[148.894809,-35.780469],[148.895432,-35.781791],[148.89514,-35.783051],[148.894956,-35.784627],[148.895366,-35.785519],[148.895433,-35.786751],[148.896204,-35.788622],[148.89634,-35.789441],[148.896523,-35.791588],[148.896935,-35.792985],[148.896971,-35.79346],[148.897776,-35.79465],[148.897098,-35.795768],[148.896349,-35.796721],[148.89464,-35.798465],[148.893118,-35.799293],[148.893198,-35.800341],[148.892963,-35.801516],[148.892063,-35.802508],[148.892032,-35.802543],[148.890784,-35.803548],[148.890302,-35.804351],[148.88946,-35.807193],[148.889159,-35.807635],[148.887504,-35.808755],[148.886881,-35.809564],[148.886623,-35.810063],[148.887292,-35.810737],[148.887645,-35.811212],[148.888941,-35.812046],[148.89104,-35.813846],[148.891852,-35.814932],[148.892052,-35.816077],[148.892426,-35.816626],[148.893672,-35.81726],[148.894861,-35.817652],[148.895747,-35.817599],[148.896577,-35.817924],[148.897275,-35.820855],[148.897683,-35.823271],[148.897596,-35.82472],[148.899603,-35.825879],[148.901776,-35.82639],[148.903561,-35.826134],[148.906203,-35.828013],[148.907065,-35.829563],[148.906596,-35.832084],[148.905088,-35.83325],[148.903802,-35.833356],[148.903249,-35.834182],[148.90314,-35.835173],[148.903249,-35.83621],[148.903625,-35.837223],[148.903846,-35.837619],[148.903886,-35.837685],[148.904348,-35.838516],[148.904523,-35.838989],[148.905268,-35.839639],[148.90511,-35.839956],[148.90477,-35.840489],[148.904165,-35.841333],[148.903936,-35.842505],[148.904778,-35.843365],[148.904839,-35.844147],[148.906017,-35.844955],[148.906444,-35.845875],[148.906409,-35.846254],[148.907291,-35.846968],[148.907842,-35.847863],[148.907892,-35.848356],[148.907603,-35.848939],[148.907901,-35.849885],[148.907788,-35.850765],[148.908634,-35.851704],[148.908974,-35.852499],[148.909367,-35.853065],[148.91054,-35.853235],[148.911275,-35.854194],[148.911613,-35.854573],[148.911856,-35.854781],[148.912654,-35.85546],[148.912729,-35.855468],[148.916306,-35.855809],[148.917616,-35.856299],[148.918109,-35.85659],[148.920059,-35.85729],[148.9205,-35.858807],[148.919456,-35.859817],[148.919783,-35.86079],[148.920487,-35.861121],[148.920684,-35.861258],[148.922073,-35.862366],[148.923524,-35.862958],[148.924309,-35.863416],[148.924983,-35.863808],[148.926386,-35.865065],[148.926503,-35.865832],[148.927702,-35.867055],[148.928915,-35.867791],[148.930301,-35.868172],[148.93136,-35.869372],[148.932237,-35.870567],[148.932168,-35.872967],[148.932719,-35.87365],[148.933015,-35.873706],[148.934157,-35.873988],[148.93553,-35.874171],[148.936025,-35.874507],[148.937496,-35.874649],[148.940614,-35.875839],[148.941131,-35.877389],[148.942165,-35.878491],[148.943032,-35.879747],[148.944412,-35.881071],[148.944562,-35.881391],[148.949755,-35.885631],[148.950928,-35.886382],[148.95277,-35.888208],[148.955551,-35.88957],[148.956265,-35.890014],[148.956587,-35.890422],[148.956598,-35.890437],[148.958406,-35.891788],[148.958647,-35.893024],[148.959591,-35.894349],[148.959133,-35.895456],[148.961624,-35.8968],[148.962166,-35.896761],[148.964238,-35.897046],[148.966288,-35.897268],[148.966348,-35.896883],[148.967101,-35.895526],[148.967215,-35.895035],[148.967855,-35.893972],[148.96999,-35.893291],[148.970578,-35.892945],[148.97314,-35.892363],[148.975656,-35.892176],[148.977311,-35.892423],[148.979133,-35.892975],[148.979368,-35.893041],[148.979968,-35.893205],[148.981676,-35.893837],[148.98376,-35.893993],[148.984438,-35.894213],[148.986733,-35.895463],[148.98951,-35.895988],[148.990432,-35.895967],[148.992067,-35.89534],[148.993326,-35.895225],[148.993976,-35.895503],[148.995316,-35.895966],[148.996888,-35.896205],[148.997983,-35.896887],[148.997398,-35.900995],[148.999379,-35.902625],[149.001217,-35.902025],[149.003487,-35.901203],[149.00882,-35.901306],[149.01093,-35.900742],[149.011783,-35.899972],[149.012198,-35.899697],[149.013853,-35.90024],[149.015122,-35.901712],[149.016171,-35.901941],[149.017489,-35.903476],[149.019076,-35.904444],[149.020617,-35.905228],[149.022681,-35.906086],[149.023697,-35.907129],[149.023825,-35.908068],[149.024913,-35.910475],[149.02528,-35.910882],[149.025562,-35.911334],[149.026408,-35.912147],[149.027606,-35.912892],[149.028373,-35.912421],[149.02952,-35.91203],[149.030145,-35.911703],[149.031159,-35.911324],[149.032376,-35.91114],[149.0337,-35.911196],[149.034117,-35.911941],[149.035048,-35.912977],[149.036133,-35.913922],[149.038479,-35.914396],[149.039718,-35.914062],[149.041232,-35.914611],[149.042452,-35.915848],[149.043763,-35.916535],[149.04387,-35.917417],[149.044564,-35.919537],[149.04608,-35.920762],[149.047298,-35.920612],[149.048135,-35.920526],[149.048811,-35.92041],[149.049339,-35.920129],[149.049704,-35.919716],[149.050027,-35.918776],[149.050547,-35.918225],[149.051263,-35.917301],[149.051981,-35.916728],[149.052543,-35.916148],[149.052564,-35.915764],[149.053211,-35.91558],[149.05378,-35.915006],[149.054498,-35.91453],[149.055067,-35.913675],[149.055164,-35.913028],[149.055445,-35.912362],[149.055731,-35.911136],[149.055962,-35.910505],[149.05568,-35.910213],[149.055848,-35.909513],[149.056733,-35.908309],[149.057133,-35.907397],[149.054785,-35.905399],[149.051698,-35.903534],[149.051752,-35.902296],[149.053051,-35.900237],[149.054224,-35.898895],[149.055996,-35.897471],[149.056847,-35.897293],[149.058113,-35.896575],[149.058908,-35.896001],[149.058578,-35.894666],[149.060814,-35.893283],[149.06125,-35.891828],[149.061738,-35.891448],[149.060433,-35.889338],[149.060364,-35.889093],[149.06014,-35.888293],[149.061068,-35.886961],[149.061939,-35.885399],[149.062377,-35.884516],[149.062447,-35.884073],[149.061946,-35.88334],[149.06181,-35.882294],[149.061523,-35.881708],[149.061736,-35.880683],[149.061519,-35.880073],[149.061711,-35.879879],[149.062767,-35.877983],[149.064381,-35.875305],[149.064408,-35.874932],[149.065384,-35.873882],[149.06614,-35.872872],[149.067644,-35.870859],[149.069651,-35.869775],[149.070254,-35.869394],[149.072819,-35.866389],[149.074272,-35.865846],[149.07464,-35.864911],[149.074754,-35.863862],[149.076039,-35.86231],[149.076789,-35.860646],[149.079685,-35.859055],[149.080863,-35.857143],[149.080773,-35.856186],[149.082121,-35.853208],[149.083702,-35.852893],[149.084522,-35.852289],[149.084228,-35.850227],[149.085274,-35.849839],[149.086135,-35.849],[149.086574,-35.848248],[149.088894,-35.848199],[149.093266,-35.846476],[149.094851,-35.846825],[149.095682,-35.845716],[149.09606,-35.844317],[149.095836,-35.843327],[149.094588,-35.841549],[149.095376,-35.839146],[149.093395,-35.838305],[149.09298,-35.838266],[149.092949,-35.837831],[149.09263,-35.837362],[149.091978,-35.835416],[149.092214,-35.8349],[149.093658,-35.833978],[149.093661,-35.83215],[149.093907,-35.831546],[149.093994,-35.83133],[149.094519,-35.830841],[149.0945,-35.830073],[149.094725,-35.828766],[149.094321,-35.827152],[149.093371,-35.825729],[149.093517,-35.824221],[149.094987,-35.822039],[149.094504,-35.821215],[149.095419,-35.820135],[149.096028,-35.81976],[149.095823,-35.8183],[149.095925,-35.817654],[149.095931,-35.817612],[149.097238,-35.81743],[149.098789,-35.81688],[149.100453,-35.815367],[149.100583,-35.814811],[149.099624,-35.811909],[149.100282,-35.811414],[149.100457,-35.810044],[149.099611,-35.809658],[149.098237,-35.807904],[149.098705,-35.807524],[149.099611,-35.807246],[149.099509,-35.806707],[149.100089,-35.806041],[149.101088,-35.805063],[149.101481,-35.803698],[149.099805,-35.80328],[149.099775,-35.801716],[149.099147,-35.801277],[149.098263,-35.800427],[149.097099,-35.799674],[149.096732,-35.798272],[149.097047,-35.796833],[149.097661,-35.796017],[149.098711,-35.79524],[149.099476,-35.795111],[149.100201,-35.7941],[149.100463,-35.793188],[149.1006,-35.791457],[149.100232,-35.789757],[149.097806,-35.788293],[149.096232,-35.787227],[149.093498,-35.787226],[149.093417,-35.786515],[149.093033,-35.785829],[149.092936,-35.784792],[149.093324,-35.783869],[149.093144,-35.783159],[149.09468,-35.781452],[149.095097,-35.780625],[149.095763,-35.780216],[149.096233,-35.778914],[149.097371,-35.777442],[149.097266,-35.777327],[149.096319,-35.776281],[149.095883,-35.776012],[149.094851,-35.77582],[149.092932,-35.774454],[149.091631,-35.773946],[149.093073,-35.771461],[149.093271,-35.770777],[149.092713,-35.768705],[149.092233,-35.767997],[149.091144,-35.767049],[149.090709,-35.765617],[149.092845,-35.763566],[149.093305,-35.762659],[149.093635,-35.76186],[149.093209,-35.760927],[149.092925,-35.759119],[149.094648,-35.756591],[149.0946,-35.755607],[149.094902,-35.754912],[149.094935,-35.754306],[149.095602,-35.753322],[149.0964,-35.752824],[149.09622,-35.752078],[149.095064,-35.750401],[149.095639,-35.749851],[149.096983,-35.747372],[149.095615,-35.745993],[149.096228,-35.74365],[149.096898,-35.742687],[149.097789,-35.741721],[149.098066,-35.740521],[149.098418,-35.739675],[149.09906,-35.739252],[149.099035,-35.738827],[149.099703,-35.737957],[149.100686,-35.736304],[149.100768,-35.73553],[149.100589,-35.734885],[149.100586,-35.733464],[149.099039,-35.730607],[149.099098,-35.729288],[149.100116,-35.728355],[149.102811,-35.726702],[149.103674,-35.726039],[149.104099,-35.724982],[149.104133,-35.724118],[149.103887,-35.72329],[149.102408,-35.721764],[149.10241,-35.720895],[149.101662,-35.719867],[149.100677,-35.719018],[149.100612,-35.71851],[149.100065,-35.716936],[149.099371,-35.716135],[149.099349,-35.714659],[149.099779,-35.714427],[149.10111,-35.712868],[149.100983,-35.712561],[149.101266,-35.712178],[149.101597,-35.710447],[149.101605,-35.709404],[149.101917,-35.708802],[149.101939,-35.708017],[149.101966,-35.707776],[149.102253,-35.707238],[149.102743,-35.706557],[149.103425,-35.705977],[149.104128,-35.704935],[149.105279,-35.704026],[149.105488,-35.703868],[149.106288,-35.703403],[149.107476,-35.702307],[149.10788,-35.701197],[149.107825,-35.70053],[149.108633,-35.699532],[149.108947,-35.698498],[149.109418,-35.696586],[149.108495,-35.69555],[149.108215,-35.695011],[149.107882,-35.694027],[149.106674,-35.692904],[149.105934,-35.691148],[149.104178,-35.691079],[149.103755,-35.690725],[149.103799,-35.689771],[149.104377,-35.68906],[149.104839,-35.687343],[149.104767,-35.686385],[149.104382,-35.684869],[149.1029,-35.68482],[149.102059,-35.684558],[149.101446,-35.684138],[149.09942,-35.683883],[149.095893,-35.680382],[149.095298,-35.67928],[149.095495,-35.678047],[149.09496,-35.676823],[149.096075,-35.675862],[149.096569,-35.67453],[149.097119,-35.674172],[149.097271,-35.673605],[149.096606,-35.67282],[149.09667,-35.672132],[149.096217,-35.670137],[149.09594,-35.669197],[149.095956,-35.668591],[149.095726,-35.668051],[149.095686,-35.666988],[149.095975,-35.665417],[149.096618,-35.664613],[149.096669,-35.663167],[149.096093,-35.662407],[149.095852,-35.661931],[149.095892,-35.661441],[149.096218,-35.660363],[149.09691,-35.659681],[149.097848,-35.658759],[149.098535,-35.657213],[149.098355,-35.656799],[149.097615,-35.655946],[149.096037,-35.654339],[149.095388,-35.653022],[149.095428,-35.652553],[149.096806,-35.651749],[149.097108,-35.648718],[149.09748,-35.647295],[149.096133,-35.645599],[149.09632,-35.644132],[149.096007,-35.642519],[149.095833,-35.641631],[149.095629,-35.640335],[149.093577,-35.640061],[149.093535,-35.640048],[149.092422,-35.63972],[149.090655,-35.640022],[149.089042,-35.641058],[149.088266,-35.640728],[149.087562,-35.639652],[149.087661,-35.637909],[149.087446,-35.636688],[149.087237,-35.636367],[149.086505,-35.635878],[149.088585,-35.634092],[149.088146,-35.633563],[149.087773,-35.632421],[149.087261,-35.630281],[149.087773,-35.629054],[149.087742,-35.62812],[149.087873,-35.627905],[149.085926,-35.625371],[149.085129,-35.622884],[149.08419,-35.621677],[149.085208,-35.619576],[149.084901,-35.618524],[149.084757,-35.617654],[149.084948,-35.616768],[149.084525,-35.614644],[149.082571,-35.613639],[149.081931,-35.611788],[149.081248,-35.611255],[149.081217,-35.610486],[149.080424,-35.608997],[149.079492,-35.60798],[149.079234,-35.607749],[149.079498,-35.606641],[149.079517,-35.605151],[149.080057,-35.604985],[149.07952,-35.602471],[149.07818,-35.598819],[149.078873,-35.598582],[149.079366,-35.597443],[149.078589,-35.596725],[149.078233,-35.59534],[149.079121,-35.593534],[149.079121,-35.593044],[149.078726,-35.592556],[149.078247,-35.588693],[149.077997,-35.588011],[149.078148,-35.586417],[149.082923,-35.584593],[149.084615,-35.580814],[149.090598,-35.581619],[149.108345,-35.58398],[149.108262,-35.584251],[149.108241,-35.584326],[149.10822,-35.584395],[149.108207,-35.584463],[149.108137,-35.584807],[149.108116,-35.584882],[149.108109,-35.584951],[149.108088,-35.585031],[149.108046,-35.585248],[149.108025,-35.585323],[149.108011,-35.585392],[149.10797,-35.585529],[149.107963,-35.585604],[149.107949,-35.585673],[149.107942,-35.585747],[149.107942,-35.585896],[149.107956,-35.586051],[149.107998,-35.586188],[149.10802,-35.586268],[149.108055,-35.586337],[149.108083,-35.586411],[149.108118,-35.58648],[149.108202,-35.586618],[149.108251,-35.586686],[149.108308,-35.586761],[149.108357,-35.586829],[149.108413,-35.586898],[149.108511,-35.587035],[149.108645,-35.587178],[149.108708,-35.587247],[149.108778,-35.587316],[149.108856,-35.587384],[149.108947,-35.587447],[149.109059,-35.587527],[149.109143,-35.587579],[149.109228,-35.587619],[149.109312,-35.587653],[149.10939,-35.58768],[149.109578,-35.587739],[149.109659,-35.587757],[149.109747,-35.587785],[149.109838,-35.587807],[149.109922,-35.58783],[149.110006,-35.587841],[149.11009,-35.587858],[149.110175,-35.58787],[149.110266,-35.587881],[149.11035,-35.587887],[149.1107,-35.587886],[149.110883,-35.587863],[149.110967,-35.587846],[149.111065,-35.587823],[149.111156,-35.5878],[149.11124,-35.587777],[149.111408,-35.587719],[149.1115,-35.587679],[149.111584,-35.587645],[149.111675,-35.587599],[149.111766,-35.587559],[149.11185,-35.587501],[149.112018,-35.587352],[149.112087,-35.587283],[149.112165,-35.587215],[149.112235,-35.587134],[149.112305,-35.58706],[149.112361,-35.586985],[149.112424,-35.586916],[149.112473,-35.586842],[149.112529,-35.586767],[149.112564,-35.586698],[149.112592,-35.58663],[149.112641,-35.586492],[149.112669,-35.586418],[149.112697,-35.586349],[149.112718,-35.58628],[149.112774,-35.586143],[149.112809,-35.586074],[149.112843,-35.585999],[149.112893,-35.58593],[149.112976,-35.585862],[149.113061,-35.585821],[149.113145,-35.585804],[149.113229,-35.585804],[149.11332,-35.585809],[149.113418,-35.585827],[149.11358,-35.585869],[149.113671,-35.585895],[149.113839,-35.585941],[149.114008,-35.585975],[149.114092,-35.585986],[149.114183,-35.586009],[149.114351,-35.586055],[149.114528,-35.586117],[149.114604,-35.586146],[149.114772,-35.586203],[149.114863,-35.586238],[149.114975,-35.586279],[149.115162,-35.586047],[149.116245,-35.586345],[149.123566,-35.587391],[149.123602,-35.587213],[149.125617,-35.587489],[149.125187,-35.589558],[149.126465,-35.589731],[149.126035,-35.591852],[149.130056,-35.592403],[149.130345,-35.590979],[149.135165,-35.591631],[149.135139,-35.591751],[149.142635,-35.592783],[149.141344,-35.590671],[149.140486,-35.588292],[149.140056,-35.586424],[149.139821,-35.585909],[149.138888,-35.582551],[149.13883,-35.582004],[149.138082,-35.579312],[149.13648,-35.573539],[149.135848,-35.571256],[149.134752,-35.57118],[149.134703,-35.571004],[149.13575,-35.570902],[149.135602,-35.570372],[149.135386,-35.570412],[149.135214,-35.569793],[149.135451,-35.569828],[149.131945,-35.5572],[149.131904,-35.557029],[149.131783,-35.556495],[149.131722,-35.556171],[149.131575,-35.555035],[149.13145,-35.554469],[149.131453,-35.553603],[149.131591,-35.553024],[149.131647,-35.5525],[149.131705,-35.552141],[149.131829,-35.551505],[149.131909,-35.551149],[149.132052,-35.550617],[149.132194,-35.550196],[149.132322,-35.549849],[149.132454,-35.549503],[149.138044,-35.537372],[149.137865,-35.537247],[149.138251,-35.53641],[149.138374,-35.536144],[149.138582,-35.536208],[149.145068,-35.52216],[149.150468,-35.510338],[149.150663,-35.509767],[149.150861,-35.509114],[149.150919,-35.508901],[149.150922,-35.508887],[149.150958,-35.508747],[149.151084,-35.508196],[149.151137,-35.507921],[149.15117,-35.507741],[149.151198,-35.507561],[149.151256,-35.507202],[149.151269,-35.507065],[149.151275,-35.507021],[149.151338,-35.506378],[149.15137,-35.505812],[149.151481,-35.500086],[149.151484,-35.499878],[149.151445,-35.499116],[149.151452,-35.498753],[149.151516,-35.498273],[149.15161,-35.493201],[149.151587,-35.49285],[149.151571,-35.49269],[149.151547,-35.49251],[149.151508,-35.492292],[149.1515,-35.492254],[149.151493,-35.492216],[149.151477,-35.49214],[149.15146,-35.492063],[149.151442,-35.491987],[149.151413,-35.491873],[149.151382,-35.49176],[149.151337,-35.491609],[149.151313,-35.491534],[149.151275,-35.491422],[149.151249,-35.491348],[149.151193,-35.4912],[149.151164,-35.491126],[149.151149,-35.491089],[149.151133,-35.491053],[149.149904,-35.488152],[149.146263,-35.479556],[149.145145,-35.47692],[149.145061,-35.476727],[149.144984,-35.476557],[149.144823,-35.476219],[149.144754,-35.476081],[149.144668,-35.475913],[149.14458,-35.475747],[149.14449,-35.475582],[149.14435,-35.475335],[149.144255,-35.475171],[149.14406,-35.474845],[149.143957,-35.474685],[149.143747,-35.474365],[149.14364,-35.474206],[149.143532,-35.474048],[149.143065,-35.473418],[149.142634,-35.47289],[149.142331,-35.47254],[149.141976,-35.47215],[149.141602,-35.471764],[149.140118,-35.470326],[149.139978,-35.470173],[149.139848,-35.470026],[149.139722,-35.469877],[149.1396,-35.469709],[149.139473,-35.469576],[149.139357,-35.469422],[149.139123,-35.469073],[149.138953,-35.468794],[149.138601,-35.468311],[149.138523,-35.468122],[149.138455,-35.467949],[149.138394,-35.467775],[149.138336,-35.4676],[149.138228,-35.467248],[149.138191,-35.467079],[149.138181,-35.466989],[149.138177,-35.466898],[149.138186,-35.466716],[149.13817,-35.466607],[149.138148,-35.466426],[149.138129,-35.466246],[149.138114,-35.466065],[149.138089,-35.465703],[149.138058,-35.465523],[149.137906,-35.464871],[149.137929,-35.464549],[149.137967,-35.464385],[149.138001,-35.464233],[149.137997,-35.46415],[149.137996,-35.463582],[149.137967,-35.463481],[149.137897,-35.463309],[149.137815,-35.463141],[149.137521,-35.4626],[149.136976,-35.462045],[149.13673,-35.461677],[149.136289,-35.461038],[149.136212,-35.460899],[149.136131,-35.46073],[149.136064,-35.460557],[149.136006,-35.460381],[149.135959,-35.460215],[149.135916,-35.460037],[149.135877,-35.459858],[149.135868,-35.459676],[149.135868,-35.459624],[149.135878,-35.459443],[149.135892,-35.459262],[149.135908,-35.459081],[149.13612,-35.45783],[149.136125,-35.457684],[149.136116,-35.457503],[149.136,-35.45687],[149.135982,-35.456808],[149.135921,-35.456633],[149.135848,-35.456462],[149.135705,-35.456146],[149.135622,-35.455978],[149.135314,-35.4554],[149.135072,-35.454838],[149.135092,-35.454033],[149.135179,-35.453685],[149.13557,-35.453233],[149.135738,-35.453004],[149.135857,-35.45285],[149.135984,-35.452702],[149.136065,-35.45262],[149.136217,-35.452488],[149.136385,-35.452369],[149.136551,-35.452249],[149.137053,-35.451816],[149.137293,-35.451716],[149.137496,-35.451642],[149.137707,-35.451586],[149.137926,-35.451547],[149.138754,-35.451524],[149.14013,-35.451514],[149.140798,-35.451415],[149.141249,-35.451388],[149.141888,-35.451391],[149.142251,-35.451173],[149.142417,-35.451052],[149.142576,-35.450924],[149.142828,-35.450695],[149.142881,-35.450628],[149.143057,-35.450323],[149.143064,-35.450244],[149.143015,-35.449786],[149.143152,-35.449195],[149.143153,-35.44911],[149.143125,-35.448741],[149.143078,-35.448469],[149.143066,-35.448356],[149.143066,-35.448167],[149.143079,-35.447986],[149.143116,-35.447807],[149.143164,-35.447629],[149.143228,-35.44745],[149.14331,-35.447281],[149.143408,-35.447119],[149.143558,-35.446914],[149.143691,-35.446768],[149.143837,-35.446632],[149.143994,-35.446504],[149.144163,-35.446384],[149.146285,-35.445083],[149.147456,-35.444368],[149.147663,-35.444251],[149.147854,-35.444159],[149.148053,-35.444078],[149.148203,-35.444028],[149.148329,-35.443992],[149.148495,-35.443956],[149.148713,-35.443915],[149.148933,-35.443887],[149.149154,-35.44388],[149.149377,-35.443881],[149.149601,-35.443896],[149.149776,-35.443916],[149.149995,-35.443944],[149.150214,-35.443974],[149.150434,-35.443996],[149.150656,-35.444007],[149.150808,-35.444006],[149.151029,-35.44399],[149.151247,-35.443959],[149.151463,-35.443914],[149.151642,-35.443859],[149.151842,-35.443781],[149.152032,-35.443688],[149.152213,-35.44358],[149.152341,-35.443492],[149.152441,-35.443414],[149.152569,-35.443294],[149.152871,-35.442809],[149.153015,-35.442451],[149.153123,-35.4421],[149.153117,-35.441883],[149.153107,-35.441787],[149.153071,-35.441608],[149.153019,-35.441432],[149.15292,-35.441078],[149.152873,-35.440863],[149.152846,-35.440683],[149.152833,-35.440502],[149.152833,-35.440403],[149.152842,-35.440221],[149.152861,-35.44004],[149.152893,-35.439861],[149.152939,-35.439683],[149.152999,-35.439507],[149.153016,-35.439465],[149.153095,-35.439287],[149.153143,-35.439188],[149.153236,-35.439023],[149.153341,-35.438863],[149.153456,-35.438707],[149.153496,-35.438656],[149.153632,-35.438513],[149.153912,-35.438231],[149.154054,-35.438093],[149.154318,-35.437832],[149.154369,-35.437779],[149.154501,-35.437633],[149.15462,-35.43748],[149.154728,-35.437321],[149.154824,-35.437157],[149.154889,-35.437023],[149.154959,-35.436851],[149.155016,-35.436676],[149.155058,-35.436497],[149.155081,-35.436354],[149.155096,-35.436173],[149.155095,-35.435992],[149.155081,-35.435811],[149.155056,-35.435629],[149.155016,-35.435469],[149.154957,-35.435295],[149.154887,-35.435123],[149.154846,-35.43505],[149.154723,-35.434825],[149.154614,-35.434666],[149.15448,-35.434503],[149.154343,-35.43436],[149.154198,-35.434222],[149.154062,-35.434113],[149.153894,-35.433994],[149.153717,-35.433886],[149.153536,-35.433781],[149.153454,-35.433741],[149.153256,-35.433658],[149.153111,-35.4336],[149.152899,-35.433531],[149.152848,-35.433517],[149.152784,-35.433501],[149.152568,-35.433453],[149.152351,-35.433416],[149.152131,-35.433394],[149.15191,-35.43338],[149.151686,-35.433383],[149.150318,-35.433481],[149.149549,-35.433534],[149.149328,-35.433546],[149.149106,-35.433552],[149.148885,-35.433552],[149.148663,-35.433543],[149.148448,-35.433532],[149.148227,-35.433515],[149.148007,-35.433494],[149.147788,-35.433465],[149.14757,-35.433435],[149.147352,-35.433398],[149.146883,-35.433296],[149.146044,-35.433243],[149.145828,-35.433201],[149.145728,-35.433188],[149.145506,-35.433178],[149.145395,-35.433181],[149.145285,-35.43319],[149.145064,-35.433212],[149.144844,-35.433238],[149.144726,-35.433255],[149.144617,-35.433275],[149.144515,-35.43331],[149.144415,-35.43335],[149.144319,-35.433399],[149.143259,-35.433976],[149.143358,-35.434097],[149.142879,-35.434149],[149.142328,-35.434269],[149.141754,-35.434303],[149.141099,-35.434246],[149.140591,-35.434105],[149.140324,-35.433978],[149.140054,-35.433829],[149.14034,-35.433901],[149.140363,-35.433787],[149.140105,-35.433639],[149.139931,-35.433527],[149.139768,-35.433404],[149.139611,-35.433274],[149.139503,-35.433165],[149.139376,-35.433016],[149.139265,-35.432859],[149.139163,-35.432698],[149.139069,-35.432533],[149.139018,-35.432389],[149.138981,-35.43221],[149.138933,-35.431943],[149.138912,-35.431852],[149.13888,-35.431748],[149.138794,-35.431581],[149.138696,-35.431418],[149.138593,-35.431258],[149.138609,-35.431118],[149.138583,-35.430881],[149.138387,-35.430523],[149.138325,-35.430383],[149.138268,-35.430208],[149.138229,-35.430083],[149.138058,-35.429371],[149.138513,-35.428322],[149.138824,-35.42803],[149.139068,-35.42788],[149.142524,-35.425787],[149.142591,-35.425748],[149.142765,-35.425635],[149.14293,-35.425514],[149.143089,-35.425388],[149.143361,-35.424871],[149.143754,-35.424681],[149.143852,-35.424559],[149.143963,-35.424402],[149.144065,-35.424241],[149.144186,-35.42401],[149.144259,-35.423839],[149.14433,-35.423667],[149.144394,-35.423493],[149.144503,-35.423141],[149.145361,-35.418506],[149.145602,-35.417256],[149.145702,-35.416865],[149.145814,-35.416514],[149.145878,-35.416339],[149.146094,-35.415848],[149.146204,-35.415632],[149.146296,-35.415467],[149.146391,-35.415303],[149.146583,-35.415005],[149.146682,-35.414855],[149.146693,-35.414839],[149.146804,-35.414691],[149.147043,-35.414385],[149.147188,-35.414224],[149.147323,-35.41408],[149.147459,-35.413937],[149.147597,-35.413796],[149.147741,-35.413658],[149.147871,-35.413542],[149.148026,-35.413413],[149.14834,-35.413157],[149.148501,-35.413032],[149.148667,-35.412912],[149.148835,-35.412794],[149.149009,-35.412681],[149.152416,-35.410675],[149.155122,-35.409128],[149.155381,-35.408969],[149.155633,-35.408802],[149.155877,-35.408628],[149.156113,-35.408447],[149.156342,-35.408259],[149.156562,-35.408065],[149.156773,-35.407864],[149.156976,-35.407657],[149.157169,-35.407444],[149.158154,-35.406406],[149.159675,-35.404787],[149.162711,-35.401591],[149.166234,-35.39787],[149.166613,-35.397454],[149.169739,-35.394026],[149.17085,-35.392849],[149.176217,-35.387167],[149.17636,-35.386607],[149.176683,-35.386268],[149.177794,-35.385092],[149.177995,-35.384884],[149.178637,-35.384615],[149.182191,-35.380848],[149.183053,-35.379906],[149.183334,-35.379585],[149.18379,-35.379055],[149.184386,-35.378336],[149.184568,-35.378104],[149.184858,-35.377754],[149.185136,-35.377397],[149.18591,-35.376368],[149.186426,-35.375649],[149.186658,-35.375304],[149.187118,-35.374614],[149.187875,-35.373442],[149.188705,-35.372154],[149.190824,-35.368854],[149.193477,-35.364751],[149.195703,-35.361273],[149.199259,-35.35572],[149.199339,-35.355594],[149.199654,-35.355107],[149.201631,-35.35206],[149.202122,-35.351303],[149.204105,-35.348247],[149.204403,-35.347787],[149.204521,-35.34761],[149.204647,-35.347436],[149.20478,-35.347267],[149.20492,-35.347101],[149.205068,-35.34694],[149.205222,-35.346782],[149.205383,-35.34663],[149.205551,-35.346482],[149.205725,-35.34634]]],[[[167.82381452584403,-29.010983665888673],[167.8260529151068,-29.02829531907793],[167.82923142958884,-29.037796208552635],[167.82933209121188,-29.042529349764816],[167.82887163044214,-29.045209637807126],[167.82947278106334,-29.063446138976232],[167.8337397615394,-29.081186607813812],[167.84149718772213,-29.097701864275027],[167.85234890365948,-29.1122097368214],[167.85234493004788,-29.113359673695236],[167.85202294674852,-29.116425044816012],[167.85232303644437,-29.11969553753613],[167.85228702619062,-29.130116666449318],[167.8562480225029,-29.148789091480104],[167.86405780217507,-29.166206217815663],[167.86685580217508,-29.171006217815663],[167.8711614581798,-29.177121026847953],[167.8735919319635,-29.181293363320115],[167.88365332688306,-29.193214185615254],[167.88722632688308,-29.196770185615254],[167.90064049264836,-29.207762981316222],[167.91591406331108,-29.215978785580727],[167.93247987763982,-29.221112516789887],[167.94972278886488,-29.222973541503833],[167.96700250723484,-29.221492753349754],[167.98367737621982,-29.216725139183794],[167.99912819946843,-29.20884773723631],[168.01278123373922,-29.198153063061643],[168.0141621250057,-29.196557211893236],[168.02006069673862,-29.192672962667952],[168.03186699835615,-29.181354403641393],[168.04142997804354,-29.168086097200096],[168.0484338230762,-29.153306222671535],[168.0504262775613,-29.147873907740216],[168.05010173919663,-29.147754874155375],[168.05409671087767,-29.135121162398274],[168.05596899033088,-29.116900718569955],[168.0555744842124,-29.11302618521654],[168.05893619984786,-29.10869242322472],[168.06269016293334,-29.10513436484052],[168.07276856147095,-29.090982488139836],[168.07994001437714,-29.075157824021808],[168.08060401437714,-29.073211824021808],[168.08460910200074,-29.05624652542772],[168.08465642585833,-29.054996551448312],[168.08574051351192,-29.050724480750024],[168.08590013160935,-29.04830914835851],[168.0860044482541,-29.047982896734716],[168.08801783183614,-29.03073083239975],[168.08667977221637,-29.01341329695962],[168.08204010591055,-28.99667528830157],[168.08120810591058,-28.99451128830157],[168.07320973660038,-28.978611738756626],[168.06223894474834,-28.96459705668769],[168.04872476902207,-28.95301531926216],[168.03319571310902,-28.944319457613997],[168.01754915032225,-28.939266190280772],[168.00872523663733,-28.93245593789043],[168.0037059694034,-28.929954662473932],[168.00347853536633,-28.929792188001336],[167.99655464876312,-28.926390910699148],[167.99304326192924,-28.92464106452518],[167.99292861727605,-28.924609665670044],[167.990269781898,-28.923303544276113],[167.98399058753373,-28.921409802128103],[167.97807624665373,-28.91823589491452],[167.9635330813757,-28.913718219264464],[167.9587545675185,-28.91132769090119],[167.94247420695177,-28.906723738882608],[167.9256198618016,-28.905248081763933],[167.9190038618016,-28.905293081763933],[167.90208327493903,-28.90701527540973],[167.88578882759975,-28.911890026340192],[167.87070243716698,-28.91974324443452],[167.85736287814845,-28.930294470710074],[167.84624654112775,-28.943166893247014],[167.83775041960928,-28.957900804128723],[167.8356114637499,-28.964068846328438],[167.82944642083262,-28.976696140709805],[167.82496005853767,-28.993565529435987],[167.82381452584403,-29.010983665888673]]]]},"bbox":[148.76279,-35.920762,168.08801783183614,-28.905248081763933]}]}