{"type":"FeatureCollection","features":[
{"properties":{"electorateShortName":"fenner","electorateName":"Fenner","area":238.48,"state":null},"type":"Feature","geometry":{"type":"MultiPolygon","coordinates":[[[[149.195544,-35.206559],[149.196134,-35.206363],[149.19677,-35.206189],[149.197633,-35.206015],[149.200699,-35.205565],[149.200701,-35.205411],[149.200716,-35.204954],[149.198518,-35.202903],[149.197769,-35.202537],[149.196336,-35.202364],[149.195442,-35.202403],[149.195217,-35.202412],[149.19239,-35.202536],[149.189542,-35.203324],[149.189945,-35.201792],[149.190221,-35.20074],[149.19019,-35.200127],[149.191497,-35.198504],[149.191411,-35.197773],[149.191329,-35.197081],[149.190287,-35.194353],[149.190696,-35.194046],[149.192203,-35.193637],[149.194567,-35.192115],[149.196388,-35.190942],[149.196375,-35.188447],[149.196855,-35.187456],[149.196841,-35.186049],[149.197035,-35.185369],[149.195458,-35.184549],[149.194307,-35.182881],[149.194297,-35.182868],[149.194114,-35.182671],[149.193219,-35.181714],[149.192922,-35.181398],[149.192963,-35.180936],[149.192474,-35.180209],[149.192265,-35.179901],[149.191415,-35.179256],[149.188444,-35.17825],[149.18588,-35.177901],[149.18433,-35.176953],[149.183641,-35.175669],[149.18498,-35.173435],[149.184976,-35.173023],[149.184976,-35.172954],[149.18506,-35.172858],[149.187545,-35.169986],[149.188635,-35.167026],[149.189072,-35.165524],[149.185606,-35.161122],[149.184031,-35.161009],[149.183803,-35.160992],[149.183736,-35.160988],[149.183002,-35.160016],[149.179395,-35.158832],[149.177411,-35.159291],[149.176538,-35.158247],[149.174078,-35.158349],[149.173187,-35.159583],[149.172839,-35.158591],[149.171783,-35.158405],[149.171189,-35.158801],[149.17066,-35.159676],[149.169464,-35.160216],[149.167578,-35.159752],[149.167626,-35.158241],[149.166847,-35.157557],[149.165311,-35.15675],[149.164684,-35.155279],[149.164129,-35.154651],[149.162637,-35.15425],[149.16243,-35.153764],[149.163255,-35.152833],[149.163397,-35.151871],[149.163453,-35.151503],[149.164954,-35.150708],[149.165216,-35.150141],[149.164389,-35.149632],[149.164729,-35.148594],[149.163879,-35.147449],[149.163178,-35.146766],[149.163455,-35.14566],[149.163903,-35.145236],[149.164385,-35.14401],[149.164829,-35.143648],[149.164278,-35.141905],[149.16348,-35.141884],[149.161973,-35.141566],[149.160906,-35.141989],[149.15917,-35.1416],[149.158224,-35.142086],[149.157651,-35.142925],[149.157563,-35.143366],[149.157456,-35.14391],[149.156073,-35.144432],[149.154895,-35.144362],[149.154002,-35.14373],[149.152659,-35.143747],[149.152239,-35.144383],[149.150797,-35.144433],[149.1502,-35.145093],[149.148958,-35.145033],[149.148473,-35.144756],[149.147785,-35.144863],[149.146726,-35.144553],[149.146505,-35.143826],[149.147247,-35.142879],[149.149293,-35.141824],[149.149772,-35.139379],[149.149612,-35.138406],[149.148299,-35.137129],[149.147569,-35.137201],[149.1459,-35.135986],[149.146024,-35.135157],[149.144875,-35.134429],[149.143565,-35.135362],[149.141462,-35.135273],[149.140717,-35.135811],[149.140169,-35.13494],[149.138825,-35.134789],[149.13884,-35.132487],[149.140133,-35.130393],[149.138745,-35.128901],[149.138987,-35.127983],[149.137084,-35.127256],[149.132054,-35.128524],[149.129832,-35.127107],[149.128933,-35.127487],[149.128242,-35.126358],[149.127055,-35.126181],[149.127163,-35.12572],[149.127186,-35.125622],[149.126449,-35.125322],[149.122805,-35.124859],[149.122335,-35.124746],[149.120948,-35.124416],[149.118076,-35.126527],[149.116909,-35.126111],[149.116242,-35.126478],[149.115503,-35.126247],[149.113387,-35.127539],[149.112652,-35.127711],[149.111319,-35.129706],[149.111115,-35.130189],[149.109854,-35.130679],[149.109679,-35.131109],[149.108283,-35.131066],[149.106718,-35.131016],[149.104855,-35.131824],[149.104225,-35.132096],[149.104144,-35.13213],[149.103127,-35.133183],[149.102573,-35.135223],[149.097855,-35.136742],[149.096319,-35.138024],[149.093153,-35.138738],[149.092218,-35.140662],[149.091918,-35.141444],[149.091643,-35.141747],[149.091339,-35.142085],[149.084228,-35.146281],[149.073522,-35.152601],[149.062408,-35.159159],[149.061508,-35.15969],[149.058618,-35.161395],[149.056893,-35.162411],[149.046193,-35.168722],[149.041767,-35.171332],[149.029683,-35.178455],[149.017893,-35.185403],[149.007097,-35.191763],[149.006641,-35.192032],[149.002501,-35.19447],[148.99254,-35.200335],[148.963464,-35.217447],[148.961731,-35.218467],[148.96187,-35.218659],[148.962128,-35.219361],[148.962412,-35.220081],[148.962972,-35.221707],[148.963566,-35.222476],[148.964128,-35.223161],[148.964553,-35.223627],[148.964964,-35.224148],[148.965361,-35.224751],[148.965772,-35.225258],[148.96621,-35.225888],[148.966553,-35.226258],[148.966909,-35.226614],[148.967087,-35.226943],[148.967251,-35.227354],[148.96732,-35.227751],[148.967306,-35.227888],[148.967456,-35.228466],[148.967632,-35.229058],[148.96806,-35.229725],[148.968337,-35.230329],[148.968677,-35.231135],[148.96913,-35.231651],[148.969558,-35.232117],[148.969973,-35.232507],[148.970628,-35.233162],[148.971006,-35.233615],[148.971207,-35.233829],[148.972019,-35.234217],[148.972962,-35.234813],[148.973616,-35.235218],[148.974926,-35.236854],[148.975368,-35.237663],[148.975985,-35.238106],[148.976254,-35.238837],[148.975985,-35.239492],[148.975484,-35.240089],[148.974483,-35.240724],[148.974123,-35.240747],[148.973896,-35.240784],[148.973625,-35.240797],[148.973045,-35.240967],[148.972396,-35.2412],[148.971217,-35.24144],[148.969577,-35.241667],[148.968884,-35.241743],[148.968354,-35.241762],[148.968184,-35.241762],[148.96807,-35.241726],[148.967724,-35.241932],[148.967545,-35.242195],[148.967032,-35.2426],[148.966705,-35.242848],[148.96613,-35.243019],[148.965757,-35.243299],[148.964979,-35.243439],[148.964093,-35.243564],[148.963269,-35.24375],[148.962525,-35.243979],[148.962176,-35.244223],[148.961792,-35.244557],[148.961638,-35.24472],[148.961531,-35.244924],[148.96137,-35.24525],[148.961345,-35.2456],[148.961655,-35.246081],[148.962135,-35.246415],[148.962999,-35.24683],[148.963887,-35.24718],[148.964781,-35.247392],[148.96536,-35.247555],[148.965972,-35.24771],[148.966436,-35.24786],[148.966891,-35.248049],[148.967216,-35.248204],[148.967515,-35.248289],[148.967786,-35.248301],[148.967974,-35.248341],[148.968233,-35.248444],[148.968735,-35.248642],[148.969076,-35.248886],[148.969451,-35.249201],[148.970043,-35.24962],[148.970491,-35.250143],[148.970855,-35.250617],[148.971013,-35.250982],[148.971111,-35.251444],[148.971341,-35.251979],[148.971962,-35.252684],[148.972229,-35.253073],[148.972411,-35.253365],[148.972639,-35.253593],[148.972791,-35.253794],[148.972878,-35.25406],[148.972872,-35.254407],[148.972758,-35.254505],[148.972693,-35.254673],[148.972644,-35.25495],[148.972726,-35.255449],[148.972879,-35.255753],[148.973181,-35.255997],[148.973588,-35.256084],[148.974082,-35.256068],[148.974462,-35.256073],[148.974749,-35.256057],[148.974988,-35.255981],[148.975091,-35.255862],[148.975298,-35.255617],[148.975574,-35.25546],[148.975826,-35.25541],[148.976124,-35.255364],[148.976434,-35.255318],[148.976962,-35.255341],[148.977272,-35.255386],[148.977731,-35.255593],[148.977949,-35.255754],[148.978202,-35.256087],[148.978282,-35.256385],[148.978248,-35.256741],[148.978041,-35.257154],[148.977857,-35.25751],[148.977743,-35.257969],[148.97788,-35.258348],[148.978213,-35.258773],[148.978936,-35.259209],[148.979441,-35.25937],[148.979653,-35.25937],[148.980008,-35.259149],[148.980531,-35.259048],[148.980897,-35.259061],[148.98128,-35.259017],[148.981629,-35.259031],[148.981769,-35.259102],[148.981978,-35.259274],[148.982066,-35.259388],[148.982189,-35.259818],[148.982329,-35.260075],[148.982539,-35.260304],[148.982732,-35.260447],[148.983028,-35.260561],[148.983709,-35.260717],[148.983901,-35.260788],[148.98418,-35.260844],[148.984613,-35.260866],[148.985153,-35.261088],[148.985437,-35.261199],[148.985783,-35.261383],[148.986407,-35.261635],[148.986687,-35.261811],[148.987211,-35.262065],[148.98757,-35.262276],[148.987715,-35.262346],[148.988006,-35.262317],[148.988251,-35.262202],[148.988359,-35.262083],[148.9884,-35.261982],[148.988553,-35.2618],[148.988692,-35.261664],[148.988919,-35.26148],[148.989212,-35.261321],[148.98955,-35.261233],[148.989794,-35.261204],[148.990407,-35.261184],[148.990739,-35.261233],[148.991137,-35.261326],[148.991657,-35.261489],[148.992059,-35.261726],[148.992252,-35.261975],[148.992323,-35.262181],[148.992469,-35.262287],[148.99281,-35.262317],[148.993329,-35.262354],[148.99366,-35.262403],[148.993881,-35.262471],[148.99428,-35.262573],[148.994524,-35.262659],[148.994778,-35.262691],[148.995041,-35.262687],[148.995227,-35.262629],[148.9955,-35.262535],[148.995672,-35.262378],[148.995778,-35.262241],[148.995841,-35.262114],[148.995904,-35.26196],[148.99594,-35.261634],[148.995933,-35.261382],[148.995919,-35.261247],[148.995958,-35.261048],[148.995963,-35.260813],[148.995946,-35.260507],[148.995943,-35.259872],[148.996012,-35.25957],[148.996045,-35.259155],[148.996251,-35.258266],[148.996321,-35.258122],[148.996516,-35.257991],[148.997018,-35.258078],[148.997297,-35.258178],[148.997681,-35.258248],[148.997995,-35.258377],[148.998169,-35.258419],[148.998536,-35.258447],[148.998728,-35.258489],[148.998972,-35.258603],[148.999881,-35.259216],[149.00023,-35.259373],[149.000289,-35.25941],[149.000544,-35.259501],[149.000816,-35.259667],[149.000842,-35.259701],[149.000949,-35.259826],[149.001056,-35.259915],[149.001207,-35.260076],[149.001384,-35.260206],[149.001573,-35.260441],[149.001652,-35.260553],[149.001687,-35.260703],[149.001844,-35.2609],[149.001954,-35.261011],[149.00205,-35.26121],[149.002178,-35.261446],[149.00232,-35.261632],[149.002417,-35.261831],[149.002484,-35.26208],[149.00246,-35.262331],[149.002458,-35.262442],[149.002465,-35.262557],[149.002501,-35.262757],[149.002628,-35.262967],[149.002678,-35.263115],[149.002744,-35.263327],[149.002843,-35.263614],[149.002847,-35.263777],[149.002803,-35.263865],[149.002899,-35.264064],[149.003073,-35.264312],[149.003186,-35.264548],[149.003237,-35.264748],[149.003209,-35.264836],[149.003275,-35.26506],[149.003371,-35.265221],[149.003406,-35.265409],[149.003394,-35.265547],[149.00356,-35.266035],[149.003657,-35.266412],[149.003721,-35.266648],[149.003577,-35.266804],[149.003551,-35.266851],[149.00355,-35.267066],[149.003585,-35.267281],[149.003584,-35.267553],[149.003636,-35.26771],[149.003654,-35.267882],[149.003653,-35.268111],[149.003827,-35.268669],[149.003931,-35.26887],[149.003983,-35.268913],[149.00516,-35.270187],[149.006641,-35.271446],[149.007402,-35.27197],[149.007625,-35.272079],[149.007886,-35.272137],[149.008026,-35.272109],[149.008615,-35.272104],[149.009795,-35.272031],[149.01123,-35.271828],[149.011754,-35.271774],[149.013929,-35.271896],[149.01553,-35.271704],[149.016765,-35.271791],[149.017357,-35.27207],[149.017827,-35.272331],[149.018488,-35.273027],[149.018645,-35.274176],[149.018506,-35.275167],[149.018332,-35.276101],[149.018243,-35.276569],[149.018103,-35.276955],[149.018103,-35.277056],[149.017752,-35.278043],[149.017717,-35.2782],[149.017769,-35.278257],[149.017938,-35.278797],[149.018156,-35.279359],[149.018327,-35.279726],[149.018413,-35.279818],[149.018883,-35.280091],[149.019616,-35.280406],[149.019825,-35.28042],[149.019965,-35.280464],[149.020141,-35.280401],[149.021044,-35.280356],[149.021235,-35.280324],[149.021843,-35.280221],[149.021278,-35.279214],[149.024123,-35.277957],[149.023903,-35.276835],[149.02698,-35.273368],[149.03396,-35.265887],[149.033914,-35.265936],[149.033661,-35.265232],[149.033361,-35.264655],[149.033152,-35.264298],[149.03293,-35.263946],[149.032662,-35.263559],[149.03241,-35.263221],[149.032279,-35.263055],[149.03211,-35.26285],[149.031836,-35.262545],[149.031552,-35.262246],[149.031301,-35.261995],[149.031,-35.261708],[149.030644,-35.261388],[149.030416,-35.261193],[149.028624,-35.25963],[149.028426,-35.259447],[149.028202,-35.259227],[149.028019,-35.259033],[149.027814,-35.258801],[149.02762,-35.258563],[149.027412,-35.258285],[149.02724,-35.258035],[149.027058,-35.257744],[149.026891,-35.257447],[149.026757,-35.257181],[149.026616,-35.256866],[149.026491,-35.256546],[149.026381,-35.256223],[149.026287,-35.255896],[149.026235,-35.25569],[149.026199,-35.255525],[149.026159,-35.255318],[149.026132,-35.255151],[149.026089,-35.254817],[149.026071,-35.254526],[149.026067,-35.254193],[149.026079,-35.25386],[149.026108,-35.253528],[149.026134,-35.25332],[149.026173,-35.253073],[149.026221,-35.252826],[149.026648,-35.250449],[149.027076,-35.24798],[149.027188,-35.247354],[149.027563,-35.245358],[149.027572,-35.245137],[149.027592,-35.244983],[149.027636,-35.244787],[149.02768,-35.244608],[149.027742,-35.24437],[149.027824,-35.244074],[149.027912,-35.243779],[149.028006,-35.243485],[149.028064,-35.243307],[149.028134,-35.24311],[149.028194,-35.242953],[149.028257,-35.242798],[149.02829,-35.24272],[149.028404,-35.24246],[149.028441,-35.242351],[149.028469,-35.242241],[149.028488,-35.24213],[149.028496,-35.242055],[149.028506,-35.24204],[149.028645,-35.242174],[149.028718,-35.242003],[149.028934,-35.241579],[149.029062,-35.241361],[149.030149,-35.239596],[149.030294,-35.239645],[149.033239,-35.240621],[149.033545,-35.240709],[149.033794,-35.240771],[149.034087,-35.240837],[149.034365,-35.240892],[149.034874,-35.240971],[149.035259,-35.24101],[149.035682,-35.241041],[149.035953,-35.24105],[149.036234,-35.241052],[149.036513,-35.241049],[149.038434,-35.240978],[149.038796,-35.240969],[149.038994,-35.240967],[149.039161,-35.240966],[149.03948,-35.240975],[149.03977,-35.240991],[149.04006,-35.241014],[149.040305,-35.241036],[149.040644,-35.241078],[149.040958,-35.241123],[149.041327,-35.241191],[149.041859,-35.241307],[149.042135,-35.241378],[149.042381,-35.241448],[149.042628,-35.241522],[149.042832,-35.24159],[149.043057,-35.241668],[149.043294,-35.241757],[149.043738,-35.241927],[149.044425,-35.24219],[149.045589,-35.242636],[149.045719,-35.242681],[149.046017,-35.242785],[149.046349,-35.242893],[149.046861,-35.243044],[149.047392,-35.243175],[149.047675,-35.24324],[149.047756,-35.243257],[149.04812,-35.243333],[149.048347,-35.243371],[149.048458,-35.24339],[149.048792,-35.243441],[149.049113,-35.243484],[149.049505,-35.243529],[149.049915,-35.243562],[149.05033,-35.243586],[149.050788,-35.243603],[149.053865,-35.243701],[149.055949,-35.243769],[149.056257,-35.243781],[149.056494,-35.243797],[149.057225,-35.243864],[149.057567,-35.243911],[149.057919,-35.243969],[149.058156,-35.244019],[149.058411,-35.244077],[149.058658,-35.244142],[149.058972,-35.244234],[149.059197,-35.244307],[149.059733,-35.244508],[149.060054,-35.244649],[149.060393,-35.244815],[149.063277,-35.246356],[149.063785,-35.246623],[149.063812,-35.246637],[149.064172,-35.246811],[149.064576,-35.246993],[149.064986,-35.247176],[149.065459,-35.247376],[149.06613,-35.247636],[149.066379,-35.247727],[149.066739,-35.247851],[149.067356,-35.248049],[149.067629,-35.248131],[149.068285,-35.248317],[149.068791,-35.248443],[149.072793,-35.24947],[149.075626,-35.250403],[149.075773,-35.250452],[149.075871,-35.25018],[149.075945,-35.249973],[149.076158,-35.249294],[149.07622,-35.248866],[149.076212,-35.248443],[149.076209,-35.248356],[149.076194,-35.248179],[149.076182,-35.248061],[149.076138,-35.247804],[149.076087,-35.247592],[149.07605,-35.247457],[149.076016,-35.247351],[149.075923,-35.247107],[149.075858,-35.246967],[149.075787,-35.246828],[149.075676,-35.246637],[149.074852,-35.245387],[149.07469,-35.245142],[149.074479,-35.244786],[149.074383,-35.244604],[149.074289,-35.244416],[149.074209,-35.244244],[149.074084,-35.243943],[149.074039,-35.243819],[149.073952,-35.243563],[149.073914,-35.243441],[149.073861,-35.243249],[149.073798,-35.242999],[149.07339,-35.241107],[149.074179,-35.241106],[149.074239,-35.241104],[149.074301,-35.241099],[149.074352,-35.241092],[149.074418,-35.241079],[149.07447,-35.241066],[149.074523,-35.24105],[149.074573,-35.241032],[149.07463,-35.241007],[149.074683,-35.24098],[149.074721,-35.240959],[149.074789,-35.240914],[149.074853,-35.240863],[149.074909,-35.240809],[149.07495,-35.240762],[149.075716,-35.239733],[149.076341,-35.238885],[149.076632,-35.238493],[149.076645,-35.238474],[149.076764,-35.238292],[149.076854,-35.238128],[149.076883,-35.238064],[149.07694,-35.237888],[149.077076,-35.237352],[149.077357,-35.236425],[149.077666,-35.235574],[149.07769,-35.235511],[149.077833,-35.235137],[149.077906,-35.234959],[149.078009,-35.23474],[149.078095,-35.234575],[149.078159,-35.234461],[149.078196,-35.234396],[149.078341,-35.234165],[149.078402,-35.234076],[149.078499,-35.233944],[149.079323,-35.232825],[149.079658,-35.232318],[149.079877,-35.231934],[149.08004,-35.231609],[149.080185,-35.231267],[149.080283,-35.231015],[149.080047,-35.230956],[149.079634,-35.230837],[149.079432,-35.230769],[149.079223,-35.230692],[149.079036,-35.230621],[149.078845,-35.230542],[149.078658,-35.230459],[149.078282,-35.230274],[149.078137,-35.230196],[149.077963,-35.230099],[149.07766,-35.229915],[149.077633,-35.229897],[149.077469,-35.229787],[149.077163,-35.229567],[149.076864,-35.229327],[149.076757,-35.229236],[149.076625,-35.229116],[149.076511,-35.229008],[149.076335,-35.228834],[149.076098,-35.228574],[149.075871,-35.228298],[149.075631,-35.227964],[149.075336,-35.227537],[149.074179,-35.225857],[149.074266,-35.225818],[149.074927,-35.225527],[149.07491,-35.225541],[149.075428,-35.225316],[149.075536,-35.225266],[149.075684,-35.225196],[149.075843,-35.225116],[149.075882,-35.225095],[149.075935,-35.225068],[149.076039,-35.225012],[149.076167,-35.22494],[149.076306,-35.224858],[149.076319,-35.224851],[149.076331,-35.224843],[149.076431,-35.224782],[149.076566,-35.224696],[149.076662,-35.224632],[149.076674,-35.224623],[149.076722,-35.224591],[149.076899,-35.224466],[149.07691,-35.224457],[149.076945,-35.224432],[149.076956,-35.224423],[149.077002,-35.224389],[149.077115,-35.224302],[149.077205,-35.22423],[149.077325,-35.224131],[149.077357,-35.224103],[149.077379,-35.224085],[149.077464,-35.22401],[149.077495,-35.223982],[149.077506,-35.223973],[149.077516,-35.223963],[149.077568,-35.223916],[149.077639,-35.223848],[149.07768,-35.22381],[149.07774,-35.223751],[149.077769,-35.223721],[149.077799,-35.223692],[149.077848,-35.223642],[149.077962,-35.223521],[149.078091,-35.223377],[149.078126,-35.223335],[149.078162,-35.223294],[149.07817,-35.223283],[149.078206,-35.223241],[149.078266,-35.223167],[149.078291,-35.223134],[149.078317,-35.223102],[149.078375,-35.223027],[149.078487,-35.222874],[149.078518,-35.22283],[149.078548,-35.222785],[149.078564,-35.222763],[149.078638,-35.222651],[149.078674,-35.222595],[149.078717,-35.222526],[149.078799,-35.222389],[149.078858,-35.222285],[149.078915,-35.22218],[149.078987,-35.222039],[149.078992,-35.222027],[149.079903,-35.220175],[149.079993,-35.219998],[149.080065,-35.219872],[149.08011,-35.219796],[149.080138,-35.21975],[149.080148,-35.219735],[149.080157,-35.219719],[149.0802,-35.219651],[149.080215,-35.219629],[149.080234,-35.219598],[149.080309,-35.219486],[149.080387,-35.219376],[149.08043,-35.219317],[149.080436,-35.21931],[149.080457,-35.219281],[149.080463,-35.219274],[149.080518,-35.219201],[149.080626,-35.219066],[149.080674,-35.21901],[149.080685,-35.218996],[149.080733,-35.21894],[149.08085,-35.218809],[149.080863,-35.218796],[149.080907,-35.218748],[149.080914,-35.218742],[149.080926,-35.218728],[149.081023,-35.218628],[149.08103,-35.218622],[149.081083,-35.218569],[149.08109,-35.218563],[149.081164,-35.218491],[149.08124,-35.218421],[149.081253,-35.218408],[149.081268,-35.218396],[149.081274,-35.218389],[149.081323,-35.218345],[149.081416,-35.218265],[149.081423,-35.218258],[149.081431,-35.218252],[149.081529,-35.21817],[149.081622,-35.218095],[149.0817,-35.218035],[149.081712,-35.218025],[149.081728,-35.218014],[149.081758,-35.21799],[149.081858,-35.217916],[149.08189,-35.217894],[149.081921,-35.217871],[149.082048,-35.217783],[149.082064,-35.217773],[149.082906,-35.217209],[149.084395,-35.216213],[149.084857,-35.215894],[149.084974,-35.215807],[149.085144,-35.215671],[149.085223,-35.215606],[149.085571,-35.215288],[149.085718,-35.215134],[149.085911,-35.214919],[149.086008,-35.214802],[149.086223,-35.214519],[149.086357,-35.214318],[149.086463,-35.214146],[149.086578,-35.213941],[149.086679,-35.213741],[149.086776,-35.213523],[149.086856,-35.213319],[149.086956,-35.213014],[149.087034,-35.212715],[149.087076,-35.21246],[149.087272,-35.211268],[149.087352,-35.210932],[149.087462,-35.210573],[149.087627,-35.210153],[149.087814,-35.209768],[149.088042,-35.209378],[149.088363,-35.2089],[149.088876,-35.208145],[149.089036,-35.207887],[149.089217,-35.20753],[149.089364,-35.207152],[149.089462,-35.206801],[149.089522,-35.206471],[149.089599,-35.205452],[149.089639,-35.205138],[149.089731,-35.204749],[149.089882,-35.204334],[149.090103,-35.203903],[149.090346,-35.203539],[149.090658,-35.20317],[149.090987,-35.202855],[149.091307,-35.202603],[149.09268,-35.201952],[149.092989,-35.201856],[149.093271,-35.201798],[149.093634,-35.201755],[149.094216,-35.201775],[149.094321,-35.201804],[149.094545,-35.201816],[149.094772,-35.201758],[149.094943,-35.201655],[149.094963,-35.201637],[149.095049,-35.201507],[149.095065,-35.201373],[149.095326,-35.201403],[149.095438,-35.201564],[149.09552,-35.201693],[149.095616,-35.201815],[149.095725,-35.20193],[149.095845,-35.202037],[149.097617,-35.203443],[149.098046,-35.203759],[149.098878,-35.204323],[149.099578,-35.204835],[149.100533,-35.205342],[149.101994,-35.206157],[149.102716,-35.206523],[149.103708,-35.207026],[149.105672,-35.208009],[149.107721,-35.20904],[149.108236,-35.209303],[149.108536,-35.20946],[149.108864,-35.209674],[149.108897,-35.209696],[149.109246,-35.209943],[149.109646,-35.210251],[149.110006,-35.210555],[149.110662,-35.211185],[149.111027,-35.211591],[149.112134,-35.212897],[149.112842,-35.213732],[149.11329,-35.214223],[149.113763,-35.214708],[149.114706,-35.215588],[149.116353,-35.216972],[149.117065,-35.21761],[149.117127,-35.217671],[149.117906,-35.218443],[149.119028,-35.219613],[149.119088,-35.219677],[149.119157,-35.219769],[149.119997,-35.220925],[149.120891,-35.222459],[149.121639,-35.223751],[149.122618,-35.225755],[149.122692,-35.225908],[149.124477,-35.229949],[149.124615,-35.230273],[149.12512,-35.231391],[149.134363,-35.228728],[149.135675,-35.22835],[149.142117,-35.225562],[149.143889,-35.225801],[149.143904,-35.225935],[149.144472,-35.226314],[149.151283,-35.230968],[149.151979,-35.23048],[149.152512,-35.23011],[149.153598,-35.229357],[149.154281,-35.228897],[149.155045,-35.228383],[149.155637,-35.228009],[149.156492,-35.227487],[149.15681,-35.227346],[149.158113,-35.22677],[149.165159,-35.224645],[149.167051,-35.224077],[149.168608,-35.2236],[149.171514,-35.222739],[149.172361,-35.222484],[149.173557,-35.222126],[149.174082,-35.221942],[149.177321,-35.220738],[149.177906,-35.220489],[149.178113,-35.220385],[149.178449,-35.220215],[149.179025,-35.21987],[149.179534,-35.219513],[149.187102,-35.213701],[149.189056,-35.2122],[149.189343,-35.211951],[149.189621,-35.211671],[149.189822,-35.211435],[149.190221,-35.210918],[149.191404,-35.20939],[149.191767,-35.208983],[149.19216,-35.208595],[149.192683,-35.208145],[149.193205,-35.207759],[149.193714,-35.207431],[149.194342,-35.207083],[149.194942,-35.2068],[149.195544,-35.206559]]],[[[150.59533221738596,-35.18796105174018],[150.59517140968168,-35.18763551828744],[150.59646665864386,-35.18611221795511],[150.60083978525833,-35.188029609050794],[150.60083978525836,-35.188029609050794],[150.60541897543055,-35.190037348417995],[150.60541897543058,-35.19003734841799],[150.60999816560278,-35.19204508778519],[150.6099981656028,-35.19204508778519],[150.61457735577503,-35.1940528271524],[150.61457735577503,-35.194052827152376],[150.61915654594725,-35.196060566519584],[150.61915654594728,-35.19606056651958],[150.62373573611947,-35.19806830588678],[150.6237357361195,-35.19806830588678],[150.6283149262917,-35.20007604525398],[150.62831492629172,-35.20007604525397],[150.63289411646392,-35.20208378462117],[150.63289411646394,-35.20208378462117],[150.63747330663614,-35.204091523988374],[150.63747330663617,-35.20409152398837],[150.64205249680836,-35.20609926335557],[150.6420524968084,-35.20609926335556],[150.64663168698058,-35.20810700272276],[150.6466316869806,-35.20810700272276],[150.6512108771528,-35.210114742089964],[150.65121087715283,-35.21011474208996],[150.65579006732506,-35.212122481457165],[150.65579006732506,-35.21212248145715],[150.66036925749728,-35.21413022082436],[150.6603692574973,-35.21413022082435],[150.6649484476695,-35.21613796019155],[150.66494844766953,-35.216137960191546],[150.66952763784172,-35.21814569955875],[150.66952763784175,-35.21814569955875],[150.67410682801395,-35.22015343892595],[150.67410682801398,-35.22015343892594],[150.67868601818617,-35.22216117829314],[150.6786860181862,-35.22216117829314],[150.6832652083584,-35.22416891766034],[150.68326520835842,-35.224168917660336],[150.68784439853061,-35.22617665702754],[150.68784439853064,-35.22617665702753],[150.69242358870284,-35.22818439639473],[150.69242358870287,-35.22818439639473],[150.6970027788751,-35.23019213576194],[150.6970027788751,-35.23019213576192],[150.7015819690473,-35.232199875129126],[150.70158196904734,-35.232199875129126],[150.70616115921953,-35.23420761449633],[150.70616115921956,-35.23420761449632],[150.71074034939176,-35.23621535386352],[150.71074034939178,-35.236215353863514],[150.7718206012062,-35.262995902719254],[150.7744465175175,-35.262125085386124],[150.78555963432285,-35.25565516270025],[150.7872722596693,-35.254768982080336],[150.7896321404334,-35.25406854567629],[150.8053944649173,-35.245721069118275],[150.8192010888122,-35.23442910849814],[150.8305097505931,-35.2206361607803],[150.83263875059313,-35.2174391607803],[150.83755178332547,-35.20912710743953],[150.84030378332545,-35.203843107439525],[150.84616129116273,-35.18981791655046],[150.84957515079125,-35.17500704419348],[150.8496420875465,-35.17384337118498],[150.8500174948194,-35.172543281583394],[150.83053109619746,-35.15798636747472],[150.82404926772614,-35.15206720221268],[150.79099811730936,-35.111256389546476],[150.7905090483702,-35.11022676929583],[150.79076051750064,-35.10855093385584],[150.792877454428,-35.100858327638306],[150.79570932368904,-35.09481632556444],[150.7979301173773,-35.09206669648441],[150.79729915361898,-35.085906758030134],[150.79933869062364,-35.08327474461388],[150.79918426695568,-35.083037501671875],[150.79961359519325,-35.083697083816936],[150.79990547007571,-35.08442796027344],[150.80004859291944,-35.08520183829567],[150.80003742333773,-35.085988760516805],[150.80028,-35.083846],[150.798925,-35.080325],[150.79542201403856,-35.08158040537346],[150.79570290665941,-35.08155502879292],[150.79648988014003,-35.081561668256576],[150.79680481461452,-35.08162731582694],[150.7956602994227,-35.0821230439639],[150.79566029942268,-35.08212304396393],[150.79107218725574,-35.084110310112],[150.79107218725574,-35.084110310112024],[150.78648407508877,-35.0860975762601],[150.78648407508877,-35.08609757626013],[150.78189596292182,-35.0880848424082],[150.7818959629218,-35.088084842408236],[150.77730785075485,-35.090072108556306],[150.77730785075485,-35.090072108556335],[150.77271973858788,-35.09205937470441],[150.77271973858788,-35.092059374704434],[150.76813162642094,-35.094046640852504],[150.7681316264209,-35.09404664085254],[150.76354351425397,-35.09603390700061],[150.76354351425397,-35.09603390700064],[150.75895540208703,-35.09802117314871],[150.758955402087,-35.098021173148744],[150.75436728992005,-35.100008439296815],[150.75436728992005,-35.10000843929684],[150.74977917775308,-35.10199570544492],[150.74977917775308,-35.10199570544494],[150.74519106558614,-35.10398297159301],[150.7451910655861,-35.10398297159305],[150.74060295341917,-35.10597023774112],[150.74060295341917,-35.10597023774115],[150.7360148412522,-35.107957503889224],[150.7360148412522,-35.107957503889246],[150.73142672908526,-35.109944770037316],[150.73142672908523,-35.10994477003736],[150.7268386169183,-35.11193203618543],[150.7268386169183,-35.11193203618545],[150.72225050475134,-35.11391930233352],[150.72225050475132,-35.11391930233356],[150.71766239258437,-35.11590656848163],[150.71766239258437,-35.115906568481655],[150.7130742804174,-35.11789383462973],[150.7130742804174,-35.117893834629754],[150.70875456831865,-35.11976484765448],[150.70838759979017,-35.1196535302774],[150.70795275064006,-35.12011214193844],[150.704104521131,-35.12177893994928],[150.7042135194926,-35.12270403698852],[150.701604,-35.122862],[150.701103,-35.123079],[150.693173,-35.122096],[150.673963,-35.119514],[150.670687,-35.119074],[150.664396,-35.11828],[150.661053,-35.117824],[150.661084,-35.117938],[150.661223,-35.11831],[150.661467,-35.118682],[150.661571,-35.118911],[150.66164,-35.119226],[150.661641,-35.119713],[150.661554,-35.120299],[150.661345,-35.120943],[150.661241,-35.121402],[150.661242,-35.121573],[150.661172,-35.121917],[150.660871,-35.12282],[150.660824,-35.122904],[150.660825,-35.123105],[150.660877,-35.123248],[150.660865,-35.123429],[150.660858,-35.123478],[150.660839,-35.123536],[150.660839,-35.123593],[150.660803,-35.123707],[150.660803,-35.12375],[150.66064,-35.124451],[150.660373,-35.125251],[150.66032,-35.125394],[150.660039,-35.125722],[150.659758,-35.126035],[150.659442,-35.126348],[150.659144,-35.126633],[150.659022,-35.126747],[150.658969,-35.126818],[150.658583,-35.127173],[150.658319,-35.12753],[150.658178,-35.127758],[150.657965,-35.12833],[150.657735,-35.128772],[150.657594,-35.129],[150.6574,-35.129185],[150.657174,-35.12937],[150.65609,-35.12998],[150.655704,-35.130178],[150.655286,-35.130391],[150.655199,-35.130419],[150.655163,-35.130447],[150.655024,-35.130504],[150.654272,-35.130915],[150.654219,-35.130958],[150.653957,-35.131056],[150.653574,-35.131168],[150.653208,-35.131253],[150.652824,-35.131394],[150.652457,-35.131549],[150.651688,-35.131917],[150.651303,-35.132201],[150.650672,-35.132842],[150.64888,-35.134779],[150.648495,-35.135134],[150.648338,-35.135233],[150.648022,-35.135518],[150.647828,-35.135775],[150.647739,-35.136018],[150.647736,-35.13639],[150.647665,-35.136675],[150.647523,-35.136904],[150.647225,-35.137189],[150.646962,-35.137416],[150.646577,-35.137771],[150.646471,-35.137857],[150.646489,-35.137871],[150.645998,-35.138241],[150.645823,-35.138326],[150.645631,-35.138468],[150.645508,-35.138553],[150.645421,-35.138581],[150.645106,-35.138751],[150.644618,-35.138935],[150.644408,-35.139033],[150.644023,-35.139261],[150.643638,-35.139545],[150.643462,-35.139787],[150.643409,-35.139844],[150.643374,-35.13993],[150.643321,-35.140001],[150.643303,-35.140087],[150.643215,-35.140172],[150.642966,-35.140829],[150.642948,-35.140943],[150.64277,-35.141372],[150.642611,-35.141657],[150.642523,-35.141757],[150.642383,-35.141942],[150.642154,-35.14217],[150.642136,-35.142213],[150.641645,-35.142668],[150.641382,-35.142939],[150.641224,-35.14311],[150.641172,-35.143109],[150.641049,-35.143209],[150.640278,-35.14382],[150.640138,-35.143977],[150.639785,-35.144562],[150.639592,-35.144747],[150.639311,-35.145031],[150.639223,-35.145088],[150.639136,-35.145174],[150.638627,-35.145701],[150.638346,-35.145928],[150.638065,-35.146198],[150.637259,-35.146881],[150.636086,-35.147733],[150.636085,-35.147776],[150.635683,-35.148031],[150.635228,-35.148301],[150.635158,-35.148357],[150.634372,-35.148725],[150.634266,-35.148811],[150.633428,-35.14925],[150.633044,-35.149391],[150.632904,-35.149419],[150.632834,-35.149418],[150.632469,-35.149473],[150.632381,-35.149458],[150.632277,-35.149472],[150.632068,-35.149457],[150.631389,-35.149453],[150.631058,-35.149493],[150.630744,-35.149592],[150.630552,-35.149677],[150.630395,-35.149705],[150.630325,-35.149719],[150.629941,-35.149802],[150.629523,-35.149843],[150.629192,-35.149869],[150.628739,-35.149938],[150.627903,-35.149976],[150.627695,-35.149947],[150.627364,-35.149888],[150.626861,-35.149785],[150.626113,-35.149594],[150.624758,-35.149286],[150.624134,-35.149097],[150.623613,-35.148893],[150.623042,-35.148575],[150.622419,-35.148113],[150.622194,-35.14794],[150.621969,-35.147853],[150.62145,-35.147363],[150.62126,-35.147176],[150.620396,-35.146484],[150.620327,-35.14644],[150.62005,-35.146195],[150.619999,-35.146124],[150.619636,-35.145836],[150.619377,-35.145633],[150.618614,-35.1452],[150.618026,-35.144782],[150.617749,-35.144537],[150.617595,-35.144378],[150.617352,-35.144147],[150.617075,-35.143945],[150.616763,-35.143772],[150.616488,-35.143555],[150.615761,-35.143036],[150.615449,-35.142862],[150.615275,-35.14279],[150.615153,-35.142804],[150.615135,-35.142903],[150.615169,-35.142976],[150.615274,-35.143062],[150.615412,-35.143148],[150.61555,-35.143279],[150.615722,-35.14348],[150.615996,-35.144025],[150.616116,-35.144183],[150.616133,-35.144284],[150.61627,-35.144456],[150.616356,-35.144629],[150.616408,-35.144686],[150.616494,-35.14483],[150.616649,-35.145017],[150.61684,-35.145047],[150.617188,-35.14502],[150.617537,-35.145022],[150.617588,-35.145037],[150.617658,-35.145037],[150.617953,-35.145182],[150.618144,-35.145283],[150.61868,-35.145659],[150.618835,-35.145788],[150.619233,-35.146077],[150.619579,-35.146365],[150.620097,-35.146898],[150.620442,-35.147172],[150.620944,-35.147489],[150.62122,-35.147863],[150.621026,-35.148062],[150.620817,-35.148147],[150.620678,-35.148146],[150.620626,-35.148132],[150.620521,-35.148131],[150.620104,-35.148043],[150.619965,-35.148028],[150.619078,-35.14785],[150.618923,-35.147792],[150.618627,-35.147719],[150.618123,-35.147631],[150.617828,-35.147615],[150.617741,-35.147614],[150.617393,-35.147626],[150.617165,-35.14771],[150.616676,-35.147937],[150.616012,-35.148348],[150.615906,-35.148405],[150.615609,-35.148518],[150.615435,-35.14856],[150.614913,-35.148585],[150.614739,-35.148555],[150.614617,-35.148483],[150.614531,-35.148426],[150.614376,-35.148138],[150.614343,-35.148038],[150.614343,-35.147995],[150.614309,-35.147909],[150.614344,-35.147866],[150.614398,-35.147709],[150.614469,-35.147566],[150.614592,-35.147367],[150.614803,-35.14711],[150.614892,-35.146939],[150.614915,-35.146893],[150.614945,-35.146853],[150.614947,-35.146567],[150.614967,-35.146395],[150.614934,-35.146037],[150.614901,-35.145851],[150.614904,-35.145622],[150.615026,-35.145466],[150.615218,-35.145424],[150.615323,-35.145424],[150.615567,-35.145368],[150.61557,-35.145082],[150.615292,-35.144966],[150.615135,-35.144965],[150.61503,-35.144993],[150.614802,-35.145149],[150.614522,-35.145505],[150.61452,-35.145562],[150.614486,-35.145605],[150.614397,-35.145777],[150.614326,-35.14589],[150.614308,-35.145933],[150.614272,-35.146105],[150.61427,-35.146434],[150.614319,-35.146763],[150.6143,-35.146936],[150.614263,-35.147106],[150.614141,-35.147249],[150.613948,-35.14732],[150.613897,-35.147319],[150.613862,-35.147333],[150.613601,-35.147317],[150.613096,-35.147272],[150.613044,-35.147257],[150.612957,-35.147256],[150.612331,-35.147196],[150.612262,-35.147167],[150.611829,-35.146893],[150.611397,-35.146547],[150.611361,-35.146546],[150.611189,-35.146374],[150.610139,-35.14515],[150.610086,-35.145121],[150.609948,-35.144977],[150.609862,-35.14492],[150.609257,-35.144444],[150.609153,-35.144371],[150.609014,-35.144299],[150.608337,-35.144037],[150.608181,-35.144022],[150.608025,-35.143965],[150.607504,-35.143847],[150.607347,-35.14386],[150.60733,-35.143846],[150.607277,-35.14386],[150.607173,-35.143859],[150.606911,-35.143943],[150.606735,-35.144056],[150.606702,-35.144056],[150.606631,-35.144128],[150.606473,-35.144285],[150.606403,-35.144327],[150.606333,-35.144398],[150.605403,-35.145208],[150.605105,-35.14545],[150.605036,-35.145479],[150.604983,-35.145521],[150.604598,-35.145762],[150.60444,-35.145847],[150.604266,-35.145917],[150.604144,-35.145988],[150.603969,-35.146044],[150.603882,-35.146087],[150.603463,-35.146213],[150.603062,-35.146254],[150.602853,-35.146252],[150.602402,-35.146121],[150.602228,-35.146092],[150.602158,-35.146091],[150.602106,-35.146076],[150.601932,-35.146075],[150.601549,-35.146116],[150.601235,-35.146143],[150.600992,-35.146113],[150.600557,-35.146096],[150.600313,-35.146123],[150.600243,-35.146152],[150.600156,-35.146165],[150.599737,-35.14632],[150.599615,-35.146333],[150.599545,-35.146376],[150.598971,-35.146345],[150.598397,-35.146241],[150.597806,-35.146094],[150.597598,-35.14605],[150.596973,-35.145903],[150.596799,-35.145859],[150.596695,-35.145816],[150.596487,-35.1457],[150.596418,-35.145657],[150.596366,-35.145642],[150.596106,-35.145482],[150.59602,-35.145439],[150.595968,-35.145382],[150.595882,-35.145323],[150.595795,-35.145223],[150.595623,-35.145064],[150.595416,-35.14482],[150.595347,-35.144705],[150.595107,-35.14436],[150.595003,-35.144259],[150.594969,-35.144173],[150.594882,-35.144144],[150.594848,-35.144101],[150.594674,-35.144014],[150.594553,-35.143985],[150.594484,-35.143956],[150.594344,-35.143941],[150.594292,-35.143926],[150.593997,-35.143924],[150.593839,-35.143981],[150.592868,-35.143937],[150.59343,-35.146914],[150.594565,-35.148684],[150.595383,-35.151],[150.596246,-35.15218],[150.598001,-35.152476],[150.598381,-35.152543],[150.600607,-35.152997],[150.602606,-35.153179],[150.604378,-35.154313],[150.605105,-35.156175],[150.604696,-35.1579],[150.603106,-35.160215],[150.601961,-35.162382],[150.601834,-35.162621],[150.601016,-35.164528],[150.600744,-35.165708],[150.601016,-35.166888],[150.601425,-35.167706],[150.601698,-35.168886],[150.601334,-35.170066],[150.599154,-35.170611],[150.596837,-35.17043],[150.595156,-35.17052],[150.594652,-35.170638],[150.593157,-35.171021],[150.592117,-35.171654],[150.591749,-35.171882],[150.591249,-35.172472],[150.591104,-35.173199],[150.590986,-35.173785],[150.591489,-35.17668],[150.59159,-35.178818],[150.592497,-35.181612],[150.592698,-35.182921],[150.592472,-35.183651],[150.592547,-35.184281],[150.593378,-35.184758],[150.593971,-35.185018],[150.593432,-35.188165],[150.59706565865426,-35.18949420166012],[150.59699772720847,-35.18946144739977],[150.59635063842612,-35.18907008055482],[150.595788774202,-35.18856391803822],[150.59533221738596,-35.18796105174018]]],[[[150.8249561947216,-35.07682307476352],[150.82433966292112,-35.07741046276448],[150.82251189765435,-35.079567492815166],[150.8266440157864,-35.08075146548427],[150.8268308499897,-35.07605797987934],[150.82648741288892,-35.07609985175303],[150.8256830926261,-35.076379503392516],[150.8249561947216,-35.07682307476352]]],[[[150.5922061439592,-35.19112287121532],[150.587021,-35.188398],[150.58309777395522,-35.18967284226837],[150.58658165697886,-35.19755117769631],[150.5866304336407,-35.19768028344207],[150.5922061439592,-35.19112287121532]]],[[[150.69726326686614,-35.11713294879035],[150.69752924120024,-35.11784040043682],[150.69776551939023,-35.11832932574543],[150.6978651202732,-35.11723306589631],[150.69726326686614,-35.11713294879035]]]]},"bbox":[148.961345,-35.280464,150.8500174948194,-35.07605797987934]}]}