{"type":"FeatureCollection","features":[
{"properties":{"electorateShortName":"forrest","electorateName":"Forrest","area":8014.34,"state":null},"type":"Feature","geometry":{"type":"Polygon","coordinates":[[[115.65846,-32.933052],[115.652847,-32.895228],[115.63663091390545,-32.846009250018504],[115.62269782824707,-32.850462248386904],[115.60710659924659,-32.85914105202165],[115.59353405375406,-32.870725268142245],[115.58251372359686,-32.88475952542583],[115.5744788139457,-32.90069214232241],[115.56974517417694,-32.91789681345601],[115.56849888194839,-32.93569722946116],[115.57078892855431,-32.95339366245819],[115.58497196703756,-33.01452151681808],[115.59867172104434,-33.12535364615739],[115.59554515098952,-33.14222385673518],[115.59342915098952,-33.16869585673518],[115.59314305903082,-33.17597008028684],[115.59319790162463,-33.22385343758633],[115.59299736192764,-33.22877709696961],[115.58911551192332,-33.23136447990927],[115.58785648001347,-33.232621827024275],[115.57447839936205,-33.24290065447048],[115.56317083600953,-33.25563383352676],[115.55446417420538,-33.27026902666106],[115.54867012839132,-33.28628226714994],[115.54862441117278,-33.2865698040485],[115.54065952991705,-33.30443739329622],[115.53788184057932,-33.31144365017185],[115.5160837418042,-33.37394606417708],[115.51215669109664,-33.381539116999036],[115.51016921022506,-33.38384354047391],[115.50306292980764,-33.39508313259909],[115.50171813348545,-33.39760524320356],[115.49479680827406,-33.403779621103055],[115.49229305350148,-33.407000054995954],[115.48671476333432,-33.411796029603614],[115.47793527926963,-33.42198857217822],[115.47252769876066,-33.42930868047298],[115.46902730966842,-33.432440997837844],[115.46194946007917,-33.439521860537525],[115.42202491935005,-33.484176077945335],[115.39716947285602,-33.508646190169614],[115.39123306588554,-33.515088910651926],[115.37616351662697,-33.53313225546803],[115.3714748596403,-33.53751412829168],[115.35982082892804,-33.54528520281075],[115.35134079628439,-33.54949091736645],[115.34381899405064,-33.552116169688894],[115.33725914343837,-33.55301119442118],[115.32136833842328,-33.5566702783034],[115.29816016040417,-33.56428495787849],[115.29767480761262,-33.564368241860166],[115.28126748118032,-33.56448009116508],[115.27005947792665,-33.56525775781321],[115.26073854359872,-33.56649276489457],[115.24607373636356,-33.56553969175066],[115.24266323624845,-33.56458393589098],[115.22911837911072,-33.56333858437318],[115.22307882834994,-33.560705860328255],[115.20920961431719,-33.55596220916643],[115.19638031336441,-33.55271324490349],[115.18357016065418,-33.54807177918526],[115.1793245496534,-33.539237264403674],[115.168357505689,-33.5248032187047],[115.1665444844261,-33.52321535848914],[115.15739618179079,-33.50998375604362],[115.14447283388925,-33.4975462073298],[115.14009315689478,-33.49475979241399],[115.13549147965,-33.490875532166626],[115.1232728408997,-33.48415746681168],[115.11949447058717,-33.47990978835687],[115.10474324051906,-33.46894464824964],[115.10072824051906,-33.466554648249634],[115.08313791056075,-33.45850330862955],[115.07912010489719,-33.45763060902319],[115.0670650384168,-33.45104056608517],[115.05093842206193,-33.44584382655556],[115.03520995417156,-33.44389619003463],[115.03139189370712,-33.44287247629868],[115.00644790676989,-33.4398168723458],[115.0033679067699,-33.4398728723458],[114.98461174947288,-33.44219868150824],[114.96675487236013,-33.44839018896528],[114.95058474789423,-33.45817435472265],[114.93681446424021,-33.47111970573753],[114.93531046424022,-33.47286570573753],[114.92539206495879,-33.48689213934093],[114.91831945099203,-33.50254760533891],[114.91435030603053,-33.51926171232107],[114.91362924194293,-33.53642549834042],[114.91528868515181,-33.54746648512377],[114.91401629517298,-33.55547254018236],[114.91458385286344,-33.57260283288756],[114.91838860574894,-33.589314891569195],[114.92173554231633,-33.59692006343266],[114.92188052008584,-33.59754881442817],[114.92327632375296,-33.60042114790012],[114.92529256387392,-33.60500260689383],[114.92599828364668,-33.606022491911624],[114.92647223011132,-33.60699779547783],[114.91971265342505,-33.614813564253026],[114.9109391771815,-33.63032634854327],[114.9083394242325,-33.63826783875444],[114.90123186123841,-33.64660788267359],[114.89267665285895,-33.661861106078206],[114.88723292063327,-33.67848091937746],[114.88510621748063,-33.69583976577772],[114.88499121748063,-33.70051476577772],[114.88614326881284,-33.71724962908832],[114.89038083032541,-33.73348003095408],[114.89481542724684,-33.74285003551332],[114.89713120957101,-33.74995168913715],[114.89933641507146,-33.754169023035296],[114.89939589202085,-33.754533347352194],[114.89879549725858,-33.767467925609665],[114.8999320277311,-33.77445319632716],[114.90061084230587,-33.783863281212035],[114.90560385539769,-33.801494261713344],[114.90742519556368,-33.80499335690591],[114.90736091035107,-33.80617430485028],[114.89859908415293,-33.81817391592283],[114.89135713823238,-33.83345764014912],[114.88710244830955,-33.849826379275946],[114.88598526167156,-33.86670209854825],[114.88804502990351,-33.883488860051656],[114.89320901572145,-33.89959386726723],[114.89594597633487,-33.90598904571278],[114.89622782057283,-33.907915102006065],[114.8956893124232,-33.913507250062565],[114.89730185909823,-33.92671427137921],[114.89330434810056,-33.93683119539465],[114.89015062654059,-33.954428110566866],[114.89053723013669,-33.97230121664599],[114.89188740495518,-33.978322312226865],[114.89193475883992,-33.979030340447956],[114.89232550295993,-33.980499118098365],[114.89283794608171,-33.983790162158655],[114.89285941243737,-33.98400325875137],[114.8928832140195,-33.984080884721735],[114.89406696878372,-33.99168326812786],[114.89990352502343,-34.00787391660709],[114.90045121205165,-34.00879277870091],[114.90181690129486,-34.01276291378029],[114.90212449114244,-34.01469400481593],[114.90864671310939,-34.03188537563965],[114.9088691563441,-34.03232882632977],[114.9089098971718,-34.04799235257087],[114.90894458923178,-34.048169691463535],[114.90889165757281,-34.05173633816903],[114.90858668387904,-34.05282850638921],[114.90741407675634,-34.066365323912635],[114.9051561923934,-34.07174389874427],[114.90163640858515,-34.08862916959666],[114.90140238252444,-34.10587580641715],[114.90446270964901,-34.122850365254],[114.90500085711366,-34.12423653996408],[114.90509526635569,-34.12479490078015],[114.91092966001996,-34.140556884391586],[114.91959294857936,-34.15495923517655],[114.92555481095215,-34.16164056098578],[114.931895068848,-34.17090532437871],[114.93202423536556,-34.173080439980694],[114.93353258990844,-34.179048780166454],[114.93103339772105,-34.183399564764656],[114.92958203155115,-34.18772744764048],[114.9284888414439,-34.18985658927253],[114.9262444787507,-34.19767982072995],[114.92538149995467,-34.2002531693659],[114.92528326527042,-34.201030346720714],[114.92365784311933,-34.2066961215719],[114.92218067745442,-34.22415253513459],[114.92411331414549,-34.24156440775915],[114.92938252573317,-34.25827200489691],[114.93580936053891,-34.27002320593105],[114.93843446228125,-34.281686617203086],[114.9460707755944,-34.29848159173845],[114.94826677559439,-34.302234591738454],[114.95304902830749,-34.30887174857673],[114.95470552606461,-34.312893661652474],[114.96480549322449,-34.327909626462976],[114.9777053057015,-34.34060148896928],[114.99288341526102,-34.35045610849619],[115.0001859702134,-34.35332590361069],[115.00433220714066,-34.35736256523631],[115.01285194261919,-34.36472292220837],[115.01466865723488,-34.36773091215489],[115.02762999222347,-34.38440017180419],[115.04411846888917,-34.39759071990452],[115.04473168957924,-34.3979727512456],[115.04800567647662,-34.40299067885407],[115.04990123071802,-34.40908116394025],[115.05788677181512,-34.42403809921652],[115.06853582964818,-34.43723189877313],[115.08147045629767,-34.44819429873438],[115.08488645629765,-34.45057529873438],[115.10120100622639,-34.459593569282454],[115.11902346423057,-34.46505742632167],[115.12517012493255,-34.46561199042332],[115.12814617571668,-34.466926145356986],[115.13091184843147,-34.467533416627646],[115.13731144474083,-34.47413124602267],[115.14183618262527,-34.47719289469719],[115.14781014260916,-34.4831082115149],[115.14989614260917,-34.4848032115149],[115.16397374515599,-34.49419240633986],[115.17956002861091,-34.50078055031139],[115.19610401617412,-34.50433475183009],[115.21302087610232,-34.504729369489255],[115.22971259557393,-34.5019504535121],[115.24558912050679,-34.4960962388779],[115.26008921403353,-34.48737367270487],[115.27270029628532,-34.47609109864725],[115.28297656414549,-34.46264735691389],[115.28354456414549,-34.46173835691389],[115.29164242582037,-34.445236607858874],[115.29621869370162,-34.427433774998356],[115.29708247352849,-34.409072485011244],[115.29567028602199,-34.4001855122982],[115.32539086250652,-34.40408297916807],[115.3423733303343,-34.404691967090876],[115.35916754781469,-34.40209787013192],[115.37517478019547,-34.39639317107593],[115.38982434972249,-34.3877812495433],[115.4025939810119,-34.37656913125353],[115.41302842081743,-34.36315654217625],[115.42075566837518,-34.34802165780297],[115.4217166019451,-34.344716798986774],[115.386285,-34.328381],[115.369721,-34.322581],[115.337093,-34.314847],[115.337092,-34.314383],[115.337077,-34.292448],[115.337073,-34.285589],[115.337071,-34.283648],[115.337071,-34.283005],[115.336501,-34.279667],[115.336508,-34.270625],[115.336512,-34.265158],[115.336516,-34.261531],[115.33652,-34.25609],[115.336524,-34.252462],[115.33653,-34.244937],[115.33725,-34.245268],[115.337032,-34.2156],[115.337212,-34.199189],[115.337197,-34.160078],[115.339827,-34.159636],[115.342586,-34.159173],[115.34559,-34.158368],[115.347375,-34.158288],[115.35188,-34.159054],[115.355001,-34.159256],[115.358121,-34.159459],[115.358342,-34.159473],[115.360213,-34.159593],[115.36485,-34.16016],[115.365435,-34.160172],[115.366119,-34.160186],[115.369325,-34.159846],[115.371508,-34.159422],[115.373128,-34.158769],[115.375265,-34.157623],[115.379752,-34.155875],[115.380764,-34.155607],[115.381976,-34.155486],[115.387292,-34.15575],[115.392037,-34.155985],[115.396783,-34.15622],[115.401528,-34.156454],[115.401813,-34.156478],[115.401835,-34.156163],[115.401954,-34.154506],[115.401854,-34.153016],[115.401496,-34.150681],[115.401137,-34.148345],[115.401264,-34.146741],[115.401868,-34.145134],[115.402087,-34.144156],[115.402186,-34.143274],[115.401817,-34.139478],[115.401673,-34.138003],[115.40165,-34.136227],[115.401812,-34.133816],[115.401973,-34.131406],[115.401646,-34.128909],[115.40132,-34.126412],[115.401405,-34.124914],[115.401815,-34.122857],[115.401905,-34.118856],[115.401995,-34.114856],[115.402053,-34.11225],[115.402111,-34.109644],[115.401898,-34.107059],[115.401686,-34.104474],[115.401817,-34.103235],[115.401837,-34.103055],[115.401853,-34.102896],[115.401938,-34.102645],[115.402065,-34.102266],[115.402846,-34.100334],[115.403058,-34.098439],[115.403057,-34.09517],[115.402759,-34.092538],[115.402143,-34.091175],[115.40082,-34.089636],[115.398165,-34.087314],[115.39551,-34.084992],[115.392855,-34.08267],[115.392151,-34.081792],[115.391627,-34.080706],[115.391451,-34.080342],[115.391378,-34.079562],[115.391391,-34.078999],[115.391437,-34.078709],[115.391548,-34.078002],[115.391551,-34.077997],[115.391938,-34.07696],[115.39202,-34.076724],[115.392059,-34.076628],[115.392101,-34.076525],[115.393281,-34.073367],[115.394461,-34.07021],[115.395509,-34.067578],[115.39706,-34.065071],[115.397991,-34.063727],[115.399579,-34.062272],[115.400481,-34.061218],[115.401329,-34.059585],[115.401908,-34.056356],[115.403624,-34.054043],[115.404209,-34.051895],[115.404227,-34.050509],[115.404064,-34.049272],[115.403468,-34.047784],[115.402603,-34.046641],[115.401284,-34.045581],[115.399475,-34.044372],[115.398671,-34.043449],[115.397972,-34.042198],[115.39774,-34.040752],[115.397617,-34.038837],[115.397605,-34.037742],[115.397462,-34.034104],[115.397173,-34.033035],[115.396698,-34.032142],[115.395249,-34.030119],[115.39467,-34.028746],[115.393789,-34.026233],[115.392613,-34.02288],[115.392421,-34.021814],[115.392285,-34.018213],[115.39215,-34.014613],[115.392015,-34.011012],[115.391718,-34.009617],[115.390471,-34.00618],[115.390009,-34.004393],[115.389843,-34.001323],[115.39011,-33.999647],[115.390856,-33.998324],[115.391937,-33.997211],[115.394101,-33.995568],[115.397361,-33.993798],[115.40062,-33.992029],[115.401879,-33.990942],[115.404197,-33.988079],[115.404784,-33.986368],[115.404814,-33.984157],[115.405509,-33.982403],[115.406543,-33.9812],[115.407842,-33.980195],[115.412078,-33.979004],[115.413836,-33.97778],[115.414794,-33.976515],[115.415217,-33.975355],[115.415393,-33.973983],[115.415055,-33.9703],[115.41536,-33.968788],[115.416681,-33.966346],[115.417047,-33.962194],[115.417557,-33.960463],[115.419082,-33.95781],[115.41934,-33.956399],[115.419176,-33.95496],[115.417759,-33.951472],[115.417246,-33.949538],[115.417599,-33.946049],[115.417952,-33.94256],[115.418169,-33.940421],[115.417906,-33.938718],[115.417884,-33.937445],[115.418422,-33.935105],[115.418617,-33.93162],[115.418812,-33.928135],[115.419007,-33.924651],[115.419302,-33.922245],[115.419597,-33.919839],[115.419608,-33.919748],[115.419782,-33.919736],[115.420253,-33.919673],[115.420746,-33.919559],[115.421397,-33.919439],[115.421955,-33.919406],[115.422787,-33.919382],[115.42314,-33.919381],[115.42352,-33.919337],[115.42415,-33.919289],[115.424889,-33.919239],[115.425554,-33.919207],[115.426443,-33.919164],[115.427393,-33.919101],[115.428377,-33.919059],[115.42957,-33.919034],[115.431035,-33.918974],[115.432375,-33.918911],[115.433693,-33.918858],[115.435081,-33.918842],[115.43649,-33.918796],[115.437247,-33.918755],[115.438192,-33.918738],[115.439225,-33.918712],[115.439915,-33.918686],[115.440097,-33.918668],[115.440623,-33.918645],[115.441426,-33.918595],[115.442321,-33.918536],[115.443651,-33.918433],[115.444902,-33.918399],[115.446385,-33.918333],[115.447719,-33.91826],[115.449437,-33.918172],[115.451501,-33.918084],[115.452888,-33.917996],[115.454101,-33.917921],[115.454974,-33.917869],[115.456555,-33.91777],[115.458163,-33.917676],[115.459255,-33.917641],[115.459829,-33.917595],[115.460256,-33.917577],[115.460717,-33.917555],[115.461302,-33.917515],[115.461804,-33.917472],[115.462475,-33.917438],[115.463062,-33.917419],[115.46381,-33.917381],[115.465112,-33.917298],[115.46598,-33.917278],[115.466332,-33.917254],[115.46722,-33.917173],[115.468016,-33.917126],[115.469018,-33.917072],[115.470236,-33.917034],[115.470996,-33.917002],[115.471842,-33.916946],[115.47288,-33.916929],[115.473603,-33.916912],[115.474506,-33.916878],[115.475527,-33.91682],[115.476513,-33.916808],[115.477475,-33.916749],[115.478707,-33.916721],[115.479616,-33.916702],[115.480596,-33.916643],[115.48152,-33.916604],[115.482652,-33.916537],[115.483677,-33.9165],[115.484601,-33.916456],[115.485481,-33.916421],[115.486254,-33.916379],[115.487063,-33.916316],[115.487616,-33.916311],[115.488436,-33.916296],[115.489501,-33.916311],[115.490766,-33.916273],[115.491888,-33.916248],[115.492191,-33.916229],[115.493212,-33.91617],[115.494275,-33.916133],[115.494852,-33.916109],[115.495844,-33.916102],[115.497248,-33.916065],[115.49844,-33.91606],[115.4998,-33.916028],[115.500889,-33.916002],[115.501513,-33.915992],[115.510616,-33.915912],[115.513674,-33.915896],[115.51877,-33.91569],[115.519626,-33.915675],[115.5223,-33.915529],[115.52379,-33.915504],[115.526265,-33.915349],[115.526713,-33.915264],[115.527396,-33.915028],[115.528112,-33.914694],[115.529738,-33.91413],[115.529974,-33.914087],[115.530351,-33.914033],[115.530984,-33.913998],[115.532612,-33.913946],[115.536089,-33.913782],[115.541937,-33.906189],[115.583267,-33.873801],[115.626499,-33.839954],[115.646335,-33.824279],[115.649684,-33.823485],[115.669598,-33.811811],[115.672099,-33.811778],[115.691073,-33.811924],[115.691091,-33.812023],[115.706643,-33.812066],[115.708473,-33.812073],[115.708474,-33.811714],[115.717165,-33.811739],[115.728333,-33.811556],[115.736167,-33.811571],[115.73627,-33.796696],[115.751699,-33.797114],[115.763245,-33.796935],[115.787268,-33.796914],[115.787264,-33.797606],[115.793566,-33.797636],[115.806818,-33.797697],[115.806915,-33.783906],[115.813323,-33.783931],[115.813324,-33.784113],[115.813288,-33.791202],[115.819133,-33.791223],[115.821979,-33.791232],[115.821982,-33.791091],[115.837614,-33.791083],[115.837289,-33.818028],[115.837071,-33.818126],[115.83707,-33.818174],[115.83707,-33.818321],[115.836921,-33.837045],[115.831054,-33.837022],[115.817704,-33.836968],[115.817588,-33.85396],[115.817588,-33.854146],[115.817804,-33.854142],[115.820813,-33.854155],[115.820813,-33.854281],[115.829516,-33.854289],[115.82952,-33.854998],[115.829515,-33.855198],[115.832035,-33.8552],[115.837429,-33.855206],[115.843858,-33.855211],[115.863265,-33.855223],[115.865137,-33.855266],[115.8659,-33.855263],[115.865837,-33.85516],[115.86548,-33.8547],[115.865234,-33.854332],[115.865211,-33.854139],[115.865216,-33.853824],[115.865318,-33.853555],[115.865623,-33.853274],[115.865942,-33.852861],[115.866122,-33.852517],[115.866267,-33.85198],[115.866451,-33.851373],[115.866645,-33.850908],[115.866979,-33.850322],[115.867591,-33.84941],[115.868218,-33.848472],[115.868589,-33.847876],[115.868921,-33.847483],[115.869187,-33.847252],[115.869654,-33.847033],[115.870428,-33.846752],[115.871774,-33.846407],[115.87287,-33.846058],[115.87321,-33.845966],[115.873581,-33.84585],[115.874886,-33.845241],[115.875556,-33.844758],[115.876507,-33.844205],[115.877575,-33.843792],[115.879447,-33.843178],[115.880274,-33.842966],[115.880612,-33.842872],[115.882015,-33.842542],[115.88264,-33.842506],[115.883246,-33.842564],[115.883916,-33.842746],[115.884432,-33.843067],[115.88484,-33.84344],[115.885138,-33.843881],[115.88554,-33.844605],[115.885773,-33.845099],[115.885902,-33.845274],[115.885948,-33.854499],[115.891402,-33.854502],[115.891393,-33.864939],[115.896957,-33.864942],[115.896965,-33.873398],[115.896963,-33.875549],[115.902114,-33.875546],[115.902122,-33.883698],[115.901928,-33.883691],[115.901911,-33.885408],[115.928767,-33.885382],[115.928768,-33.891573],[115.940561,-33.891572],[115.940561,-33.897616],[115.935874,-33.897616],[115.935869,-33.902761],[115.935863,-33.910128],[115.935595,-33.910129],[115.935771,-33.961211],[115.938385,-33.961214],[115.938387,-33.96398],[115.945825,-33.963984],[115.95393,-33.963988],[115.96343,-33.963991],[115.963433,-33.957606],[115.977911,-33.957611],[115.97791,-33.954457],[115.977908,-33.943831],[115.99427,-33.943835],[115.994272,-33.935859],[115.994559,-33.934867],[115.994533,-33.934839],[115.994152,-33.934255],[115.993686,-33.933805],[115.992833,-33.933509],[115.992243,-33.933381],[115.991607,-33.933419],[115.991359,-33.933535],[115.990661,-33.933934],[115.990257,-33.934191],[115.989838,-33.934397],[115.989,-33.934629],[115.988628,-33.934757],[115.988209,-33.934886],[115.987185,-33.935066],[115.986394,-33.935079],[115.985866,-33.935053],[115.984687,-33.934873],[115.983647,-33.934564],[115.982996,-33.93432],[115.982654,-33.934178],[115.98253,-33.934075],[115.982422,-33.933934],[115.982406,-33.933767],[115.982313,-33.933445],[115.982189,-33.93302],[115.98208,-33.932763],[115.981875,-33.932492],[115.981242,-33.932094],[115.980063,-33.931489],[115.979256,-33.931129],[115.978543,-33.930885],[115.978139,-33.930602],[115.977658,-33.930087],[115.977363,-33.929521],[115.977239,-33.929264],[115.977286,-33.929148],[115.977363,-33.928981],[115.97741,-33.928633],[115.97741,-33.928132],[115.977395,-33.927874],[115.977332,-33.927681],[115.977115,-33.927398],[115.976712,-33.926472],[115.976448,-33.925546],[115.97606,-33.924298],[115.975579,-33.923127],[115.975331,-33.922716],[115.975176,-33.922523],[115.974865,-33.922291],[115.974309,-33.921891],[115.973395,-33.921203],[115.972362,-33.920368],[115.971978,-33.920079],[115.971809,-33.919976],[115.971497,-33.919841],[115.971152,-33.919738],[115.970939,-33.919686],[115.97079,-33.919684],[115.970641,-33.919685],[115.970517,-33.919692],[115.970309,-33.919694],[115.97021,-33.919685],[115.970133,-33.919668],[115.970016,-33.919626],[115.969908,-33.919586],[115.969741,-33.919501],[115.969661,-33.919426],[115.969563,-33.919308],[115.96952,-33.919225],[115.969377,-33.918928],[115.969325,-33.918852],[115.969256,-33.918774],[115.969156,-33.918692],[115.969017,-33.918561],[115.968906,-33.918408],[115.968626,-33.91811],[115.96832,-33.917839],[115.967689,-33.91722],[115.967161,-33.916799],[115.967957,-33.91685],[115.976237,-33.916853],[115.97526,-33.915994],[115.972271,-33.913285],[115.971519,-33.909889],[115.970555,-33.908113],[115.970398,-33.906918],[115.970375,-33.906736],[115.977311,-33.906735],[115.977317,-33.902756],[115.998259,-33.902746],[115.998301,-33.895035],[116.001915,-33.895048],[116.001862,-33.878194],[116.003064,-33.878191],[116.003048,-33.868396],[116.003045,-33.866582],[116.001848,-33.866583],[116.001871,-33.846363],[116.005141,-33.846365],[116.005142,-33.840014],[116.002555,-33.840013],[116.002389,-33.835418],[116.002385,-33.832739],[116.002371,-33.819579],[116.002361,-33.810196],[116.002186,-33.810099],[116.001507,-33.809214],[116.001065,-33.808786],[116.00076,-33.808473],[116.000222,-33.808005],[115.999855,-33.807703],[115.999288,-33.807208],[115.998871,-33.806693],[115.99781,-33.804942],[116.000116,-33.804907],[116.000066,-33.801311],[116.009304,-33.801219],[116.010583,-33.801206],[116.010587,-33.801487],[116.021445,-33.801385],[116.021451,-33.801835],[116.027003,-33.801783],[116.027,-33.80157],[116.038584,-33.802559],[116.038684,-33.802563],[116.038684,-33.803021],[116.038866,-33.803021],[116.044274,-33.803021],[116.044209,-33.801274],[116.048597,-33.801181],[116.048913,-33.801185],[116.056835,-33.801241],[116.056977,-33.801242],[116.057246,-33.801244],[116.060726,-33.801244],[116.067879,-33.801246],[116.082889,-33.801176],[116.0812,-33.798927],[116.092407,-33.796476],[116.092407,-33.796195],[116.092433,-33.7956],[116.092557,-33.79494],[116.09265,-33.794436],[116.092789,-33.7942],[116.092783,-33.793809],[116.092767,-33.79354],[116.092936,-33.793223],[116.093177,-33.792614],[116.093271,-33.792036],[116.093497,-33.791793],[116.093817,-33.791135],[116.093868,-33.790842],[116.093856,-33.790285],[116.098827,-33.790285],[116.099942,-33.790287],[116.100255,-33.780593],[116.17886,-33.78079],[116.196244,-33.780762],[116.196134,-33.771123],[116.217957,-33.771099],[116.21825,-33.748919],[116.218384,-33.739368],[116.218444,-33.735072],[116.228172,-33.735012],[116.228246,-33.728555],[116.228256,-33.7213],[116.231507,-33.721299],[116.231509,-33.71839],[116.233681,-33.71839],[116.23369,-33.711126],[116.239114,-33.711124],[116.239117,-33.707506],[116.239768,-33.707507],[116.239769,-33.706536],[116.235337,-33.705706],[116.233816,-33.704287],[116.232929,-33.704054],[116.230526,-33.703074],[116.227272,-33.703077],[116.227273,-33.701445],[116.215802,-33.701428],[116.215754,-33.694244],[116.215472,-33.684659],[116.215439,-33.679672],[116.215449,-33.669785],[116.201104,-33.66985],[116.20109,-33.666362],[116.201121,-33.663807],[116.201081,-33.660249],[116.201101,-33.65888],[116.201082,-33.657791],[116.20224,-33.657802],[116.204667,-33.657817],[116.205341,-33.657798],[116.205296,-33.65653],[116.205372,-33.656529],[116.205364,-33.652598],[116.205359,-33.649145],[116.205499,-33.649044],[116.206024,-33.648721],[116.206029,-33.64628],[116.204492,-33.646272],[116.204161,-33.646252],[116.20199,-33.646254],[116.201988,-33.644689],[116.202648,-33.644353],[116.201153,-33.642303],[116.201149,-33.638705],[116.198406,-33.638708],[116.198151,-33.638722],[116.197276,-33.637521],[116.19699,-33.637117],[116.195912,-33.635644],[116.195226,-33.634724],[116.203767,-33.627897],[116.203763,-33.617444],[116.206502,-33.617459],[116.206441,-33.601441],[116.20644,-33.596373],[116.20312,-33.595637],[116.200527,-33.593327],[116.198699,-33.59259],[116.197247,-33.592606],[116.196959,-33.592518],[116.196804,-33.572976],[116.196836,-33.513495],[116.1811,-33.513457],[116.132841,-33.513338],[116.132774,-33.498986],[116.132815,-33.486809],[116.108188,-33.486944],[116.108103,-33.486939],[116.105765,-33.486937],[116.105767,-33.485362],[116.099607,-33.485357],[116.099607,-33.485301],[116.065252,-33.485406],[116.065252,-33.484954],[116.06419,-33.484954],[116.064179,-33.440355],[116.02365,-33.440481],[116.023645,-33.433279],[116.023637,-33.41966],[116.023636,-33.419147],[116.023632,-33.411882],[116.02363,-33.411692],[116.023536,-33.397155],[116.023288,-33.360891],[116.046676,-33.360788],[116.057862,-33.360737],[116.057919,-33.354075],[116.057968,-33.347713],[116.057888,-33.347719],[116.057683,-33.347722],[116.057382,-33.347776],[116.057306,-33.347809],[116.057052,-33.347909],[116.056997,-33.347902],[116.056819,-33.3479],[116.056759,-33.347871],[116.056557,-33.347702],[116.056436,-33.347586],[116.056222,-33.34732],[116.056129,-33.347198],[116.055894,-33.346972],[116.055713,-33.346809],[116.055524,-33.34668],[116.055307,-33.346597],[116.055225,-33.346585],[116.054947,-33.346524],[116.05466,-33.346492],[116.054497,-33.346478],[116.054367,-33.346482],[116.054093,-33.346547],[116.053976,-33.346586],[116.053755,-33.346715],[116.053575,-33.346839],[116.053348,-33.346951],[116.053231,-33.347],[116.053155,-33.347057],[116.053028,-33.347239],[116.05293,-33.347398],[116.052943,-33.347455],[116.05307,-33.347589],[116.053236,-33.34782],[116.053322,-33.347953],[116.053425,-33.348298],[116.053443,-33.348476],[116.053468,-33.348596],[116.053463,-33.348831],[116.053487,-33.349038],[116.053628,-33.349532],[116.053761,-33.349729],[116.053933,-33.350017],[116.053992,-33.350127],[116.054033,-33.350162],[116.054232,-33.35044],[116.054393,-33.350693],[116.054457,-33.350844],[116.054395,-33.350866],[116.054272,-33.35087],[116.054204,-33.350852],[116.054136,-33.350857],[116.053999,-33.350855],[116.053452,-33.350945],[116.053341,-33.351007],[116.053273,-33.351017],[116.053086,-33.351118],[116.053003,-33.351197],[116.052912,-33.351345],[116.052875,-33.351488],[116.052883,-33.351752],[116.052925,-33.352084],[116.052962,-33.352297],[116.052959,-33.352463],[116.052935,-33.352646],[116.05285,-33.352828],[116.052675,-33.353027],[116.052508,-33.353196],[116.052194,-33.353565],[116.052084,-33.353638],[116.051959,-33.353751],[116.051882,-33.353836],[116.05175,-33.353931],[116.051516,-33.354049],[116.051351,-33.35411],[116.051084,-33.35414],[116.050961,-33.354151],[116.050804,-33.354137],[116.05066,-33.354158],[116.050296,-33.354285],[116.050172,-33.354335],[116.049953,-33.354378],[116.049817,-33.354388],[116.049674,-33.354357],[116.049462,-33.354372],[116.049325,-33.354376],[116.048924,-33.354279],[116.04872,-33.354253],[116.048659,-33.35423],[116.048517,-33.354153],[116.048443,-33.354084],[116.048321,-33.354025],[116.048267,-33.353984],[116.048199,-33.353972],[116.048091,-33.353884],[116.04803,-33.35386],[116.047962,-33.353854],[116.047839,-33.353858],[116.047763,-33.353892],[116.047563,-33.353998],[116.047363,-33.354121],[116.047239,-33.354171],[116.047088,-33.354209],[116.046979,-33.354219],[116.046932,-33.354196],[116.046721,-33.354119],[116.046518,-33.354019],[116.046039,-33.353709],[116.045883,-33.353667],[116.045726,-33.353671],[116.045403,-33.353741],[116.045149,-33.353829],[116.045012,-33.353839],[116.044876,-33.353854],[116.044786,-33.353882],[116.044698,-33.353875],[116.044548,-33.35385],[116.044422,-33.353789],[116.044407,-33.353739],[116.044409,-33.353619],[116.044488,-33.353402],[116.044511,-33.353254],[116.044499,-33.353191],[116.044365,-33.353011],[116.044265,-33.352895],[116.043987,-33.352462],[116.044162,-33.352218],[116.044253,-33.352081],[116.044227,-33.352029],[116.044173,-33.351989],[116.04405,-33.351976],[116.043824,-33.352036],[116.043625,-33.352096],[116.043405,-33.352145],[116.043241,-33.352154],[116.042942,-33.352105],[116.042764,-33.352108],[116.042586,-33.35214],[116.042367,-33.35216],[116.041995,-33.352362],[116.041808,-33.352468],[116.041643,-33.352552],[116.041423,-33.352641],[116.041141,-33.352734],[116.04099,-33.35279],[116.040799,-33.352793],[116.040635,-33.352762],[116.040568,-33.352715],[116.040542,-33.352658],[116.040536,-33.352579],[116.040587,-33.352429],[116.040938,-33.352256],[116.040967,-33.352182],[116.040963,-33.352039],[116.040923,-33.351935],[116.04075,-33.351732],[116.040522,-33.351535],[116.040367,-33.351412],[116.040191,-33.351307],[116.040042,-33.351248],[116.039715,-33.351192],[116.039518,-33.351167],[116.039203,-33.351162],[116.038864,-33.351061],[116.038626,-33.351006],[116.038422,-33.350946],[116.038111,-33.35081],[116.037942,-33.350728],[116.037705,-33.350587],[116.037509,-33.350482],[116.036885,-33.350303],[116.036625,-33.350275],[116.036475,-33.350286],[116.036283,-33.350323],[116.036133,-33.35031],[116.035971,-33.350233],[116.035658,-33.349805],[116.035551,-33.349666],[116.035384,-33.349492],[116.035304,-33.349388],[116.035163,-33.349249],[116.035069,-33.349179],[116.034872,-33.349096],[116.034725,-33.348987],[116.034598,-33.348812],[116.034559,-33.348714],[116.034519,-33.348656],[116.03437,-33.348562],[116.034257,-33.348435],[116.034156,-33.348353],[116.03399,-33.348075],[116.033877,-33.34792],[116.03373,-33.347763],[116.033299,-33.347407],[116.033097,-33.347296],[116.033015,-33.347284],[116.03294,-33.347249],[116.032764,-33.347201],[116.032573,-33.347164],[116.032409,-33.347173],[116.032148,-33.347256],[116.031983,-33.3473],[116.031567,-33.347334],[116.031307,-33.347336],[116.031046,-33.347436],[116.030895,-33.347463],[116.030419,-33.347692],[116.03035,-33.347776],[116.030269,-33.348068],[116.030199,-33.34817],[116.030053,-33.3483],[116.029984,-33.34831],[116.029903,-33.348304],[116.029733,-33.34825],[116.029597,-33.348237],[116.029528,-33.348247],[116.029487,-33.348281],[116.029454,-33.34855],[116.029417,-33.348687],[116.029407,-33.348859],[116.029304,-33.34892],[116.029229,-33.348914],[116.029025,-33.348871],[116.028855,-33.348851],[116.028506,-33.34887],[116.028328,-33.34889],[116.028014,-33.348898],[116.027563,-33.348892],[116.02729,-33.348883],[116.027113,-33.348892],[116.026773,-33.349018],[116.026672,-33.349064],[116.026536,-33.349033],[116.026285,-33.348967],[116.025836,-33.348869],[116.025564,-33.348814],[116.025408,-33.348761],[116.025252,-33.348736],[116.024919,-33.348634],[116.024763,-33.34858],[116.024317,-33.348294],[116.024178,-33.348108],[116.024003,-33.347934],[116.023883,-33.347795],[116.023797,-33.347662],[116.023676,-33.347546],[116.023548,-33.347464],[116.023426,-33.347405],[116.023324,-33.347404],[116.023261,-33.347461],[116.023246,-33.347523],[116.023251,-33.34765],[116.023336,-33.347851],[116.023402,-33.347961],[116.023447,-33.348088],[116.023432,-33.348185],[116.023015,-33.34854],[116.022986,-33.348643],[116.023004,-33.348781],[116.023036,-33.348901],[116.023012,-33.349073],[116.022895,-33.349135],[116.022758,-33.34915],[116.022642,-33.349137],[116.022191,-33.349171],[116.022109,-33.349159],[116.021919,-33.349122],[116.021844,-33.349121],[116.021782,-33.349143],[116.021678,-33.349233],[116.021433,-33.349556],[116.021355,-33.349665],[116.021183,-33.349771],[116.02066,-33.349965],[116.020556,-33.350043],[116.020347,-33.350299],[116.020164,-33.350554],[116.020045,-33.35073],[116.01996,-33.350872],[116.019793,-33.351059],[116.019661,-33.351178],[116.019528,-33.351325],[116.019451,-33.35145],[116.019414,-33.351621],[116.019392,-33.352034],[116.019391,-33.352108],[116.019284,-33.35233],[116.019186,-33.352473],[116.019096,-33.352534],[116.019034,-33.352557],[116.019006,-33.352556],[116.018884,-33.352555],[116.018684,-33.352633],[116.018423,-33.352727],[116.018299,-33.352777],[116.017902,-33.353178],[116.017715,-33.353359],[116.017568,-33.353535],[116.017443,-33.353648],[116.016952,-33.353939],[116.016526,-33.354082],[116.016362,-33.354132],[116.016168,-33.354244],[116.016037,-33.354351],[116.015994,-33.354414],[116.016005,-33.354546],[116.016024,-33.354649],[116.016001,-33.354775],[116.016038,-33.354999],[116.016062,-33.355188],[116.016099,-33.355355],[116.016139,-33.355407],[116.016253,-33.355529],[116.016327,-33.355581],[116.016752,-33.355862],[116.016866,-33.355966],[116.016892,-33.356024],[116.016898,-33.356076],[116.016883,-33.356089],[116.016857,-33.356115],[116.016808,-33.356137],[116.016699,-33.356148],[116.016433,-33.356127],[116.016222,-33.356078],[116.016079,-33.356059],[116.015998,-33.356029],[116.01547,-33.355782],[116.014912,-33.3557],[116.014664,-33.355777],[116.014505,-33.355866],[116.014352,-33.356065],[116.01431,-33.356099],[116.014237,-33.356095],[116.014139,-33.356091],[116.014072,-33.356044],[116.014017,-33.356026],[116.013842,-33.355921],[116.013653,-33.355821],[116.01351,-33.355796],[116.013224,-33.355741],[116.012979,-33.355686],[116.012789,-33.355626],[116.012632,-33.355636],[116.012338,-33.355637],[116.012057,-33.355697],[116.011831,-33.355734],[116.011565,-33.355747],[116.011359,-33.355768],[116.011291,-33.355761],[116.011038,-33.355781],[116.010744,-33.355788],[116.010505,-33.355785],[116.010314,-33.355794],[116.010068,-33.355774],[116.009823,-33.355736],[116.009681,-33.355706],[116.009558,-33.355704],[116.009252,-33.355608],[116.009049,-33.355537],[116.008825,-33.355442],[116.008723,-33.355452],[116.008645,-33.355583],[116.008622,-33.355697],[116.008618,-33.355949],[116.008621,-33.356104],[116.008591,-33.356252],[116.008659,-33.35666],[116.008703,-33.356861],[116.008726,-33.357074],[116.008763,-33.357275],[116.008792,-33.357533],[116.008885,-33.358027],[116.008842,-33.358152],[116.008695,-33.358328],[116.008528,-33.358469],[116.008294,-33.358627],[116.008148,-33.358734],[116.008044,-33.358825],[116.007827,-33.359091],[116.00775,-33.359193],[116.007686,-33.359313],[116.007642,-33.35949],[116.007767,-33.359743],[116.007799,-33.359847],[116.007805,-33.35991],[116.007788,-33.360053],[116.007767,-33.360116],[116.00775,-33.360253],[116.007781,-33.360437],[116.007758,-33.360569],[116.0077,-33.360728],[116.007645,-33.360773],[116.007323,-33.360838],[116.007179,-33.36087],[116.00702,-33.360954],[116.006895,-33.361044],[116.006853,-33.361107],[116.006798,-33.36114],[116.006756,-33.361197],[116.006623,-33.361327],[116.006457,-33.361439],[116.005979,-33.361811],[116.005902,-33.361913],[116.005485,-33.362303],[116.005265,-33.36238],[116.005093,-33.362452],[116.00501,-33.36252],[116.004761,-33.362666],[116.00467,-33.362756],[116.004581,-33.362789],[116.004479,-33.3628],[116.003905,-33.362786],[116.003668,-33.362686],[116.003593,-33.362667],[116.00345,-33.362654],[116.003327,-33.362664],[116.002922,-33.362773],[116.002737,-33.362828],[116.002606,-33.362855],[116.002449,-33.362864],[116.00225,-33.362885],[116.001977,-33.362887],[116.001501,-33.362861],[116.001143,-33.362866],[116.000978,-33.362944],[116.000697,-33.363369],[116.000654,-33.363472],[116.000617,-33.363609],[116.000563,-33.363865],[116.000546,-33.364077],[116.000578,-33.364159],[116.000603,-33.364274],[116.000744,-33.364711],[116.001067,-33.364927],[116.00116,-33.365055],[116.001049,-33.365511],[116.00099,-33.365688],[116.000945,-33.365905],[116.000969,-33.366054],[116.001014,-33.366215],[116.001125,-33.366458],[116.001444,-33.366743],[116.001501,-33.366799],[116.001773,-33.367165],[116.00192,-33.367287],[116.002467,-33.367306],[116.002651,-33.367297],[116.003021,-33.367262],[116.003362,-33.367237],[116.003514,-33.367199],[116.003795,-33.367145],[116.003987,-33.367079],[116.004276,-33.366962],[116.004427,-33.36693],[116.004612,-33.366909],[116.004762,-33.366911],[116.004994,-33.366897],[116.005206,-33.3669],[116.005431,-33.366915],[116.005526,-33.366939],[116.005574,-33.366968],[116.005628,-33.367059],[116.005652,-33.367152],[116.005623,-33.367255],[116.005531,-33.367391],[116.005448,-33.36747],[116.005275,-33.367606],[116.005143,-33.367684],[116.004943,-33.367785],[116.004777,-33.367908],[116.004673,-33.36801],[116.004615,-33.368141],[116.004481,-33.368415],[116.004431,-33.368495],[116.004415,-33.368626],[116.004435,-33.368678],[116.004482,-33.368713],[116.004625,-33.368743],[116.004782,-33.368751],[116.004945,-33.368787],[116.005196,-33.368854],[116.005367,-33.368879],[116.005502,-33.368921],[116.005549,-33.368956],[116.005582,-33.369013],[116.005579,-33.369168],[116.00555,-33.369254],[116.005448,-33.369602],[116.005447,-33.369671],[116.00536,-33.369904],[116.00529,-33.370008],[116.005185,-33.370126],[116.004907,-33.370426],[116.004761,-33.370551],[116.004482,-33.370822],[116.004371,-33.371302],[116.004306,-33.371456],[116.004243,-33.371535],[116.004035,-33.371716],[116.003911,-33.371777],[116.003793,-33.371873],[116.003723,-33.371981],[116.003728,-33.372038],[116.003762,-33.37209],[116.00389,-33.372138],[116.004013,-33.372156],[116.004285,-33.372189],[116.004449,-33.372237],[116.004639,-33.372302],[116.004787,-33.372419],[116.004989,-33.372571],[116.00509,-33.372618],[116.005361,-33.37273],[116.005484,-33.372749],[116.006438,-33.372848],[116.006601,-33.372896],[116.006833,-33.372916],[116.006983,-33.372912],[116.007284,-33.372881],[116.007496,-33.372873],[116.007873,-33.372837],[116.008085,-33.372794],[116.00814,-33.372795],[116.008229,-33.372773],[116.008386,-33.372786],[116.008433,-33.372833],[116.008458,-33.372948],[116.008523,-33.373138],[116.008518,-33.373189],[116.008514,-33.373241],[116.008485,-33.373286],[116.008382,-33.37333],[116.008245,-33.373346],[116.008177,-33.373368],[116.008059,-33.37347],[116.007919,-33.373612],[116.007843,-33.373697],[116.007707,-33.373792],[116.007533,-33.374034],[116.007403,-33.374231],[116.007323,-33.374367],[116.007241,-33.374548],[116.007187,-33.374736],[116.007138,-33.37497],[116.00711,-33.375164],[116.00714,-33.375279],[116.007199,-33.37535],[116.00721,-33.375447],[116.007381,-33.375623],[116.007493,-33.375746],[116.007498,-33.375792],[116.007521,-33.375907],[116.007611,-33.376087],[116.007693,-33.376284],[116.007767,-33.376509],[116.007879,-33.376638],[116.008029,-33.376831],[116.008557,-33.377354],[116.008588,-33.377435],[116.008568,-33.377624],[116.008524,-33.377697],[116.008508,-33.377771],[116.008446,-33.37797],[116.008404,-33.378009],[116.0082,-33.378176],[116.008072,-33.378316],[116.007923,-33.378656],[116.007893,-33.378741],[116.007943,-33.379075],[116.007984,-33.37927],[116.008142,-33.379813],[116.008353,-33.380042],[116.008556,-33.380299],[116.008746,-33.380515],[116.008871,-33.380645],[116.008982,-33.380796],[116.00913,-33.381064],[116.00921,-33.381134],[116.00933,-33.381212],[116.009467,-33.381376],[116.009554,-33.381446],[116.009682,-33.381484],[116.009811,-33.38151],[116.009968,-33.381508],[116.010072,-33.381488],[116.010197,-33.381428],[116.010252,-33.381418],[116.01037,-33.38137],[116.010503,-33.381281],[116.010588,-33.381174],[116.010756,-33.380881],[116.010829,-33.380739],[116.010894,-33.380661],[116.011021,-33.380538],[116.011147,-33.380438],[116.01132,-33.380367],[116.011465,-33.38033],[116.011514,-33.380303],[116.011611,-33.380265],[116.01164,-33.380261],[116.011769,-33.38024],[116.011823,-33.380247],[116.011964,-33.380343],[116.01202,-33.380482],[116.012036,-33.380631],[116.012027,-33.380883],[116.01203,-33.380986],[116.011975,-33.381179],[116.01193,-33.381287],[116.011997,-33.381547],[116.012132,-33.381768],[116.012266,-33.382035],[116.012408,-33.38229],[116.012528,-33.382562],[116.012713,-33.38294],[116.012796,-33.383103],[116.012865,-33.383281],[116.013019,-33.383573],[116.013146,-33.383833],[116.013297,-33.384015],[116.013403,-33.384097],[116.013515,-33.384215],[116.013694,-33.384368],[116.013781,-33.384434],[116.013916,-33.384489],[116.013975,-33.384541],[116.014091,-33.384549],[116.01427,-33.384554],[116.014659,-33.384523],[116.014832,-33.384499],[116.015025,-33.384452],[116.015279,-33.38443],[116.015942,-33.384412],[116.016097,-33.384479],[116.0163,-33.384725],[116.016445,-33.384866],[116.016477,-33.384941],[116.01653,-33.384982],[116.016664,-33.38506],[116.016922,-33.385107],[116.016996,-33.385149],[116.017059,-33.385293],[116.01705,-33.385356],[116.016586,-33.385717],[116.016234,-33.386012],[116.015904,-33.386273],[116.015411,-33.386674],[116.015179,-33.386869],[116.01506,-33.386963],[116.01496,-33.387081],[116.014752,-33.387563],[116.014865,-33.387841],[116.014846,-33.387983],[116.014871,-33.388047],[116.014842,-33.388104],[116.0148,-33.388137],[116.014771,-33.388176],[116.014401,-33.388414],[116.014006,-33.388748],[116.013844,-33.388898],[116.013682,-33.389031],[116.013466,-33.389152],[116.012881,-33.38927],[116.012702,-33.389299],[116.012612,-33.389337],[116.012417,-33.38943],[116.012193,-33.389585],[116.011975,-33.389762],[116.011855,-33.389868],[116.011735,-33.389997],[116.011669,-33.390093],[116.01158,-33.390308],[116.011563,-33.390394],[116.01158,-33.390514],[116.011656,-33.390683],[116.011807,-33.390847],[116.011913,-33.39093],[116.012055,-33.391002],[116.012291,-33.391082],[116.012474,-33.391127],[116.012642,-33.391188],[116.01281,-33.391267],[116.013021,-33.391318],[116.013277,-33.391399],[116.013433,-33.391454],[116.013582,-33.391493],[116.013928,-33.391536],[116.014295,-33.391596],[116.014635,-33.391668],[116.014892,-33.391737],[116.015041,-33.391769],[116.015245,-33.391792],[116.0154,-33.391853],[116.015581,-33.391949],[116.015634,-33.392013],[116.015665,-33.392095],[116.015642,-33.392168],[116.015508,-33.39228],[116.015189,-33.392403],[116.014775,-33.392525],[116.01452,-33.392593],[116.013995,-33.392758],[116.01387,-33.3928],[116.013463,-33.393111],[116.013367,-33.393321],[116.013295,-33.393611],[116.013264,-33.393719],[116.013268,-33.394006],[116.013301,-33.394236],[116.01331,-33.394356],[116.013353,-33.394494],[116.013399,-33.394742],[116.013415,-33.394868],[116.013399,-33.394948],[116.013311,-33.395095],[116.013193,-33.395161],[116.013064,-33.395118],[116.012924,-33.395028],[116.012805,-33.394916],[116.012663,-33.394695],[116.012391,-33.394448],[116.01216,-33.394224],[116.012035,-33.394095],[116.011816,-33.393906],[116.011603,-33.393735],[116.011509,-33.393675],[116.011205,-33.393587],[116.011096,-33.393562],[116.010795,-33.393571],[116.010481,-33.393765],[116.01036,-33.393917],[116.010205,-33.394217],[116.010138,-33.39437],[116.010062,-33.394597],[116.009959,-33.394801],[116.009789,-33.394985],[116.009564,-33.395163],[116.009465,-33.395252],[116.009144,-33.395639],[116.009122,-33.39588],[116.009117,-33.396011],[116.009157,-33.396241],[116.009198,-33.39642],[116.009341,-33.396653],[116.009431,-33.396815],[116.009715,-33.397097],[116.010053,-33.397369],[116.010148,-33.397412],[116.010371,-33.397486],[116.010409,-33.39755],[116.010491,-33.397747],[116.010693,-33.398039],[116.010922,-33.398319],[116.011034,-33.398448],[116.011131,-33.398588],[116.011182,-33.398698],[116.011313,-33.398856],[116.011481,-33.398929],[116.011704,-33.399009],[116.011983,-33.399067],[116.012193,-33.399096],[116.012797,-33.399231],[116.012988,-33.399236],[116.013342,-33.399285],[116.013505,-33.399312],[116.013764,-33.39933],[116.01409,-33.399378],[116.014261,-33.399388],[116.014573,-33.399436],[116.014798,-33.399476],[116.014975,-33.399486],[116.015254,-33.399527],[116.015607,-33.399593],[116.015973,-33.399671],[116.016088,-33.399703],[116.016429,-33.399728],[116.016789,-33.399783],[116.016993,-33.399805],[116.017308,-33.399807],[116.018004,-33.400024],[116.018283,-33.400048],[116.018562,-33.400096],[116.018915,-33.400167],[116.019058,-33.400188],[116.019188,-33.400174],[116.019283,-33.400188],[116.019761,-33.400389],[116.020024,-33.400516],[116.020285,-33.400665],[116.02048,-33.400768],[116.020518,-33.400832],[116.02055,-33.401096],[116.020486,-33.401352],[116.020461,-33.401489],[116.020466,-33.401535],[116.020609,-33.401751],[116.020702,-33.401816],[116.020072,-33.40325],[116.019652,-33.403109],[116.019363,-33.402992],[116.019201,-33.402914],[116.019034,-33.402801],[116.018951,-33.402735],[116.018565,-33.402342],[116.018096,-33.402079],[116.017927,-33.402029],[116.017579,-33.402009],[116.016959,-33.401959],[116.016839,-33.401881],[116.016203,-33.401688],[116.015946,-33.401613],[116.015795,-33.401637],[116.015548,-33.40166],[116.015161,-33.401788],[116.014643,-33.401994],[116.014426,-33.402067],[116.014089,-33.402139],[116.013751,-33.402222],[116.013531,-33.402269],[116.013323,-33.402326],[116.013066,-33.402446],[116.012912,-33.402562],[116.012676,-33.402671],[116.012539,-33.402685],[116.012233,-33.402632],[116.012073,-33.402501],[116.011999,-33.402477],[116.011843,-33.402461],[116.011774,-33.402477],[116.011536,-33.402431],[116.011453,-33.402446],[116.011358,-33.402438],[116.01108,-33.402557],[116.010764,-33.403002],[116.010729,-33.403213],[116.010803,-33.403455],[116.011026,-33.403724],[116.011361,-33.404099],[116.011363,-33.404248],[116.011331,-33.404356],[116.011259,-33.404475],[116.011124,-33.404632],[116.011003,-33.404755],[116.010841,-33.404888],[116.010631,-33.405026],[116.010429,-33.40513],[116.010223,-33.405177],[116.010072,-33.40519],[116.009896,-33.405151],[116.009671,-33.405117],[116.009427,-33.405054],[116.009248,-33.404912],[116.009024,-33.404654],[116.008685,-33.404199],[116.008531,-33.404103],[116.008233,-33.404034],[116.008078,-33.403983],[116.007493,-33.403901],[116.007215,-33.403836],[116.006995,-33.403865],[116.006735,-33.403887],[116.006631,-33.403908],[116.006478,-33.403978],[116.006346,-33.404055],[116.00626,-33.404173],[116.006244,-33.404225],[116.006204,-33.404384],[116.006225,-33.404585],[116.006289,-33.404701],[116.006293,-33.404787],[116.006124,-33.40492],[116.005726,-33.405151],[116.005475,-33.405305],[116.005384,-33.405349],[116.005229,-33.4055],[116.005143,-33.405607],[116.005077,-33.405719],[116.00509,-33.405949],[116.005104,-33.406138],[116.005101,-33.406224],[116.005156,-33.406409],[116.005213,-33.406542],[116.005316,-33.406711],[116.005427,-33.406857],[116.005546,-33.406963],[116.00576,-33.407106],[116.006016,-33.407198],[116.006279,-33.407308],[116.00677,-33.407532],[116.0071,-33.407689],[116.007449,-33.407864],[116.00804,-33.408148],[116.008244,-33.408176],[116.008365,-33.408242],[116.008525,-33.408349],[116.008664,-33.408473],[116.008822,-33.408649],[116.00891,-33.408691],[116.009032,-33.408717],[116.009108,-33.40869],[116.009281,-33.40862],[116.009742,-33.408351],[116.009954,-33.408345],[116.009979,-33.408431],[116.009963,-33.408471],[116.00985,-33.408583],[116.009619,-33.408737],[116.009473,-33.408814],[116.009297,-33.408953],[116.009071,-33.409165],[116.008958,-33.409265],[116.00868,-33.409585],[116.008623,-33.409658],[116.008552,-33.40992],[116.008518,-33.410108],[116.008484,-33.410502],[116.008435,-33.410908],[116.008409,-33.411073],[116.008411,-33.411199],[116.008368,-33.41145],[116.008408,-33.411686],[116.008499,-33.411809],[116.001501,-33.411599],[116.00127,-33.411378],[116.001035,-33.411192],[116.000995,-33.411157],[116.000901,-33.411086],[116.000822,-33.410959],[116.000769,-33.410861],[116.000744,-33.410712],[116.00076,-33.41062],[116.000922,-33.410353],[116.00105,-33.410073],[116.00117,-33.40984],[116.001248,-33.409657],[116.0013,-33.409457],[116.001358,-33.409257],[116.001383,-33.409045],[116.001378,-33.408942],[116.001333,-33.408798],[116.001295,-33.408608],[116.001284,-33.408505],[116.001116,-33.408348],[116.000947,-33.408265],[116.00073,-33.408188],[116.000567,-33.408146],[116.000404,-33.408121],[115.99994,-33.408109],[115.99949,-33.408109],[115.998346,-33.408094],[115.9981,-33.408114],[115.997327,-33.408219],[115.997047,-33.408244],[115.996924,-33.408259],[115.996698,-33.408331],[115.996573,-33.408444],[115.996483,-33.408506],[115.996335,-33.408739],[115.996257,-33.408893],[115.996201,-33.408979],[115.996111,-33.409058],[115.995918,-33.409153],[115.99576,-33.409242],[115.995608,-33.409344],[115.995469,-33.409451],[115.995344,-33.40957],[115.995192,-33.409688],[115.995033,-33.409778],[115.994861,-33.409839],[115.994752,-33.409861],[115.994643,-33.409859],[115.994596,-33.40983],[115.994497,-33.409644],[115.994473,-33.409489],[115.994467,-33.409053],[115.994467,-33.408319],[115.994458,-33.408066],[115.994472,-33.407723],[115.994477,-33.407464],[115.994469,-33.40716],[115.994471,-33.407057],[115.994426,-33.406862],[115.994388,-33.406764],[115.994328,-33.406683],[115.994113,-33.406502],[115.993837,-33.406286],[115.993757,-33.406211],[115.993677,-33.406084],[115.993638,-33.405974],[115.993645,-33.405607],[115.993671,-33.405361],[115.993681,-33.405166],[115.993664,-33.404976],[115.993633,-33.404838],[115.993568,-33.404671],[115.99351,-33.404464],[115.993452,-33.404297],[115.993373,-33.40413],[115.993315,-33.403946],[115.993273,-33.403681],[115.993249,-33.40348],[115.993244,-33.403383],[115.993098,-33.403197],[115.99297,-33.40307],[115.992829,-33.40297],[115.992653,-33.402899],[115.992476,-33.402857],[115.992123,-33.402822],[115.991545,-33.402683],[115.991444,-33.40263],[115.991363,-33.40256],[115.991304,-33.402479],[115.991278,-33.402376],[115.991246,-33.402272],[115.991247,-33.40222],[115.991238,-33.401962],[115.991241,-33.401819],[115.991256,-33.401727],[115.991334,-33.401597],[115.9915,-33.40145],[115.991639,-33.401319],[115.991923,-33.401099],[115.992068,-33.400981],[115.992187,-33.400862],[115.992256,-33.400777],[115.992415,-33.400331],[115.992426,-33.400091],[115.992476,-33.39961],[115.992553,-33.399524],[115.992596,-33.399427],[115.992639,-33.39929],[115.992641,-33.399199],[115.992582,-33.39906],[115.992535,-33.399037],[115.992317,-33.399028],[115.992201,-33.399027],[115.991962,-33.399087],[115.991728,-33.399176],[115.99144,-33.399298],[115.991268,-33.399382],[115.991047,-33.399517],[115.990819,-33.399669],[115.99066,-33.399787],[115.990418,-33.399945],[115.990266,-33.400035],[115.990039,-33.400146],[115.989861,-33.400219],[115.989627,-33.400285],[115.989244,-33.400366],[115.988929,-33.400424],[115.988758,-33.400462],[115.988409,-33.400503],[115.988163,-33.400524],[115.98787,-33.400532],[115.987454,-33.40052],[115.987222,-33.400518],[115.986888,-33.400536],[115.986779,-33.400546],[115.986724,-33.400569],[115.986537,-33.400704],[115.986454,-33.400772],[115.986439,-33.400817],[115.986427,-33.401121],[115.986427,-33.401477],[115.986412,-33.402182],[115.986404,-33.402279],[115.986361,-33.40237],[115.986337,-33.402565],[115.98632,-33.40276],[115.986309,-33.403316],[115.986574,-33.40371],[115.986654,-33.403843],[115.986686,-33.403935],[115.986684,-33.404038],[115.986532,-33.4045],[115.986454,-33.404643],[115.986411,-33.404745],[115.986373,-33.40498],[115.98634,-33.405267],[115.986323,-33.405478],[115.986315,-33.40553],[115.986306,-33.405627],[115.986089,-33.405912],[115.985973,-33.405944],[115.985631,-33.405963],[115.9854,-33.40596],[115.985161,-33.405945],[115.985045,-33.405933],[115.984936,-33.405943],[115.98482,-33.405964],[115.984675,-33.406031],[115.984633,-33.406071],[115.98434,-33.406457],[115.984311,-33.406554],[115.98431,-33.4066],[115.984259,-33.406754],[115.984236,-33.406892],[115.984239,-33.407081],[115.984269,-33.407322],[115.984287,-33.407425],[115.984444,-33.407754],[115.984524,-33.407899],[115.984583,-33.407985],[115.984873,-33.408167],[115.985022,-33.408249],[115.985116,-33.408313],[115.985183,-33.4084],[115.985195,-33.408447],[115.98518,-33.408538],[115.985137,-33.408635],[115.985012,-33.408754],[115.984819,-33.408883],[115.984687,-33.408985],[115.9845,-33.409177],[115.984353,-33.409342],[115.984192,-33.409552],[115.984081,-33.409682],[115.983996,-33.409813],[115.983954,-33.409905],[115.983835,-33.410075],[115.983764,-33.41016],[115.98375,-33.410206],[115.983658,-33.410394],[115.983551,-33.410651],[115.983515,-33.410748],[115.983514,-33.410793],[115.983492,-33.410845],[115.983485,-33.411212],[115.983475,-33.411401],[115.98346,-33.411498],[115.983431,-33.41155],[115.983347,-33.41168],[115.983264,-33.411754],[115.983209,-33.411776],[115.983154,-33.411781],[115.983107,-33.411752],[115.982867,-33.411439],[115.982774,-33.411312],[115.982701,-33.411236],[115.982552,-33.411165],[115.982451,-33.411107],[115.982335,-33.411082],[115.982117,-33.41108],[115.982008,-33.411084],[115.981898,-33.411111],[115.981643,-33.411234],[115.981521,-33.411239],[115.981459,-33.411234],[115.981405,-33.411231],[115.981358,-33.411202],[115.981365,-33.411156],[115.981394,-33.411059],[115.981436,-33.411014],[115.981458,-33.410968],[115.981521,-33.410877],[115.98168,-33.41073],[115.981819,-33.410629],[115.981902,-33.410555],[115.98195,-33.410533],[115.98204,-33.410465],[115.982138,-33.410346],[115.982223,-33.410158],[115.982302,-33.409947],[115.982361,-33.409747],[115.982405,-33.409552],[115.982429,-33.409392],[115.982487,-33.409192],[115.982587,-33.408941],[115.98263,-33.408844],[115.982636,-33.408546],[115.982626,-33.408339],[115.982566,-33.407931],[115.982547,-33.407828],[115.982429,-33.407585],[115.982376,-33.407493],[115.981987,-33.407167],[115.981845,-33.407062],[115.981744,-33.407003],[115.98159,-33.406846],[115.981524,-33.406759],[115.981477,-33.406724],[115.981422,-33.406723],[115.981313,-33.406711],[115.981266,-33.406687],[115.981171,-33.406628],[115.981159,-33.406582],[115.981161,-33.406485],[115.98119,-33.406388],[115.981281,-33.406263],[115.981379,-33.406138],[115.981491,-33.40595],[115.981652,-33.405734],[115.981856,-33.405439],[115.98194,-33.405308],[115.981976,-33.405211],[115.981992,-33.405113],[115.982213,-33.404583],[115.982249,-33.40448],[115.98225,-33.404434],[115.982218,-33.404336],[115.98205,-33.404185],[115.981935,-33.404143],[115.981819,-33.404142],[115.981648,-33.404151],[115.981484,-33.404178],[115.981209,-33.404278],[115.981031,-33.40435],[115.980852,-33.404405],[115.980736,-33.404432],[115.980129,-33.40443],[115.979966,-33.404377],[115.979912,-33.404364],[115.979818,-33.404312],[115.979664,-33.404137],[115.979517,-33.403958],[115.979371,-33.403743],[115.979198,-33.403512],[115.979139,-33.403425],[115.979098,-33.40339],[115.979018,-33.403309],[115.97891,-33.403244],[115.978633,-33.403144],[115.978456,-33.40309],[115.978293,-33.403065],[115.978553,-33.402666],[115.979414,-33.402219],[115.97958,-33.402112],[115.97969,-33.402044],[115.979739,-33.401988],[115.979806,-33.401648],[115.978473,-33.401627],[115.978309,-33.401625],[115.978192,-33.401658],[115.97796,-33.401703],[115.977761,-33.401724],[115.977453,-33.401734],[115.977002,-33.401754],[115.976838,-33.401742],[115.976681,-33.401723],[115.976524,-33.401648],[115.976203,-33.401646],[115.97597,-33.401633],[115.975827,-33.401604],[115.975684,-33.401551],[115.975438,-33.401492],[115.974891,-33.401005],[115.974574,-33.400807],[115.974226,-33.400777],[115.973897,-33.400853],[115.973714,-33.401006],[115.973312,-33.401311],[115.972673,-33.401601],[115.972234,-33.401875],[115.971886,-33.402181],[115.971722,-33.402303],[115.971466,-33.402394],[115.970989,-33.402425],[115.970745,-33.402449],[115.970229,-33.402194],[115.970218,-33.402191],[115.970208,-33.402183],[115.970181,-33.402141],[115.970144,-33.402062],[115.970135,-33.402015],[115.970081,-33.401935],[115.970021,-33.40181],[115.96997,-33.401715],[115.969914,-33.401627],[115.969877,-33.401585],[115.969823,-33.401542],[115.969783,-33.40152],[115.969733,-33.401502],[115.969514,-33.401446],[115.969449,-33.401433],[115.969405,-33.401432],[115.96936,-33.401438],[115.969241,-33.40146],[115.96905,-33.401522],[115.968901,-33.401578],[115.968804,-33.401622],[115.968696,-33.401659],[115.968469,-33.401719],[115.968086,-33.401809],[115.968012,-33.401824],[115.967962,-33.40183],[115.967919,-33.401831],[115.967846,-33.401819],[115.967808,-33.401808],[115.967689,-33.401765],[115.967612,-33.401736],[115.967539,-33.401703],[115.967447,-33.401651],[115.967322,-33.401563],[115.967237,-33.401483],[115.967206,-33.401459],[115.967183,-33.401445],[115.96707,-33.401395],[115.96701,-33.401357],[115.966955,-33.401314],[115.966887,-33.401239],[115.966861,-33.401219],[115.966773,-33.401169],[115.966736,-33.401145],[115.966717,-33.401129],[115.966683,-33.401083],[115.96661,-33.401028],[115.966588,-33.401008],[115.966542,-33.400953],[115.966361,-33.400701],[115.966284,-33.400611],[115.965871,-33.400201],[115.965735,-33.400052],[115.965674,-33.399998],[115.965609,-33.399948],[115.96547,-33.399855],[115.965381,-33.399802],[115.965325,-33.399767],[115.965279,-33.399731],[115.965225,-33.399683],[115.965138,-33.399595],[115.965114,-33.399505],[115.965105,-33.399429],[115.965105,-33.39933],[115.965112,-33.399168],[115.965119,-33.398923],[115.965062,-33.398508],[115.96498,-33.398115],[115.964764,-33.397583],[115.964768,-33.397559],[115.964768,-33.39752],[115.964763,-33.397489],[115.964755,-33.397468],[115.96472,-33.397427],[115.96469,-33.397402],[115.964663,-33.39739],[115.964644,-33.397392],[115.964168,-33.397155],[115.963869,-33.396999],[115.96367,-33.396887],[115.963474,-33.396773],[115.963291,-33.396657],[115.963059,-33.396535],[115.962888,-33.396434],[115.962836,-33.396413],[115.962753,-33.396389],[115.962702,-33.396364],[115.962672,-33.396339],[115.962628,-33.396293],[115.962547,-33.396199],[115.962509,-33.396143],[115.962481,-33.396081],[115.962458,-33.396012],[115.962438,-33.395943],[115.96242,-33.395859],[115.962407,-33.395821],[115.962365,-33.395736],[115.962306,-33.395641],[115.962268,-33.395595],[115.962219,-33.395551],[115.962202,-33.395545],[115.962181,-33.395541],[115.962157,-33.395543],[115.962138,-33.39555],[115.962033,-33.395524],[115.961974,-33.395527],[115.961851,-33.395546],[115.961489,-33.395646],[115.961349,-33.395667],[115.961081,-33.395652],[115.960896,-33.395655],[115.960748,-33.395681],[115.96049,-33.3958],[115.960268,-33.395932],[115.960139,-33.395965],[115.960003,-33.395986],[115.959806,-33.395976],[115.959656,-33.395897],[115.959489,-33.395773],[115.959372,-33.395635],[115.959253,-33.395519],[115.959081,-33.395447],[115.958841,-33.395406],[115.958775,-33.395397],[115.958731,-33.395396],[115.958649,-33.395401],[115.958304,-33.395447],[115.958129,-33.395459],[115.958037,-33.39548],[115.957903,-33.395481],[115.957713,-33.395467],[115.957593,-33.395405],[115.95745,-33.395268],[115.957358,-33.395055],[115.957306,-33.394862],[115.957286,-33.394738],[115.957255,-33.394631],[115.957163,-33.394495],[115.95703,-33.394388],[115.956866,-33.394255],[115.956682,-33.394153],[115.956513,-33.394042],[115.956262,-33.393921],[115.955613,-33.393268],[115.9552,-33.392846],[115.955101,-33.392755],[115.954893,-33.392629],[115.954694,-33.392517],[115.954572,-33.392464],[115.954331,-33.392424],[115.954003,-33.392394],[115.953706,-33.392404],[115.953124,-33.39251],[115.952716,-33.392569],[115.952429,-33.392616],[115.951927,-33.392778],[115.951499,-33.392945],[115.951304,-33.393007],[115.951062,-33.393043],[115.950777,-33.393037],[115.950555,-33.393026],[115.950343,-33.392951],[115.949863,-33.392648],[115.949581,-33.39217],[115.949463,-33.391858],[115.949412,-33.391533],[115.949412,-33.391315],[115.949407,-33.391097],[115.949356,-33.39096],[115.949289,-33.390858],[115.949156,-33.390768],[115.948726,-33.390601],[115.948663,-33.390554],[115.948591,-33.390511],[115.948584,-33.390508],[115.948567,-33.390509],[115.948546,-33.390516],[115.948489,-33.390475],[115.948404,-33.390431],[115.94832,-33.390396],[115.948231,-33.390373],[115.947892,-33.390276],[115.946735,-33.390028],[115.945353,-33.389678],[115.944892,-33.38955],[115.944567,-33.389428],[115.944208,-33.389308],[115.943817,-33.389233],[115.943325,-33.389174],[115.942742,-33.389131],[115.94237,-33.389053],[115.941904,-33.388797],[115.941796,-33.388768],[115.941318,-33.388891],[115.940919,-33.389071],[115.94054,-33.389114],[115.94009,-33.389122],[115.939598,-33.38902],[115.939189,-33.388857],[115.938964,-33.388626],[115.938718,-33.388353],[115.938541,-33.388184],[115.938411,-33.387966],[115.938331,-33.387678],[115.938312,-33.387329],[115.938326,-33.387177],[115.938442,-33.386951],[115.938759,-33.386313],[115.938869,-33.385829],[115.938936,-33.385445],[115.93895,-33.384887],[115.93898,-33.384527],[115.938922,-33.384008],[115.938969,-33.38338],[115.938986,-33.382852],[115.938884,-33.382249],[115.938598,-33.381368],[115.938333,-33.380619],[115.938288,-33.380483],[115.93825,-33.380334],[115.938249,-33.379977],[115.938268,-33.379395],[115.938241,-33.379188],[115.938123,-33.378969],[115.937951,-33.378754],[115.937505,-33.37836],[115.936992,-33.378078],[115.936829,-33.378035],[115.936666,-33.378021],[115.936496,-33.378025],[115.936392,-33.378063],[115.936186,-33.378158],[115.936041,-33.378254],[115.936,-33.378288],[115.935506,-33.378466],[115.934825,-33.378621],[115.934113,-33.378776],[115.933866,-33.378781],[115.933699,-33.378778],[115.933568,-33.378758],[115.933498,-33.37873],[115.93343,-33.378675],[115.933385,-33.378562],[115.933372,-33.37847],[115.933387,-33.378334],[115.933401,-33.37816],[115.933412,-33.378088],[115.933406,-33.378056],[115.933388,-33.378026],[115.933304,-33.37801],[115.933221,-33.378018],[115.933014,-33.37814],[115.93274,-33.378257],[115.932707,-33.378273],[115.932652,-33.378283],[115.932556,-33.378328],[115.932282,-33.378382],[115.932111,-33.378431],[115.931815,-33.378576],[115.931174,-33.378867],[115.93114,-33.378889],[115.931088,-33.37893],[115.93099,-33.379027],[115.930957,-33.379055],[115.930877,-33.37911],[115.930209,-33.379428],[115.929656,-33.379633],[115.929267,-33.379667],[115.928633,-33.379565],[115.927793,-33.379522],[115.927189,-33.379496],[115.926513,-33.379496],[115.926059,-33.379575],[115.925388,-33.37979],[115.924887,-33.379967],[115.924491,-33.380113],[115.924133,-33.380181],[115.923852,-33.380184],[115.923608,-33.380167],[115.923382,-33.380117],[115.923158,-33.380066],[115.922982,-33.37996],[115.922724,-33.379699],[115.922533,-33.379466],[115.922254,-33.37919],[115.92195,-33.37898],[115.921409,-33.37867],[115.921032,-33.378478],[115.920775,-33.378383],[115.920664,-33.37837],[115.920495,-33.378366],[115.920167,-33.378376],[115.919873,-33.37841],[115.919555,-33.378492],[115.919199,-33.378625],[115.919192,-33.378297],[115.919163,-33.373579],[115.919091,-33.362685],[115.918995,-33.348946],[115.927861,-33.348947],[115.92786,-33.34168],[115.924286,-33.34168],[115.924287,-33.339066],[115.918926,-33.339065],[115.918617,-33.294563],[115.918622,-33.294281],[115.918611,-33.293724],[115.918585,-33.290001],[115.933968,-33.289923],[115.946984,-33.289856],[115.946653,-33.274828],[115.946644,-33.274437],[115.946352,-33.257319],[115.946294,-33.253921],[115.946277,-33.253494],[115.94627,-33.252623],[115.946232,-33.250307],[115.946174,-33.247473],[115.946134,-33.244475],[115.945919,-33.230306],[115.945801,-33.222515],[115.945878,-33.222443],[115.945948,-33.222393],[115.946035,-33.222244],[115.946211,-33.222115],[115.946377,-33.221879],[115.946576,-33.221742],[115.946847,-33.221674],[115.947048,-33.221658],[115.947246,-33.221639],[115.94754,-33.221604],[115.947727,-33.221574],[115.947916,-33.221528],[115.948116,-33.221483],[115.948382,-33.221387],[115.948675,-33.221186],[115.948935,-33.221001],[115.949226,-33.220704],[115.9494,-33.220595],[115.949782,-33.220299],[115.950077,-33.219992],[115.950265,-33.219813],[115.950406,-33.219608],[115.95054,-33.219489],[115.95074,-33.219471],[115.950897,-33.219552],[115.950994,-33.219664],[115.951041,-33.219941],[115.951179,-33.220159],[115.951508,-33.22031],[115.952089,-33.220426],[115.952543,-33.220573],[115.952945,-33.220767],[115.953409,-33.22098],[115.953814,-33.221232],[115.953924,-33.221299],[115.954075,-33.221406],[115.954229,-33.221631],[115.954356,-33.221726],[115.954815,-33.22209],[115.955219,-33.222575],[115.955851,-33.222707],[115.956212,-33.222675],[115.956606,-33.222584],[115.956781,-33.222439],[115.957008,-33.222272],[115.957344,-33.222126],[115.958015,-33.222003],[115.958484,-33.222045],[115.958725,-33.222133],[115.959163,-33.222405],[115.959376,-33.222535],[115.959553,-33.222606],[115.959724,-33.222602],[115.959955,-33.222553],[115.960039,-33.222492],[115.960074,-33.222359],[115.960127,-33.222288],[115.960227,-33.22226],[115.961198,-33.222268],[115.962219,-33.222114],[115.962778,-33.221858],[115.963364,-33.221532],[115.96374,-33.221136],[115.963934,-33.220882],[115.964325,-33.220711],[115.96504,-33.22058],[115.96543,-33.220213],[115.965703,-33.219467],[115.966007,-33.218834],[115.966312,-33.21855],[115.966688,-33.218169],[115.967284,-33.217928],[115.967898,-33.217589],[115.96845,-33.217304],[115.968696,-33.217249],[115.969102,-33.217317],[115.969825,-33.217453],[115.970617,-33.217369],[115.971355,-33.217232],[115.972031,-33.217017],[115.972696,-33.216502],[115.973094,-33.215707],[115.973528,-33.215087],[115.973894,-33.214574],[115.974174,-33.214414],[115.974947,-33.214233],[115.975789,-33.21384],[115.976561,-33.213483],[115.977228,-33.21325],[115.978089,-33.213068],[115.978697,-33.212836],[115.97923,-33.212656],[115.980832,-33.212303],[115.980881,-33.212263],[115.981229,-33.211867],[115.981487,-33.211549],[115.981716,-33.211317],[115.982232,-33.211078],[115.982387,-33.210844],[115.982482,-33.210662],[115.983034,-33.210463],[115.983759,-33.210496],[115.984431,-33.210624],[115.985168,-33.210465],[115.985602,-33.210327],[115.986068,-33.210233],[115.986421,-33.210365],[115.986628,-33.210777],[115.986686,-33.211237],[115.987015,-33.211785],[115.987773,-33.212033],[115.988388,-33.212137],[115.988844,-33.21233],[115.989255,-33.212707],[115.989609,-33.212998],[115.99032,-33.213144],[115.990885,-33.212852],[115.991274,-33.212604],[115.991481,-33.212492],[115.991677,-33.212606],[115.991937,-33.212807],[115.992099,-33.212981],[115.992398,-33.213272],[115.992648,-33.213507],[115.992902,-33.21352],[115.993232,-33.213116],[115.993542,-33.212507],[115.993722,-33.212023],[115.993784,-33.211833],[115.994157,-33.211585],[115.994412,-33.211482],[115.994902,-33.211501],[115.995269,-33.211445],[115.995331,-33.211271],[115.99553,-33.211209],[115.995747,-33.211221],[115.996058,-33.211221],[115.996623,-33.211184],[115.997201,-33.211103],[115.998014,-33.21093],[115.998586,-33.21078],[115.999294,-33.210898],[115.999977,-33.210979],[116.001182,-33.211128],[116.001791,-33.210992],[116.002393,-33.210824],[116.002704,-33.210432],[116.003064,-33.209737],[116.003338,-33.209302],[116.003588,-33.209047],[116.003807,-33.208756],[116.003977,-33.208396],[116.004092,-33.208111],[116.00446,-33.207837],[116.004823,-33.207822],[116.00519,-33.208059],[116.005488,-33.207908],[116.005697,-33.207806],[116.005856,-33.207121],[116.006048,-33.206855],[116.006271,-33.206806],[116.006538,-33.206914],[116.006834,-33.207035],[116.007113,-33.207009],[116.00723,-33.206784],[116.007218,-33.206478],[116.00725,-33.206195],[116.007513,-33.206045],[116.007783,-33.205866],[116.007949,-33.205682],[116.007874,-33.205376],[116.007852,-33.205113],[116.00784,-33.204923],[116.007919,-33.20454],[116.00819,-33.204305],[116.008521,-33.204248],[116.008845,-33.204283],[116.009189,-33.204361],[116.009588,-33.204299],[116.009835,-33.204431],[116.009974,-33.204537],[116.010324,-33.204836],[116.010581,-33.205009],[116.011162,-33.204871],[116.011483,-33.204719],[116.011689,-33.204558],[116.011835,-33.204535],[116.012094,-33.204473],[116.012103,-33.20437],[116.012121,-33.204264],[116.012145,-33.204189],[116.012157,-33.204121],[116.012707,-33.204082],[116.012818,-33.204036],[116.01309,-33.203919],[116.013212,-33.203918],[116.013293,-33.203876],[116.013514,-33.203626],[116.013906,-33.203158],[116.014167,-33.202861],[116.014441,-33.202293],[116.014701,-33.201765],[116.01471,-33.201371],[116.014544,-33.201038],[116.013849,-33.200666],[116.013365,-33.20021],[116.013029,-33.199719],[116.012836,-33.199404],[116.012774,-33.199036],[116.012428,-33.198786],[116.012158,-33.198574],[116.011959,-33.198312],[116.011843,-33.197663],[116.012077,-33.197123],[116.012078,-33.196693],[116.011969,-33.196167],[116.011883,-33.195742],[116.011751,-33.195278],[116.011499,-33.194799],[116.011278,-33.194407],[116.011153,-33.194014],[116.011184,-33.193749],[116.011193,-33.193354],[116.010976,-33.192856],[116.010811,-33.192558],[116.010576,-33.192243],[116.010511,-33.192074],[116.010483,-33.191814],[116.010431,-33.191675],[116.010467,-33.191461],[116.010484,-33.191149],[116.01041,-33.190862],[116.010314,-33.190527],[116.010331,-33.190221],[116.010405,-33.189937],[116.010666,-33.189599],[116.010962,-33.189301],[116.011329,-33.189004],[116.011793,-33.188646],[116.01211,-33.188324],[116.012363,-33.187916],[116.012462,-33.187544],[116.012561,-33.187107],[116.012666,-33.186618],[116.012704,-33.186247],[116.012774,-33.185873],[116.012697,-33.185478],[116.012746,-33.184948],[116.012948,-33.18438],[116.01314,-33.184091],[116.013381,-33.183716],[116.013545,-33.183427],[116.013844,-33.183205],[116.014351,-33.183022],[116.01489,-33.182963],[116.01577,-33.182966],[116.016795,-33.183237],[116.017577,-33.1836],[116.018471,-33.184049],[116.019042,-33.184402],[116.019206,-33.184575],[116.01938,-33.184791],[116.019426,-33.184851],[116.019259,-33.185174],[116.01917,-33.185662],[116.019128,-33.186088],[116.019162,-33.186431],[116.019289,-33.186753],[116.019511,-33.186964],[116.01995,-33.187694],[116.020348,-33.188149],[116.021001,-33.18859],[116.021266,-33.188733],[116.021689,-33.188885],[116.022226,-33.189049],[116.022646,-33.189122],[116.0229,-33.18912],[116.023423,-33.189307],[116.024225,-33.189587],[116.024963,-33.18977],[116.025899,-33.190063],[116.02702,-33.190438],[116.027883,-33.19064],[116.028657,-33.190706],[116.029768,-33.190975],[116.030067,-33.191017],[116.030244,-33.191046],[116.031129,-33.191227],[116.031216,-33.191197],[116.0312,-33.20819],[116.031202,-33.20861],[116.0312,-33.21296],[116.020425,-33.221984],[116.008534,-33.231938],[116.030436,-33.231927],[116.035619,-33.231924],[116.037236,-33.231924],[116.077671,-33.231903],[116.133012,-33.231876],[116.144761,-33.231879],[116.144369,-33.231489],[116.144434,-33.231139],[116.144236,-33.229411],[116.144162,-33.227511],[116.141942,-33.224282],[116.144915,-33.224214],[116.14673,-33.22421],[116.146745,-33.212123],[116.146757,-33.20206],[116.146782,-33.181302],[116.146796,-33.170054],[116.146803,-33.163733],[116.146808,-33.160066],[116.146819,-33.150679],[116.14682,-33.150431],[116.146839,-33.134747],[116.146899,-33.084885],[116.209065,-33.085053],[116.208891,-33.030373],[116.208804,-32.998786],[116.208859,-32.984207],[116.208246,-32.983813],[116.207754,-32.983495],[116.207242,-32.98311],[116.206868,-32.982827],[116.20653,-32.982531],[116.206538,-32.982521],[116.206527,-32.98252],[116.20651,-32.982444],[116.206623,-32.98228],[116.206625,-32.982187],[116.206567,-32.982066],[116.206203,-32.981722],[116.205664,-32.981301],[116.205326,-32.981003],[116.204915,-32.980522],[116.204617,-32.980214],[116.204396,-32.979896],[116.204313,-32.979687],[116.204247,-32.979378],[116.204257,-32.979075],[116.204298,-32.978739],[116.204382,-32.978493],[116.204467,-32.978057],[116.204577,-32.977907],[116.204587,-32.977909],[116.204672,-32.9777],[116.204687,-32.977523],[116.204583,-32.977222],[116.204431,-32.97649],[116.204361,-32.976299],[116.204205,-32.976058],[116.203954,-32.975695],[116.203817,-32.975493],[116.203667,-32.975387],[116.203468,-32.975298],[116.203396,-32.975356],[116.203259,-32.975383],[116.203117,-32.975339],[116.202941,-32.975193],[116.2028,-32.975003],[116.202481,-32.974776],[116.202352,-32.974525],[116.20193,-32.973926],[116.201675,-32.973469],[116.201354,-32.972984],[116.200966,-32.972319],[116.200729,-32.971908],[116.200532,-32.971522],[116.200371,-32.971241],[116.200174,-32.970952],[116.2,-32.970637],[116.199924,-32.970421],[116.199917,-32.97027],[116.199981,-32.970095],[116.200056,-32.969872],[116.200076,-32.969615],[116.200033,-32.969332],[116.2,-32.969171],[116.200027,-32.969067],[116.200084,-32.969025],[116.200126,-32.969005],[116.200268,-32.96889],[116.200348,-32.968757],[116.200361,-32.968636],[116.200251,-32.968404],[116.199996,-32.967595],[116.199835,-32.967299],[116.199648,-32.967078],[116.199463,-32.96698],[116.199087,-32.966968],[116.198964,-32.966965],[116.198712,-32.966925],[116.198598,-32.96685],[116.198199,-32.966715],[116.197898,-32.966593],[116.197636,-32.966435],[116.197278,-32.966372],[116.196922,-32.966347],[116.196803,-32.966323],[116.196331,-32.966263],[116.195835,-32.966143],[116.195246,-32.966002],[116.194659,-32.965911],[116.194436,-32.965905],[116.194258,-32.965934],[116.194138,-32.965995],[116.19408,-32.966064],[116.194061,-32.966121],[116.19343,-32.966451],[116.192605,-32.966965],[116.192477,-32.967133],[116.19248,-32.967143],[116.192485,-32.96726],[116.192511,-32.967385],[116.192565,-32.967525],[116.192645,-32.967626],[116.192701,-32.967732],[116.192798,-32.967934],[116.192855,-32.968148],[116.192892,-32.968382],[116.192931,-32.968562],[116.193005,-32.968734],[116.193085,-32.968952],[116.193171,-32.969263],[116.1932,-32.969494],[116.193197,-32.969729],[116.193143,-32.970007],[116.193041,-32.97037],[116.19287,-32.970861],[116.192813,-32.971063],[116.192739,-32.971285],[116.192574,-32.971632],[116.192502,-32.971792],[116.192477,-32.971872],[116.192067,-32.972037],[116.191799,-32.972241],[116.191488,-32.972354],[116.190803,-32.972452],[116.190214,-32.972397],[116.189972,-32.972332],[116.18978,-32.97218],[116.189324,-32.971573],[116.189101,-32.971337],[116.188707,-32.970532],[116.188624,-32.970246],[116.188182,-32.969312],[116.187998,-32.968998],[116.188048,-32.968756],[116.187853,-32.968242],[116.187534,-32.96777],[116.187452,-32.967583],[116.187167,-32.96717],[116.187053,-32.966982],[116.18696,-32.966761],[116.18691,-32.966605],[116.186925,-32.966474],[116.186929,-32.966465],[116.186928,-32.966392],[116.187067,-32.966043],[116.187061,-32.965391],[116.187009,-32.965008],[116.186935,-32.96479],[116.186924,-32.964604],[116.18696,-32.9644],[116.186929,-32.964198],[116.186789,-32.963878],[116.186751,-32.963723],[116.186863,-32.963437],[116.186955,-32.963289],[116.187265,-32.962886],[116.18749,-32.962558],[116.187615,-32.962171],[116.187652,-32.961871],[116.187652,-32.961725],[116.187559,-32.961211],[116.187406,-32.960711],[116.187209,-32.960101],[116.18708,-32.959705],[116.186502,-32.95862],[116.186222,-32.958171],[116.185901,-32.957715],[116.185576,-32.957267],[116.185326,-32.956978],[116.185266,-32.956884],[116.18509,-32.956836],[116.184821,-32.956911],[116.184692,-32.956893],[116.184393,-32.956694],[116.184181,-32.956432],[116.183735,-32.95567],[116.183768,-32.955543],[116.183773,-32.955342],[116.183715,-32.955157],[116.183485,-32.954871],[116.183395,-32.954702],[116.183388,-32.954606],[116.18345,-32.954554],[116.183494,-32.954102],[116.183271,-32.953712],[116.18316,-32.953605],[116.182876,-32.953125],[116.182628,-32.952794],[116.182312,-32.952448],[116.182181,-32.952331],[116.182094,-32.952286],[116.181973,-32.952257],[116.181883,-32.952288],[116.181752,-32.95233],[116.181655,-32.952359],[116.181487,-32.952359],[116.181283,-32.952353],[116.181035,-32.952324],[116.180693,-32.952234],[116.180383,-32.952104],[116.180001,-32.951873],[116.179556,-32.951533],[116.179238,-32.951207],[116.179062,-32.950982],[116.178885,-32.950786],[116.178791,-32.950611],[116.178745,-32.950396],[116.178772,-32.950309],[116.178849,-32.950235],[116.17893,-32.950153],[116.178987,-32.95006],[116.179041,-32.949901],[116.179051,-32.9497],[116.17896,-32.949507],[116.178944,-32.949359],[116.178988,-32.949232],[116.17925,-32.949094],[116.179439,-32.949055],[116.179846,-32.949187],[116.179939,-32.949188],[116.180301,-32.949038],[116.180633,-32.948811],[116.180872,-32.9487],[116.181006,-32.948686],[116.18121,-32.948598],[116.181489,-32.948387],[116.181692,-32.947823],[116.181773,-32.947525],[116.181845,-32.947427],[116.182198,-32.947063],[116.182439,-32.946761],[116.182761,-32.946443],[116.183117,-32.946187],[116.183221,-32.946031],[116.183181,-32.945966],[116.18318,-32.945832],[116.183365,-32.945624],[116.183678,-32.945404],[116.184037,-32.945103],[116.184648,-32.944832],[116.184805,-32.944734],[116.184947,-32.944566],[116.185063,-32.944241],[116.185036,-32.943958],[116.185014,-32.943903],[116.18489,-32.943583],[116.184696,-32.943306],[116.184546,-32.943157],[116.184336,-32.943054],[116.18376,-32.942922],[116.182659,-32.942811],[116.182567,-32.942845],[116.182373,-32.943034],[116.182124,-32.943159],[116.181187,-32.94316],[116.179953,-32.94311],[116.17889,-32.942907],[116.178221,-32.942881],[116.177573,-32.942725],[116.176908,-32.94271],[116.176898,-32.942711],[116.176075,-32.942737],[116.1752,-32.942784],[116.174131,-32.942775],[116.173628,-32.942808],[116.172833,-32.942749],[116.171961,-32.942727],[116.171584,-32.942635],[116.171564,-32.942636],[116.171488,-32.94261],[116.171107,-32.942483],[116.170938,-32.942477],[116.170747,-32.942538],[116.17047,-32.942592],[116.169975,-32.942615],[116.169751,-32.942666],[116.169741,-32.942666],[116.16908,-32.942752],[116.16845,-32.942814],[116.167981,-32.942851],[116.167718,-32.942853],[116.167372,-32.942808],[116.166944,-32.942788],[116.166565,-32.942703],[116.165926,-32.942464],[116.165565,-32.942206],[116.16524,-32.941724],[116.165212,-32.941369],[116.165219,-32.941049],[116.165315,-32.940882],[116.165505,-32.940716],[116.166238,-32.94029],[116.166484,-32.940209],[116.167955,-32.939953],[116.168474,-32.939834],[116.168536,-32.939837],[116.168784,-32.939948],[116.168936,-32.939977],[116.169061,-32.939938],[116.169157,-32.939817],[116.169253,-32.939541],[116.169267,-32.93953],[116.169448,-32.939284],[116.169582,-32.939149],[116.169793,-32.939006],[116.169983,-32.938918],[116.170211,-32.938685],[116.170468,-32.938522],[116.17051,-32.938486],[116.170753,-32.938132],[116.170981,-32.937825],[116.171203,-32.937542],[116.171424,-32.937311],[116.171604,-32.937206],[116.171846,-32.937067],[116.171969,-32.936959],[116.172138,-32.936784],[116.17233,-32.936625],[116.172551,-32.936474],[116.172772,-32.936252],[116.173055,-32.935836],[116.173223,-32.935481],[116.173428,-32.934868],[116.173529,-32.934463],[116.173598,-32.934078],[116.173581,-32.933657],[116.173645,-32.93248],[116.173591,-32.932272],[116.173505,-32.932093],[116.173459,-32.931955],[116.173453,-32.931807],[116.173502,-32.93164],[116.173497,-32.931428],[116.173552,-32.93124],[116.173439,-32.931036],[116.17344,-32.930731],[116.173325,-32.93036],[116.173253,-32.930305],[116.173025,-32.930271],[116.172912,-32.930202],[116.172788,-32.930078],[116.17276,-32.929815],[116.172068,-32.929355],[116.171953,-32.929234],[116.171926,-32.929148],[116.171565,-32.928822],[116.171561,-32.928705],[116.171628,-32.928568],[116.171578,-32.9283],[116.171609,-32.927726],[116.171807,-32.927524],[116.171806,-32.926999],[116.171871,-32.926678],[116.171892,-32.926474],[116.171885,-32.926483],[116.17179,-32.926619],[116.171456,-32.926847],[116.171328,-32.927054],[116.170908,-32.927566],[116.170486,-32.927829],[116.169491,-32.928392],[116.169273,-32.928576],[116.169031,-32.928982],[116.168726,-32.929395],[116.168415,-32.92962],[116.168104,-32.929966],[116.167851,-32.930137],[116.167616,-32.930172],[116.167024,-32.930098],[116.166844,-32.930037],[116.166676,-32.930055],[116.166499,-32.930009],[116.166328,-32.929895],[116.166183,-32.929878],[116.166043,-32.929943],[116.165801,-32.930213],[116.165534,-32.930225],[116.165415,-32.93029],[116.165316,-32.930306],[116.165158,-32.930262],[116.164792,-32.930226],[116.164541,-32.930057],[116.164456,-32.930048],[116.164328,-32.930102],[116.164045,-32.930452],[116.163814,-32.930605],[116.163653,-32.930783],[116.163719,-32.930927],[116.163582,-32.931305],[116.163587,-32.931594],[116.163727,-32.931778],[116.163799,-32.931982],[116.163914,-32.932147],[116.16402,-32.93225],[116.164053,-32.932483],[116.164158,-32.932653],[116.164074,-32.933025],[116.164093,-32.93317],[116.164081,-32.933473],[116.163983,-32.933621],[116.163801,-32.933697],[116.163558,-32.933717],[116.163311,-32.933827],[116.162552,-32.933915],[116.162142,-32.933817],[116.162006,-32.933822],[116.161348,-32.934099],[116.161294,-32.934054],[116.161264,-32.933963],[116.161181,-32.9339],[116.160923,-32.933912],[116.160586,-32.934128],[116.160433,-32.934166],[116.160018,-32.933982],[116.159739,-32.933893],[116.15956,-32.933873],[116.159242,-32.933778],[116.158914,-32.933835],[116.15874,-32.933723],[116.158554,-32.933658],[116.158313,-32.933692],[116.158167,-32.933546],[116.158078,-32.933525],[116.157841,-32.933679],[116.157602,-32.933666],[116.157331,-32.933726],[116.156815,-32.933699],[116.156224,-32.933993],[116.155906,-32.934025],[116.155863,-32.93403],[116.155478,-32.934019],[116.155044,-32.934147],[116.15484,-32.93412],[116.154553,-32.934171],[116.154286,-32.934111],[116.154053,-32.934107],[116.153841,-32.934242],[116.153495,-32.93425],[116.153347,-32.934324],[116.1532,-32.934349],[116.152903,-32.934639],[116.152296,-32.934774],[116.152084,-32.934796],[116.151846,-32.935009],[116.151769,-32.935163],[116.151672,-32.935233],[116.151487,-32.935229],[116.151132,-32.935308],[116.150894,-32.935331],[116.150768,-32.935407],[116.150673,-32.935422],[116.150644,-32.935495],[116.15058,-32.935487],[116.150339,-32.935334],[116.150004,-32.935415],[116.149752,-32.935221],[116.14967,-32.935205],[116.149298,-32.935355],[116.149017,-32.935334],[116.148935,-32.935378],[116.148848,-32.935352],[116.148727,-32.935202],[116.148424,-32.935045],[116.148228,-32.934997],[116.148067,-32.935029],[116.147826,-32.934952],[116.147724,-32.934999],[116.147404,-32.934937],[116.147316,-32.934974],[116.147135,-32.934965],[116.147084,-32.934923],[116.14695,-32.934906],[116.146706,-32.935013],[116.146429,-32.934966],[116.146228,-32.935074],[116.146066,-32.935206],[116.145867,-32.935298],[116.145693,-32.93527],[116.145472,-32.935127],[116.145038,-32.935123],[116.14485,-32.935195],[116.144514,-32.935095],[116.144411,-32.935144],[116.14436,-32.935073],[116.144312,-32.935053],[116.144287,-32.935117],[116.144224,-32.93513],[116.144226,-32.935033],[116.144179,-32.935],[116.144072,-32.935073],[116.143989,-32.934995],[116.143737,-32.934875],[116.143634,-32.934859],[116.14359,-32.93491],[116.143559,-32.934911],[116.143516,-32.934811],[116.143347,-32.934645],[116.143157,-32.93455],[116.143019,-32.934567],[116.143047,-32.93471],[116.142728,-32.93495],[116.142447,-32.934937],[116.142238,-32.935018],[116.141982,-32.935012],[116.141839,-32.935073],[116.141631,-32.935381],[116.141479,-32.935453],[116.141415,-32.935525],[116.141411,-32.935531],[116.1413,-32.935583],[116.141179,-32.935552],[116.140931,-32.935401],[116.140911,-32.935347],[116.14086,-32.935306],[116.140713,-32.935235],[116.140088,-32.935117],[116.139924,-32.935173],[116.139471,-32.93511],[116.139352,-32.934992],[116.138929,-32.934911],[116.138106,-32.934923],[116.137398,-32.93498],[116.136581,-32.934869],[116.037171,-32.935725],[116.026781,-32.935815],[116.021619,-32.935821],[116.021626,-32.940167],[116.005274,-32.939874],[116.000324,-32.939882],[116.00033,-32.942406],[115.994417,-32.942417],[115.994407,-32.938441],[115.989709,-32.938449],[115.989336,-32.93844],[115.989605,-32.938158],[115.989864,-32.937912],[115.99014,-32.93768],[115.990571,-32.937363],[115.990766,-32.937212],[115.990933,-32.937042],[115.991074,-32.936858],[115.9912,-32.936633],[115.991288,-32.9364],[115.991322,-32.936283],[115.991373,-32.936021],[115.991407,-32.935859],[115.991469,-32.935576],[115.991546,-32.935392],[115.991633,-32.935212],[115.991731,-32.935032],[115.991841,-32.934857],[115.991955,-32.934687],[115.992085,-32.934525],[115.99235,-32.934225],[115.992631,-32.933966],[115.992783,-32.933841],[115.992928,-32.933734],[115.993214,-32.933547],[115.993408,-32.933391],[115.993463,-32.933332],[115.972326,-32.933224],[115.961543,-32.933238],[115.956378,-32.93294],[115.956388,-32.938444],[115.951331,-32.938451],[115.951339,-32.942282],[115.947817,-32.942288],[115.947908,-32.941604],[115.947913,-32.941577],[115.947921,-32.94141],[115.947906,-32.941234],[115.947855,-32.94104],[115.947766,-32.940859],[115.947133,-32.939243],[115.947081,-32.939098],[115.947024,-32.938954],[115.946951,-32.938813],[115.946873,-32.938673],[115.946783,-32.938541],[115.946683,-32.938414],[115.946574,-32.938282],[115.946456,-32.938173],[115.946233,-32.937986],[115.946064,-32.937863],[115.945894,-32.937749],[115.944754,-32.937058],[115.94379,-32.936527],[115.943535,-32.936398],[115.943263,-32.936302],[115.942986,-32.936236],[115.942681,-32.936206],[115.942366,-32.936204],[115.941916,-32.936227],[115.941478,-32.936232],[115.941263,-32.936244],[115.941065,-32.936278],[115.940872,-32.936335],[115.940781,-32.936371],[115.940619,-32.936441],[115.940474,-32.936512],[115.940355,-32.936602],[115.940258,-32.936704],[115.94022,-32.936763],[115.940047,-32.936985],[115.94005,-32.941049],[115.924423,-32.941058],[115.924421,-32.938124],[115.924271,-32.938095],[115.923645,-32.938099],[115.922733,-32.938082],[115.922624,-32.938009],[115.922496,-32.938021],[115.922362,-32.938065],[115.922249,-32.938073],[115.922089,-32.938077],[115.921854,-32.938079],[115.92172,-32.938082],[115.921543,-32.93809],[115.921377,-32.938084],[115.921121,-32.938064],[115.920923,-32.938066],[115.920597,-32.938059],[115.920469,-32.938026],[115.920271,-32.938002],[115.92009,-32.938001],[115.919886,-32.938021],[115.919747,-32.938029],[115.919549,-32.938032],[115.919463,-32.938036],[115.91926,-32.93803],[115.919084,-32.938015],[115.918843,-32.938012],[115.918667,-32.93802],[115.918485,-32.938014],[115.918394,-32.938009],[115.918159,-32.938016],[115.917821,-32.938044],[115.917682,-32.938038],[115.91741,-32.938036],[115.917179,-32.938061],[115.917051,-32.938065],[115.916848,-32.938067],[115.916517,-32.938056],[115.916505,-32.938055],[115.91627,-32.938062],[115.91557,-32.938044],[115.915406,-32.93805],[115.915233,-32.93804],[115.914781,-32.938023],[115.914046,-32.938016],[115.913523,-32.938019],[115.91311,-32.93803],[115.913072,-32.938035],[115.909093,-32.938068],[115.908906,-32.93807],[115.908788,-32.938051],[115.908644,-32.938037],[115.908404,-32.938007],[115.90819,-32.937979],[115.907998,-32.937972],[115.907623,-32.937978],[115.906812,-32.938018],[115.906748,-32.937853],[115.90653,-32.937283],[115.906246,-32.937294],[115.906011,-32.937301],[115.903888,-32.937291],[115.903072,-32.937283],[115.903081,-32.937096],[115.900262,-32.937068],[115.900239,-32.937034],[115.900078,-32.937014],[115.896463,-32.937032],[115.893714,-32.937035],[115.893623,-32.937038],[115.893532,-32.937065],[115.893478,-32.937091],[115.893428,-32.937186],[115.893417,-32.937271],[115.893427,-32.937695],[115.893435,-32.938127],[115.89322,-32.938125],[115.878521,-32.938052],[115.874544,-32.93805],[115.874546,-32.934952],[115.869744,-32.93499],[115.869173,-32.934991],[115.869167,-32.94222],[115.868162,-32.942219],[115.868036,-32.942221],[115.867412,-32.941771],[115.866192,-32.940897],[115.856308,-32.933763],[115.852993,-32.931366],[115.849768,-32.933671],[115.849687,-32.933738],[115.849621,-32.933823],[115.849572,-32.933931],[115.849549,-32.934043],[115.849558,-32.934156],[115.849691,-32.935632],[115.838993,-32.935682],[115.838658,-32.935687],[115.838181,-32.933163],[115.838119,-32.932941],[115.838015,-32.932733],[115.8379,-32.93256],[115.837752,-32.932405],[115.837668,-32.932337],[115.837429,-32.932177],[115.837223,-32.93199],[115.837055,-32.931786],[115.836918,-32.931568],[115.836861,-32.93145],[115.835832,-32.928779],[115.823832,-32.928782],[115.823833,-32.925939],[115.812876,-32.925917],[115.812985,-32.928982],[115.813076,-32.928984],[115.813082,-32.93651],[115.793122,-32.936539],[115.793122,-32.936588],[115.787635,-32.93659],[115.787635,-32.936547],[115.780777,-32.936556],[115.780796,-32.930025],[115.763787,-32.929977],[115.763772,-32.921983],[115.754011,-32.921728],[115.753618,-32.921362],[115.753269,-32.921051],[115.753206,-32.921001],[115.752867,-32.920678],[115.752504,-32.920737],[115.750375,-32.920788],[115.747797,-32.920803],[115.746022,-32.920816],[115.745209,-32.920826],[115.743364,-32.920844],[115.742428,-32.920848],[115.739577,-32.920928],[115.738101,-32.920931],[115.737112,-32.920939],[115.736,-32.920919],[115.735389,-32.920989],[115.734742,-32.920982],[115.734304,-32.920983],[115.733865,-32.920978],[115.733454,-32.920974],[115.732769,-32.920962],[115.732181,-32.921002],[115.731678,-32.921001],[115.731229,-32.921015],[115.729694,-32.921017],[115.728451,-32.921068],[115.728416,-32.921022],[115.728379,-32.920986],[115.728246,-32.920948],[115.728118,-32.920929],[115.7277,-32.920983],[115.72724,-32.921024],[115.726892,-32.921052],[115.726608,-32.921067],[115.726463,-32.921083],[115.726447,-32.921088],[115.726437,-32.921078],[115.726335,-32.921077],[115.726229,-32.921004],[115.726112,-32.921021],[115.725704,-32.921076],[115.72557,-32.921083],[115.725415,-32.9211],[115.72534,-32.921099],[115.725207,-32.921066],[115.725052,-32.921064],[115.724881,-32.921076],[115.724667,-32.921087],[115.724501,-32.921077],[115.724346,-32.921089],[115.724207,-32.921096],[115.723853,-32.921138],[115.72358,-32.921149],[115.723329,-32.921123],[115.723151,-32.921091],[115.722988,-32.921084],[115.722716,-32.921092],[115.722234,-32.921072],[115.722143,-32.921075],[115.721929,-32.921091],[115.721774,-32.921062],[115.721646,-32.921066],[115.721442,-32.921086],[115.721159,-32.921101],[115.721076,-32.921093],[115.720871,-32.921102],[115.720753,-32.921088],[115.720668,-32.921094],[115.720518,-32.921098],[115.720334,-32.921102],[115.720143,-32.921089],[115.719983,-32.921035],[115.719935,-32.921039],[115.719843,-32.921052],[115.719586,-32.921075],[115.719763,-32.921936],[115.720143,-32.923888],[115.720366,-32.925182],[115.719349,-32.925227],[115.708505,-32.925233],[115.708541,-32.925387],[115.70854,-32.925499],[115.7085,-32.925639],[115.708488,-32.925783],[115.708454,-32.925922],[115.708441,-32.926035],[115.708391,-32.926201],[115.708343,-32.926535],[115.708357,-32.926697],[115.708279,-32.926872],[115.708267,-32.92698],[115.708278,-32.927323],[115.708315,-32.927887],[115.708294,-32.928085],[115.708302,-32.928243],[115.70831,-32.928437],[115.708298,-32.928532],[115.708301,-32.928703],[115.708277,-32.928838],[115.708296,-32.929042],[115.708281,-32.929315],[115.708078,-32.929314],[115.70763,-32.929265],[115.707384,-32.92924],[115.707139,-32.929138],[115.706937,-32.929104],[115.706556,-32.929136],[115.706269,-32.92907],[115.705792,-32.929092],[115.705502,-32.929184],[115.705272,-32.929195],[115.70509,-32.929211],[115.704726,-32.929383],[115.704325,-32.929614],[115.70411,-32.929684],[115.703596,-32.929723],[115.702559,-32.929726],[115.701521,-32.929724],[115.701275,-32.929735],[115.701258,-32.929812],[115.701285,-32.930132],[115.701286,-32.930471],[115.701292,-32.930795],[115.701266,-32.931102],[115.701242,-32.93125],[115.701177,-32.931349],[115.701114,-32.93138],[115.700627,-32.931618],[115.700434,-32.931684],[115.700268,-32.931718],[115.700021,-32.931725],[115.699059,-32.931728],[115.697075,-32.931735],[115.695887,-32.931727],[115.695652,-32.931733],[115.695476,-32.931691],[115.695333,-32.931631],[115.695067,-32.931497],[115.694446,-32.93122],[115.694047,-32.931027],[115.693797,-32.930943],[115.693659,-32.930914],[115.693509,-32.930926],[115.692699,-32.931089],[115.691342,-32.931368],[115.690484,-32.931539],[115.690124,-32.931612],[115.689969,-32.931624],[115.688663,-32.931611],[115.687729,-32.931605],[115.687542,-32.931594],[115.687279,-32.931619],[115.68721,-32.931609],[115.687146,-32.931563],[115.686991,-32.931552],[115.686772,-32.931546],[115.686515,-32.931561],[115.686295,-32.931569],[115.686349,-32.931694],[115.686549,-32.931903],[115.686664,-32.932455],[115.686732,-32.932577],[115.686926,-32.932823],[115.687064,-32.933073],[115.683522,-32.933049],[115.677001,-32.933034],[115.675717,-32.933031],[115.658722,-32.933049],[115.65846,-32.933052]]]},"bbox":[114.88499121748063,-34.504729369489255,116.239769,-32.846009250018504]}]}