{"type":"FeatureCollection","features":[
{"properties":{"electorateShortName":"lyne","electorateName":"Lyne","area":16040.73,"state":null},"type":"Feature","geometry":{"type":"Polygon","coordinates":[[[152.194486,-32.707671],[152.187884,-32.711732],[152.189322,-32.717873],[152.18588,-32.718554],[152.183552,-32.725531],[152.184584,-32.72763],[152.183025,-32.731775],[152.184362,-32.733846],[152.183126,-32.735844],[152.18685,-32.741132],[152.176112,-32.7404],[152.170981,-32.744437],[152.171464,-32.74782],[152.174787,-32.74919],[152.172862,-32.752081],[152.176033,-32.754788],[152.172069,-32.756468],[152.173017,-32.757116],[152.169265,-32.757533],[152.172615,-32.761656],[152.169548,-32.759851],[152.168341,-32.761956],[152.1638,-32.758813],[152.163592,-32.760601],[152.160653,-32.759693],[152.160065,-32.763869],[152.158415,-32.7649],[152.156133,-32.763742],[152.153836,-32.765534],[152.152503,-32.763899],[152.151801,-32.765302],[152.149036,-32.763709],[152.14826,-32.765916],[152.143633,-32.764199],[152.144736,-32.765609],[152.143239,-32.766567],[152.139869,-32.765758],[152.139884,-32.764136],[152.1365,-32.766416],[152.135875,-32.765286],[152.134114,-32.766347],[152.132348,-32.764151],[152.125107,-32.766969],[152.119383,-32.771139],[152.116187,-32.776736],[152.116905,-32.779809],[152.121269,-32.780067],[152.121777,-32.781032],[152.119088,-32.781887],[152.122955,-32.785661],[152.120179,-32.785203],[152.120644,-32.788958],[152.114309,-32.786755],[152.114089,-32.78843],[152.11305224515525,-32.78918996617344],[152.11770033219332,-32.789711812352074],[152.16947003704965,-32.79372484711672],[152.17581154154794,-32.795712266469316],[152.1927193560681,-32.797653659269535],[152.20544463113058,-32.79669669859406],[152.21398339999885,-32.799059206868236],[152.23079180721135,-32.80044497000763],[152.2475636298983,-32.798670468315365],[152.26370990191688,-32.79379801591416],[152.2653739019169,-32.79312001591416],[152.28072802319076,-32.78505996511842],[152.2942513555156,-32.77420487682978],[152.30544184357788,-32.76095774748603],[152.31388403918353,-32.74581037833233],[152.31926452482122,-32.72932511724175],[152.32036016837594,-32.720426083780225],[152.33640839198358,-32.718378674528196],[152.3526225054952,-32.71306359362124],[152.356633032854,-32.7124132058381],[152.37275834636569,-32.707011417475755],[152.38757965405892,-32.69867271903867],[152.4005677711087,-32.687694838147394],[152.4112589655293,-32.67446973265734],[152.41927151541296,-32.659469596067176],[152.4243193380539,-32.643229998167364],[152.4250037741136,-32.63715156475259],[152.42642278466536,-32.63030920208908],[152.42649730465578,-32.61230821496612],[152.42298795800116,-32.59465246302271],[152.4182783997524,-32.5834054560288],[152.44265553752223,-32.57283365932181],[152.45549828994865,-32.56598092007955],[152.46021708539763,-32.56294889651922],[152.47786599339614,-32.555916193090795],[152.50806929307288,-32.546910506498406],[152.5117861456267,-32.546781477410384],[152.51957115218067,-32.5448871909587],[152.5368017162897,-32.54331613782588],[152.55403030206963,-32.53815432236852],[152.56988852741492,-32.529669913391444],[152.5738188995725,-32.52641653161333],[152.5828270547457,-32.522570693146825],[152.59680095947465,-32.51319976826348],[152.60878649585163,-32.501391670859654],[152.61836478529216,-32.48755907826332],[152.6252010792963,-32.47218542122175],[152.62905645846436,-32.455807988638675],[152.62979618241278,-32.4389991500404],[152.62739439877163,-32.42234635202074],[152.62501439877164,-32.41248635202074],[152.62084817996413,-32.400756337627676],[152.62214395283874,-32.394115084957306],[152.62324407014688,-32.39253342377971],[152.6270301331223,-32.38366727686338],[152.6322447938163,-32.374807004405945],[152.63318179381633,-32.37280800440594],[152.6387406013793,-32.35746153823057],[152.64143625699893,-32.3413634698255],[152.64118009877623,-32.32504327532425],[152.63798055192484,-32.30903773673475],[152.63194285166014,-32.29387328682361],[152.63088619584167,-32.29218982687528],[152.64170311641385,-32.27873759943513],[152.64988317228946,-32.26303083968806],[152.65386161878442,-32.24935310020044],[152.65719125178674,-32.24110821876214],[152.66048044544442,-32.224019089973154],[152.66041920015053,-32.206616407228864],[152.65700980585243,-32.18955085279297],[152.65037973901062,-32.173460503780056],[152.64077689628357,-32.15894697460056],[152.63741489628356,-32.15480097460056],[152.62495897031735,-32.142207740409006],[152.61468781117452,-32.135274659717204],[152.62198599262837,-32.12513831224652],[152.62595299262838,-32.11826631224652],[152.63370416624312,-32.10076949252657],[152.6375808215912,-32.0820294035185],[152.63745998880677,-32.068674153280135],[152.63923889118655,-32.066881764011306],[152.64889662921502,-32.05238910950011],[152.65558225309377,-32.03630771117909],[152.6557574541878,-32.03544424436908],[152.65961539230508,-32.03163342578696],[152.67329482617058,-32.014318702346536],[152.68008371770492,-32.0031391838498],[152.6939902734606,-31.989248373486795],[152.71132533783873,-31.975047444090304],[152.73379901070535,-31.959508313793926],[152.74750962894393,-31.952818155238653],[152.7605240853165,-31.943256269873306],[152.7675347534829,-31.937064074537588],[152.77554498873778,-31.932360651517694],[152.7785139578625,-31.93182989142141],[152.79406890270764,-31.925939905861846],[152.80827435393493,-31.9172881202394],[152.82064513709167,-31.906170028536412],[152.83075873916857,-31.892965359208553],[152.83826973915262,-31.878125105899834],[152.8429216055724,-31.862156124158965],[152.8445554581003,-31.845603820242456],[152.8445794581003,-31.841503820242455],[152.84309918471388,-31.824712591773473],[152.8412432936608,-31.818147392293472],[152.8513099795829,-31.80764907379113],[152.86296284154628,-31.799695393910447],[152.8751532054051,-31.78747351179238],[152.88478597899334,-31.773149090459714],[152.89150679591114,-31.757249090664885],[152.89506841358877,-31.74035843487428],[152.89533980874177,-31.72309848938801],[152.8947206584369,-31.719624514059074],[152.90031478591314,-31.715645011304158],[152.91436531303606,-31.703760735989253],[152.92570484459353,-31.68926700161026],[152.93385928553369,-31.672769777445396],[152.93848770642023,-31.654958796779276],[152.93939659736887,-31.636578719808938],[152.9365479585116,-31.618398000107756],[152.93633320553127,-31.61782789471995],[152.93802033715482,-31.60851096919932],[152.93773886499014,-31.597188997439705],[152.95670456880933,-31.577025153060667],[152.97632318117488,-31.558870549422558],[152.98824830515258,-31.545381677444386],[152.99724990970645,-31.529789071357442],[153.00296775479063,-31.512716740036847],[153.00517301489265,-31.494847910276356],[153.00377743652436,-31.47689768436845],[152.99883687008585,-31.459584422041736],[152.99054903475815,-31.44360099203727],[152.9792456058732,-31.429587043822362],[152.9653789414207,-31.418103409115133],[152.94950397889082,-31.409609657658827],[152.93225602693275,-31.404445705453515],[152.92443625282505,-31.403044108115903],[152.91675949668303,-31.40299031462595],[152.914861,-31.410307],[152.914747,-31.42373],[152.919414,-31.428968],[152.923912,-31.430142],[152.926839,-31.443212],[152.930096,-31.446632],[152.933401,-31.447599],[152.931171,-31.452564],[152.933154,-31.458059],[152.936814,-31.459333],[152.935522,-31.460035],[152.934198,-31.46726],[152.938449,-31.472927],[152.937089,-31.474029],[152.937732,-31.476252],[152.932944,-31.476575],[152.915196,-31.492814],[152.910631,-31.491979],[152.909023,-31.492932],[152.903354,-31.492115],[152.874346,-31.488122],[152.874044,-31.486835],[152.872234,-31.485909],[152.869258,-31.48648],[152.867798,-31.48551],[152.843392,-31.479562],[152.842216,-31.478996],[152.840924,-31.477535],[152.840763,-31.476073],[152.839538,-31.475982],[152.837603,-31.477124],[152.836687,-31.477036],[152.834933,-31.475753],[152.832422,-31.475779],[152.830273,-31.476475],[152.828554,-31.475383],[152.827396,-31.475218],[152.823561,-31.476847],[152.822057,-31.476901],[152.820492,-31.47643],[152.818003,-31.476818],[152.81498,-31.476781],[152.816436,-31.474322],[152.8186,-31.469593],[152.820146,-31.464566],[152.821554,-31.45774],[152.823013,-31.451381],[152.823998,-31.446452],[152.82404,-31.445318],[152.823606,-31.440622],[152.822592,-31.431474],[152.822614,-31.429026],[152.825532,-31.417166],[152.825415,-31.415491],[152.824844,-31.413747],[152.817975,-31.402582],[152.808712,-31.388195],[152.807095,-31.386275],[152.804653,-31.382577],[152.80314,-31.378443],[152.802221,-31.374976],[152.800186,-31.370561],[152.797846,-31.364805],[152.795703,-31.359805],[152.793948,-31.355012],[152.788026,-31.354077],[152.788645,-31.348168],[152.785199,-31.348135],[152.785114,-31.345819],[152.78767,-31.345683],[152.785939,-31.343094],[152.769521,-31.340568],[152.769644,-31.338981],[152.765906,-31.338459],[152.765805,-31.338947],[152.759192,-31.34064],[152.757761,-31.347603],[152.744183,-31.345726],[152.744744,-31.342776],[152.743075,-31.342161],[152.74012,-31.340531],[152.736674,-31.340141],[152.737105,-31.337842],[152.735581,-31.338097],[152.734743,-31.335217],[152.734767,-31.333129],[152.738036,-31.329815],[152.739898,-31.330793],[152.742066,-31.329906],[152.745874,-31.328723],[152.747378,-31.326554],[152.748816,-31.326305],[152.749183,-31.325619],[152.748111,-31.323808],[152.747264,-31.323442],[152.744149,-31.32366],[152.742625,-31.32452],[152.740111,-31.325376],[152.736391,-31.325836],[152.734541,-31.325193],[152.733838,-31.326269],[152.732222,-31.325718],[152.731356,-31.323606],[152.731738,-31.32255],[152.734262,-31.321436],[152.735387,-31.319015],[152.733914,-31.318224],[152.732191,-31.316589],[152.732347,-31.31517],[152.730165,-31.314571],[152.72853,-31.314541],[152.726045,-31.313502],[152.725071,-31.312717],[152.723839,-31.310928],[152.721905,-31.308859],[152.719496,-31.305832],[152.717169,-31.30508],[152.715455,-31.304189],[152.713002,-31.302256],[152.711973,-31.301117],[152.709638,-31.295636],[152.707624,-31.293761],[152.706585,-31.292338],[152.706203,-31.290715],[152.706213,-31.288193],[152.70564,-31.287045],[152.703955,-31.2854],[152.700555,-31.28275],[152.699505,-31.281215],[152.69824,-31.278743],[152.6979,-31.276063],[152.69722,-31.275146],[152.695131,-31.274463],[152.693869,-31.276286],[152.692628,-31.275882],[152.692304,-31.274989],[152.692466,-31.272943],[152.69235,-31.269797],[152.692466,-31.266152],[152.691604,-31.264306],[152.69005,-31.262699],[152.686892,-31.261139],[152.683488,-31.260502],[152.680821,-31.259178],[152.679214,-31.256227],[152.677091,-31.254472],[152.674271,-31.253765],[152.677426,-31.237823],[152.677614,-31.237803],[152.679693,-31.227203],[152.689657,-31.228642],[152.691416,-31.219235],[152.697074,-31.220024],[152.698277,-31.213778],[152.700641,-31.212692],[152.701713,-31.211122],[152.704022,-31.208369],[152.705219,-31.207461],[152.707184,-31.206902],[152.708559,-31.207017],[152.710071,-31.207937],[152.712374,-31.208294],[152.714917,-31.206657],[152.716953,-31.207745],[152.719929,-31.206433],[152.721208,-31.205644],[152.722683,-31.205403],[152.724094,-31.206176],[152.725562,-31.208038],[152.725431,-31.210125],[152.726882,-31.213217],[152.727956,-31.213857],[152.729156,-31.213956],[152.730358,-31.215608],[152.731345,-31.215634],[152.732747,-31.214523],[152.746399,-31.21646],[152.747626,-31.215765],[152.748086,-31.213885],[152.751654,-31.194713],[152.739285,-31.192914],[152.740383,-31.187278],[152.726196,-31.185229],[152.72796,-31.176278],[152.719212,-31.174937],[152.717725,-31.182455],[152.705956,-31.180721],[152.709376,-31.163456],[152.707666,-31.164086],[152.70446,-31.165693],[152.704083,-31.165232],[152.706943,-31.151512],[152.706124,-31.150623],[152.702632,-31.151716],[152.700599,-31.151722],[152.698292,-31.150317],[152.697718,-31.149015],[152.696832,-31.148183],[152.695671,-31.145499],[152.694218,-31.143549],[152.693307,-31.141455],[152.690721,-31.140014],[152.689517,-31.140004],[152.688937,-31.14232],[152.687444,-31.141704],[152.685197,-31.141618],[152.681127,-31.140929],[152.680897,-31.143255],[152.680488,-31.144343],[152.678585,-31.144996],[152.679144,-31.148426],[152.677963,-31.149705],[152.676556,-31.149493],[152.675702,-31.149967],[152.674926,-31.152252],[152.67377,-31.153527],[152.671742,-31.153149],[152.670792,-31.152108],[152.669856,-31.15009],[152.66882,-31.149024],[152.66622,-31.150383],[152.664419,-31.150491],[152.662814,-31.151271],[152.659805,-31.149805],[152.657781,-31.149226],[152.656782,-31.149521],[152.655713,-31.150576],[152.652512,-31.152252],[152.650273,-31.154256],[152.648034,-31.153525],[152.645539,-31.153283],[152.644175,-31.152093],[152.64048,-31.14974],[152.637642,-31.145964],[152.637871,-31.144854],[152.637072,-31.143359],[152.634856,-31.141855],[152.63387,-31.139961],[152.631646,-31.138326],[152.63037,-31.138242],[152.628541,-31.138996],[152.627317,-31.138144],[152.625232,-31.136023],[152.624068,-31.135497],[152.622727,-31.135676],[152.619992,-31.134767],[152.61905,-31.134883],[152.616622,-31.136004],[152.614845,-31.136131],[152.612402,-31.134797],[152.611709,-31.134099],[152.611343,-31.13274],[152.60964,-31.130551],[152.608378,-31.129924],[152.605896,-31.129823],[152.604134,-31.128225],[152.601517,-31.126659],[152.599824,-31.124311],[152.597606,-31.123699],[152.594731,-31.124077],[152.593567,-31.124548],[152.589772,-31.127836],[152.588513,-31.128189],[152.58618,-31.127735],[152.582177,-31.127504],[152.578054,-31.127998],[152.576931,-31.129418],[152.574175,-31.131573],[152.571914,-31.130611],[152.569693,-31.129973],[152.567077,-31.128355],[152.56651,-31.128378],[152.561495,-31.129865],[152.562113,-31.131037],[152.562122,-31.13249],[152.560512,-31.134688],[152.560639,-31.136324],[152.560598,-31.141774],[152.559255,-31.143714],[152.557485,-31.144702],[152.556634,-31.145598],[152.556719,-31.147206],[152.555966,-31.148409],[152.55367,-31.149677],[152.551146,-31.150587],[152.548902,-31.149988],[152.547833,-31.148418],[152.542576,-31.151525],[152.541162,-31.152034],[152.541119,-31.154115],[152.540497,-31.15529],[152.540642,-31.156213],[152.540324,-31.159051],[152.540982,-31.160227],[152.539697,-31.162886],[152.538138,-31.162643],[152.535205,-31.162806],[152.525169,-31.164552],[152.521245,-31.166611],[152.519671,-31.167136],[152.517018,-31.167069],[152.513884,-31.167638],[152.509841,-31.166073],[152.507599,-31.163776],[152.505574,-31.163125],[152.502652,-31.163998],[152.500919,-31.163803],[152.49946,-31.164659],[152.497819,-31.164815],[152.495087,-31.165672],[152.49118,-31.168036],[152.48969,-31.167867],[152.487864,-31.166803],[152.487024,-31.166814],[152.484079,-31.165399],[152.48302,-31.164655],[152.480031,-31.164358],[152.478026,-31.165471],[152.474839,-31.166207],[152.473101,-31.16565],[152.470766,-31.166289],[152.466709,-31.163315],[152.466283,-31.162509],[152.464691,-31.161023],[152.46383,-31.160844],[152.462394,-31.159632],[152.459013,-31.159491],[152.457179,-31.157679],[152.455832,-31.155831],[152.453205,-31.157866],[152.449824,-31.159897],[152.446744,-31.158995],[152.445162,-31.159423],[152.443454,-31.160467],[152.441659,-31.160551],[152.440198,-31.160177],[152.436407,-31.158379],[152.432693,-31.158387],[152.431331,-31.158611],[152.428529,-31.160033],[152.426285,-31.162103],[152.424922,-31.162593],[152.422946,-31.161314],[152.420968,-31.160946],[152.41726,-31.162125],[152.415369,-31.16428],[152.412845,-31.165378],[152.410013,-31.164681],[152.408494,-31.163664],[152.406412,-31.163122],[152.405619,-31.163231],[152.403259,-31.164448],[152.401908,-31.164679],[152.39832,-31.164314],[152.394155,-31.166756],[152.393043,-31.166722],[152.389469,-31.164629],[152.388626,-31.16483],[152.387694,-31.166154],[152.385897,-31.166653],[152.382625,-31.165119],[152.38145,-31.16367],[152.380807,-31.161674],[152.371959,-31.157607],[152.36943,-31.156354],[152.368811,-31.15474],[152.370425,-31.152328],[152.371598,-31.149352],[152.36895,-31.143463],[152.366725,-31.140407],[152.367129,-31.138436],[152.368194,-31.137159],[152.368173,-31.136362],[152.364112,-31.133071],[152.362523,-31.131208],[152.360553,-31.129852],[152.359171,-31.128132],[152.356038,-31.126887],[152.355272,-31.12523],[152.355228,-31.123413],[152.354681,-31.121797],[152.351968,-31.119006],[152.349587,-31.117004],[152.348748,-31.117373],[152.346475,-31.116614],[152.345244,-31.117264],[152.34421,-31.116899],[152.344322,-31.11601],[152.343447,-31.115197],[152.3419,-31.1145],[152.340655,-31.114881],[152.339335,-31.114068],[152.33795,-31.114426],[152.336641,-31.116269],[152.338446,-31.119129],[152.340061,-31.120256],[152.341151,-31.122342],[152.342466,-31.123223],[152.343458,-31.124362],[152.342684,-31.127637],[152.340047,-31.128032],[152.337234,-31.127218],[152.334462,-31.127005],[152.333322,-31.126417],[152.333071,-31.127707],[152.330897,-31.127464],[152.316572,-31.202936],[152.254681,-31.194535],[152.254992,-31.195884],[152.255798,-31.196484],[152.256969,-31.198432],[152.257349,-31.201054],[152.255913,-31.201262],[152.254429,-31.202847],[152.253103,-31.205393],[152.251345,-31.206418],[152.249432,-31.206676],[152.246017,-31.205072],[152.24245,-31.204362],[152.240152,-31.200939],[152.239415,-31.200474],[152.23713,-31.199962],[152.234107,-31.197461],[152.232966,-31.198019],[152.232366,-31.199593],[152.233054,-31.201984],[152.232342,-31.202859],[152.232449,-31.204394],[152.23206,-31.205451],[152.230252,-31.205321],[152.228301,-31.206372],[152.226502,-31.206758],[152.224223,-31.207958],[152.223397,-31.207902],[152.221247,-31.206],[152.219671,-31.203692],[152.21735,-31.202238],[152.215629,-31.201941],[152.212483,-31.202024],[152.211387,-31.199492],[152.209412,-31.197584],[152.206952,-31.198257],[152.204972,-31.197479],[152.203685,-31.196628],[152.202712,-31.195075],[152.199673,-31.193581],[152.197088,-31.193678],[152.19334,-31.195122],[152.190785,-31.1957],[152.188251,-31.197206],[152.185777,-31.197886],[152.183699,-31.198162],[152.182362,-31.197735],[152.180824,-31.198753],[152.17993,-31.198689],[152.178964,-31.199509],[152.175595,-31.19851],[152.173429,-31.196161],[152.17309,-31.193814],[152.171128,-31.1919],[152.170211,-31.190611],[152.169068,-31.191076],[152.167083,-31.19126],[152.164663,-31.190415],[152.163944,-31.188815],[152.16214,-31.188332],[152.160504,-31.188778],[152.157773,-31.187395],[152.157201,-31.186285],[152.152879,-31.187264],[152.15161,-31.188543],[152.151437,-31.190241],[152.14755,-31.196017],[152.147047,-31.198095],[152.148041,-31.200667],[152.147466,-31.202172],[152.148044,-31.204461],[152.149213,-31.20552],[152.152496,-31.205937],[152.153388,-31.207364],[152.154124,-31.209319],[152.153501,-31.211478],[152.153527,-31.213013],[152.152741,-31.214794],[152.152822,-31.216558],[152.15362,-31.217952],[152.153548,-31.219007],[152.152531,-31.220205],[152.150169,-31.221594],[152.149626,-31.223774],[152.15255,-31.227505],[152.154339,-31.227861],[152.156513,-31.229464],[152.159032,-31.229311],[152.160342,-31.229682],[152.160655,-31.230368],[152.160347,-31.233555],[152.159682,-31.23537],[152.16089,-31.239545],[152.160941,-31.240885],[152.159974,-31.245028],[152.157693,-31.248307],[152.157945,-31.25109],[152.157775,-31.252088],[152.15637,-31.255301],[152.155883,-31.257756],[152.154477,-31.260671],[152.153978,-31.263263],[152.152258,-31.268575],[152.152932,-31.270924],[152.15303,-31.272551],[152.1525,-31.273619],[152.150356,-31.275457],[152.149532,-31.276559],[152.148231,-31.279084],[152.1475,-31.279899],[152.145326,-31.280591],[152.144036,-31.281797],[152.142354,-31.281915],[152.141555,-31.282444],[152.140121,-31.284946],[152.138894,-31.285395],[152.137785,-31.284686],[152.136909,-31.281776],[152.135558,-31.280288],[152.133207,-31.279433],[152.1321,-31.279756],[152.130183,-31.281238],[152.128782,-31.281115],[152.125883,-31.279882],[152.124399,-31.27876],[152.123679,-31.278729],[152.106626,-31.357283],[152.103123,-31.373415],[152.101341,-31.384092],[152.09976,-31.392027],[152.098177,-31.391138],[152.09871,-31.389804],[152.097922,-31.388492],[152.096636,-31.38825],[152.094605,-31.390605],[152.092323,-31.392091],[152.089947,-31.392179],[152.089073,-31.391681],[152.087244,-31.391719],[152.086229,-31.392999],[152.08331,-31.394914],[152.08157,-31.39706],[152.079832,-31.398243],[152.078352,-31.398438],[152.077966,-31.399851],[152.076859,-31.401305],[152.075434,-31.400456],[152.074459,-31.400452],[152.074048,-31.402072],[152.072896,-31.403032],[152.070565,-31.40367],[152.06905,-31.403177],[152.069423,-31.401787],[152.069455,-31.39978],[152.068816,-31.398708],[152.067857,-31.398397],[152.067094,-31.402418],[152.065575,-31.409145],[152.061895,-31.429235],[152.062792,-31.430234],[152.064361,-31.430416],[152.063989,-31.431533],[152.064461,-31.433222],[152.065836,-31.433695],[152.065802,-31.435384],[152.064594,-31.436572],[152.064663,-31.438591],[152.066142,-31.439937],[152.067512,-31.44041],[152.068249,-31.442529],[152.069156,-31.441369],[152.070431,-31.441155],[152.071386,-31.442844],[152.074431,-31.443514],[152.075463,-31.44548],[152.077711,-31.445838],[152.080059,-31.4476],[152.082912,-31.448001],[152.083616,-31.44929],[152.085306,-31.449821],[152.085948,-31.451108],[152.086451,-31.453213],[152.086384,-31.454172],[152.087676,-31.455776],[152.087726,-31.456821],[152.086568,-31.457737],[152.08609,-31.459377],[152.085124,-31.459884],[152.084134,-31.459082],[152.083128,-31.459067],[152.081953,-31.460756],[152.080719,-31.461266],[152.079653,-31.46276],[152.081096,-31.464951],[152.079485,-31.465738],[152.079769,-31.468673],[152.080809,-31.471364],[152.080591,-31.47208],[152.078661,-31.473125],[152.079116,-31.474412],[152.081262,-31.474371],[152.082218,-31.474815],[152.082336,-31.477091],[152.080925,-31.478551],[152.080791,-31.480083],[152.082939,-31.481186],[152.084147,-31.482546],[152.084399,-31.483691],[152.083794,-31.484392],[152.081713,-31.485222],[152.082804,-31.486196],[152.083324,-31.487757],[152.082408,-31.489171],[152.082114,-31.490563],[152.083843,-31.49334],[152.087032,-31.496032],[152.085974,-31.497363],[152.083977,-31.497907],[152.083185,-31.499368],[152.083657,-31.500485],[152.07001,-31.498415],[152.044495,-31.494938],[152.034386,-31.49362],[152.00692,-31.489958],[151.998826,-31.488831],[151.980718,-31.486175],[151.980463,-31.487357],[151.976331,-31.486735],[151.976509,-31.485864],[151.972217,-31.485194],[151.948381,-31.481738],[151.91277,-31.4767],[151.910799,-31.479401],[151.911176,-31.480323],[151.91043,-31.481385],[151.911358,-31.482175],[151.914176,-31.481842],[151.915377,-31.482671],[151.915272,-31.483755],[151.91408,-31.484796],[151.911862,-31.484863],[151.909703,-31.486386],[151.909192,-31.487749],[151.909706,-31.488337],[151.911178,-31.487502],[151.912266,-31.487655],[151.91254,-31.489087],[151.911669,-31.490868],[151.912146,-31.492129],[151.914658,-31.493625],[151.913643,-31.494972],[151.912998,-31.497516],[151.911067,-31.499202],[151.910856,-31.500511],[151.912547,-31.501202],[151.912567,-31.502883],[151.913028,-31.503777],[151.914971,-31.504243],[151.916966,-31.504183],[151.917131,-31.50579],[151.918625,-31.506647],[151.918961,-31.507346],[151.918336,-31.508291],[151.916645,-31.508907],[151.915755,-31.510067],[151.87709,-31.504307],[151.865641,-31.502577],[151.863727,-31.502809],[151.862942,-31.502268],[151.84458,-31.499475],[151.842759,-31.509038],[151.817896,-31.505699],[151.817453,-31.507163],[151.802351,-31.505003],[151.801197,-31.50611],[151.79737,-31.506929],[151.796334,-31.507848],[151.795334,-31.510786],[151.792112,-31.512401],[151.789327,-31.514938],[151.787331,-31.515163],[151.784373,-31.514149],[151.780585,-31.513627],[151.779612,-31.512741],[151.777422,-31.511729],[151.775521,-31.512357],[151.774371,-31.513092],[151.772087,-31.512657],[151.769711,-31.511756],[151.768447,-31.51232],[151.764573,-31.511952],[151.761575,-31.511185],[151.7607,-31.515421],[151.753343,-31.514308],[151.754713,-31.518372],[151.756638,-31.520256],[151.756228,-31.521747],[151.753741,-31.524385],[151.754767,-31.526993],[151.759741,-31.530675],[151.758457,-31.535372],[151.761719,-31.537356],[151.763901,-31.540943],[151.768341,-31.542552],[151.770838,-31.543257],[151.773447,-31.544387],[151.774719,-31.544387],[151.7777,-31.545182],[151.78041,-31.545198],[151.782302,-31.546179],[151.783054,-31.547231],[151.784702,-31.547743],[151.786608,-31.547811],[151.787466,-31.549545],[151.788201,-31.559293],[151.790844,-31.562808],[151.792802,-31.564847],[151.795102,-31.565409],[151.800421,-31.567626],[151.802497,-31.573861],[151.783284,-31.585595],[151.782969,-31.585616],[151.781646,-31.592628],[151.775115,-31.591723],[151.775327,-31.59042],[151.757149,-31.601741],[151.756746,-31.60175],[151.757288,-31.607456],[151.755747,-31.60952],[151.755296,-31.611447],[151.75759,-31.614408],[151.757883,-31.61688],[151.758415,-31.619087],[151.758211,-31.619719],[151.756412,-31.619704],[151.756247,-31.621489],[151.75881,-31.625101],[151.755821,-31.625355],[151.756108,-31.627186],[151.755514,-31.628214],[151.755929,-31.631821],[151.7554,-31.632964],[151.753968,-31.633893],[151.755248,-31.635376],[151.756867,-31.638158],[151.740025,-31.6359],[151.737973,-31.633634],[151.736224,-31.631241],[151.733097,-31.628452],[151.728597,-31.627604],[151.727419,-31.626808],[151.726264,-31.626912],[151.726226,-31.628931],[151.724748,-31.629069],[151.722114,-31.627738],[151.720765,-31.627474],[151.718951,-31.626444],[151.717027,-31.624782],[151.713415,-31.620684],[151.711638,-31.6214],[151.711582,-31.622707],[151.710995,-31.623573],[151.70951,-31.623671],[151.706549,-31.622942],[151.704312,-31.621917],[151.703256,-31.620947],[151.700904,-31.619967],[151.699997,-31.620923],[151.699912,-31.62284],[151.698328,-31.623031],[151.695759,-31.62198],[151.694553,-31.622007],[151.692121,-31.622714],[151.690203,-31.622344],[151.689232,-31.620339],[151.688217,-31.619522],[151.688247,-31.61826],[151.688956,-31.617059],[151.691483,-31.61575],[151.691603,-31.614233],[151.688761,-31.613925],[151.686676,-31.612574],[151.683927,-31.611195],[151.681943,-31.608751],[151.680233,-31.608967],[151.678958,-31.609633],[151.675169,-31.612689],[151.673062,-31.612886],[151.671573,-31.612438],[151.669637,-31.611413],[151.667407,-31.611394],[151.666024,-31.61202],[151.665059,-31.613128],[151.663425,-31.613106],[151.661294,-31.612187],[151.659977,-31.61219],[151.657291,-31.613282],[151.656747,-31.612485],[151.657932,-31.610986],[151.659055,-31.609],[151.658923,-31.607763],[151.656306,-31.607891],[151.655917,-31.607294],[151.656421,-31.60536],[151.656004,-31.604124],[151.652578,-31.60266],[151.65003,-31.602545],[151.650016,-31.604549],[151.647504,-31.606935],[151.641406,-31.605737],[151.641347,-31.606677],[151.642394,-31.608319],[151.644641,-31.609645],[151.645175,-31.610789],[151.643779,-31.611317],[151.638661,-31.611143],[151.637712,-31.61005],[151.636787,-31.610432],[151.634236,-31.614806],[151.633102,-31.614757],[151.633065,-31.613639],[151.630448,-31.611938],[151.628635,-31.612045],[151.628038,-31.609956],[151.628224,-31.608627],[151.627777,-31.60806],[151.625865,-31.607718],[151.624904,-31.606894],[151.623258,-31.606884],[151.621183,-31.607548],[151.619498,-31.608428],[151.618427,-31.607469],[151.617655,-31.607527],[151.615612,-31.608781],[151.615287,-31.607174],[151.61274,-31.607114],[151.61184,-31.606796],[151.610618,-31.608038],[151.60937,-31.60289],[151.608116,-31.601698],[151.606488,-31.600878],[151.605675,-31.599034],[151.602413,-31.599445],[151.6014,-31.598835],[151.602421,-31.597191],[151.601657,-31.595739],[151.60098,-31.595677],[151.598054,-31.597519],[151.596635,-31.59971],[151.595434,-31.600119],[151.594566,-31.599307],[151.593242,-31.599537],[151.590968,-31.602467],[151.58723,-31.602618],[151.585832,-31.602491],[151.584902,-31.603378],[151.584911,-31.604352],[151.583669,-31.604905],[151.582024,-31.604295],[151.580266,-31.604788],[151.579923,-31.6032],[151.578753,-31.60329],[151.577334,-31.602365],[151.576362,-31.602482],[151.575413,-31.604737],[151.574162,-31.605303],[151.572094,-31.605558],[151.570674,-31.606469],[151.569917,-31.60962],[151.56922,-31.60992],[151.567235,-31.608878],[151.565951,-31.607028],[151.56518,-31.606582],[151.564047,-31.607286],[151.563329,-31.606572],[151.561148,-31.60625],[151.561632,-31.605329],[151.560367,-31.604533],[151.560257,-31.602706],[151.558611,-31.603003],[151.557492,-31.602814],[151.557171,-31.60081],[151.553846,-31.601072],[151.553882,-31.600025],[151.552448,-31.599826],[151.550766,-31.600682],[151.550442,-31.601714],[151.55159,-31.603121],[151.550625,-31.60376],[151.549439,-31.602767],[151.547564,-31.602611],[151.546609,-31.602046],[151.544124,-31.601943],[151.542857,-31.601594],[151.539219,-31.599864],[151.53843,-31.598646],[151.536255,-31.598101],[151.537087,-31.596714],[151.535647,-31.596086],[151.533952,-31.60583],[151.530779,-31.623418],[151.524081,-31.659787],[151.523451,-31.661446],[151.520908,-31.664807],[151.522227,-31.667179],[151.521836,-31.669757],[151.522519,-31.671332],[151.522008,-31.674948],[151.521103,-31.675951],[151.523656,-31.678606],[151.522466,-31.679691],[151.52428,-31.682073],[151.52321,-31.683125],[151.524258,-31.683789],[151.525366,-31.683568],[151.526979,-31.684804],[151.528384,-31.686856],[151.53,-31.687827],[151.530641,-31.68907],[151.532752,-31.690746],[151.533345,-31.692581],[151.534772,-31.694157],[151.533358,-31.695291],[151.532389,-31.697316],[151.523332,-31.741067],[151.520978,-31.753224],[151.517871,-31.768467],[151.520297,-31.768612],[151.522236,-31.770965],[151.523923,-31.770777],[151.525004,-31.770067],[151.526145,-31.770249],[151.526728,-31.77189],[151.527473,-31.77232],[151.529782,-31.772361],[151.530542,-31.770519],[151.531357,-31.7707],[151.532135,-31.773089],[151.533882,-31.774256],[151.534644,-31.775395],[151.535891,-31.775703],[151.537243,-31.774276],[151.538437,-31.775071],[151.540731,-31.775763],[151.539724,-31.777285],[151.54137,-31.776936],[151.542526,-31.778141],[151.54256,-31.780081],[151.545109,-31.782132],[151.547095,-31.782508],[151.551459,-31.78469],[151.55445,-31.787303],[151.555371,-31.78611],[151.556633,-31.785357],[151.557954,-31.786145],[151.558579,-31.787524],[151.560802,-31.788373],[151.562078,-31.788075],[151.563724,-31.78943],[151.565073,-31.789539],[151.56809,-31.790521],[151.569844,-31.789497],[151.57099,-31.789676],[151.571651,-31.789092],[151.572235,-31.787187],[151.573353,-31.78725],[151.575447,-31.786059],[151.575759,-31.787795],[151.578621,-31.788723],[151.579171,-31.787563],[151.580199,-31.787248],[151.582784,-31.788527],[151.583614,-31.787391],[151.583702,-31.78541],[151.584317,-31.785223],[151.586263,-31.788113],[151.587206,-31.788432],[151.588915,-31.788187],[151.590993,-31.788273],[151.592308,-31.789568],[151.594022,-31.78969],[151.588801,-31.814006],[151.589794,-31.814315],[151.58954,-31.816479],[151.58867,-31.817304],[151.585374,-31.81926],[151.585302,-31.820141],[151.587194,-31.822102],[151.587297,-31.822758],[151.585887,-31.823519],[151.586146,-31.826032],[151.585252,-31.827446],[151.584638,-31.831588],[151.585507,-31.833857],[151.584299,-31.83616],[151.584899,-31.837576],[151.583813,-31.84002],[151.58242,-31.840784],[151.581486,-31.845016],[151.577421,-31.846384],[151.577467,-31.850161],[151.578871,-31.851254],[151.578198,-31.852056],[151.57678,-31.85484],[151.57484,-31.855598],[151.574267,-31.856427],[151.572399,-31.85686],[151.570992,-31.856272],[151.569157,-31.856987],[151.56774,-31.857967],[151.568351,-31.859016],[151.564345,-31.86129],[151.562864,-31.861629],[151.561063,-31.860979],[151.560547,-31.861614],[151.557531,-31.861695],[151.556248,-31.861963],[151.555014,-31.86059],[151.553515,-31.861353],[151.55207,-31.860787],[151.55102,-31.859413],[151.551981,-31.858964],[151.555353,-31.858359],[151.556119,-31.856576],[151.556963,-31.855643],[151.556072,-31.855163],[151.556439,-31.852918],[151.555217,-31.85149],[151.556427,-31.849326],[151.554818,-31.848862],[151.55294,-31.848782],[151.552087,-31.84751],[151.551372,-31.848553],[151.548112,-31.850321],[151.54622,-31.848298],[151.544781,-31.848589],[151.544214,-31.849744],[151.543027,-31.84858],[151.543111,-31.847978],[151.541845,-31.847238],[151.539994,-31.846908],[151.535463,-31.84554],[151.532314,-31.84691],[151.53083,-31.846941],[151.530878,-31.848378],[151.530013,-31.848655],[151.528393,-31.847622],[151.52704,-31.848132],[151.525007,-31.849834],[151.523088,-31.851048],[151.520591,-31.85103],[151.518741,-31.852328],[151.516642,-31.852535],[151.514047,-31.855153],[151.512683,-31.856244],[151.512161,-31.857692],[151.513255,-31.860181],[151.51354,-31.862453],[151.514982,-31.864298],[151.515154,-31.865728],[151.514047,-31.86672],[151.512882,-31.868579],[151.510657,-31.868853],[151.505763,-31.873053],[151.505103,-31.872828],[151.503279,-31.873758],[151.502734,-31.875417],[151.502009,-31.875585],[151.500493,-31.874846],[151.496408,-31.876219],[151.495432,-31.876834],[151.493747,-31.875873],[151.492885,-31.877256],[151.491173,-31.878161],[151.489528,-31.880962],[151.489556,-31.88147],[151.487847,-31.882207],[151.488098,-31.883171],[151.489605,-31.883999],[151.490632,-31.885178],[151.490836,-31.887069],[151.489983,-31.888137],[151.487154,-31.889089],[151.486569,-31.890455],[151.485818,-31.890976],[151.485605,-31.892167],[151.484698,-31.892795],[151.48233,-31.892092],[151.479993,-31.892323],[151.479161,-31.893038],[151.476862,-31.893325],[151.474586,-31.895508],[151.471434,-31.895605],[151.469467,-31.896611],[151.469031,-31.898129],[151.467828,-31.900363],[151.469144,-31.903589],[151.468926,-31.905092],[151.469226,-31.906085],[151.468654,-31.907592],[151.467915,-31.907706],[151.467881,-31.90899],[151.467008,-31.910233],[151.465612,-31.913151],[151.463145,-31.915319],[151.462026,-31.915806],[151.461714,-31.917099],[151.460505,-31.918982],[151.460027,-31.920881],[151.459357,-31.92131],[151.457448,-31.921396],[151.455799,-31.923058],[151.455772,-31.923992],[151.454205,-31.930308],[151.453051,-31.9317],[151.453284,-31.933449],[151.451805,-31.935519],[151.452179,-31.936658],[151.451976,-31.938106],[151.450903,-31.941009],[151.450962,-31.942439],[151.450361,-31.944195],[151.446903,-31.946012],[151.445347,-31.946512],[151.443801,-31.947418],[151.442452,-31.949366],[151.441565,-31.951839],[151.442812,-31.951658],[151.44468,-31.953268],[151.44618,-31.956585],[151.446358,-31.959605],[151.448739,-31.961657],[151.448062,-31.963669],[151.44804,-31.966574],[151.446091,-31.970044],[151.44648,-31.973445],[151.446969,-31.975108],[151.449756,-31.977066],[151.450136,-31.979219],[151.448894,-31.982641],[151.449745,-31.986455],[151.449478,-31.987238],[151.451139,-31.99095],[151.454637,-31.993265],[151.454726,-31.995979],[151.453394,-31.997912],[151.452535,-31.998594],[151.450874,-32.000743],[151.447404,-32.00226],[151.446127,-32.003684],[151.443204,-32.005624],[151.442454,-32.006725],[151.44328,-32.009733],[151.441603,-32.010736],[151.439323,-32.010726],[151.437999,-32.011461],[151.437388,-32.012792],[151.436349,-32.01388],[151.437043,-32.01585],[151.438611,-32.017178],[151.437358,-32.018143],[151.435858,-32.018128],[151.43557,-32.0173],[151.433128,-32.016711],[151.429819,-32.018155],[151.427854,-32.018273],[151.424826,-32.019828],[151.421012,-32.022047],[151.419784,-32.023912],[151.418199,-32.025133],[151.41746,-32.026382],[151.414511,-32.02882],[151.410717,-32.031033],[151.408589,-32.032685],[151.407895,-32.034285],[151.406875,-32.035343],[151.404972,-32.036653],[151.404534,-32.038362],[151.402881,-32.040946],[151.404028,-32.043871],[151.405995,-32.044979],[151.405563,-32.047555],[151.405758,-32.048861],[151.406667,-32.050359],[151.406311,-32.05357],[151.405956,-32.054495],[151.406921,-32.057163],[151.406738,-32.058774],[151.404323,-32.061319],[151.403804,-32.062699],[151.400821,-32.066893],[151.400115,-32.067385],[151.398361,-32.06748],[151.394632,-32.069713],[151.394323,-32.072523],[151.393628,-32.076069],[151.392789,-32.078543],[151.393072,-32.07988],[151.392307,-32.081226],[151.389553,-32.083241],[151.387447,-32.083526],[151.383681,-32.083021],[151.378641,-32.081882],[151.373767,-32.081668],[151.369771,-32.081356],[151.367701,-32.081511],[151.365063,-32.082866],[151.363162,-32.083102],[151.359331,-32.082102],[151.357065,-32.081801],[151.354104,-32.080711],[151.352109,-32.080392],[151.341812,-32.081838],[151.338422,-32.081704],[151.335448,-32.082403],[151.33509,-32.083804],[151.334992,-32.086031],[151.334245,-32.087956],[151.334035,-32.090034],[151.334543,-32.090488],[151.334411,-32.091944],[151.332834,-32.093024],[151.328732,-32.094955],[151.326894,-32.094208],[151.324628,-32.094257],[151.323645,-32.096056],[151.321414,-32.097466],[151.320766,-32.098468],[151.32104,-32.100142],[151.320672,-32.102083],[151.319774,-32.103787],[151.318691,-32.104995],[151.316505,-32.106585],[151.314199,-32.109444],[151.313204,-32.109929],[151.312247,-32.111336],[151.309049,-32.113276],[151.308015,-32.114265],[151.305537,-32.11562],[151.304681,-32.115733],[151.303943,-32.116747],[151.304009,-32.11873],[151.307475,-32.118768],[151.308971,-32.12047],[151.310287,-32.121363],[151.310752,-32.123211],[151.310275,-32.125173],[151.311869,-32.127092],[151.30999,-32.12933],[151.310104,-32.1304],[151.30926,-32.131373],[151.308333,-32.134833],[151.308991,-32.136444],[151.310042,-32.137766],[151.309698,-32.138984],[151.312956,-32.139322],[151.314002,-32.14001],[151.315278,-32.141897],[151.315448,-32.143502],[151.316918,-32.144927],[151.317421,-32.146704],[151.318605,-32.147254],[151.321493,-32.150159],[151.325555,-32.151604],[151.327894,-32.15462],[151.327776,-32.158465],[151.328476,-32.160625],[151.32773,-32.161725],[151.326817,-32.166184],[151.327275,-32.166851],[151.327096,-32.16914],[151.327214,-32.171672],[151.329691,-32.172449],[151.331288,-32.172526],[151.333424,-32.173481],[151.335064,-32.173165],[151.338285,-32.174626],[151.338639,-32.175418],[151.341902,-32.175586],[151.342896,-32.177314],[151.343799,-32.181051],[151.345536,-32.182976],[151.344772,-32.186689],[151.343422,-32.190988],[151.343636,-32.192718],[151.34553,-32.194395],[151.346671,-32.195793],[151.346909,-32.197252],[151.345404,-32.198811],[151.345455,-32.199889],[151.346428,-32.201934],[151.348728,-32.203724],[151.349353,-32.206064],[151.348229,-32.20735],[151.348057,-32.21025],[151.34836,-32.211398],[151.350679,-32.213576],[151.349965,-32.214462],[151.34887,-32.216742],[151.348127,-32.219063],[151.344891,-32.220862],[151.343893,-32.221918],[151.341816,-32.223058],[151.341002,-32.224172],[151.340293,-32.224233],[151.342116,-32.226661],[151.341375,-32.228366],[151.340169,-32.229728],[151.339659,-32.231641],[151.338004,-32.233566],[151.337996,-32.235717],[151.33714,-32.237322],[151.338815,-32.23868],[151.33995,-32.239158],[151.340464,-32.242187],[151.341791,-32.245002],[151.342188,-32.247873],[151.342958,-32.249068],[151.342745,-32.251048],[151.342135,-32.252768],[151.341077,-32.253149],[151.34021,-32.255144],[151.341174,-32.257823],[151.341288,-32.259349],[151.340587,-32.260841],[151.339229,-32.262123],[151.340678,-32.263527],[151.341398,-32.26477],[151.34145,-32.26641],[151.341983,-32.267706],[151.34429,-32.270692],[151.344672,-32.271483],[151.346096,-32.272498],[151.3462,-32.273338],[151.348607,-32.27612],[151.352233,-32.276881],[151.354043,-32.27677],[151.355112,-32.28102],[151.354794,-32.28213],[151.355472,-32.284239],[151.358076,-32.285079],[151.358395,-32.28604],[151.361307,-32.289213],[151.367763,-32.290187],[151.371487,-32.291598],[151.373162,-32.294974],[151.373087,-32.295671],[151.374677,-32.297918],[151.374783,-32.29933],[151.376947,-32.302601],[151.377317,-32.306857],[151.378248,-32.309285],[151.379891,-32.311901],[151.380554,-32.314226],[151.39027,-32.315592],[151.389537,-32.320312],[151.383861,-32.319491],[151.382997,-32.324113],[151.393668,-32.325601],[151.393849,-32.32477],[151.395798,-32.325057],[151.395513,-32.32653],[151.394633,-32.327557],[151.394731,-32.329496],[151.393829,-32.331008],[151.394981,-32.333436],[151.395901,-32.339514],[151.397239,-32.341157],[151.39796,-32.342973],[151.401029,-32.345106],[151.402738,-32.345264],[151.404676,-32.34657],[151.410765,-32.349036],[151.411886,-32.35169],[151.412036,-32.354189],[151.413338,-32.356242],[151.414393,-32.356764],[151.417842,-32.357569],[151.418531,-32.358038],[151.421432,-32.361265],[151.422119,-32.362867],[151.421902,-32.365858],[151.422439,-32.367083],[151.421757,-32.368063],[151.423078,-32.369306],[151.424905,-32.369304],[151.428128,-32.370042],[151.428279,-32.371158],[151.429132,-32.373085],[151.4287,-32.374247],[151.428885,-32.375312],[151.428382,-32.376962],[151.428549,-32.378031],[151.429583,-32.378344],[151.430489,-32.380048],[151.432368,-32.381],[151.432676,-32.3829],[151.434188,-32.387463],[151.436581,-32.387803],[151.437337,-32.390643],[151.439947,-32.393666],[151.440295,-32.394755],[151.442703,-32.397726],[151.44365,-32.398115],[151.446101,-32.398427],[151.447315,-32.399617],[151.449633,-32.400784],[151.45048,-32.401995],[151.448777,-32.403483],[151.446799,-32.40407],[151.446003,-32.405349],[151.446149,-32.407075],[151.44775,-32.408031],[151.449376,-32.408499],[151.451346,-32.410512],[151.454605,-32.412751],[151.458686,-32.414715],[151.460067,-32.416459],[151.462634,-32.41694],[151.465442,-32.418588],[151.468051,-32.420665],[151.470079,-32.426594],[151.472016,-32.428454],[151.474537,-32.430063],[151.474343,-32.430943],[151.472217,-32.431358],[151.469898,-32.43255],[151.468498,-32.434624],[151.467435,-32.436707],[151.468507,-32.439825],[151.466203,-32.442074],[151.466038,-32.443626],[151.467242,-32.445891],[151.468152,-32.448745],[151.466654,-32.451885],[151.466431,-32.45286],[151.465268,-32.453643],[151.462231,-32.454076],[151.461014,-32.455604],[151.459955,-32.458734],[151.45629,-32.460393],[151.455019,-32.461434],[151.454025,-32.463714],[151.454409,-32.465111],[151.455802,-32.468109],[151.456775,-32.469078],[151.455369,-32.469423],[151.455677,-32.470714],[151.456798,-32.472384],[151.458085,-32.473092],[151.460782,-32.47405],[151.461831,-32.475827],[151.465042,-32.477357],[151.464922,-32.478483],[151.467214,-32.479606],[151.470001,-32.480587],[151.471352,-32.48183],[151.471926,-32.48298],[151.473332,-32.483806],[151.47396,-32.485049],[151.475049,-32.485822],[151.478738,-32.487772],[151.485127,-32.492409],[151.493112,-32.496031],[151.496538,-32.497268],[151.498055,-32.498647],[151.498599,-32.501169],[151.500194,-32.503074],[151.500727,-32.504188],[151.500571,-32.507274],[151.499094,-32.509239],[151.498767,-32.512874],[151.499006,-32.513585],[151.498447,-32.517293],[151.495739,-32.519158],[151.495958,-32.522117],[151.49508,-32.524045],[151.497485,-32.526628],[151.499742,-32.527451],[151.500739,-32.529049],[151.502072,-32.529277],[151.499675,-32.541277],[151.496068,-32.557305],[151.479718,-32.555213],[151.475897,-32.574887],[151.475075,-32.579439],[151.473945,-32.586517],[151.476519,-32.586888],[151.477013,-32.588762],[151.476673,-32.590486],[151.477138,-32.591208],[151.477057,-32.593755],[151.476564,-32.594702],[151.475683,-32.599011],[151.474918,-32.598539],[151.472472,-32.610433],[151.470816,-32.618177],[151.463364,-32.617162],[151.45421,-32.615831],[151.451169,-32.615481],[151.452465,-32.608653],[151.44586,-32.607757],[151.445046,-32.612383],[151.440859,-32.615623],[151.438902,-32.615427],[151.436312,-32.614033],[151.434772,-32.613621],[151.434338,-32.615844],[151.43081,-32.615354],[151.431006,-32.615952],[151.433299,-32.618139],[151.434252,-32.619701],[151.433946,-32.62424],[151.432792,-32.627337],[151.431478,-32.629473],[151.430207,-32.632113],[151.428578,-32.634931],[151.427565,-32.637162],[151.426431,-32.63888],[151.426217,-32.64083],[151.425476,-32.64243],[151.424383,-32.646217],[151.418647,-32.651869],[151.415986,-32.654096],[151.413532,-32.655791],[151.4094,-32.657005],[151.407377,-32.657412],[151.405337,-32.658612],[151.40373,-32.660206],[151.403078,-32.661303],[151.403811,-32.667817],[151.404435,-32.671539],[151.405571,-32.675434],[151.407184,-32.679147],[151.407843,-32.681344],[151.40853,-32.682242],[151.41241,-32.684632],[151.414405,-32.685414],[151.41926,-32.686563],[151.420606,-32.687451],[151.422832,-32.690046],[151.424995,-32.691366],[151.426414,-32.691865],[151.429414,-32.692409],[151.430903,-32.692414],[151.432256,-32.691732],[151.432762,-32.690531],[151.431101,-32.689393],[151.43051,-32.687103],[151.431332,-32.686119],[151.433552,-32.684733],[151.436102,-32.683592],[151.438599,-32.68217],[151.439633,-32.680984],[151.440012,-32.678736],[151.437698,-32.671561],[151.437654,-32.670666],[151.43852,-32.669282],[151.441296,-32.668777],[151.443201,-32.669055],[151.446132,-32.670339],[151.449274,-32.671169],[151.451577,-32.670754],[151.452869,-32.669337],[151.453952,-32.667617],[151.454598,-32.665982],[151.45474,-32.664448],[151.45361,-32.663086],[151.450963,-32.661588],[151.4502,-32.660877],[151.44927,-32.658831],[151.450949,-32.657012],[151.453371,-32.656502],[151.457148,-32.657339],[151.460173,-32.658608],[151.465345,-32.660393],[151.470106,-32.662427],[151.471345,-32.662503],[151.473896,-32.661319],[151.475987,-32.66071],[151.477099,-32.659775],[151.478566,-32.655939],[151.47874,-32.654311],[151.47755,-32.650684],[151.477981,-32.648406],[151.479962,-32.643542],[151.481215,-32.64097],[151.484052,-32.637074],[151.486294,-32.635915],[151.488447,-32.635764],[151.492703,-32.637046],[151.496875,-32.638999],[151.498045,-32.639998],[151.498909,-32.641625],[151.501238,-32.650055],[151.505668,-32.658119],[151.506274,-32.65897],[151.508751,-32.6605],[151.509983,-32.661676],[151.510743,-32.66365],[151.510224,-32.673313],[151.511018,-32.679041],[151.510817,-32.681264],[151.509881,-32.685597],[151.509915,-32.687487],[151.512091,-32.690327],[151.513029,-32.692013],[151.514554,-32.693484],[151.515592,-32.693794],[151.518456,-32.693278],[151.521067,-32.691885],[151.525859,-32.688648],[151.52755,-32.687245],[151.532547,-32.682393],[151.535393,-32.679101],[151.537086,-32.678317],[151.539895,-32.678142],[151.541299,-32.678315],[151.542365,-32.679341],[151.542934,-32.682061],[151.542188,-32.685463],[151.542309,-32.686862],[151.543176,-32.687608],[151.55157,-32.689553],[151.552355,-32.689631],[151.557153,-32.687563],[151.559718,-32.686809],[151.562287,-32.686769],[151.565572,-32.687738],[151.566236,-32.688561],[151.567924,-32.692673],[151.568951,-32.695809],[151.569049,-32.697386],[151.568398,-32.699116],[151.566318,-32.70574],[151.565448,-32.707682],[151.564261,-32.709355],[151.562702,-32.712321],[151.560582,-32.715302],[151.559674,-32.716222],[151.556988,-32.721333],[151.554002,-32.728486],[151.554217,-32.729754],[151.554954,-32.730662],[151.557076,-32.732309],[151.559259,-32.733109],[151.561038,-32.733157],[151.562742,-32.732076],[151.565076,-32.731263],[151.566907,-32.731023],[151.572455,-32.732066],[151.574824,-32.732774],[151.576442,-32.733949],[151.577983,-32.735796],[151.580492,-32.736011],[151.582331,-32.736703],[151.583493,-32.736339],[151.585073,-32.735256],[151.588134,-32.733669],[151.589985,-32.730164],[151.5895,-32.728672],[151.589503,-32.722869],[151.590326,-32.720842],[151.591887,-32.720425],[151.593046,-32.720637],[151.59572,-32.71993],[151.597182,-32.71895],[151.597317,-32.7178],[151.599749,-32.716142],[151.601166,-32.715837],[151.602845,-32.716059],[151.605322,-32.715167],[151.60889,-32.716162],[151.610583,-32.716186],[151.612901,-32.714914],[151.614638,-32.715017],[151.615377,-32.715998],[151.618943,-32.717878],[151.619661,-32.71897],[151.619676,-32.721954],[151.619945,-32.722822],[151.624948,-32.724075],[151.626656,-32.72405],[151.63063,-32.723382],[151.632763,-32.72278],[151.634812,-32.721835],[151.638088,-32.719507],[151.639813,-32.718805],[151.641298,-32.71886],[151.643847,-32.720006],[151.644418,-32.721404],[151.646373,-32.722879],[151.648102,-32.723302],[151.651037,-32.723614],[151.65296,-32.724149],[151.654059,-32.724982],[151.658884,-32.730713],[151.660095,-32.732434],[151.662466,-32.736406],[151.665226,-32.739649],[151.666904,-32.740717],[151.6685,-32.741328],[151.67128,-32.74167],[151.673875,-32.741315],[151.676727,-32.739715],[151.678037,-32.737816],[151.680561,-32.735555],[151.680918,-32.734364],[151.680145,-32.732185],[151.67988,-32.730622],[151.680968,-32.729022],[151.68273,-32.728145],[151.686176,-32.727182],[151.68955,-32.727037],[151.691205,-32.727636],[151.692899,-32.729713],[151.69395,-32.730518],[151.696577,-32.731378],[151.700636,-32.73137],[151.70436,-32.732496],[151.70998,-32.735162],[151.714642,-32.736929],[151.717627,-32.737079],[151.720927,-32.736077],[151.72363,-32.73475],[151.725159,-32.735515],[151.725781,-32.736656],[151.725264,-32.739586],[151.722672,-32.742629],[151.721508,-32.744532],[151.721558,-32.746219],[151.722459,-32.74796],[151.727015,-32.751268],[151.728273,-32.753833],[151.728315,-32.755475],[151.727628,-32.75828],[151.72844,-32.760024],[151.729466,-32.760455],[151.730927,-32.760116],[151.732351,-32.758772],[151.734625,-32.754481],[151.735963,-32.753489],[151.73797,-32.752987],[151.741064,-32.753156],[151.743172,-32.754227],[151.744219,-32.754321],[151.745046,-32.753442],[151.746882,-32.752337],[151.750342,-32.751105],[151.751776,-32.750261],[151.752192,-32.748728],[151.751136,-32.748056],[151.750014,-32.748025],[151.747397,-32.748684],[151.744791,-32.747954],[151.743356,-32.746645],[151.74142,-32.743076],[151.739943,-32.741116],[151.738975,-32.740358],[151.735681,-32.738731],[151.734298,-32.73736],[151.734006,-32.736067],[151.734674,-32.734294],[151.735607,-32.733122],[151.737815,-32.731493],[151.739558,-32.729439],[151.741411,-32.726562],[151.743349,-32.724268],[151.746945,-32.721993],[151.747545,-32.720581],[151.746672,-32.719015],[151.745293,-32.717455],[151.74426,-32.715293],[151.744122,-32.713501],[151.744862,-32.71144],[151.746096,-32.709703],[151.747827,-32.708098],[151.751505,-32.705146],[151.752481,-32.703859],[151.753831,-32.700754],[151.753995,-32.698803],[151.753217,-32.695614],[151.75143,-32.691267],[151.749351,-32.687152],[151.749198,-32.685669],[151.750643,-32.683842],[151.753396,-32.682089],[151.754963,-32.680833],[151.756003,-32.678348],[151.764538,-32.679519],[151.764507,-32.679678],[151.789911,-32.683146],[151.798143,-32.684666],[151.809842,-32.686222],[151.810363,-32.686365],[151.811462,-32.684871],[151.813069,-32.683434],[151.819496,-32.67947],[151.822835,-32.677161],[151.828093,-32.673142],[151.835597,-32.668405],[151.839772,-32.665244],[151.844219,-32.661604],[151.882972,-32.667213],[151.894875,-32.668889],[151.893441,-32.667956],[151.8941,-32.666887],[151.896001,-32.665501],[151.895973,-32.663826],[151.896443,-32.662799],[151.895769,-32.662358],[151.896241,-32.658999],[151.912841,-32.661336],[151.913385,-32.658548],[151.928599,-32.660943],[151.932013,-32.661416],[151.932835,-32.664193],[151.93393,-32.664627],[151.935528,-32.663582],[151.936554,-32.664428],[151.936832,-32.666062],[151.939127,-32.666313],[151.940752,-32.67061],[151.940951,-32.672048],[151.940611,-32.673964],[151.940861,-32.674853],[151.941871,-32.675345],[151.944526,-32.675853],[151.944606,-32.676772],[151.948673,-32.676887],[151.951065,-32.676313],[151.952903,-32.677159],[151.954384,-32.677084],[151.95491,-32.677857],[151.976222,-32.684583],[152.039421,-32.692282],[152.05231,-32.688083],[152.074763,-32.692632],[152.124656,-32.699981],[152.187855,-32.70488],[152.194486,-32.707671]],[[152.14225,-32.767825],[152.142967,-32.766771],[152.145119,-32.767875],[152.14225,-32.767825]],[[152.197109,-32.746103],[152.190502,-32.751173],[152.184939,-32.749721],[152.189945,-32.744052],[152.188468,-32.742159],[152.191391,-32.741962],[152.192662,-32.739777],[152.195788,-32.741711],[152.196919,-32.740429],[152.202932,-32.742184],[152.203153,-32.744091],[152.201033,-32.744522],[152.203513,-32.747611],[152.202189,-32.748848],[152.197109,-32.746103]]]},"bbox":[151.303943,-32.80044497000763,153.00517301489265,-31.114068]}]}