{"type":"FeatureCollection","features":[
{"properties":{"electorateShortName":"moncrieff","electorateName":"Moncrieff","area":100.31,"state":null},"type":"Feature","geometry":{"type":"Polygon","coordinates":[[[153.446246,-28.076448],[153.446818,-28.076282],[153.447581,-28.076061],[153.44769108262744,-28.07631582222837],[153.44750717026727,-28.07579341501656],[153.44759948780876,-28.076055645077677],[153.53387902859095,-28.051065109674415],[153.5315767045437,-28.036799175394027],[153.5294500145937,-28.033587194375137],[153.5291592299328,-28.033301873932345],[153.52578403625955,-28.021037723528725],[153.52056858297806,-27.98848555228464],[153.5195321348962,-27.973481271216937],[153.52032125969131,-27.95762519273894],[153.5221284583931,-27.94994597705786],[153.5221867504059,-27.948160305765533],[153.5232314330425,-27.943253158488606],[153.52323955135248,-27.924448123960982],[153.52114517797878,-27.91456842760171],[153.51933977888993,-27.90605189705891],[153.51737840126742,-27.901638768745414],[153.433728,-27.933812],[153.433598,-27.933862],[153.429378,-27.934792],[153.429148,-27.934902],[153.428118,-27.935192],[153.427818,-27.935352],[153.426348,-27.935852],[153.425978,-27.936012],[153.424358,-27.936692],[153.422768,-27.938252],[153.422582,-27.938768],[153.421763,-27.939841],[153.421281,-27.940901],[153.421102,-27.942472],[153.421074,-27.943143],[153.421073,-27.943445],[153.421046,-27.943639],[153.421041,-27.945085],[153.421054,-27.945125],[153.4211,-27.946571],[153.421233,-27.948831],[153.421246,-27.948894],[153.421285,-27.948964],[153.413165,-27.958244],[153.412989,-27.957991],[153.412927,-27.95801],[153.410967,-27.958678],[153.41074,-27.958769],[153.410705,-27.958718],[153.410052,-27.95781],[153.409954,-27.957659],[153.409395,-27.957549],[153.408782,-27.957448],[153.408538,-27.957407],[153.408093,-27.957351],[153.407671,-27.957292],[153.407547,-27.957306],[153.406964,-27.957228],[153.406129,-27.957101],[153.405702,-27.957049],[153.404621,-27.95688],[153.403702,-27.956738],[153.402188,-27.956514],[153.401053,-27.956346],[153.400858,-27.956319],[153.40066,-27.956289],[153.398578,-27.955987],[153.398544,-27.956167],[153.397019,-27.955946],[153.396489,-27.95587],[153.396074,-27.955811],[153.395174,-27.955675],[153.393935,-27.955493],[153.390741,-27.955015],[153.390414,-27.954966],[153.390112,-27.954921],[153.387955,-27.954598],[153.386863,-27.954435],[153.38578,-27.954273],[153.385636,-27.954251],[153.384674,-27.954124],[153.384528,-27.954096],[153.38437,-27.954068],[153.384161,-27.954025],[153.384078,-27.954002],[153.383737,-27.953909],[153.383515,-27.954637],[153.383295,-27.955031],[153.383149,-27.955205],[153.382219,-27.956122],[153.381159,-27.957072],[153.380591,-27.957572],[153.38002,-27.958138],[153.379584,-27.958616],[153.378635,-27.959612],[153.378555,-27.959696],[153.377787,-27.960547],[153.377562,-27.960846],[153.377228,-27.961381],[153.3771,-27.961638],[153.376947,-27.962103],[153.376779,-27.963072],[153.376664,-27.963688],[153.376468,-27.964667],[153.374857,-27.964534],[153.372705,-27.964337],[153.371845,-27.964292],[153.371472,-27.964243],[153.370764,-27.964182],[153.369647,-27.964016],[153.368023,-27.963785],[153.364248,-27.963201],[153.364171,-27.963187],[153.36239,-27.962912],[153.361553,-27.962782],[153.360617,-27.962638],[153.358243,-27.962271],[153.357825,-27.962207],[153.357275,-27.962131],[153.35706,-27.962095],[153.355391,-27.961828],[153.355119,-27.961777],[153.352691,-27.961291],[153.352347,-27.961128],[153.351619,-27.961573],[153.345944,-27.960753],[153.345238,-27.96065],[153.345413,-27.962064],[153.345508,-27.962771],[153.345722,-27.963785],[153.345931,-27.964483],[153.346056,-27.964967],[153.346693,-27.96691],[153.346888,-27.967802],[153.347014,-27.968645],[153.347121,-27.971063],[153.347089,-27.971267],[153.347057,-27.971529],[153.346915,-27.97248],[153.346628,-27.973501],[153.346338,-27.974173],[153.346107,-27.97467],[153.344949,-27.976289],[153.344378,-27.976955],[153.344076,-27.976893],[153.343623,-27.977241],[153.341081,-27.979154],[153.339866,-27.980224],[153.339475,-27.980652],[153.339099,-27.981073],[153.33874,-27.981664],[153.338445,-27.982192],[153.337352,-27.981984],[153.337321,-27.982084],[153.336743,-27.985074],[153.336732,-27.985127],[153.333165,-27.985276],[153.332663,-27.986056],[153.331855,-27.985909],[153.331667,-27.985907],[153.331532,-27.98601],[153.330075,-27.985766],[153.328989,-27.985605],[153.328438,-27.985348],[153.328461,-27.985224],[153.328884,-27.98298],[153.327447,-27.982772],[153.326341,-27.982611],[153.3246,-27.982359],[153.324526,-27.982369],[153.324394,-27.982269],[153.324193,-27.982152],[153.324041,-27.982143],[153.323844,-27.982202],[153.323655,-27.982206],[153.323469,-27.982167],[153.323333,-27.982198],[153.323141,-27.982202],[153.322997,-27.98218],[153.322889,-27.982192],[153.322746,-27.98225],[153.322681,-27.982295],[153.322663,-27.982396],[153.322699,-27.982553],[153.322574,-27.982706],[153.322423,-27.982729],[153.322125,-27.982748],[153.321969,-27.982839],[153.321841,-27.98287],[153.321585,-27.982904],[153.321337,-27.982952],[153.321268,-27.983038],[153.32126,-27.983206],[153.321115,-27.983487],[153.320749,-27.983663],[153.320507,-27.983847],[153.320388,-27.983903],[153.320025,-27.983951],[153.319694,-27.98411],[153.319473,-27.984164],[153.319313,-27.984192],[153.319189,-27.984254],[153.31909,-27.984369],[153.319025,-27.984515],[153.318894,-27.984517],[153.318549,-27.984448],[153.318308,-27.984456],[153.317749,-27.984492],[153.317486,-27.98446],[153.317476,-27.984507],[153.317316,-27.98527],[153.317149,-27.986066],[153.317125,-27.986121],[153.317122,-27.986126],[153.317111,-27.986245],[153.317009,-27.986733],[153.316895,-27.987276],[153.316857,-27.987454],[153.316456,-27.989364],[153.316398,-27.989453],[153.316234,-27.989492],[153.315964,-27.989504],[153.315878,-27.989597],[153.315875,-27.989655],[153.315886,-27.989785],[153.315948,-27.989942],[153.316152,-27.990153],[153.31641,-27.99029],[153.316512,-27.990357],[153.316515,-27.990434],[153.316502,-27.990501],[153.316453,-27.990553],[153.316343,-27.990601],[153.316187,-27.990632],[153.316035,-27.990627],[153.31591,-27.990643],[153.315784,-27.990746],[153.315675,-27.990914],[153.315559,-27.990964],[153.3152,-27.990999],[153.315004,-27.991062],[153.314816,-27.991105],[153.314582,-27.991121],[153.314304,-27.991023],[153.314128,-27.991058],[153.31442,-27.991678],[153.31337,-27.992013],[153.312673,-27.992279],[153.312004,-27.992688],[153.311412,-27.993145],[153.310773,-27.993759],[153.310089,-27.994542],[153.309685,-27.994871],[153.309189,-27.995228],[153.308325,-27.995686],[153.307453,-27.996033],[153.306064,-27.996285],[153.305352,-27.996468],[153.305173,-27.996612],[153.304666,-27.996842],[153.304084,-27.99718],[153.303985,-27.997235],[153.303342,-27.99765],[153.303107,-27.997846],[153.302884,-27.998098],[153.302525,-27.998567],[153.302327,-27.998731],[153.301534,-27.999767],[153.300768,-28.000522],[153.300065,-28.00109],[153.299506,-28.001603],[153.298986,-28.001975],[153.29812,-28.002346],[153.296844,-28.002719],[153.296324,-28.002827],[153.296266,-28.002829],[153.294176,-28.003216],[153.292414,-28.004218],[153.290513,-28.006496],[153.290101,-28.00688],[153.289731,-28.007233],[153.288716,-28.007499],[153.28733,-28.008333],[153.287085,-28.008603],[153.285975,-28.009969],[153.286114,-28.010255],[153.298562,-28.012178],[153.304534,-28.013101],[153.304911,-28.013141],[153.304457,-28.012437],[153.30429,-28.011585],[153.304309,-28.011579],[153.304364,-28.011567],[153.306104,-28.011235],[153.306076,-28.011113],[153.307263,-28.010939],[153.30796,-28.011078],[153.309503,-28.011917],[153.310351,-28.012731],[153.311049,-28.012891],[153.311192,-28.012388],[153.311371,-28.012409],[153.311858,-28.012483],[153.312719,-28.012614],[153.314313,-28.012857],[153.314463,-28.012107],[153.315064,-28.012198],[153.316332,-28.01239],[153.316426,-28.012405],[153.317454,-28.01256],[153.317876,-28.012625],[153.321023,-28.013102],[153.323646,-28.0135],[153.324398,-28.013614],[153.324381,-28.013703],[153.324102,-28.013661],[153.324021,-28.013964],[153.325506,-28.014585],[153.32545,-28.014965],[153.325406,-28.015268],[153.325509,-28.015403],[153.32549,-28.01553],[153.325353,-28.016282],[153.325111,-28.017547],[153.324184,-28.018392],[153.323463,-28.01905],[153.322757,-28.019693],[153.322818,-28.019865],[153.323011,-28.020417],[153.323397,-28.021513],[153.323754,-28.021974],[153.32395,-28.022228],[153.325847,-28.022503],[153.327199,-28.022285],[153.328541,-28.022068],[153.329772,-28.02135],[153.330897,-28.021417],[153.331221,-28.021432],[153.331341,-28.021439],[153.333275,-28.022729],[153.334941,-28.022628],[153.335474,-28.022595],[153.338298,-28.022589],[153.340618,-28.024521],[153.34178,-28.025273],[153.341944,-28.025379],[153.342366,-28.025439],[153.34243,-28.02562],[153.342474,-28.025678],[153.342581,-28.025969],[153.342651,-28.026083],[153.342745,-28.026346],[153.342744,-28.026449],[153.342895,-28.026854],[153.342908,-28.026866],[153.342926,-28.02698],[153.342912,-28.027048],[153.342944,-28.0271],[153.342942,-28.027213],[153.342985,-28.027442],[153.34301,-28.027499],[153.343016,-28.027561],[153.343054,-28.027675],[153.343149,-28.027847],[153.343194,-28.027905],[153.343225,-28.027962],[153.343397,-28.028196],[153.3435,-28.028312],[153.343628,-28.028421],[153.343692,-28.028461],[153.343757,-28.028479],[153.343821,-28.028519],[153.343885,-28.028537],[153.343956,-28.028577],[153.344085,-28.028618],[153.34415,-28.028653],[153.344214,-28.028654],[153.344408,-28.028712],[153.344537,-28.028736],[153.345325,-28.028992],[153.345969,-28.02917],[153.346033,-28.029182],[153.346136,-28.029223],[153.346569,-28.029278],[153.346791,-28.029316],[153.346873,-28.029332],[153.347066,-28.02939],[153.347195,-28.029449],[153.347259,-28.029472],[153.347935,-28.029791],[153.348147,-28.029918],[153.348276,-28.029976],[153.348547,-28.030047],[153.348676,-28.030071],[153.348734,-28.0301],[153.348863,-28.030101],[153.349174,-28.030121],[153.349219,-28.030133],[153.349417,-28.030373],[153.349494,-28.03042],[153.349603,-28.03054],[153.349731,-28.030655],[153.350039,-28.03088],[153.350194,-28.030944],[153.350323,-28.030996],[153.350619,-28.03113],[153.350683,-28.031193],[153.351018,-28.031338],[153.351147,-28.031379],[153.351211,-28.03138],[153.351392,-28.03141],[153.351522,-28.031388],[153.351808,-28.031335],[153.352132,-28.033464],[153.352369,-28.035065],[153.352393,-28.035341],[153.352427,-28.035577],[153.352549,-28.036715],[153.352603,-28.037113],[153.352684,-28.037706],[153.352822,-28.038713],[153.353084,-28.040635],[153.35333,-28.042043],[153.353421,-28.042577],[153.353493,-28.042804],[153.354373,-28.045614],[153.354514,-28.046062],[153.355204,-28.048061],[153.355293,-28.048315],[153.355703,-28.0495],[153.355797,-28.049479],[153.356209,-28.049258],[153.356397,-28.049031],[153.356671,-28.048851],[153.357458,-28.048621],[153.359544,-28.048149],[153.360489,-28.047905],[153.361619,-28.047553],[153.362442,-28.047359],[153.362541,-28.04733],[153.363784,-28.047134],[153.364273,-28.047055],[153.36551,-28.04682],[153.366477,-28.046629],[153.367503,-28.046392],[153.368455,-28.046136],[153.368976,-28.045955],[153.369058,-28.045926],[153.36965,-28.045639],[153.370063,-28.045405],[153.370115,-28.045366],[153.370806,-28.044843],[153.371218,-28.044418],[153.371431,-28.04423],[153.373391,-28.042656],[153.37424,-28.041885],[153.374925,-28.041139],[153.376369,-28.038654],[153.377684,-28.037109],[153.377933,-28.036849],[153.37936,-28.035274],[153.380077,-28.034775],[153.380594,-28.034469],[153.382404,-28.033657],[153.384365,-28.032873],[153.384375,-28.03287],[153.3844,-28.03286],[153.385088,-28.03265],[153.385422,-28.032583],[153.38602,-28.032464],[153.386727,-28.032314],[153.387114,-28.03224],[153.388763,-28.03218],[153.39007,-28.032199],[153.390628,-28.03215],[153.391157,-28.032046],[153.39197,-28.031864],[153.392085,-28.031836],[153.394842,-28.031236],[153.395328,-28.031161],[153.395781,-28.030988],[153.396023,-28.03103],[153.396619,-28.031132],[153.397235,-28.031237],[153.3981,-28.031387],[153.398212,-28.03141],[153.401102,-28.031885],[153.403146,-28.032165],[153.404887,-28.032779],[153.405318,-28.033087],[153.405946,-28.033541],[153.406938,-28.034254],[153.408102,-28.034946],[153.408727,-28.035162],[153.408801,-28.03519],[153.408774,-28.035588],[153.408726,-28.036275],[153.408534,-28.037272],[153.408392,-28.03801],[153.408347,-28.038233],[153.408116,-28.039365],[153.407451,-28.04247],[153.407291,-28.043341],[153.407223,-28.043713],[153.406913,-28.045007],[153.40678,-28.045871],[153.406762,-28.046316],[153.406793,-28.046593],[153.406804,-28.046657],[153.406892,-28.04762],[153.407134,-28.048338],[153.407471,-28.049541],[153.407636,-28.050116],[153.407725,-28.050458],[153.407991,-28.05125],[153.408164,-28.051664],[153.40841,-28.052157],[153.408796,-28.052759],[153.409215,-28.053331],[153.409594,-28.05377],[153.409995,-28.054183],[153.410378,-28.054469],[153.410517,-28.054575],[153.410695,-28.054707],[153.411331,-28.0551],[153.412307,-28.055662],[153.41303,-28.056186],[153.413165,-28.056302],[153.413528,-28.056644],[153.413979,-28.05714],[153.414857,-28.058299],[153.415208,-28.058762],[153.416224,-28.060119],[153.416537,-28.060527],[153.41764,-28.061991],[153.417925,-28.06293],[153.418499,-28.064762],[153.418628,-28.0652],[153.419057,-28.066677],[153.419791,-28.069115],[153.419893,-28.069434],[153.420744,-28.068279],[153.421039,-28.067675],[153.42115,-28.067279],[153.421505,-28.067339],[153.425429,-28.067996],[153.425556,-28.068018],[153.425324,-28.069024],[153.425298,-28.069131],[153.425218,-28.069566],[153.425148,-28.069662],[153.425086,-28.069756],[153.425051,-28.069941],[153.424985,-28.070272],[153.424947,-28.070478],[153.424814,-28.07116],[153.424798,-28.071172],[153.424721,-28.071564],[153.42473,-28.071586],[153.424616,-28.07217],[153.424591,-28.072294],[153.424535,-28.072587],[153.424705,-28.072613],[153.425583,-28.072744],[153.425683,-28.072758],[153.425939,-28.072797],[153.426033,-28.07281],[153.426935,-28.072945],[153.426981,-28.072953],[153.42711,-28.072971],[153.427119,-28.072973],[153.427328,-28.073005],[153.427614,-28.073047],[153.427852,-28.073083],[153.42822,-28.073137],[153.429092,-28.073268],[153.430271,-28.073443],[153.430898,-28.073537],[153.430987,-28.073554],[153.431098,-28.073567],[153.431441,-28.073618],[153.431384,-28.073913],[153.43138,-28.073938],[153.431288,-28.074419],[153.431267,-28.074538],[153.431258,-28.074579],[153.431203,-28.074872],[153.432066,-28.075],[153.432638,-28.075086],[153.432737,-28.0751],[153.433019,-28.075143],[153.433131,-28.075159],[153.434027,-28.075293],[153.434085,-28.075301],[153.43414,-28.075008],[153.434168,-28.074864],[153.434209,-28.074643],[153.434233,-28.074525],[153.434289,-28.074226],[153.434306,-28.074132],[153.434493,-28.074162],[153.434895,-28.074227],[153.435221,-28.074273],[153.435674,-28.074344],[153.436247,-28.07444],[153.437267,-28.074619],[153.43793,-28.074718],[153.438526,-28.074809],[153.438693,-28.074835],[153.439097,-28.074896],[153.440592,-28.075123],[153.440924,-28.075174],[153.441839,-28.075323],[153.4422,-28.075356],[153.442631,-28.075395],[153.442895,-28.075416],[153.444073,-28.075604],[153.445133,-28.075773],[153.445238,-28.075756],[153.44524,-28.075763],[153.445399,-28.075979],[153.445483,-28.076417],[153.445572,-28.076645],[153.446246,-28.076448]],[[153.430373,-27.939315],[153.4324678600147,-27.93832082914556],[153.43235287892512,-27.938384980686894],[153.43167748385383,-27.938859302570666],[153.43111380868172,-27.939462137583007],[153.4306858497567,-27.940167822293244],[153.4304118258186,-27.940946314832114],[153.43030340240463,-27.941764473811197],[153.42937758037948,-27.97434859963149],[153.429372,-27.974545],[153.430373,-27.939315]]]},"bbox":[153.285975,-28.076645,153.53387902859095,-27.901638768745414]}]}