{"type":"FeatureCollection","features":[
{"properties":{"electorateShortName":"wannon","electorateName":"Wannon","area":33595.18,"state":null},"type":"Feature","geometry":{"type":"Polygon","coordinates":[[[140.965735,-38.055989],[140.938403,-38.052218],[140.930475,-38.053438],[140.917792,-38.052369],[140.900135,-38.04797],[140.88933,-38.047848],[140.87582637743978,-38.05047778833892],[140.87575258677498,-38.0542098681329],[140.87728580001775,-38.07262447482034],[140.8825475126549,-38.09033782747941],[140.8913159217489,-38.10660323507531],[140.9032214026112,-38.12073504344291],[140.9177620900107,-38.13213753844402],[140.93432503386794,-38.140330057780794],[140.9522120376344,-38.14496725289844],[140.97049734569075,-38.1477462637762],[140.9970550944915,-38.156049257852054],[141.04490620959115,-38.176849139008056],[141.05287871078377,-38.18182910347067],[141.07009245404726,-38.190183419086594],[141.07572372354417,-38.19155456163183],[141.1089249020496,-38.206940655017455],[141.13546213767404,-38.22200338970051],[141.14340575508817,-38.22523156840618],[141.17898888659735,-38.24635112674927],[141.20843916785964,-38.26690369640626],[141.23796611426147,-38.29006819379232],[141.2833555962872,-38.32947759517641],[141.28081511765748,-38.334932476325434],[141.27670082399845,-38.35085325803827],[141.27651850667624,-38.3534562903622],[141.27487423299473,-38.36325552199566],[141.27434723299473,-38.37022452199567],[141.2745544168628,-38.386132418755615],[141.27755938797694,-38.401755294709915],[141.28326824874173,-38.41660497528724],[141.2915026119854,-38.43021744627717],[141.30200517509874,-38.44216735307727],[141.31223317509875,-38.451913353077266],[141.32502640296872,-38.46205799519868],[141.33944190767306,-38.469724393781036],[141.35500525814612,-38.4746602387094],[141.36167405326952,-38.47550123735725],[141.37411114263668,-38.48084095070402],[141.3916982372074,-38.48450850477629],[141.4037442372074,-38.48578550477629],[141.4211467832816,-38.48593830342391],[141.4382533829479,-38.482738896424394],[141.45417899343485,-38.47640452186201],[141.4590307309684,-38.482988341698665],[141.47116908769698,-38.494318266459814],[141.47565708769696,-38.497791266459814],[141.49315689546415,-38.5083925775315],[141.4951018460491,-38.509030297975485],[141.49674612640482,-38.50993292772289],[141.50042320463413,-38.51237397485201],[141.51634715442268,-38.51899668455258],[141.53324197684447,-38.522460416063936],[141.55048729305935,-38.52263798096799],[141.55437325960224,-38.521924335224526],[141.57256925825516,-38.51927539455012],[141.5901386224968,-38.512802650218454],[141.60598847810715,-38.5028346486048],[141.61396655529262,-38.49510136315968],[141.62440968212536,-38.49632161207628],[141.6412639002248,-38.49511093953108],[141.65759475520116,-38.49077117323597],[141.67282657353783,-38.48345529284376],[141.6807061143674,-38.4776399786869],[141.6958036170675,-38.47067213074365],[141.7100797284663,-38.46028817518454],[141.72205426090636,-38.447317266867586],[141.7312665143726,-38.43225843969552],[141.73736206289212,-38.41569105674071],[141.74010639047782,-38.39825252022451],[141.7393939137371,-38.38061374853772],[141.7352520440154,-38.36345336378291],[141.72784013279076,-38.34743158292925],[141.72752483847938,-38.34699892734084],[141.74908210096442,-38.34323604629557],[141.7620767422404,-38.34344767774482],[141.79040233115754,-38.34777825542699],[141.79835391185574,-38.348634472154586],[141.8370140070506,-38.351066301743295],[141.8646235874807,-38.35442111415729],[141.87711830695093,-38.35768761413637],[141.88773487345006,-38.35979049531452],[141.8902189312665,-38.36012885986391],[141.89901259056467,-38.36295050132096],[141.91729369083782,-38.37025980918932],[141.9118366601096,-38.37950114360807],[141.90597835143404,-38.39631763005113],[141.90354576061281,-38.413958392470136],[141.90463412327523,-38.431732797201164],[141.90920083015789,-38.44894497850033],[141.91272623827675,-38.456104956317944],[141.91530596903144,-38.463106877838584],[141.92494881670737,-38.47861587922793],[141.9375239155778,-38.491859010420946],[141.94330383496433,-38.49588153980957],[141.94488978384624,-38.49735417560338],[141.94882449660832,-38.49972363901934],[141.95251349194646,-38.50229099180919],[141.9545034034835,-38.50314344699441],[141.9607699886073,-38.50691715173263],[141.97827255837012,-38.51302382573735],[141.99665497056358,-38.515415130329444],[142.01513737650546,-38.513989617683926],[142.03293568541557,-38.50880776322407],[142.04929482839415,-38.50008940003433],[142.05799382839416,-38.49422940003433],[142.07214956323318,-38.48241649871237],[142.07634207687218,-38.477126303638165],[142.08199494833588,-38.471813922525236],[142.0894800754824,-38.46133826471661],[142.10193874786154,-38.47007574321965],[142.11886556320763,-38.47736211929935],[142.13692165753505,-38.48104801291899],[142.14364061261418,-38.48102280922314],[142.15755585434374,-38.48178497844389],[142.15884953830974,-38.48159264220763],[142.1622496664725,-38.48194629843696],[142.16629133471008,-38.481589126237786],[142.17747125592228,-38.48403316085704],[142.18461502718603,-38.48417839042882],[142.2037673425785,-38.48491576850554],[142.2080534548953,-38.484158459893074],[142.21234668848172,-38.48471926935636],[142.22288246188555,-38.4842148663719],[142.22531664343836,-38.48480082040551],[142.23084287842497,-38.485062708645096],[142.2345447801062,-38.48586971051916],[142.2523816006524,-38.48615690925128],[142.26992467880427,-38.4829203896288],[142.28648477809995,-38.47628730877398],[142.29661677809995,-38.471009308773986],[142.31138003641357,-38.46137163753931],[142.32332503902796,-38.44968275449216],[142.32415940794138,-38.44968950497833],[142.33254333205238,-38.448265269120874],[142.33404039073375,-38.44841994095126],[142.35159360131746,-38.446778353736626],[142.36260566214315,-38.44349880091838],[142.37769659310902,-38.450167636233544],[142.38808024411907,-38.45693820112631],[142.39264004181342,-38.46206893885247],[142.4065054364753,-38.472617516191924],[142.42214341870707,-38.48029704513155],[142.42576161469896,-38.481269673396135],[142.43032119796607,-38.48425799647663],[142.44755086257422,-38.49102266903693],[142.4658000241996,-38.494119479868665],[142.47218357270762,-38.49387719251181],[142.48155363611818,-38.49405928665978],[142.49411112522532,-38.49187418359138],[142.49617876609395,-38.49243332834625],[142.5022754778661,-38.493312620578706],[142.51905677972735,-38.50080499318429],[142.53349001599142,-38.51075665493502],[142.5416415901454,-38.515097292587576],[142.5422485948134,-38.515582710107445],[142.5534670852553,-38.52292741421948],[142.55789340757457,-38.5260498866609],[142.5656506718435,-38.529708838896404],[142.56801976669593,-38.53165834810203],[142.58506138285122,-38.540437350416944],[142.60640289541038,-38.55434544675245],[142.6137753963592,-38.5609058964008],[142.62366952555982,-38.56720070107552],[142.63315443271762,-38.57344727256834],[142.63493016119395,-38.57417141001079],[142.6438404859365,-38.58278399656426],[142.65824854126265,-38.59216391593921],[142.67417732817907,-38.59863297252686],[142.6747058179445,-38.59873705634009],[142.68546013618686,-38.60677557609914],[142.68747891388313,-38.60910867746222],[142.69685010669684,-38.61644392489062],[142.69717960952912,-38.61679546770957],[142.7102646461984,-38.62647059654452],[142.7187016497231,-38.630604788373404],[142.72179820266754,-38.63280111965244],[142.72876049543947,-38.63834468485477],[142.73516969105083,-38.641713943370426],[142.74428138063433,-38.64798126911584],[142.7463130946581,-38.64914348617684],[142.763560831374,-38.656855299998334],[142.76594705186153,-38.6573642634983],[142.7782652722009,-38.66152737009951],[142.7890754499424,-38.66801126381782],[142.79659321367427,-38.67087020163952],[142.80472205842193,-38.67809452108932],[142.8199333071198,-38.68701343913243],[142.83659163149196,-38.69279525676363],[142.83857099809302,-38.69306982295901],[142.84039335098709,-38.69399744416206],[142.85748736024098,-38.69878852571505],[142.8741000364667,-38.70004839665358],[142.88176192553905,-38.703514479825266],[142.88736512280315,-38.70486567950766],[142.89616031187475,-38.7076632752984],[142.89978975359162,-38.709271718422514],[142.91566665590426,-38.714764704781665],[142.93228783623357,-38.71721119014791],[142.94907412046845,-38.7165259254018],[142.96025836888765,-38.713933832924326],[142.97147805431405,-38.71529890802843],[142.9864447306789,-38.71461611306367],[142.99118434388433,-38.71400167188577],[142.99505444400376,-38.7168179114109],[143.0019118557136,-38.720061811526314],[143.00626446245874,-38.72353916142865],[143.02260146280634,-38.73184012956078],[143.04028120254677,-38.73665992779296],[143.04480477274606,-38.73694159171639],[143.05018856274472,-38.73874905320607],[143.0645149781981,-38.74763223857644],[143.0671791903211,-38.7486230214756],[143.08546286866292,-38.763307516830615],[143.09056655744834,-38.76966367675551],[143.10451084769716,-38.781233339211184],[143.106683573152,-38.782394840189646],[143.1181177971162,-38.79366610707253],[143.11919656883714,-38.795355015947685],[143.13039641728025,-38.8073523410867],[143.14358877632574,-38.81711625825424],[143.14636270636964,-38.818471757476296],[143.1517017904813,-38.82221087235526],[143.15504354331011,-38.82522493592203],[143.16751257770434,-38.83464428943012],[143.1814229837788,-38.841764797984894],[143.1860589837788,-38.843649797984895],[143.18817310642507,-38.844291281513364],[143.18964813870966,-38.8453121200652],[143.20651714661292,-38.85247241546233],[143.2244868523052,-38.85606726388021],[143.22661725733042,-38.85627124730614],[143.2382076324516,-38.860361082675034],[143.25566394093812,-38.86287363518846],[143.27327507831532,-38.86193370626065],[143.29036478641774,-38.85757738865488],[143.30627682968245,-38.84997196261487],[143.30901248848213,-38.84792603586692],[143.3118538085925,-38.84717028969139],[143.3143516827061,-38.84593252915854],[143.3211852871574,-38.84690084137295],[143.33641511904494,-38.84646314454989],[143.34067777840738,-38.845924510210274],[143.34616746364847,-38.85113936113434],[143.3609483093432,-38.86050892959927],[143.3625663093432,-38.861325929599275],[143.37679697878934,-38.866730856799336],[143.38161957467582,-38.86872110078596],[143.39525028525324,-38.87163018456001],[143.4041230191694,-38.877313235578335],[143.4078226325373,-38.881589104624176],[143.41450537040845,-38.88758958506675],[143.4212623514257,-38.898469956700886],[143.43296540029831,-38.911099462511835],[143.43846594999067,-38.91512558820511],[143.44388457850596,-38.92070763724906],[143.4568053680892,-38.92999483955026],[143.46547736808918,-38.93513083955026],[143.48325694072415,-38.94319938444998],[143.502358201355,-38.947243696776184],[143.52188217716568,-38.947073436900965],[143.52986827735975,-38.945236457750305],[143.5421114705115,-38.94489350237271],[143.54446384442468,-38.94450637884693],[143.5559948259286,-38.94548272833226],[143.57364066929273,-38.94347702532681],[143.59054911574339,-38.938045352361435],[143.6060617824547,-38.929399208476376],[143.61957463561575,-38.91787525811093],[143.62132467002127,-38.916055417376306],[143.62741727093288,-38.9122353843341],[143.63874441876177,-38.90382855745329],[143.64861886209397,-38.893755107943754],[143.65332186209397,-38.88813710794375],[143.65841713367269,-38.88064866915366],[143.6732293447335,-38.87717552208312],[143.68786430456998,-38.87085508195176],[143.70460230457,-38.86179008195176],[143.71756610404805,-38.85324610894697],[143.72209210404804,-38.84966710894697],[143.73476529120623,-38.837451115250325],[143.74481832865123,-38.82300201102647],[143.74509296679017,-38.822373525692285],[143.74952406328464,-38.817918621089206],[143.75745639207247,-38.806104798731226],[143.76756372278692,-38.80154693652387],[143.77209272812956,-38.80039948229395],[143.78669094527535,-38.795332439525],[143.7889758861891,-38.794066321890966],[143.79060378629916,-38.79367592637999],[143.79757323393494,-38.79253257677752],[143.81281989568848,-38.78697393421701],[143.8153478673575,-38.78682161651954],[143.8308947633647,-38.78298389719111],[143.8372496522554,-38.78314252908054],[143.85355713468223,-38.780530832206196],[143.86273813468222,-38.77817983220619],[143.87931256171237,-38.772151772159646],[143.8943931632809,-38.763007123689995],[143.90654976391144,-38.7518763019085],[143.9090299895994,-38.75083755522406],[143.92377100384036,-38.74086751252007],[143.93626208478577,-38.728191860695134],[143.9442967642375,-38.71592851488726],[143.9482862158007,-38.71348933701695],[143.960895930685,-38.70200968326165],[143.96728260147398,-38.6934766641707],[143.97752094438877,-38.68320906432486],[143.9861046084526,-38.67059766910957],[143.98901416372186,-38.667347064227606],[143.99398854156374,-38.65879948000667],[143.99788368914943,-38.65739405754929],[144.01135242728185,-38.649703458154676],[144.0194554086982,-38.64299716408329],[144.02254595360446,-38.64129774123582],[144.02492595360445,-38.63968074123582],[144.04016352712404,-38.62662361408961],[144.0468587663302,-38.61761016077864],[144.0495577671581,-38.61525234694729],[144.0609910171964,-38.5998802017691],[144.06435801719638,-38.5941712017691],[144.0717376680551,-38.57831245946641],[144.07494963848984,-38.56523676568995],[144.07686586093908,-38.56410387993176],[144.08006758898355,-38.56178900132987],[144.081007643383,-38.5613252476419],[144.08400615565043,-38.55899860050235],[144.10361459277064,-38.55924773648416],[144.12126735084124,-38.557727828228785],[144.13828025948945,-38.55277899726259],[144.15399395300932,-38.544593044381735],[144.16779941910113,-38.533487230832456],[144.17007198522623,-38.53076802617291],[144.17244718883475,-38.52932558253737],[144.18339901417986,-38.51882489577344],[144.18819568286054,-38.518601893452804],[144.205122914851,-38.51618898883],[144.2212883349857,-38.51061830813133],[144.2361084847725,-38.50209091392945],[144.2490484605606,-38.490914585454426],[144.253696245561,-38.485025469098375],[144.2692669934988,-38.47904226265895],[144.28335433080775,-38.47037249934352],[144.29561703111958,-38.45927096568983],[144.305640860617,-38.44611267132436],[144.31308721450242,-38.43134210321698],[144.31770455506256,-38.41545821091839],[144.32261955506254,-38.39002121091839],[144.32424607812678,-38.37175290016227],[144.32213541066872,-38.35353417797759],[144.31870721140865,-38.34317106293847],[144.318827,-38.34562],[144.310027,-38.345583],[144.30348,-38.348258],[144.297734,-38.352257],[144.296751,-38.356028],[144.289054,-38.360995],[144.285698,-38.367601],[144.27951,-38.372347],[144.272622,-38.37461],[144.265851,-38.380458],[144.256633,-38.382747],[144.25157,-38.388411],[144.254036,-38.395458],[144.229339,-38.398384],[144.234254,-38.372947],[144.230216,-38.372425],[144.228128,-38.372656],[144.208135,-38.37971],[144.205459,-38.381098],[144.204071,-38.380812],[144.205269,-38.372635],[144.20545,-38.369923],[144.196539,-38.360263],[144.196061,-38.359567],[144.198989,-38.351433],[144.200479,-38.348992],[144.202358,-38.345385],[144.203102,-38.34093],[144.194095,-38.33972],[144.184747,-38.338788],[144.166709,-38.336515],[144.16537,-38.342721],[144.161635,-38.340433],[144.161456,-38.338284],[144.158815,-38.336133],[144.156481,-38.335379],[144.153397,-38.33363],[144.149934,-38.332777],[144.149295,-38.332266],[144.149358,-38.330977],[144.152246,-38.326792],[144.152294,-38.324143],[144.150532,-38.321459],[144.1409,-38.322179],[144.136101,-38.326177],[144.128053,-38.330855],[144.10874,-38.324617],[144.107719,-38.331615],[144.104242,-38.330432],[144.103559,-38.329866],[144.101215,-38.330866],[144.099659,-38.330796],[144.096538,-38.331732],[144.095416,-38.331357],[144.088935,-38.332999],[144.084647,-38.335296],[144.084493,-38.336114],[144.08298,-38.3374],[144.081635,-38.337464],[144.080349,-38.336754],[144.080998,-38.335077],[144.082648,-38.325416],[144.057907,-38.322598],[144.058572,-38.3189],[144.040017,-38.316983],[144.026775,-38.315319],[144.012777,-38.31374],[144.016147,-38.295393],[144.025606,-38.293709],[144.026961,-38.28585],[144.029784,-38.285036],[144.027384,-38.281066],[144.029286,-38.280381],[144.030487,-38.279195],[144.034544,-38.276817],[144.038912,-38.274546],[144.04095,-38.272479],[144.043787,-38.271897],[144.045496,-38.272136],[144.047713,-38.273544],[144.050496,-38.259459],[144.046101,-38.258943],[144.05239,-38.225474],[144.055812,-38.224276],[144.049767,-38.214733],[144.055041,-38.186261],[144.059818,-38.186712],[144.062407,-38.172399],[144.003127,-38.165543],[144.00246,-38.169183],[143.993589,-38.168176],[143.993628,-38.167981],[143.978528,-38.166148],[143.978314,-38.166058],[143.953282,-38.163035],[143.918941,-38.159291],[143.918655,-38.161015],[143.91514,-38.159891],[143.912709,-38.160034],[143.912218,-38.159473],[143.912978,-38.157497],[143.912958,-38.156111],[143.914302,-38.155468],[143.913762,-38.153085],[143.91207,-38.151814],[143.911283,-38.15058],[143.909535,-38.151584],[143.90948,-38.153561],[143.908711,-38.153857],[143.906944,-38.153393],[143.905608,-38.154291],[143.904075,-38.152816],[143.903426,-38.151072],[143.902435,-38.150399],[143.902176,-38.148889],[143.902672,-38.145952],[143.90121,-38.144996],[143.89964,-38.14446],[143.900686,-38.138542],[143.857459,-38.133413],[143.825739,-38.12973],[143.825547,-38.129525],[143.809865,-38.127699],[143.810923,-38.120598],[143.820631,-38.10513],[143.82186,-38.104345],[143.824335,-38.091887],[143.82841,-38.092194],[143.824563,-38.080964],[143.818592,-38.08015],[143.82326,-38.055895],[143.823154,-38.055792],[143.829715,-38.022363],[143.815811,-38.021765],[143.768139,-38.019762],[143.764204,-38.020107],[143.751328,-38.024007],[143.748708,-38.024682],[143.736146,-38.027349],[143.735576,-38.027397],[143.722412,-38.026633],[143.707874,-38.026988],[143.672409,-38.0294],[143.662398,-38.027124],[143.654206,-38.026154],[143.629335,-38.023424],[143.628765,-38.02166],[143.629084,-38.020727],[143.630681,-38.018526],[143.628148,-38.016336],[143.630036,-38.015407],[143.631803,-38.016601],[143.632651,-38.016334],[143.63245,-38.014044],[143.633774,-38.012491],[143.635908,-38.012429],[143.638144,-38.011706],[143.641813,-38.012194],[143.644486,-38.011726],[143.64531,-38.012984],[143.646792,-38.013154],[143.64726,-38.012252],[143.648358,-38.012159],[143.649429,-38.013136],[143.655009,-38.011984],[143.656217,-38.010852],[143.655839,-38.009514],[143.656248,-38.007489],[143.654018,-38.005835],[143.651328,-38.006225],[143.651183,-38.005553],[143.652715,-38.004116],[143.653552,-38.002636],[143.653017,-38.001478],[143.653637,-37.999338],[143.651746,-37.99883],[143.650809,-37.998054],[143.651465,-37.997041],[143.649974,-37.995078],[143.649644,-37.993383],[143.647088,-37.992288],[143.647234,-37.989771],[143.648335,-37.98852],[143.647075,-37.98722],[143.645779,-37.986681],[143.643116,-37.9869],[143.642033,-37.986412],[143.641578,-37.985178],[143.640254,-37.984483],[143.637736,-37.984329],[143.637693,-37.98178],[143.636775,-37.981239],[143.635848,-37.981871],[143.634522,-37.985483],[143.632061,-37.985061],[143.632364,-37.983105],[143.629705,-37.981178],[143.625188,-37.981308],[143.624706,-37.982283],[143.622131,-37.982063],[143.620812,-37.979029],[143.621702,-37.97882],[143.623355,-37.979492],[143.624415,-37.978191],[143.623634,-37.977238],[143.623738,-37.976106],[143.622911,-37.975661],[143.622789,-37.974348],[143.621912,-37.973408],[143.622192,-37.972048],[143.619948,-37.972073],[143.618875,-37.970955],[143.620549,-37.9698],[143.619304,-37.968684],[143.619036,-37.967555],[143.619277,-37.96602],[143.620242,-37.965254],[143.618324,-37.964463],[143.617067,-37.965197],[143.616297,-37.964069],[143.615157,-37.963953],[143.615764,-37.962592],[143.614085,-37.962501],[143.614235,-37.961684],[143.612308,-37.959894],[143.612275,-37.959209],[143.610446,-37.958745],[143.608235,-37.958617],[143.597317,-37.962186],[143.59345,-37.954669],[143.536594,-37.947797],[143.47941,-37.94085],[143.480178,-37.939784],[143.477808,-37.938947],[143.47722,-37.93765],[143.479627,-37.935809],[143.480174,-37.934444],[143.479705,-37.933446],[143.480812,-37.932439],[143.480826,-37.930871],[143.479263,-37.929368],[143.479377,-37.927847],[143.478747,-37.92643],[143.477117,-37.924366],[143.475999,-37.924183],[143.475305,-37.925037],[143.472522,-37.923551],[143.472883,-37.922769],[143.47219,-37.921838],[143.468747,-37.920703],[143.46736,-37.91903],[143.465319,-37.917822],[143.464168,-37.915675],[143.463382,-37.915511],[143.46267,-37.914316],[143.460835,-37.914294],[143.459091,-37.912184],[143.458724,-37.911266],[143.457533,-37.910327],[143.456607,-37.91055],[143.456032,-37.90938],[143.455111,-37.908928],[143.453033,-37.908784],[143.450729,-37.907896],[143.449814,-37.909218],[143.448484,-37.910155],[143.446805,-37.910023],[143.447354,-37.908855],[143.446986,-37.908063],[143.445161,-37.907795],[143.444542,-37.906727],[143.442775,-37.905669],[143.44359,-37.903448],[143.443279,-37.902696],[143.44393,-37.900931],[143.445613,-37.90172],[143.44652,-37.9005],[143.446267,-37.898896],[143.446389,-37.896556],[143.447909,-37.896233],[143.447849,-37.894801],[143.446029,-37.893263],[143.445981,-37.891408],[143.445055,-37.890785],[143.444574,-37.888859],[143.443836,-37.887424],[143.444828,-37.886279],[143.44449,-37.88539],[143.445506,-37.883187],[143.447443,-37.88302],[143.447881,-37.881752],[143.448787,-37.882061],[143.45112,-37.881262],[143.451206,-37.879637],[143.452464,-37.877852],[143.45196,-37.875297],[143.452406,-37.873273],[143.449623,-37.870702],[143.449235,-37.869507],[143.447642,-37.868596],[143.446677,-37.866942],[143.445631,-37.866729],[143.446195,-37.865391],[143.445368,-37.863806],[143.441936,-37.861229],[143.440553,-37.859431],[143.440852,-37.857327],[143.442788,-37.856482],[143.443858,-37.854996],[143.443867,-37.853732],[143.444485,-37.851044],[143.443029,-37.849813],[143.443326,-37.849161],[143.442259,-37.848107],[143.442538,-37.847013],[143.441612,-37.846356],[143.441578,-37.845413],[143.443729,-37.844425],[143.443933,-37.843522],[143.442606,-37.843412],[143.441857,-37.842175],[143.440956,-37.84174],[143.441643,-37.840637],[143.443382,-37.840507],[143.443556,-37.839901],[143.445382,-37.83941],[143.445421,-37.837237],[143.446101,-37.836568],[143.445331,-37.835103],[143.445795,-37.833182],[143.447436,-37.830958],[143.445984,-37.827765],[143.446289,-37.82641],[143.446215,-37.82296],[143.447797,-37.8214],[143.447721,-37.819118],[143.446751,-37.816549],[143.447192,-37.815542],[143.446928,-37.813626],[143.4459,-37.811526],[143.444553,-37.810175],[143.442903,-37.809229],[143.441052,-37.807237],[143.440629,-37.806321],[143.441231,-37.803502],[143.441847,-37.802204],[143.442377,-37.799579],[143.441365,-37.796924],[143.441138,-37.794401],[143.442064,-37.792332],[143.44207,-37.78843],[143.44151,-37.787189],[143.441411,-37.785513],[143.440712,-37.784849],[143.448154,-37.746035],[143.460044,-37.684563],[143.460574,-37.683129],[143.464584,-37.659202],[143.466322,-37.660409],[143.467461,-37.660115],[143.467491,-37.658592],[143.465484,-37.658341],[143.464328,-37.657382],[143.465148,-37.654997],[143.465998,-37.6539],[143.467176,-37.653737],[143.470331,-37.654175],[143.471615,-37.653576],[143.473221,-37.653614],[143.475097,-37.652659],[143.47694,-37.652271],[143.477448,-37.651733],[143.479521,-37.652446],[143.481095,-37.652342],[143.48136,-37.65148],[143.479867,-37.651372],[143.476236,-37.650076],[143.476881,-37.648781],[143.47917,-37.647781],[143.480146,-37.647655],[143.482934,-37.645976],[143.489721,-37.646811],[143.487907,-37.655129],[143.499869,-37.656796],[143.497115,-37.659197],[143.494826,-37.660879],[143.529611,-37.66567],[143.529643,-37.665917],[143.535777,-37.666705],[143.533386,-37.664083],[143.536538,-37.648312],[143.584461,-37.653405],[143.586636,-37.653724],[143.587349,-37.650083],[143.589936,-37.650405],[143.590322,-37.64826],[143.593033,-37.648544],[143.593355,-37.64696],[143.596045,-37.646339],[143.595303,-37.644308],[143.626323,-37.648389],[143.641965,-37.650303],[143.642213,-37.646229],[143.644955,-37.64633],[143.647068,-37.646861],[143.651641,-37.647053],[143.652726,-37.630638],[143.652629,-37.624188],[143.662188,-37.572407],[143.668559,-37.538443],[143.648813,-37.536221],[143.649453,-37.533047],[143.640111,-37.533402],[143.636332,-37.533404],[143.63243,-37.532658],[143.625409,-37.529479],[143.62226,-37.526174],[143.622034,-37.525152],[143.606051,-37.534925],[143.599291,-37.527952],[143.595309,-37.527395],[143.595267,-37.527023],[143.600794,-37.520378],[143.609385,-37.507161],[143.611949,-37.501862],[143.613246,-37.500982],[143.615766,-37.488978],[143.61821,-37.476833],[143.61866,-37.475792],[143.62049,-37.4733],[143.621678,-37.467544],[143.615924,-37.466557],[143.615534,-37.464704],[143.62001,-37.464962],[143.622837,-37.451606],[143.619844,-37.447865],[143.621241,-37.445878],[143.623138,-37.436972],[143.624668,-37.437169],[143.62632,-37.429045],[143.626129,-37.429021],[143.628231,-37.418753],[143.629453,-37.413617],[143.629878,-37.41118],[143.628108,-37.409432],[143.628985,-37.407243],[143.626991,-37.406708],[143.628222,-37.400782],[143.629249,-37.40091],[143.631694,-37.399692],[143.632255,-37.399774],[143.636491,-37.379815],[143.63625,-37.379784],[143.648057,-37.321695],[143.649572,-37.314122],[143.665129,-37.236655],[143.665605,-37.234319],[143.6364,-37.230834],[143.640639,-37.208311],[143.622668,-37.206337],[143.591904,-37.202895],[143.582284,-37.201733],[143.585412,-37.184553],[143.56403,-37.181976],[143.545492,-37.179894],[143.545243,-37.179773],[143.536086,-37.178692],[143.529239,-37.181367],[143.528686,-37.182068],[143.520755,-37.181109],[143.521623,-37.175981],[143.507594,-37.174318],[143.507467,-37.174196],[143.489971,-37.172003],[143.490246,-37.170476],[143.484067,-37.169724],[143.482334,-37.18091],[143.479749,-37.18063],[143.478815,-37.185821],[143.479347,-37.185887],[143.474748,-37.212646],[143.472936,-37.211469],[143.471154,-37.221337],[143.475525,-37.221875],[143.474075,-37.229662],[143.474321,-37.230681],[143.473489,-37.23551],[143.472369,-37.241127],[143.469619,-37.240797],[143.467656,-37.251447],[143.472162,-37.251943],[143.471191,-37.257413],[143.475499,-37.258149],[143.474852,-37.260824],[143.475331,-37.26091],[143.474276,-37.264827],[143.468354,-37.263777],[143.46687,-37.269288],[143.465071,-37.269219],[143.460965,-37.267646],[143.455763,-37.266745],[143.446169,-37.260325],[143.445607,-37.256902],[143.439571,-37.251042],[143.434386,-37.248845],[143.405776,-37.233753],[143.403865,-37.233739],[143.402394,-37.232387],[143.401728,-37.229943],[143.391121,-37.2292],[143.390832,-37.230053],[143.379522,-37.228839],[143.37874,-37.228942],[143.364747,-37.227471],[143.363488,-37.226842],[143.359495,-37.226541],[143.360403,-37.229078],[143.356266,-37.22869],[143.355798,-37.232257],[143.3548,-37.23219],[143.354639,-37.233293],[143.350281,-37.23286],[143.351487,-37.223745],[143.338415,-37.22268],[143.339324,-37.214886],[143.335208,-37.214526],[143.336272,-37.20632],[143.333423,-37.206084],[143.330491,-37.204618],[143.317588,-37.203791],[143.316681,-37.203994],[143.293612,-37.210623],[143.290997,-37.204868],[143.287462,-37.205929],[143.282552,-37.19533],[143.276815,-37.196958],[143.276323,-37.195942],[143.270918,-37.197545],[143.270101,-37.194613],[143.266934,-37.191926],[143.265498,-37.189988],[143.264331,-37.187548],[143.264722,-37.185633],[143.263783,-37.18183],[143.262299,-37.180964],[143.26032,-37.180376],[143.257931,-37.180029],[143.25588,-37.178699],[143.25513,-37.177718],[143.253013,-37.177231],[143.251317,-37.17435],[143.250179,-37.172907],[143.248622,-37.172074],[143.247111,-37.172098],[143.244648,-37.173544],[143.242238,-37.173775],[143.241173,-37.172588],[143.238666,-37.171713],[143.237157,-37.169937],[143.235592,-37.168642],[143.234491,-37.168855],[143.233831,-37.167975],[143.234172,-37.166853],[143.233134,-37.165927],[143.232729,-37.163752],[143.233571,-37.162595],[143.233718,-37.161233],[143.231771,-37.159856],[143.231403,-37.158426],[143.229034,-37.157101],[143.227897,-37.157016],[143.226329,-37.155628],[143.224695,-37.153609],[143.221584,-37.15268],[143.220269,-37.153385],[143.217146,-37.153864],[143.216028,-37.155928],[143.211947,-37.157308],[143.208934,-37.159927],[143.208112,-37.160208],[143.205815,-37.159489],[143.205303,-37.161104],[143.203788,-37.161678],[143.202279,-37.161336],[143.201753,-37.163265],[143.203085,-37.164586],[143.20162,-37.165783],[143.198818,-37.166518],[143.197827,-37.168179],[143.198143,-37.169272],[143.197517,-37.171287],[143.195549,-37.170424],[143.192939,-37.170352],[143.191634,-37.173301],[143.192422,-37.174749],[143.194505,-37.175479],[143.195838,-37.177263],[143.193601,-37.178736],[143.191069,-37.1784],[143.190677,-37.179711],[143.191437,-37.180981],[143.191238,-37.181645],[143.189236,-37.182202],[143.188228,-37.182884],[143.186298,-37.183143],[143.184176,-37.185526],[143.184945,-37.187963],[143.183687,-37.188502],[143.180461,-37.188585],[143.17993,-37.187624],[143.178607,-37.187344],[143.177239,-37.186309],[143.175666,-37.186682],[143.174427,-37.185487],[143.172854,-37.1855],[143.171344,-37.184951],[143.171164,-37.184042],[143.168796,-37.183391],[143.169703,-37.18212],[143.168129,-37.182098],[143.167434,-37.18081],[143.168005,-37.180009],[143.167467,-37.177691],[143.166521,-37.176542],[143.164704,-37.17569],[143.163031,-37.176235],[143.162258,-37.175754],[143.159555,-37.176197],[143.159075,-37.175625],[143.157124,-37.176919],[143.154362,-37.174912],[143.152166,-37.17465],[143.152078,-37.171846],[143.150683,-37.171909],[143.150768,-37.170787],[143.148966,-37.170931],[143.146393,-37.172163],[143.144533,-37.171941],[143.140722,-37.172463],[143.138132,-37.171394],[143.137117,-37.171898],[143.137612,-37.173598],[143.137176,-37.174388],[143.133836,-37.174252],[143.133171,-37.174595],[143.131118,-37.174201],[143.129205,-37.173016],[143.128121,-37.173407],[143.126819,-37.172995],[143.126554,-37.171747],[143.125402,-37.170592],[143.12498,-37.169241],[143.124014,-37.169562],[143.122963,-37.168406],[143.121299,-37.167954],[143.120559,-37.166632],[143.118606,-37.164418],[143.117983,-37.163319],[143.116159,-37.161522],[143.113828,-37.160018],[143.114528,-37.158942],[143.113193,-37.157514],[143.111902,-37.157322],[143.102201,-37.156429],[143.097404,-37.155766],[143.090714,-37.155061],[143.090432,-37.155232],[143.083715,-37.148659],[143.081543,-37.150115],[143.079642,-37.150569],[143.079928,-37.149047],[143.066938,-37.147368],[143.066243,-37.15114],[143.066008,-37.151354],[143.062125,-37.171493],[143.052885,-37.170364],[143.052365,-37.176008],[143.052373,-37.180185],[143.051468,-37.183098],[143.049569,-37.185348],[143.049303,-37.186117],[143.04891,-37.18975],[143.019797,-37.186314],[142.993522,-37.183072],[142.994529,-37.177348],[142.993724,-37.177412],[142.992388,-37.176483],[142.988817,-37.176229],[142.986793,-37.176643],[142.984145,-37.175623],[142.982799,-37.175778],[142.972607,-37.174792],[142.973397,-37.170194],[142.972048,-37.168509],[142.969351,-37.166712],[142.964423,-37.167034],[142.963511,-37.167422],[142.961282,-37.167038],[142.960478,-37.171393],[142.957696,-37.171103],[142.957573,-37.171804],[142.959094,-37.174134],[142.958493,-37.174816],[142.957072,-37.183275],[142.958206,-37.183411],[142.955051,-37.201861],[142.953974,-37.207778],[142.941162,-37.20628],[142.924634,-37.204266],[142.923412,-37.205454],[142.919351,-37.20283],[142.919163,-37.20362],[142.901434,-37.201564],[142.887906,-37.200095],[142.883426,-37.199679],[142.883963,-37.198294],[142.876322,-37.197421],[142.876713,-37.195358],[142.870736,-37.194666],[142.87095,-37.195316],[142.865284,-37.194707],[142.865435,-37.193916],[142.860958,-37.193377],[142.860678,-37.194265],[142.852447,-37.193305],[142.846848,-37.192734],[142.846018,-37.192475],[142.839744,-37.191697],[142.837885,-37.191641],[142.838049,-37.190207],[142.837373,-37.18777],[142.831343,-37.177051],[142.831649,-37.175476],[142.823362,-37.174436],[142.823901,-37.171673],[142.813426,-37.170396],[142.81096,-37.170275],[142.794952,-37.168337],[142.79461,-37.170185],[142.783655,-37.168887],[142.783442,-37.163555],[142.783135,-37.162027],[142.781762,-37.157675],[142.776902,-37.157168],[142.777161,-37.155366],[142.768449,-37.154416],[142.769631,-37.148444],[142.767809,-37.148241],[142.768739,-37.142847],[142.767356,-37.142711],[142.766538,-37.142103],[142.764847,-37.141911],[142.763799,-37.14439],[142.761886,-37.143145],[142.760145,-37.143792],[142.758484,-37.144977],[142.757489,-37.150058],[142.756425,-37.150876],[142.753896,-37.149979],[142.752741,-37.148784],[142.75052,-37.14724],[142.749057,-37.147589],[142.745419,-37.149014],[142.740445,-37.148339],[142.73996,-37.145633],[142.739332,-37.144991],[142.735007,-37.14278],[142.717046,-37.142892],[142.717082,-37.1573],[142.712464,-37.157292],[142.711193,-37.156918],[142.709067,-37.157332],[142.667252,-37.157318],[142.667045,-37.157429],[142.635974,-37.15743],[142.635611,-37.157263],[142.617257,-37.157227],[142.613063,-37.157088],[142.60538,-37.157311],[142.595113,-37.157123],[142.588765,-37.157367],[142.559296,-37.157366],[142.542773,-37.157418],[142.54411,-37.159014],[142.546914,-37.161515],[142.5475,-37.162936],[142.552653,-37.168072],[142.557029,-37.173122],[142.559259,-37.174517],[142.562429,-37.178305],[142.564329,-37.182346],[142.565694,-37.184155],[142.568406,-37.186765],[142.570773,-37.18988],[142.572436,-37.191728],[142.575041,-37.195052],[142.577476,-37.197397],[142.578896,-37.201049],[142.579765,-37.201969],[142.580613,-37.204346],[142.585946,-37.211703],[142.586596,-37.213473],[142.58769,-37.214712],[142.590953,-37.215613],[142.592471,-37.215461],[142.595244,-37.217598],[142.595875,-37.218767],[142.595933,-37.220679],[142.598219,-37.224411],[142.597856,-37.226905],[142.599107,-37.232044],[142.600952,-37.233738],[142.600265,-37.234914],[142.596411,-37.235411],[142.595283,-37.236125],[142.595091,-37.237878],[142.593271,-37.239694],[142.593041,-37.240563],[142.595593,-37.248518],[142.596112,-37.249712],[142.596047,-37.253024],[142.596794,-37.254718],[142.596841,-37.256197],[142.596216,-37.257127],[142.593094,-37.25748],[142.593536,-37.258872],[142.595979,-37.260479],[142.597063,-37.261976],[142.596576,-37.262462],[142.593643,-37.263469],[142.591586,-37.264486],[142.587088,-37.267307],[142.583099,-37.268667],[142.581471,-37.270009],[142.581682,-37.271938],[142.580829,-37.272878],[142.581693,-37.274083],[142.583815,-37.275527],[142.585251,-37.276945],[142.584582,-37.278022],[142.582501,-37.277288],[142.582067,-37.277735],[142.585902,-37.280449],[142.587372,-37.282782],[142.587721,-37.284298],[142.588661,-37.28515],[142.59325,-37.286162],[142.594097,-37.287033],[142.592473,-37.288328],[142.592197,-37.290376],[142.593403,-37.2909],[142.595256,-37.288883],[142.595672,-37.290505],[142.598932,-37.292907],[142.525673,-37.293227],[142.516351,-37.293227],[142.512509,-37.293866],[142.506578,-37.292484],[142.505379,-37.292414],[142.503984,-37.291607],[142.501402,-37.292561],[142.497992,-37.291363],[142.49424,-37.289691],[142.49032,-37.287544],[142.465624,-37.281597],[142.463434,-37.276073],[142.455128,-37.265443],[142.447468,-37.264242],[142.42309,-37.260097],[142.416694,-37.252217],[142.40346,-37.237386],[142.39202,-37.231785],[142.379272,-37.230454],[142.369067,-37.228907],[142.358827,-37.225509],[142.355708,-37.219253],[142.35031,-37.214874],[142.342383,-37.211263],[142.334417,-37.205431],[142.328758,-37.199204],[142.316655,-37.194712],[142.309386,-37.188872],[142.301925,-37.185254],[142.289086,-37.177992],[142.27531,-37.169814],[142.265251,-37.162705],[142.260562,-37.158684],[142.259151,-37.157219],[142.256735,-37.157143],[142.255011,-37.156731],[142.249429,-37.153261],[142.247824,-37.151996],[142.245401,-37.151685],[142.243192,-37.14986],[142.241017,-37.149925],[142.240044,-37.149018],[142.239742,-37.147674],[142.240591,-37.144266],[142.240683,-37.142502],[142.239648,-37.141372],[142.235255,-37.139256],[142.234751,-37.137079],[142.235999,-37.132529],[142.236072,-37.130325],[142.23581,-37.128981],[142.233962,-37.126738],[142.234093,-37.124807],[142.232841,-37.123395],[142.229711,-37.122754],[142.227496,-37.121236],[142.224731,-37.121199],[142.222474,-37.120575],[142.221202,-37.118826],[142.221779,-37.115776],[142.220647,-37.114499],[142.218792,-37.114195],[142.217664,-37.113442],[142.215704,-37.111402],[142.215529,-37.110562],[142.216205,-37.109383],[142.216637,-37.10706],[142.216034,-37.105253],[142.216355,-37.103073],[142.216115,-37.100718],[142.214522,-37.098066],[142.213803,-37.095081],[142.212378,-37.092855],[142.211893,-37.090826],[142.211069,-37.089798],[142.208561,-37.088075],[142.206255,-37.087296],[142.202298,-37.08845],[142.201897,-37.088888],[142.202089,-37.091548],[142.201962,-37.095027],[142.200119,-37.096004],[142.198916,-37.099158],[142.197762,-37.100277],[142.194834,-37.102379],[142.193423,-37.103624],[142.192279,-37.107444],[142.191416,-37.108553],[142.187908,-37.10956],[142.188971,-37.110352],[142.18928,-37.111502],[142.187286,-37.11275],[142.185628,-37.110964],[142.185399,-37.110091],[142.182735,-37.111094],[142.181347,-37.110772],[142.17788,-37.107786],[142.175377,-37.107746],[142.172953,-37.108652],[142.171944,-37.108599],[142.164157,-37.105892],[142.163085,-37.105874],[142.154156,-37.10687],[142.15267,-37.107237],[142.141762,-37.11173],[142.139104,-37.111804],[142.137518,-37.110338],[142.133372,-37.109454],[142.122253,-37.10967],[142.117772,-37.111876],[142.114488,-37.112054],[142.113948,-37.116098],[142.111292,-37.119138],[142.108018,-37.12976],[142.107873,-37.130753],[142.108229,-37.135864],[142.109375,-37.137833],[142.110162,-37.141186],[142.108044,-37.144082],[142.107307,-37.145546],[142.107398,-37.146897],[142.108162,-37.149798],[142.107868,-37.152729],[142.107981,-37.154114],[142.109573,-37.158436],[142.10967,-37.160503],[142.108855,-37.163481],[142.108037,-37.164385],[142.104987,-37.165356],[142.101664,-37.165873],[142.098104,-37.166752],[142.095223,-37.169032],[142.092393,-37.170648],[142.091309,-37.176407],[142.091153,-37.178362],[142.090581,-37.180615],[142.090509,-37.182472],[142.089816,-37.184399],[142.087673,-37.188318],[142.086745,-37.19103],[142.086477,-37.195752],[142.087567,-37.198525],[142.087189,-37.200059],[142.084632,-37.20485],[142.08493,-37.206214],[142.088345,-37.20964],[142.088902,-37.210729],[142.088582,-37.213092],[142.085562,-37.21499],[142.085067,-37.215649],[142.084849,-37.217336],[142.083925,-37.2196],[142.082418,-37.22161],[142.079378,-37.223647],[142.075931,-37.22264],[142.071646,-37.220886],[142.069797,-37.220353],[142.06542,-37.218641],[142.064559,-37.218536],[142.061565,-37.21919],[142.056946,-37.220564],[142.052501,-37.222827],[142.051499,-37.222844],[142.048913,-37.221943],[142.044987,-37.222119],[142.043427,-37.222526],[142.041839,-37.223735],[142.038164,-37.223986],[142.036294,-37.223106],[142.033815,-37.222936],[142.029519,-37.223662],[142.02556,-37.224],[142.018274,-37.22323],[142.015659,-37.223146],[142.013778,-37.223639],[142.011428,-37.223499],[142.002821,-37.224473],[141.999765,-37.22433],[141.998035,-37.224023],[141.995775,-37.222621],[141.99459,-37.219817],[141.993654,-37.21856],[141.99113,-37.213233],[141.989246,-37.212419],[141.970511,-37.210534],[141.966732,-37.210478],[141.965849,-37.210139],[141.962017,-37.210228],[141.9573,-37.209733],[141.953452,-37.208745],[141.952316,-37.209451],[141.945688,-37.210708],[141.944705,-37.210563],[141.942484,-37.207638],[141.941352,-37.207077],[141.937174,-37.206681],[141.938195,-37.200072],[141.921277,-37.198303],[141.920555,-37.203211],[141.912772,-37.202361],[141.913553,-37.201605],[141.91268,-37.199926],[141.910502,-37.198491],[141.911044,-37.196951],[141.910989,-37.194667],[141.910435,-37.192964],[141.911689,-37.190799],[141.911704,-37.189839],[141.913608,-37.188501],[141.915865,-37.187801],[141.917664,-37.186613],[141.919896,-37.185956],[141.919702,-37.184448],[141.919071,-37.183026],[141.920622,-37.182087],[141.927869,-37.180551],[141.930043,-37.179574],[141.929841,-37.178273],[141.930526,-37.177628],[141.929845,-37.176481],[141.931627,-37.174455],[141.932554,-37.172771],[141.934847,-37.171582],[141.935587,-37.170802],[141.934295,-37.169766],[141.931577,-37.169873],[141.930372,-37.169434],[141.92832,-37.169514],[141.928408,-37.167592],[141.930133,-37.166981],[141.934475,-37.166712],[141.93347,-37.165205],[141.932235,-37.164511],[141.930965,-37.163133],[141.92958,-37.163166],[141.928054,-37.160467],[141.928451,-37.15801],[141.92822,-37.156603],[141.927378,-37.15533],[141.925412,-37.153638],[141.925367,-37.152725],[141.924143,-37.15209],[141.92483,-37.149812],[141.926311,-37.147516],[141.928324,-37.145314],[141.927812,-37.143627],[141.925272,-37.141987],[141.924592,-37.139743],[141.923445,-37.138587],[141.924502,-37.137853],[141.924005,-37.13626],[141.925105,-37.134239],[141.924832,-37.131446],[141.926036,-37.129665],[141.925538,-37.128154],[141.92465,-37.127457],[141.925474,-37.125146],[141.924263,-37.124109],[141.923352,-37.121251],[141.921772,-37.120419],[141.920097,-37.12008],[141.919351,-37.119415],[141.918822,-37.117987],[141.917033,-37.1175],[141.915872,-37.115209],[141.914809,-37.114639],[141.913477,-37.114924],[141.91135,-37.113599],[141.909267,-37.113895],[141.908983,-37.115513],[141.908159,-37.117116],[141.90558,-37.118457],[141.904983,-37.119035],[141.904329,-37.120892],[141.904641,-37.122579],[141.903525,-37.124091],[141.905462,-37.125655],[141.90787,-37.126533],[141.906501,-37.127909],[141.906296,-37.128636],[141.908501,-37.130284],[141.909758,-37.132963],[141.908875,-37.134848],[141.904411,-37.135907],[141.902852,-37.134766],[141.90093,-37.134439],[141.898777,-37.136448],[141.898464,-37.137702],[141.896179,-37.136836],[141.895056,-37.136821],[141.894145,-37.136075],[141.891121,-37.135842],[141.890047,-37.136097],[141.889108,-37.136982],[141.887862,-37.137163],[141.8858,-37.138351],[141.885622,-37.140061],[141.883958,-37.141986],[141.884217,-37.143824],[141.883415,-37.143804],[141.88185,-37.145686],[141.880278,-37.145762],[141.876003,-37.147117],[141.874211,-37.146533],[141.871664,-37.147512],[141.871071,-37.146919],[141.869482,-37.147741],[141.867063,-37.148292],[141.86606,-37.149153],[141.864838,-37.149461],[141.862883,-37.14875],[141.861933,-37.14722],[141.860477,-37.145817],[141.858453,-37.145917],[141.857794,-37.14654],[141.858268,-37.147863],[141.859691,-37.149239],[141.860306,-37.150496],[141.859652,-37.151324],[141.858434,-37.151357],[141.857093,-37.150201],[141.855517,-37.150719],[141.855479,-37.151739],[141.854086,-37.152212],[141.85161,-37.152107],[141.849997,-37.152513],[141.847395,-37.152021],[141.845412,-37.153138],[141.843153,-37.152835],[141.842579,-37.153334],[141.84022,-37.153125],[141.837649,-37.153983],[141.836461,-37.155037],[141.837088,-37.156228],[141.834677,-37.157426],[141.835406,-37.158338],[141.8354,-37.160216],[141.838789,-37.160576],[141.839361,-37.161661],[141.839871,-37.164389],[141.841315,-37.164805],[141.842292,-37.166335],[141.839862,-37.16838],[141.836986,-37.169005],[141.836445,-37.170695],[141.834051,-37.171181],[141.832755,-37.172044],[141.828467,-37.170047],[141.82716,-37.16997],[141.826349,-37.168952],[141.825181,-37.169365],[141.824213,-37.171079],[141.822892,-37.172155],[141.822004,-37.17389],[141.820779,-37.173984],[141.819047,-37.171627],[141.815831,-37.170006],[141.814044,-37.169933],[141.81216,-37.168238],[141.810965,-37.168737],[141.811464,-37.170484],[141.813629,-37.171003],[141.814304,-37.171788],[141.814548,-37.174688],[141.812079,-37.176883],[141.810894,-37.177329],[141.809513,-37.177243],[141.80773,-37.175103],[141.805958,-37.174087],[141.805903,-37.173363],[141.806871,-37.170386],[141.806267,-37.169495],[141.805052,-37.169388],[141.803919,-37.170196],[141.802778,-37.170318],[141.802319,-37.167388],[141.801003,-37.166673],[141.799933,-37.166795],[141.799159,-37.167847],[141.800887,-37.169226],[141.801156,-37.169948],[141.800628,-37.171704],[141.800038,-37.172184],[141.796528,-37.173236],[141.796356,-37.175008],[141.795003,-37.175341],[141.794498,-37.174792],[141.793977,-37.172777],[141.792049,-37.172676],[141.786306,-37.1742],[141.785184,-37.173902],[141.785357,-37.172187],[141.786968,-37.171548],[141.787454,-37.170212],[141.786464,-37.16879],[141.782736,-37.169519],[141.781176,-37.170539],[141.779162,-37.171333],[141.777048,-37.171651],[141.777061,-37.172851],[141.780084,-37.173079],[141.780953,-37.174216],[141.780531,-37.174904],[141.778662,-37.17585],[141.777933,-37.176712],[141.77639,-37.177084],[141.775761,-37.176098],[141.775406,-37.173891],[141.774822,-37.172675],[141.773799,-37.172432],[141.772701,-37.173092],[141.772199,-37.176692],[141.774705,-37.177533],[141.775968,-37.179962],[141.775328,-37.18029],[141.772806,-37.180231],[141.771866,-37.179285],[141.768671,-37.179554],[141.767761,-37.179411],[141.767522,-37.178141],[141.766381,-37.177521],[141.764936,-37.177448],[141.76403,-37.175604],[141.763031,-37.174735],[141.760852,-37.175525],[141.760224,-37.174621],[141.754233,-37.173817],[141.752721,-37.173199],[141.752614,-37.174851],[141.750622,-37.177207],[141.751623,-37.178285],[141.750705,-37.178937],[141.749246,-37.177863],[141.747887,-37.178087],[141.746882,-37.177371],[141.748077,-37.17589],[141.747134,-37.175323],[141.747267,-37.17383],[141.746584,-37.173698],[141.743961,-37.175015],[141.74248,-37.174643],[141.740418,-37.175265],[141.740372,-37.176366],[141.741512,-37.176759],[141.741317,-37.177706],[141.742887,-37.177896],[141.743615,-37.178602],[141.743444,-37.181155],[141.74019,-37.181443],[141.738889,-37.181153],[141.737807,-37.18017],[141.734863,-37.179746],[141.730856,-37.17815],[141.728979,-37.178705],[141.727748,-37.180172],[141.727669,-37.180968],[141.729708,-37.180973],[141.731242,-37.180489],[141.731192,-37.182069],[141.729346,-37.182143],[141.72728,-37.183139],[141.727808,-37.183737],[141.727403,-37.186401],[141.726972,-37.187073],[141.724569,-37.188015],[141.721869,-37.186153],[141.720965,-37.184183],[141.719055,-37.183473],[141.717991,-37.184458],[141.718173,-37.185693],[141.716614,-37.185765],[141.715483,-37.184913],[141.715371,-37.183512],[141.71376,-37.183389],[141.711256,-37.184205],[141.707912,-37.184733],[141.705648,-37.184437],[141.705212,-37.182013],[141.706127,-37.180989],[141.702571,-37.18106],[141.701811,-37.180052],[141.701694,-37.17881],[141.700445,-37.177241],[141.70244,-37.175973],[141.70205,-37.174623],[141.699883,-37.175207],[141.698564,-37.174283],[141.696839,-37.172433],[141.696261,-37.170999],[141.695008,-37.169946],[141.693803,-37.168207],[141.69311,-37.166083],[141.692299,-37.164901],[141.69089,-37.165237],[141.689918,-37.167892],[141.687805,-37.166702],[141.68853,-37.165318],[141.686626,-37.16431],[141.685307,-37.166464],[141.683676,-37.166507],[141.681755,-37.164325],[141.681461,-37.162467],[141.679967,-37.161725],[141.677838,-37.161256],[141.675391,-37.162019],[141.671628,-37.161072],[141.671229,-37.159511],[141.670425,-37.158262],[141.668424,-37.157529],[141.669317,-37.156562],[141.670687,-37.156235],[141.672678,-37.153837],[141.672364,-37.15227],[141.67115,-37.152431],[141.668383,-37.155188],[141.66164,-37.156265],[141.660906,-37.156647],[141.658229,-37.156295],[141.655909,-37.15779],[141.652658,-37.158276],[141.650603,-37.157995],[141.649215,-37.15882],[141.645658,-37.159405],[141.644349,-37.160316],[141.643405,-37.160419],[141.640742,-37.159133],[141.639823,-37.159573],[141.639936,-37.161289],[141.640953,-37.162423],[141.640804,-37.16437],[141.639848,-37.165422],[141.637376,-37.165422],[141.635517,-37.164951],[141.634103,-37.164188],[141.633179,-37.162585],[141.633395,-37.15901],[141.633067,-37.156327],[141.632567,-37.155454],[141.630788,-37.155836],[141.629377,-37.157336],[141.627229,-37.160821],[141.624124,-37.165393],[141.62261,-37.166677],[141.620623,-37.165959],[141.619566,-37.164356],[141.618617,-37.163726],[141.617104,-37.163684],[141.616056,-37.164574],[141.615521,-37.165778],[141.615909,-37.168822],[141.61469,-37.169463],[141.613846,-37.168505],[141.612282,-37.167872],[141.611631,-37.166971],[141.612439,-37.165885],[141.610196,-37.164869],[141.609163,-37.163957],[141.607709,-37.163727],[141.606144,-37.162908],[141.602712,-37.162687],[141.599007,-37.161094],[141.597205,-37.16123],[141.595028,-37.162557],[141.59544,-37.163718],[141.595026,-37.164463],[141.595874,-37.16551],[141.594486,-37.167142],[141.593082,-37.167417],[141.59424,-37.168704],[141.594067,-37.169412],[141.592596,-37.17051],[141.58999,-37.171118],[141.589774,-37.172146],[141.588591,-37.171958],[141.586574,-37.173358],[141.585306,-37.175018],[141.585394,-37.175909],[141.584185,-37.17629],[141.583637,-37.178516],[141.582127,-37.17948],[141.579071,-37.182812],[141.579826,-37.185347],[141.579131,-37.185967],[141.577884,-37.18585],[141.576178,-37.188122],[141.572306,-37.189015],[141.56902,-37.190337],[141.567369,-37.189684],[141.566508,-37.191793],[141.56602,-37.192149],[141.562743,-37.192146],[141.559691,-37.193866],[141.557148,-37.194446],[141.552333,-37.197787],[141.550609,-37.198442],[141.545019,-37.201203],[141.544604,-37.202019],[141.542607,-37.202165],[141.539487,-37.201024],[141.53629,-37.20244],[141.534482,-37.20286],[141.533419,-37.2035],[141.53254,-37.204717],[141.528901,-37.204263],[141.527504,-37.205121],[141.523918,-37.206327],[141.522817,-37.207556],[141.519836,-37.20825],[141.517111,-37.209617],[141.516945,-37.210557],[141.514945,-37.211206],[141.513502,-37.211112],[141.511059,-37.211569],[141.509758,-37.209668],[141.507814,-37.210088],[141.508068,-37.211747],[141.506133,-37.213633],[141.503121,-37.215088],[141.501597,-37.216262],[141.500242,-37.217814],[141.497723,-37.218729],[141.496075,-37.217874],[141.494453,-37.218256],[141.492424,-37.219586],[141.491325,-37.220707],[141.491761,-37.221532],[141.490981,-37.223216],[141.494773,-37.223628],[141.495725,-37.224344],[141.496146,-37.226622],[141.495727,-37.227709],[141.494481,-37.228655],[141.492176,-37.229625],[141.491026,-37.230698],[141.491119,-37.232342],[141.489807,-37.234693],[141.490376,-37.23658],[141.492528,-37.23773],[141.493621,-37.236658],[141.493377,-37.234929],[141.495085,-37.234535],[141.496585,-37.235672],[141.496374,-37.237042],[141.496981,-37.238299],[141.496184,-37.239343],[141.490124,-37.243021],[141.491049,-37.243967],[141.489508,-37.246359],[141.490927,-37.247118],[141.491997,-37.248918],[141.492995,-37.249902],[141.492217,-37.250949],[141.492876,-37.251649],[141.495136,-37.25278],[141.495431,-37.253655],[141.498449,-37.255411],[141.49838,-37.256385],[141.499324,-37.256963],[141.500832,-37.256633],[141.504807,-37.256331],[141.505654,-37.257668],[141.506116,-37.259965],[141.508462,-37.260914],[141.510873,-37.260671],[141.511516,-37.262075],[141.512897,-37.263475],[141.51363,-37.265303],[141.516744,-37.266803],[141.516916,-37.269124],[141.518886,-37.269914],[141.520386,-37.271846],[141.520987,-37.274052],[141.523351,-37.274879],[141.523376,-37.27603],[141.522819,-37.278597],[141.521677,-37.279062],[141.520268,-37.278549],[141.519019,-37.279048],[141.518336,-37.280352],[141.518587,-37.281134],[141.521543,-37.281621],[141.523591,-37.282324],[141.524452,-37.284036],[141.525888,-37.284314],[141.526684,-37.285248],[141.525415,-37.286721],[141.524765,-37.289987],[141.527852,-37.291446],[141.529827,-37.291137],[141.528916,-37.292647],[141.529891,-37.293448],[141.530307,-37.295083],[141.530161,-37.296349],[141.531444,-37.297643],[141.48186,-37.297517],[141.431506,-37.297536],[141.43153,-37.341476],[141.43153,-37.372302],[141.389461,-37.367534],[141.388674,-37.367377],[141.345211,-37.362726],[141.294779,-37.357008],[141.247207,-37.351577],[141.221004,-37.348705],[141.219446,-37.351512],[141.218064,-37.350881],[141.217152,-37.351796],[141.216992,-37.352746],[141.218827,-37.353143],[141.217232,-37.355413],[141.21989,-37.356761],[141.218452,-37.358877],[141.220171,-37.359955],[141.220663,-37.361586],[141.219957,-37.363686],[141.220881,-37.364574],[141.222787,-37.365177],[141.223626,-37.365058],[141.227136,-37.366106],[141.229224,-37.3663],[141.232679,-37.367408],[141.237356,-37.365753],[141.241757,-37.36661],[141.243032,-37.367836],[141.243138,-37.369284],[141.244951,-37.369841],[141.246996,-37.368995],[141.248472,-37.369243],[141.249647,-37.370692],[141.249459,-37.37218],[141.250256,-37.373729],[141.251687,-37.374068],[141.253667,-37.375954],[141.255128,-37.375868],[141.257125,-37.376237],[141.259715,-37.376312],[141.261858,-37.377128],[141.262395,-37.378127],[141.265449,-37.381916],[141.26681,-37.382746],[141.270197,-37.382886],[141.271311,-37.384216],[141.272576,-37.384548],[141.274354,-37.385772],[141.274338,-37.38658],[141.273198,-37.389104],[141.271867,-37.390666],[141.27175,-37.391548],[141.273069,-37.392574],[141.278237,-37.393131],[141.279118,-37.393094],[141.280279,-37.394096],[141.280432,-37.395573],[141.278547,-37.395873],[141.276189,-37.397176],[141.274172,-37.399429],[141.27342,-37.400834],[141.271482,-37.402989],[141.273281,-37.40616],[141.273945,-37.406942],[141.273019,-37.408005],[141.273056,-37.40927],[141.271025,-37.409198],[141.270937,-37.410103],[141.27177,-37.411273],[141.272678,-37.410897],[141.273951,-37.411356],[141.274681,-37.412223],[141.271395,-37.41337],[141.270361,-37.414468],[141.271537,-37.415608],[141.271559,-37.416719],[141.27091,-37.417477],[141.269316,-37.417306],[141.269598,-37.418771],[141.268635,-37.422038],[141.267763,-37.422654],[141.266712,-37.420855],[141.26604,-37.421241],[141.266464,-37.422677],[141.263775,-37.422985],[141.262365,-37.422257],[141.26223,-37.421325],[141.260584,-37.420833],[141.260091,-37.422369],[141.25902,-37.423204],[141.258709,-37.426566],[141.259525,-37.427353],[141.261774,-37.427535],[141.264024,-37.428293],[141.263839,-37.43009],[141.261036,-37.429675],[141.252269,-37.428704],[141.230831,-37.42624],[141.204283,-37.423535],[141.204041,-37.423616],[141.189074,-37.422113],[141.168237,-37.41988],[141.139173,-37.432215],[141.0976,-37.449839],[141.097258,-37.449882],[141.095296,-37.445612],[141.046408,-37.40186],[141.023785,-37.39137],[141.00363,-37.377604],[140.993879,-37.374952],[140.99225,-37.374153],[140.973283,-37.358326],[140.973507,-37.411222],[140.973659,-37.427408],[140.973872,-37.462093],[140.973665,-37.507876],[140.973252,-37.55606],[140.973119,-37.569526],[140.97268,-37.622662],[140.972678,-37.639881],[140.972393,-37.643462],[140.972678,-37.646057],[140.972698,-37.654268],[140.972925,-37.654266],[140.972857,-37.66311],[140.972606,-37.663113],[140.972277,-37.686282],[140.972192,-37.697298],[140.972116,-37.717588],[140.973568,-37.718049],[140.972011,-37.730752],[140.971091,-37.791453],[140.970265,-37.81763],[140.968887,-37.875991],[140.96811,-37.939664],[140.966966,-37.993789],[140.965735,-38.055989]]]},"bbox":[140.87575258677498,-38.947243696776184,144.32424607812678,-37.087296]}]}