{"type":"FeatureCollection","features":[
{"properties":{"electorateShortName":"adelaide","electorateName":"Adelaide","area":86.38,"state":"SA"},"type":"Feature","geometry":{"type":"MultiPolygon","coordinates":[[[[138.626439,-34.964559],[138.624655,-34.941077],[138.624477,-34.940107],[138.623564,-34.927903],[138.622992,-34.92778],[138.615718,-34.92259],[138.612826,-34.909505],[138.614331,-34.908511],[138.614252,-34.907437],[138.615248,-34.904862],[138.614617,-34.901727],[138.613903,-34.899693],[138.615204,-34.899701],[138.616305,-34.900971],[138.618577,-34.900847],[138.618347,-34.895573],[138.620414,-34.895567],[138.621866,-34.896413],[138.622682,-34.895447],[138.621446,-34.894683],[138.621521,-34.893603],[138.623055,-34.893146],[138.626,-34.893844],[138.626828,-34.893572],[138.627811,-34.891734],[138.627849,-34.890409],[138.630024,-34.889383],[138.632835,-34.888701],[138.635189,-34.887357],[138.633667,-34.885787],[138.626444,-34.879352],[138.638165,-34.870414],[138.637031,-34.869386],[138.636124,-34.857827],[138.63534,-34.846848],[138.623328,-34.847372],[138.617222,-34.847274],[138.582358,-34.848977],[138.577621,-34.849677],[138.571817,-34.849857],[138.566821,-34.849651],[138.564539,-34.849757],[138.546715,-34.850583],[138.548395,-34.875225],[138.550774,-34.876668],[138.548261,-34.889165],[138.551042,-34.891327],[138.552095,-34.904467],[138.551311,-34.904528],[138.548111,-34.913281],[138.549069,-34.924752],[138.55194,-34.924615],[138.554816,-34.964112],[138.554992,-34.967237],[138.585084,-34.951985],[138.586455,-34.954438],[138.588544,-34.95679],[138.59729,-34.96602],[138.626439,-34.964559]]],[[[138.485446,-34.790504],[138.4827300667318,-34.78774613730155],[138.47963509513735,-34.79058061368398],[138.46909354407478,-34.805031824603006],[138.46161815355947,-34.82128237328528],[138.45750421240302,-34.83869033939256],[138.4569142272721,-34.85656808291283],[138.4586028330589,-34.88133783535071],[138.45883492054108,-34.88274690650175],[138.45826942392515,-34.887933644827086],[138.45928974174961,-34.90046621166527],[138.45832153271553,-34.90712863746448],[138.4584237308615,-34.92077724936091],[138.4593865809627,-34.932306052926656],[138.46245984787384,-34.9492235093116],[138.46371692302932,-34.95245453970884],[138.4651634250904,-34.97278921844928],[138.46800532954512,-34.990330703972596],[138.47423842690912,-35.0069718767842],[138.48361971862326,-35.02206397740236],[138.4957834731361,-35.03501863723758],[138.50847169011277,-35.0440597557095],[138.515333,-35.03834],[138.517614,-35.03213],[138.511424,-35.00605],[138.509258,-34.989297],[138.510361,-34.982901],[138.509073,-34.975315],[138.510859,-34.973329],[138.508578,-34.964393],[138.498198,-34.938993],[138.47606,-34.856766],[138.476742,-34.843713],[138.488512,-34.819798],[138.490256,-34.810966],[138.488394,-34.797054],[138.481691,-34.795753],[138.485446,-34.790504]]],[[[138.522502,-34.769668],[138.51994318847557,-34.76504864159701],[138.5139471499296,-34.767192202791435],[138.515749,-34.771573],[138.510594,-34.790777],[138.510296,-34.801181],[138.512092,-34.807273],[138.511546,-34.818085],[138.506326,-34.82632],[138.505872,-34.838453],[138.503274,-34.840852],[138.497192,-34.84217],[138.496816,-34.840448],[138.495542,-34.842118],[138.497114,-34.850552],[138.498947,-34.850612],[138.498257,-34.843806],[138.506739,-34.841257],[138.50724,-34.8406],[138.508541,-34.835876],[138.509121,-34.831164],[138.512298,-34.832031],[138.509575,-34.828072],[138.51636,-34.816505],[138.51616,-34.810835],[138.533039,-34.815146],[138.530822,-34.822573],[138.533564,-34.819865],[138.533579,-34.815136],[138.541959,-34.816942],[138.540331,-34.815441],[138.540695,-34.813132],[138.545732,-34.81061],[138.558473,-34.825161],[138.561471,-34.826549],[138.56627,-34.825305],[138.558316,-34.822384],[138.547565,-34.809637],[138.549512,-34.801437],[138.552231,-34.800789],[138.553874,-34.797933],[138.551163,-34.793146],[138.551668,-34.790488],[138.553914,-34.789902],[138.551259,-34.788442],[138.552925,-34.787511],[138.550536,-34.786046],[138.543501,-34.774809],[138.544172,-34.773515],[138.546177,-34.774809],[138.544966,-34.771457],[138.546827,-34.769827],[138.545329,-34.766552],[138.546537,-34.76672],[138.546464,-34.765141],[138.54409999349224,-34.76060995176702],[138.5426915564309,-34.76067297885749],[138.52498988298137,-34.763244467320966],[138.52372839497824,-34.76369544453035],[138.529523,-34.774156],[138.541282,-34.787312],[138.546309,-34.799042],[138.545146,-34.802006],[138.537991,-34.800077],[138.529285,-34.801922],[138.523699,-34.809017],[138.518591,-34.805594],[138.516103,-34.796182],[138.522502,-34.769668]],[[138.537055,-34.812005],[138.524303,-34.810078],[138.531174,-34.803385],[138.537721,-34.801407],[138.540294,-34.805248],[138.544082,-34.80611],[138.540391,-34.81075],[138.537055,-34.812005]]]]},"bbox":[138.4569142272721,-35.0440597557095,138.638165,-34.76060995176702]}]}