{"type":"FeatureCollection","features":[
{"properties":{"electorateShortName":"aston","electorateName":"Aston","area":123.67,"state":"VIC"},"type":"Feature","geometry":{"type":"Polygon","coordinates":[[[145.29336,-37.963976],[145.302495,-37.92262],[145.29272,-37.907225],[145.296978,-37.901218],[145.320568,-37.899203],[145.303548,-37.885459],[145.308496,-37.871066],[145.327001,-37.866088],[145.33662,-37.856186],[145.332829,-37.847435],[145.317759,-37.844956],[145.316808,-37.818159],[145.304288,-37.821538],[145.268295,-37.832616],[145.248363,-37.825707],[145.241131,-37.832357],[145.217544,-37.832384],[145.209542,-37.851429],[145.195704,-37.865176],[145.190887,-37.879035],[145.200745,-37.894421],[145.205647,-37.924401],[145.206403,-37.931081],[145.23325,-37.94189],[145.279621,-37.947596],[145.29336,-37.963976]]]},"bbox":[145.190887,-37.963976,145.33662,-37.818159]}]}