{"type":"FeatureCollection","features":[
{"properties":{"electorateShortName":"aston","electorateName":"Aston","area":123.67,"state":"VIC"},"type":"Feature","geometry":{"type":"Polygon","coordinates":[[[145.29336,-37.963976],[145.299877,-37.931462],[145.302495,-37.92262],[145.29272,-37.907225],[145.296978,-37.901218],[145.305011,-37.905713],[145.308916,-37.901921],[145.320568,-37.899203],[145.303548,-37.885459],[145.308496,-37.871066],[145.303827,-37.863449],[145.327001,-37.866088],[145.33662,-37.856186],[145.341126,-37.860998],[145.345773,-37.859197],[145.332829,-37.847435],[145.317759,-37.844956],[145.318723,-37.831721],[145.316808,-37.818159],[145.304288,-37.821538],[145.287587,-37.826034],[145.268295,-37.832616],[145.261396,-37.827851],[145.248363,-37.825707],[145.241131,-37.832357],[145.217544,-37.832384],[145.217644,-37.838102],[145.21013,-37.846032],[145.209542,-37.851429],[145.195704,-37.865176],[145.190887,-37.879035],[145.200745,-37.894421],[145.206946,-37.897006],[145.203381,-37.90329],[145.205861,-37.910553],[145.202857,-37.918073],[145.205647,-37.924401],[145.206403,-37.931081],[145.211509,-37.935661],[145.21826,-37.936748],[145.21938,-37.941698],[145.229194,-37.952076],[145.23325,-37.94189],[145.279621,-37.947596],[145.282313,-37.953663],[145.29336,-37.963976]]]},"bbox":[145.190887,-37.963976,145.345773,-37.818159]}]}