{"type":"FeatureCollection","features":[
{"properties":{"electorateShortName":"barker","electorateName":"Barker","area":65206.36,"state":"SA"},"type":"Feature","geometry":{"type":"Polygon","coordinates":[[[138.886927,-35.558906],[138.890027,-35.563084],[138.951116,-35.591402],[139.031909,-35.635565],[139.102766,-35.679635],[139.153835,-35.713769],[139.211957,-35.754559],[139.268449,-35.798207],[139.33051,-35.850558],[139.37702,-35.892234],[139.413539,-35.927244],[139.484126,-35.999862],[139.52302,-36.043505],[139.5594,-36.087703],[139.593915,-36.132752],[139.64901,-36.212171],[139.709323,-36.312463],[139.787515,-36.468929],[139.801025,-36.50114],[139.831944,-36.587359],[139.845787,-36.629274],[139.861463,-36.688747],[139.863518,-36.718513],[139.862522,-36.760207],[139.859224,-36.785359],[139.850074,-36.824909],[139.836358,-36.849037],[139.818789,-36.868524],[139.799772,-36.880993],[139.779725,-36.898999],[139.73239,-36.916809],[139.717462,-36.929641],[139.696274,-36.94049],[139.675909,-36.942056],[139.670049,-36.958217],[139.684513,-36.974707],[139.721789,-37.000625],[139.740535,-37.021304],[139.743446,-37.02957],[139.739412,-37.056844],[139.743931,-37.07419],[139.768416,-37.081579],[139.782243,-37.095993],[139.795204,-37.125523],[139.793957,-37.146375],[139.781747,-37.164163],[139.743286,-37.160769],[139.739968,-37.181963],[139.757523,-37.194385],[139.783028,-37.231003],[139.81173,-37.280839],[139.837637,-37.310384],[139.836759,-37.314054],[139.865514,-37.335612],[139.890441,-37.375874],[139.910105,-37.388926],[139.924415,-37.405375],[139.930223,-37.41825],[139.946727,-37.42933],[139.973301,-37.460283],[139.996576,-37.476743],[139.997987,-37.487301],[140.016147,-37.490318],[140.015968,-37.480523],[140.032194,-37.474436],[140.060078,-37.484421],[140.077462,-37.503416],[140.095721,-37.512387],[140.118803,-37.528644],[140.129779,-37.543747],[140.128143,-37.56473],[140.112713,-37.578417],[140.144851,-37.594482],[140.178709,-37.617223],[140.203293,-37.639822],[140.24789,-37.686113],[140.27558,-37.720824],[140.29329,-37.7479],[140.328676,-37.807091],[140.342399,-37.834395],[140.361532,-37.863851],[140.363997,-37.877048],[140.375888,-37.897846],[140.388676,-37.901501],[140.397759,-37.918075],[140.412505,-37.925619],[140.454015,-37.935846],[140.466543,-37.949747],[140.491164,-37.96087],[140.508784,-37.984202],[140.548288,-38.004792],[140.560942,-38.006033],[140.572145,-38.014186],[140.579385,-38.029701],[140.590416,-38.024468],[140.617599,-38.032296],[140.620936,-38.040256],[140.642025,-38.041165],[140.663345,-38.059721],[140.696111,-38.056784],[140.717702,-38.051685],[140.768978,-38.057392],[140.782998,-38.04552],[140.807612,-38.049008],[140.819121,-38.042456],[140.837839,-38.041051],[140.862187,-38.045692],[140.873073,-38.051014],[140.900135,-38.04797],[140.917792,-38.052369],[140.938403,-38.052218],[140.965735,-38.055989],[140.966871,-37.998534],[140.968887,-37.875991],[140.972011,-37.730752],[140.973872,-37.462093],[140.973507,-37.411222],[140.973283,-37.358326],[140.97307,-37.34303],[140.971547,-37.178544],[140.971867,-37.091542],[140.971168,-36.970452],[140.969864,-36.848894],[140.968714,-36.694114],[140.968196,-36.551331],[140.96735,-36.373918],[140.965659,-36.17579],[140.963888,-35.996066],[140.963108,-35.748489],[140.965993,-35.415868],[140.965949,-35.237705],[140.965621,-35.008257],[140.965416,-34.869385],[140.964809,-34.637679],[140.964454,-34.502625],[140.964347,-34.438654],[140.962204,-34.150963],[140.9631,-33.990028],[140.963616,-33.980648],[140.965699,-33.980719],[140.969273,-33.997216],[140.980375,-33.999637],[140.980453,-34.016013],[140.985698,-34.027525],[141.002956,-34.021892],[141.002821,-33.853836],[141.002682,-33.678602],[141.00254,-33.498505],[141.002391,-33.31116],[140.373676,-33.310387],[140.374777,-34.004683],[140.2161,-34.005623],[140.215927,-33.945289],[139.857232,-33.943622],[139.857077,-33.875317],[139.699921,-33.875194],[139.699768,-33.800777],[139.575299,-33.801464],[139.355826,-33.803014],[139.35627,-33.970702],[139.35672,-34.126099],[139.358038,-34.175439],[139.351096,-34.209184],[139.350784,-34.319345],[139.26424,-34.319365],[139.264374,-34.295832],[139.215427,-34.310227],[139.199639,-34.312121],[139.191445,-34.320657],[139.162756,-34.327119],[139.155835,-34.3352],[139.105038,-34.330029],[139.113225,-34.319959],[139.127389,-34.315023],[139.034166,-34.306653],[139.048663,-34.267331],[139.048545,-34.244786],[139.030259,-34.242279],[139.004986,-34.244545],[138.997786,-34.255946],[138.978141,-34.252767],[138.972809,-34.218296],[138.965402,-34.19339],[138.926944,-34.198011],[138.909126,-34.197818],[138.902944,-34.187563],[138.864812,-34.188302],[138.864763,-34.193541],[138.838376,-34.193493],[138.835813,-34.212423],[138.839001,-34.231692],[138.827813,-34.241123],[138.83833,-34.266202],[138.840843,-34.284004],[138.837019,-34.300597],[138.779426,-34.298285],[138.786482,-34.317968],[138.784659,-34.341442],[138.774445,-34.350491],[138.75529,-34.374515],[138.749334,-34.429217],[138.744114,-34.445325],[138.753088,-34.513687],[138.747465,-34.558248],[138.758125,-34.56222],[138.775867,-34.560058],[138.790093,-34.562915],[138.798589,-34.551006],[138.807203,-34.560335],[138.820916,-34.561723],[138.824788,-34.590962],[138.800976,-34.609536],[138.816113,-34.639045],[138.809727,-34.649441],[138.795767,-34.653842],[138.790293,-34.661118],[138.836713,-34.673433],[138.847549,-34.680538],[138.859883,-34.702896],[138.887929,-34.700579],[138.896334,-34.707484],[138.909409,-34.708276],[138.917484,-34.725582],[138.926642,-34.73471],[138.928028,-34.755628],[138.948565,-34.765403],[138.948101,-34.773129],[138.972456,-34.773414],[138.989422,-34.76976],[138.988073,-34.781386],[139.00478,-34.794065],[139.004581,-34.79914],[139.043574,-34.817193],[139.037326,-34.823293],[139.001475,-34.834427],[139.00191,-34.850872],[139.009075,-34.863681],[138.980761,-34.882973],[138.975208,-34.8949],[139.034957,-34.928687],[139.020385,-34.948833],[139.027696,-34.963022],[139.041161,-34.976666],[139.031236,-35.001844],[139.037553,-35.013434],[139.031084,-35.033321],[139.029078,-35.060404],[139.039187,-35.089417],[139.04403,-35.111613],[139.027421,-35.13878],[139.066687,-35.165936],[139.066437,-35.214865],[139.086072,-35.216629],[139.107617,-35.232366],[139.158312,-35.253485],[139.144709,-35.471704],[139.046729,-35.500949],[139.03377,-35.51312],[139.006917,-35.512766],[138.981025,-35.518259],[138.96684,-35.529378],[138.962049,-35.546816],[138.933283,-35.561753],[138.920034,-35.561916],[138.904379,-35.554983],[138.886927,-35.558906]]]},"bbox":[138.744114,-38.059721,141.002956,-33.310387]}]}