{"type":"FeatureCollection","features":[
{"properties":{"electorateShortName":"barton","electorateName":"Barton","area":41.86,"state":"NSW"},"type":"Feature","geometry":{"type":"MultiPolygon","coordinates":[[[[151.143823,-33.985272],[151.142642,-33.965101],[151.159903,-33.943429],[151.160519,-33.933998],[151.155241,-33.924108],[151.141048,-33.92279],[151.117138,-33.91335],[151.090846,-33.924245],[151.072388,-33.929428],[151.078815,-33.947256],[151.094384,-33.965427],[151.099673,-33.966234],[151.114512,-33.98333],[151.121979,-33.987708],[151.130336,-33.983031],[151.143823,-33.985272]]],[[[151.162586,-34.072444],[151.1647422900545,-34.07280704043305],[151.18096118790703,-34.067252211020595],[151.1958325253397,-34.05872272684418],[151.20881669536456,-34.047528080529204],[151.20971,-34.040623],[151.194148,-34.036629],[151.185918,-34.034563],[151.16529,-34.040893],[151.154915,-34.055118],[151.156756,-34.069717],[151.162586,-34.072444]]]]},"bbox":[151.072388,-34.07280704043305,151.20971,-33.91335]}]}