{"type":"FeatureCollection","features":[
{"properties":{"electorateShortName":"barton","electorateName":"Barton","area":41.86,"state":"NSW"},"type":"Feature","geometry":{"type":"MultiPolygon","coordinates":[[[[151.143823,-33.985272],[151.144435,-33.982172],[151.142631,-33.981922],[151.143331,-33.978483],[151.141604,-33.978233],[151.142849,-33.972854],[151.14458,-33.969544],[151.144807,-33.965562],[151.142642,-33.965101],[151.143302,-33.963569],[151.145026,-33.961116],[151.145224,-33.960163],[151.147223,-33.956867],[151.147729,-33.954345],[151.150171,-33.954804],[151.150415,-33.953503],[151.152091,-33.951788],[151.153417,-33.949431],[151.1578,-33.946243],[151.160699,-33.945446],[151.159989,-33.944801],[151.159903,-33.943429],[151.160919,-33.939507],[151.161219,-33.937339],[151.160519,-33.933998],[151.159746,-33.933334],[151.15663,-33.932195],[151.155864,-33.930742],[151.156496,-33.929018],[151.154976,-33.926193],[151.155241,-33.924108],[151.153057,-33.922864],[151.150665,-33.923112],[151.147737,-33.921187],[151.146402,-33.921403],[151.144778,-33.922418],[151.141048,-33.92279],[151.137119,-33.921279],[151.136921,-33.919644],[151.13888,-33.918467],[151.139958,-33.916275],[151.136983,-33.914554],[151.135657,-33.91307],[151.13449,-33.913383],[151.132862,-33.915221],[151.131729,-33.915841],[151.129659,-33.916254],[151.127373,-33.914959],[151.124907,-33.914695],[151.122969,-33.914167],[151.120897,-33.914668],[151.118623,-33.914431],[151.117138,-33.91335],[151.115605,-33.913645],[151.099015,-33.920441],[151.094878,-33.922206],[151.090846,-33.924245],[151.077088,-33.928326],[151.072388,-33.929428],[151.073786,-33.934951],[151.076657,-33.94259],[151.078815,-33.947256],[151.084878,-33.954199],[151.091769,-33.962455],[151.094384,-33.965427],[151.096964,-33.965227],[151.099673,-33.966234],[151.105413,-33.972819],[151.112385,-33.98105],[151.112379,-33.982421],[151.114512,-33.98333],[151.115787,-33.98208],[151.118134,-33.98161],[151.119758,-33.98274],[151.120378,-33.9839],[151.120521,-33.985841],[151.121979,-33.987708],[151.124058,-33.987795],[151.126455,-33.985021],[151.129652,-33.983734],[151.130336,-33.983031],[151.133014,-33.983665],[151.143823,-33.985272]]],[[[151.162586,-34.072444],[151.1647422900545,-34.07280704043305],[151.18096118790703,-34.067252211020595],[151.1958325253397,-34.05872272684418],[151.20881669536456,-34.047528080529204],[151.21346464072616,-34.04164323189794],[151.20971,-34.040623],[151.207359,-34.041497],[151.2032,-34.040228],[151.201143,-34.03786],[151.200842,-34.040671],[151.198776,-34.041682],[151.194148,-34.036629],[151.185918,-34.034563],[151.175625,-34.036214],[151.16529,-34.040893],[151.158281,-34.048053],[151.154915,-34.055118],[151.158404,-34.058437],[151.155472,-34.063918],[151.158344,-34.066813],[151.156756,-34.069717],[151.162586,-34.072444]]]]},"bbox":[151.072388,-34.07280704043305,151.21346464072616,-33.91307]}]}