{"type":"FeatureCollection","features":[
{"properties":{"electorateShortName":"bass","electorateName":"Bass","area":7975.955582,"state":"TAS"},"type":"Feature","geometry":{"type":"MultiPolygon","coordinates":[[[[148.257859,-40.90417],[148.259933,-40.90023],[148.267382,-40.900505],[148.268098,-40.910613],[148.274334,-40.920672],[148.283933,-40.930908],[148.293676,-40.936782],[148.294746,-40.939484],[148.301975,-40.941664],[148.301018,-40.949993],[148.305803,-40.964518],[148.316639,-40.971309],[148.316658,-40.978924],[148.323833,-40.987847],[148.332655,-40.991445],[148.336744,-40.988926],[148.344917,-40.989545],[148.349675,-40.993333],[148.340252,-40.994089],[148.330583,-41.000004],[148.320125,-41.008941],[148.31771478593816,-41.01482133188562],[148.33524627331985,-41.01568287882752],[148.35261156901873,-41.013125180988006],[148.36915015868755,-41.00724552413451],[148.38423297294852,-40.9982675495903],[148.39728631496467,-40.98653274771053],[148.40781368183556,-40.97248746879859],[148.41541464980924,-40.95666594552139],[148.41980010498366,-40.939669972590686],[148.4208032401756,-40.92214601662365],[148.41838589967503,-40.90476062684222],[148.41211480958793,-40.88595010626691],[148.4032946729254,-40.87082898580829],[148.3917141773386,-40.85770133496612],[148.37781144170472,-40.847063805339154],[148.36211244100306,-40.839318841063005],[148.34521110737657,-40.83475945335014],[148.3296269336781,-40.83368746030433],[148.32300037618245,-40.82636056249471],[148.30747057389317,-40.815098262934335],[148.30607495236745,-40.81077481946687],[148.2971176216319,-40.79493821322944],[148.28515821510257,-40.781226741153446],[148.27068549138679,-40.77020076549268],[148.25429092367105,-40.76231089727837],[148.24484614512681,-40.759939149357976],[148.2403743307682,-40.755645730471144],[148.22757336005634,-40.74554170411555],[148.21733522960605,-40.740123573287576],[148.21728409954696,-40.723395226093565],[148.2130628732383,-40.702551419844504],[148.2061945557697,-40.68532092234239],[148.2032937478587,-40.680948658282865],[148.21584084140292,-40.6784287389022],[148.2331762231127,-40.67315892546103],[148.24910478726412,-40.66452369316518],[148.2629809621452,-40.65287302093574],[148.26603845281969,-40.64901934422622],[148.27073137467252,-40.64802568790561],[148.28652796002748,-40.64135706088157],[148.30077315631468,-40.63181362973751],[148.3129499109288,-40.61974178885347],[148.31837696845992,-40.61179064504875],[148.32827961104655,-40.61013884507496],[148.33369915621873,-40.61152697977929],[148.35207189833952,-40.61237325647502],[148.37023303562765,-40.60946689626267],[148.38742411899673,-40.602929275144895],[148.4029272109482,-40.5930334185763],[148.4160948682223,-40.58019259931917],[148.4184355281654,-40.57672120667108],[148.42385542207467,-40.57564832178396],[148.4399058389935,-40.56908038825551],[148.45439858084634,-40.55955599495778],[148.46625876015176,-40.547953874894304],[148.48113075072723,-40.53991461408511],[148.492839955085,-40.530262082787644],[148.50354339956678,-40.52747854108268],[148.50920045589834,-40.52480641831009],[148.51480304010332,-40.524325950398925],[148.53117382265708,-40.51971012033222],[148.54638380620176,-40.512096657966254],[148.55988973442444,-40.50175749400242],[148.57120921490525,-40.48906191326452],[148.57993794876955,-40.47446336492047],[148.58576417106627,-40.45848326659859],[148.58847978610396,-40.44169238086869],[148.5879878000227,-40.42469042926532],[148.58430578513244,-40.40808467198131],[148.57686824414404,-40.39000891800709],[148.567708056507,-40.37627813286587],[148.5561943251304,-40.364451151512704],[148.5427143143665,-40.3549257744627],[148.5380201936831,-40.35276439461713],[148.53365592343707,-40.33996751803262],[148.5255845800558,-40.32560490739169],[148.5150303257564,-40.3129542597962],[148.4994048338199,-40.300424498710086],[148.4848422537284,-40.29232068613962],[148.46903518168648,-40.28704081961094],[148.45070725014097,-40.28485421692588],[148.44006507890506,-40.27628589852038],[148.43802129423662,-40.27249662637056],[148.42779236639413,-40.25975489718873],[148.42085425539182,-40.253760497011115],[148.41555994189744,-40.245942637104406],[148.41839761824548,-40.24032864948546],[148.42320705921105,-40.222169349544465],[148.42414210408492,-40.20340724444317],[148.4211620159752,-40.18485973863762],[148.41516734250953,-40.167343960894044],[148.40792352328754,-40.15442433145424],[148.40044349932754,-40.143334197173225],[148.39644232624437,-40.1293201103538],[148.3801778739298,-40.08599950450414],[148.37620953283334,-40.06472867654621],[148.37590119130255,-40.05016828505152],[148.3917923776745,-40.04660558360663],[148.40759757888534,-40.039688429615246],[148.42179250147177,-40.02988253458102],[148.43385552337855,-40.01754823658184],[148.4447093636903,-40.000554785139286],[148.45179437499735,-39.982814579123584],[148.45497566382429,-39.96397866406484],[148.45410991024437,-39.944895614899686],[148.45022006380447,-39.92425894677763],[148.4440622620073,-39.90798206440497],[148.43488696349556,-39.89319459268167],[148.42303722862854,-39.88044942864476],[148.4075471137596,-39.86939510834886],[148.3906527824096,-39.86168898314548],[148.38137595792045,-39.859602256912794],[148.37680722633883,-39.85600543020194],[148.36054997706876,-39.84785870344451],[148.3429869602657,-39.84314619334209],[148.32483515315607,-39.84206027928263],[148.30683556922642,-39.844645291671256],[148.28972300773742,-39.85079570222468],[148.27419605692202,-39.86026043196546],[148.26092667037634,-39.87261762491204],[148.2479872251365,-39.86617584022143],[148.2311411149702,-39.859120360053275],[148.2132174826391,-39.85561113902898],[148.21026710464096,-39.85564046886438],[148.2030465848844,-39.850148447819706],[148.1874233483439,-39.83461769501689],[148.16463035075358,-39.808566383385575],[148.1572648928419,-39.80107874324364],[148.10263580558927,-39.751672228951946],[148.07496088743352,-39.720428514862306],[148.07135754030008,-39.71704104423557],[148.0767983313804,-39.712067487605474],[148.0869514050001,-39.69847077133248],[148.0943718011534,-39.68320992868656],[148.09984899201356,-39.66410080267844],[148.1011526887753,-39.64734515295054],[148.09931843082063,-39.630639258158396],[148.094410179726,-39.61456566197575],[148.08659908888728,-39.599684859478586],[148.07615753530732,-39.586515752375696],[148.0697665353073,-39.579843752375695],[148.05626654158812,-39.568286619270545],[148.04075882640498,-39.559607453076346],[148.02223968515312,-39.55285297163096],[148.00086929781807,-39.548873598855806],[147.9831525850213,-39.54698523019418],[147.96541104133541,-39.54862397244576],[147.94833997723848,-39.55372560151153],[147.93260842638114,-39.56209017897532],[147.91883292542673,-39.573389887908775],[147.9036270675483,-39.59190618538354],[147.8966190069164,-39.591536281792926],[147.87850763236446,-39.59379960185428],[147.86589801945738,-39.59700511839441],[147.84901889407988,-39.603347744048904],[147.83374288315824,-39.612927789143995],[147.82068316534404,-39.62536071093721],[147.8103639573455,-39.6401474522951],[147.80319947188337,-39.6566944738327],[147.79857115100188,-39.676002346733775],[147.79221765550136,-39.68002451903065],[147.77885360177126,-39.69303478880482],[147.7773722868544,-39.689580058971806],[147.77632205614665,-39.67131220418062],[147.77159870976587,-39.653634322458586],[147.76339748956906,-39.6372771377835],[147.75205739704631,-39.622916782468025],[147.7380471805266,-39.61114684889635],[147.72194595923392,-39.60245385308962],[147.70441928510803,-39.597197124325824],[147.68619163188603,-39.59559395208638],[147.676124631886,-39.59573595208638],[147.6598398870878,-39.597455526012844],[147.64413626978373,-39.60209731997632],[147.6295336469599,-39.60950766776152],[147.6133894372689,-39.62231225040182],[147.6017854873158,-39.635247410921885],[147.59288370362057,-39.65017149478782],[147.58701594691271,-39.66652812840882],[147.58440096863447,-39.683707532379806],[147.5851362558321,-39.70106925421064],[147.5891943968144,-39.7179660445556],[147.59642410306745,-39.73376798683144],[147.60655584932823,-39.747885980665586],[147.61921192155424,-39.75979370370587],[147.63392049819763,-39.76904723304984],[147.65013323983092,-39.775301594801945],[147.66724573137844,-39.778323624786935],[147.67613873137844,-39.77901962478693],[147.6938775957363,-39.778653692120244],[147.70239007488092,-39.77676722776119],[147.69434684872095,-39.785685378869765],[147.68541629437846,-39.80055592278056],[147.6798314696503,-39.81596113244976],[147.6737890584504,-39.82313133366443],[147.665020002372,-39.83938961895231],[147.65975502263822,-39.85709578097042],[147.65821591671556,-39.87550391335714],[147.66046752242136,-39.89383853788981],[147.66641498650523,-39.91132727300644],[147.67245922188866,-39.921562822736576],[147.67771820643603,-39.93240530375486],[147.67448076456208,-39.948015512559316],[147.67444245741476,-39.96619922694345],[147.6780600066671,-39.98401950397969],[147.68182164359655,-39.992850865049896],[147.6758629256505,-40.012126791733614],[147.67044796019496,-40.02047742401781],[147.6676234111113,-40.022431417999655],[147.65580207372216,-40.03442352871143],[147.64642154492287,-40.04840782048601],[147.63981020661174,-40.0638947486103],[147.63619950030682,-40.08034216594467],[147.63571582512867,-40.09717430173646],[147.63624297549214,-40.105277865787336],[147.63360540768093,-40.11425165417701],[147.63195092960316,-40.131024942906755],[147.63345286906176,-40.14781257795115],[147.6380585505344,-40.164025788943846],[147.64560644508853,-40.179095951528254],[147.6558318354707,-40.19249452996231],[147.66837610018206,-40.20375161374864],[147.68279929093268,-40.21247239817967],[147.701483562362,-40.21912703079727],[147.7194303870405,-40.22204739601124],[147.73759793382257,-40.22130087545223],[147.7280824770146,-40.23032061743808],[147.71728196748393,-40.24290828150784],[147.71377296748392,-40.24785628150784],[147.70504353253241,-40.26314108491037],[147.6994560799162,-40.27983265831996],[147.69722433193937,-40.29729254235721],[147.69843365385745,-40.314852889453014],[147.7030377886219,-40.33184200928593],[147.71086062623087,-40.34761006120651],[147.72160294000736,-40.36155391090285],[147.7431508467823,-40.383344564852],[147.75759547964645,-40.393462716783304],[147.77373594512775,-40.40056974085336],[147.790952480403,-40.4043927410105],[147.8086117456601,-40.405058704996655],[147.81306115624244,-40.41767234588733],[147.82253286382405,-40.43336262478012],[147.83498673011388,-40.44680878819875],[147.84990630696655,-40.45745323852665],[147.86667289592998,-40.46485456210941],[147.8845912049902,-40.468705834193806],[147.90291818156678,-40.46884734675993],[147.91211863629167,-40.46749218386581],[147.91664803514445,-40.475127701110374],[147.92926419947753,-40.48864897838476],[147.93043821819126,-40.50205238100772],[147.9354047307934,-40.51904355963573],[147.94360097813805,-40.53473393656114],[147.9547098702854,-40.54851649488152],[147.96830163519536,-40.55985802587288],[147.98385044540865,-40.5683197573474],[148.0007547608439,-40.573574328525076],[148.01725393205584,-40.57530253654484],[148.02101352345122,-40.58211843847437],[148.02735795182522,-40.591013347574595],[148.0346927442127,-40.60865999301487],[148.04462010205253,-40.62301082722233],[148.05750344478707,-40.635419253878474],[148.0460780273047,-40.63889824636723],[148.03105103562422,-40.646808460588744],[148.02807539576227,-40.649182981145024],[148.01486080586488,-40.64124178963149],[147.99878019100765,-40.63536137328182],[147.9775759324493,-40.63235376177729],[147.96036609495502,-40.6328878657162],[147.94357291368888,-40.636689554361986],[147.92781102690876,-40.643619684139104],[147.91362823034603,-40.65345441546273],[147.9066144277289,-40.655407813010804],[147.8900927809164,-40.66398461840355],[147.87568901874036,-40.67577690568457],[147.86401934909128,-40.690280188568906],[147.85558301254457,-40.7068740015669],[147.8507409243308,-40.72484844414162],[147.8491011798814,-40.7439809211168],[147.8496787223562,-40.75257900989023],[147.84853440275697,-40.757394965855624],[147.84787773194907,-40.77499332997281],[147.8466582888281,-40.77892219686159],[147.8305831905363,-40.79332818413663],[147.82786043539917,-40.79464529829279],[147.8201118626744,-40.7868256184423],[147.80571823682092,-40.77705497099816],[147.78711472459963,-40.76941505574383],[147.76943516149151,-40.76573040763601],[147.75137589632655,-40.765649629711135],[147.7449389435717,-40.76693119862289],[147.74167664434367,-40.766079205033634],[147.73700192000064,-40.760069507699114],[147.72799894241368,-40.75222014324996],[147.72353642647735,-40.74069700535919],[147.71306623999453,-40.72477286758003],[147.69947774348216,-40.71141039282691],[147.68258520881014,-40.70006077456728],[147.66680322745842,-40.69363751297816],[147.65009347478653,-40.690303837758066],[147.63305488036738,-40.69017923820856],[147.61629816048614,-40.6932681803655],[147.60042392816666,-40.69945994692248],[147.58600116533052,-40.70853260568385],[147.57354682871275,-40.720160964305734],[147.56533667855092,-40.73141961217465],[147.55529732994276,-40.743559378688744],[147.55073772279343,-40.74750868207336],[147.54029833369447,-40.76068764973868],[147.5324922636773,-40.77557829459946],[147.5285271222513,-40.788591694195325],[147.5189778672019,-40.801412170768494],[147.51195765135623,-40.80895707408407],[147.50259789913886,-40.824218439724696],[147.4964440847336,-40.841030483355766],[147.49579678583183,-40.84526642239125],[147.4834110778818,-40.86266974760297],[147.46161806468456,-40.887179267515215],[147.45100943382212,-40.89674712256795],[147.44291405647064,-40.90275597116855],[147.4355412242132,-40.90657194685338],[147.42995497384425,-40.90333040783829],[147.41927854578512,-40.88776306719297],[147.406766532649,-40.87343821513827],[147.3915235818132,-40.86206261366298],[147.37423045448796,-40.85414430535749],[147.35565947424857,-40.850036927598396],[147.3366400345058,-40.84992391884749],[147.31802155719615,-40.853810326157316],[147.30897151937444,-40.85690800078096],[147.2987954334319,-40.85371015376449],[147.28232252196236,-40.85172616220121],[147.2657653394896,-40.852799821072075],[147.24968661157055,-40.85689464015376],[147.2287402045061,-40.86435061697424],[147.22287249814306,-40.86789094541442],[147.21515203611764,-40.8702692923193],[147.20049078997567,-40.877958873543186],[147.18748608779154,-40.888203848845095],[147.1765779730412,-40.90065755634237],[147.16925747940886,-40.91300607296027],[147.15977755113536,-40.9164335017326],[147.1504668198368,-40.911423415318595],[147.13306798925413,-40.90620329722566],[147.11497532812632,-40.904583250354946],[147.10696176203493,-40.90519401380008],[147.08928833390783,-40.90343700302484],[147.07575722702504,-40.89937747944104],[147.05069626677036,-40.89534113234502],[147.03313667018705,-40.89110102211626],[147.0150840244712,-40.89045298694746],[147.00373276132265,-40.89189745377094],[146.99403401262015,-40.89433062823993],[146.98688866364486,-40.894699075101755],[146.97141602468258,-40.89829325013623],[146.95172025864915,-40.907291643093195],[146.93675189727202,-40.91739718306065],[146.92410255507312,-40.930287796788704],[146.92226941990165,-40.933116860149106],[146.9162792574182,-40.93694556463099],[146.9088977547371,-40.9338122940806],[146.8917507873371,-40.930220919039286],[146.87593417334247,-40.928846121484405],[146.85784630624946,-40.93045062718186],[146.84044869367318,-40.93565336215056],[146.82444958033895,-40.94424252666325],[146.81553115510826,-40.95167551782217],[146.81187567577052,-40.95219626040213],[146.79457172070522,-40.95843941888028],[146.78455898752048,-40.96459224013938],[146.77437943517043,-40.96494289261461],[146.75653521148152,-40.969287952480485],[146.73937025825288,-40.97759936682519],[146.72442212359533,-40.974792339401844],[146.71719212359534,-40.974066339401844],[146.69801525262193,-40.97419412951607],[146.67930080527958,-40.978381989508236],[146.66189848381143,-40.98643977569071],[146.64659841529505,-40.9980016360098],[146.64478341529505,-40.9997056360098],[146.63564713931,-41.01029149343274],[146.62922586982856,-41.012073078999016],[146.6139198256796,-41.01967171368339],[146.60032592857095,-41.030026432315786],[146.58893425399472,-41.04276393548188],[146.58015548480947,-41.05742502166774],[146.57430610565495,-41.073481141998116],[146.57017896628372,-41.09258452209021],[146.56842228442724,-41.111064886281774],[146.57049446052335,-41.1295125386534],[146.57692082890358,-41.14820151569073],[146.585213,-41.14719],[146.601179,-41.14279],[146.616347,-41.135819],[146.633798,-41.125396],[146.635978,-41.1213],[146.636857,-41.115118],[146.642598,-41.114581],[146.647955,-41.110144],[146.642277,-41.096686],[146.651895,-41.094549],[146.652826,-41.092496],[146.661412,-41.096121],[146.658419,-41.110296],[146.664641,-41.11102],[146.695565,-41.13299],[146.699257,-41.157781],[146.695626,-41.17027],[146.76206,-41.287177],[146.761795,-41.288744],[146.751637,-41.287515],[146.749477,-41.29752],[146.736684,-41.295977],[146.728315,-41.296748],[146.727461,-41.300616],[146.719814,-41.299682],[146.714968,-41.302371],[146.708894,-41.302783],[146.705178,-41.297782],[146.700694,-41.316447],[146.706567,-41.320062],[146.703586,-41.33269],[146.697505,-41.35525],[146.770949,-41.375503],[146.783378,-41.378208],[146.798571,-41.380382],[146.802887,-41.37434],[146.809429,-41.375166],[146.809632,-41.378312],[146.819578,-41.379539],[146.818956,-41.382437],[146.825424,-41.383748],[146.872828,-41.39122],[146.893931,-41.387997],[146.89999,-41.386532],[146.910166,-41.377818],[146.918376,-41.38507],[146.92671,-41.388419],[146.926355,-41.391001],[146.931334,-41.399374],[146.9378,-41.405165],[146.934304,-41.408496],[146.949981,-41.417848],[146.966042,-41.424887],[146.972002,-41.429042],[146.996138,-41.43181],[146.994,-41.443436],[147.007986,-41.445219],[147.029765,-41.427888],[147.03191,-41.430362],[147.031841,-41.437337],[147.065524,-41.458888],[147.069305,-41.453979],[147.074512,-41.451912],[147.076192,-41.446506],[147.080208,-41.444664],[147.085876,-41.446709],[147.087908,-41.451183],[147.098511,-41.456097],[147.100022,-41.462866],[147.103342,-41.465878],[147.115043,-41.473286],[147.120682,-41.470839],[147.124112,-41.474354],[147.127932,-41.47375],[147.133646,-41.476367],[147.140091,-41.48302],[147.126007,-41.490514],[147.136352,-41.501281],[147.147726,-41.495126],[147.153974,-41.50105],[147.169363,-41.492893],[147.172366,-41.49666],[147.17414,-41.502013],[147.179382,-41.499945],[147.188033,-41.508309],[147.193715,-41.50536],[147.198025,-41.51016],[147.207173,-41.505146],[147.221105,-41.495251],[147.227085,-41.499246],[147.230098,-41.50602],[147.236197,-41.510826],[147.233123,-41.512407],[147.248515,-41.528177],[147.255272,-41.524463],[147.261082,-41.530936],[147.278146,-41.521684],[147.285846,-41.529689],[147.302824,-41.520428],[147.312785,-41.529397],[147.336644,-41.517826],[147.346759,-41.512041],[147.363225,-41.530527],[147.367865,-41.536326],[147.387993,-41.556073],[147.400819,-41.549793],[147.406452,-41.556178],[147.432005,-41.543015],[147.428113,-41.538732],[147.460395,-41.522064],[147.468755,-41.521809],[147.476144,-41.518051],[147.478382,-41.521705],[147.486359,-41.528639],[147.498728,-41.522016],[147.506536,-41.530441],[147.526153,-41.520515],[147.525885,-41.514713],[147.53993,-41.507451],[147.56215,-41.511211],[147.571934,-41.506031],[147.578908,-41.513592],[147.647934,-41.478488],[147.639867,-41.473806],[147.64593,-41.470742],[147.641394,-41.46546],[147.643613,-41.464363],[147.637627,-41.457382],[147.63402,-41.45917],[147.627361,-41.451475],[147.628729,-41.428175],[147.615828,-41.426402],[147.619255,-41.409226],[147.606351,-41.407449],[147.608713,-41.397738],[147.601776,-41.393133],[147.590413,-41.380709],[147.643153,-41.378701],[147.827566,-41.37165],[147.833771,-41.372416],[147.835459,-41.366796],[147.840706,-41.332997],[147.858678,-41.27658],[147.883447,-41.186369],[147.889529,-41.164957],[147.934817,-41.16847],[147.954886,-41.163747],[148.005136,-41.153403],[148.082295,-41.132139],[148.07922,-41.128815],[148.08246,-41.124759],[148.074253,-41.121922],[148.06522,-41.112936],[148.06482,-41.106407],[148.062763,-41.104883],[148.068311,-41.095743],[148.064263,-41.088446],[148.062331,-41.087321],[148.071025,-41.073431],[148.07138,-41.067486],[148.077009,-41.065071],[148.082096,-41.060249],[148.080537,-41.052399],[148.073732,-41.048472],[148.07394,-41.042203],[148.071229,-41.038518],[148.074096,-41.023333],[148.076208,-41.021736],[148.074402,-41.014808],[148.07845,-41.01529],[148.079195,-41.006968],[148.081539,-41.005637],[148.078675,-40.998295],[148.074218,-40.995412],[148.080475,-40.988431],[148.080578,-40.982976],[148.078008,-40.981413],[148.079414,-40.970344],[148.081868,-40.969555],[148.081228,-40.963331],[148.085713,-40.960642],[148.082908,-40.952519],[148.085861,-40.949061],[148.08689,-40.939136],[148.090397,-40.935621],[148.098643,-40.937617],[148.102748,-40.940256],[148.112013,-40.942224],[148.116759,-40.923553],[148.124181,-40.925468],[148.185517,-40.933766],[148.186348,-40.931127],[148.212412,-40.937587],[148.217268,-40.933036],[148.216429,-40.928287],[148.213674,-40.926146],[148.213499,-40.922157],[148.216053,-40.919532],[148.220847,-40.921091],[148.225053,-40.919702],[148.228859,-40.913641],[148.237293,-40.911026],[148.239649,-40.908572],[148.248085,-40.905759],[148.251467,-40.902796],[148.257859,-40.90417]],[[147.80167942003854,-40.203862843056804],[147.7953611026512,-40.20344092491449],[147.77856658720037,-40.2054931565528],[147.78614516521907,-40.19809954008645],[147.79813768197596,-40.18443218515366],[147.80074121126168,-40.18240122784182],[147.80084540046195,-40.199722449155054],[147.80167942003854,-40.203862843056804]],[[147.7583800239971,-39.7408962775371],[147.75729281181475,-39.748326094318266],[147.75029169687545,-39.749453690585426],[147.7583800239971,-39.7408962775371]]],[[[146.58834792487343,-41.16624976541946],[146.595303,-41.167972],[146.595729,-41.16195],[146.601621,-41.159306],[146.595414,-41.156004],[146.589311,-41.158771],[146.5813992228683,-41.155931156020635],[146.58834792487343,-41.16624976541946]]],[[[147.06788347906746,-39.59232632380993],[147.06965250127774,-39.594213161887545],[147.084708053215,-39.604797899951414],[147.1016019419545,-39.61209877984855],[147.11962773947735,-39.61581051093797],[147.13803168632475,-39.61577788497361],[147.15604421049866,-39.61200226622962],[147.17291210757324,-39.604641534452355],[147.18793003638652,-39.594003483024835],[147.20297101330115,-39.577223948403066],[147.21264673471185,-39.56119137724917],[147.21432818149387,-39.55635427786535],[147.22229063039586,-39.56103695457189],[147.23828924218014,-39.56674323478825],[147.24559224218015,-39.56859323478825],[147.26083311295608,-39.57096928075759],[147.2665764714399,-39.57591689082135],[147.28195293006635,-39.58460946385318],[147.30053555497304,-39.59173106988828],[147.31873865479915,-39.594791621354815],[147.33718330163947,-39.59407411073103],[147.35509363663905,-39.58960871950946],[147.3618619736051,-39.586876871043614],[147.37918656771748,-39.58307255558085],[147.3954285944321,-39.57594437590437],[147.40995719262293,-39.56576919964507],[147.42220805292297,-39.55294224368477],[147.43170533622296,-39.537961723426186],[147.44066358863827,-39.51522943854407],[147.44891725800517,-39.50774356319487],[147.4593584201717,-39.493702955267246],[147.46688548537117,-39.47790739171769],[147.47121395234115,-39.460953899096566],[147.4721802175676,-39.44348327031918],[147.46974775902376,-39.42615584454968],[147.46370238195078,-39.40717378910331],[147.4559744914278,-39.39315891750006],[147.44588645758583,-39.3807344057916],[147.43375728263433,-39.37029313992071],[147.41730251342392,-39.36089729194419],[147.3965234561364,-39.353972582915894],[147.37468703161903,-39.35227217673478],[147.3520862310688,-39.355315182088326],[147.34312010502276,-39.35873349180293],[147.33578321822276,-39.35483160885971],[147.31845713726239,-39.349705116966156],[147.30045621691877,-39.348142789419626],[147.28232386105054,-39.34914068988893],[147.26542399709433,-39.351617530665536],[147.2426488722729,-39.359427576602826],[147.22676330573185,-39.367368147273496],[147.21274628115276,-39.37827350874644],[147.20114360397207,-39.39171901986157],[147.1912110679529,-39.409892129203186],[147.18576771282224,-39.42667105360732],[147.17739458577958,-39.44213402352117],[147.17502502887677,-39.44277165599196],[147.1597133485726,-39.43495623054644],[147.14319498743717,-39.430194699906934],[147.12607261773096,-39.428660788476876],[147.10897094896183,-39.43041046100127],[147.09251393536414,-39.43537988069349],[147.077302010934,-39.443387738319835],[147.06389018260026,-39.45414186726538],[147.05276778080145,-39.46724990323028],[147.0443406062692,-39.48223359963787],[147.0377491243921,-39.50363627645674],[147.0354963026255,-39.52170109141372],[147.03692489126553,-39.53984969686536],[147.04197643938835,-39.55733953982935],[147.05044426212586,-39.5734550206918],[147.06198189720885,-39.58753677207556],[147.06788347906746,-39.59232632380993]]],[[[146.8906016277552,-39.2064437286978],[146.88845831322067,-39.21447634962099],[146.88732361824827,-39.232088723781494],[146.8896478633799,-39.24958389856822],[146.89534167041285,-39.266289101881014],[146.90418608557482,-39.281561939753935],[146.91692373240633,-39.29596032913938],[146.9307199659346,-39.30736628744297],[146.94650066353373,-39.315816229908705],[146.96364154870795,-39.32097588104348],[146.98146453662216,-39.322641127631805],[146.99926455879825,-39.32074609335242],[147.00596555879824,-39.31934809335242],[147.02458743772416,-39.313286572403676],[147.04145733614246,-39.30334057128253],[147.05577650307842,-39.289981010316545],[147.06448550307843,-39.27987001031654],[147.07410337706895,-39.26636342449492],[147.0882220518496,-39.23518793994843],[147.09256569398718,-39.21854714015241],[147.0936646394255,-39.20138393055181],[147.0914787585513,-39.18432505105537],[147.08608787202817,-39.1679934318042],[147.07768883602733,-39.15298544595909],[147.0665883537342,-39.13984913225509],[147.0531917756293,-39.12906418255889],[147.03798829751773,-39.12102442521296],[147.02153309682294,-39.11602344381281],[147.00442705946438,-39.11424385656909],[146.98729483762204,-39.115750647734316],[146.98094222453645,-39.117234631988346],[146.9691742964302,-39.11822852729195],[146.95195439544247,-39.12325297611335],[146.9360729628126,-39.131592650783816],[146.92216088369915,-39.142916260222805],[146.91860088369916,-39.146459260222805],[146.90717750790816,-39.16036695270472],[146.89874978812662,-39.176269498536044],[146.89261664721835,-39.19479004809952],[146.8906016277552,-39.2064437286978]]],[[[146.5537777291868,-39.50608206191792],[146.55624972918682,-39.51250106191792],[146.56489283551912,-39.52938358711179],[146.57688199427855,-39.54407994775768],[146.5916847640472,-39.55593747495221],[146.60864375026702,-39.56442957306685],[146.62875846972906,-39.569969275435284],[146.6470990173271,-39.57092482717528],[146.66525168186917,-39.56813743855025],[146.6824605757243,-39.56172317806238],[146.6878795757243,-39.559045178062384],[146.7038343789052,-39.54895172833142],[146.71733250271205,-39.53575195084432],[146.72945477197982,-39.5188699838664],[146.73983770589373,-39.500755459306035],[146.74546282164383,-39.48453704133573],[146.74790628371196,-39.46754561697569],[146.74707919864383,-39.450399336360015],[146.74301165589725,-39.433721983312665],[146.7358516331838,-39.418120282014264],[146.72585961302147,-39.404161824300864],[146.713399106348,-39.39235442060228],[146.69892342794782,-39.38312762573539],[146.68295920480372,-39.37681711164643],[146.66608721734167,-39.37365245562378],[146.66026321734168,-39.373127455623774],[146.64321993448027,-39.37321142629891],[146.62649808323962,-39.37650691303892],[146.61069733922562,-39.38289573377297],[146.60449433922562,-39.38611773377297],[146.5904447624925,-39.39516342312664],[146.57716679950832,-39.4071958472157],[146.56515735202439,-39.42055783964439],[146.55604118190035,-39.43603896081837],[146.5501815512631,-39.453022317357316],[146.547811955304,-39.47083115464458],[146.5490268179375,-39.488755824217975],[146.5537777291868,-39.50608206191792]]],[[[146.35722416062464,-39.14006421680232],[146.35015816062463,-39.14269321680232],[146.3337279877316,-39.15079558866705],[146.31927884388,-39.16205708293221],[146.30740938566092,-39.17601111362999],[146.29861138819058,-39.1920795376859],[146.29324936989497,-39.209596608529125],[146.29063956320232,-39.23055710840184],[146.2919447450557,-39.24695391296311],[146.29621231936807,-39.262839331087264],[146.30329973930537,-39.27768275313621],[146.3164802686798,-39.2949903745463],[146.33043856429904,-39.307866728229804],[146.34678793057984,-39.31752761447245],[146.36480044831887,-39.323542903782005],[146.3836741501899,-39.32564477876869],[146.40515315564141,-39.32412577367639],[146.421615723843,-39.31937794154342],[146.44104382458272,-39.31006482547961],[146.4542103591758,-39.29999869588278],[146.46734582833022,-39.28495991210656],[146.47672697913592,-39.26930560904185],[146.48275726834555,-39.25208066181613],[146.48518873702204,-39.2339933415349],[146.48392140581655,-39.21578737914626],[146.4790073860106,-39.198211384032824],[146.47064873675683,-39.18198806200764],[146.45918915662625,-39.167784498436774],[146.45256215662624,-39.161091498436775],[146.4393709869151,-39.15009730924297],[146.4243317990984,-39.14180864323505],[146.40799209231017,-39.136527247922075],[146.3909467108616,-39.134445391623025],[146.37381618903265,-39.13563886397063],[146.35722416062464,-39.14006421680232]]]]},"bbox":[146.29063956320232,-41.556178,148.58847978610396,-39.11424385656909]}]}