{"type":"FeatureCollection","features":[
{"properties":{"electorateShortName":"bendigo","electorateName":"Bendigo","area":6177.84,"state":"VIC"},"type":"Feature","geometry":{"type":"Polygon","coordinates":[[[144.812352,-37.213926],[144.807882,-37.17134],[144.908069,-37.157962],[144.909935,-37.046345],[144.810435,-37.00627],[144.800207,-36.939435],[144.844182,-36.872213],[144.798547,-36.832621],[144.794685,-36.750723],[144.666159,-36.762612],[144.666165,-36.725853],[144.519165,-36.72529],[144.526127,-36.6595],[144.58989,-36.59418],[144.626439,-36.52491],[144.611792,-36.49749],[144.671241,-36.442102],[144.768107,-36.427295],[144.75932,-36.298899],[144.685407,-36.31543],[144.487993,-36.315743],[144.431844,-36.261524],[144.274078,-36.255322],[144.281729,-36.327723],[144.331834,-36.327718],[144.344104,-36.48726],[144.209671,-36.487542],[144.170608,-36.524435],[144.125626,-36.662021],[144.068462,-36.662011],[144.071279,-36.766439],[144.025899,-36.897897],[143.891801,-36.881611],[143.846647,-36.927861],[143.89967,-37.021318],[143.973445,-37.029378],[144.012588,-37.066759],[143.9635,-37.107788],[143.948949,-37.197919],[144.002785,-37.255481],[144.060778,-37.236051],[144.074341,-37.14766],[144.190446,-37.166139],[144.185148,-37.195358],[144.284252,-37.208014],[144.292162,-37.16357],[144.362987,-37.1794],[144.3104,-37.292786],[144.394957,-37.332105],[144.415258,-37.382483],[144.501005,-37.307087],[144.564596,-37.299494],[144.594923,-37.242743],[144.691325,-37.220226],[144.812352,-37.213926]]]},"bbox":[143.846647,-37.382483,144.909935,-36.255322]}]}