{"type":"FeatureCollection","features":[
{"properties":{"electorateShortName":"bennelong","electorateName":"Bennelong","area":60.27,"state":"NSW"},"type":"Feature","geometry":{"type":"Polygon","coordinates":[[[151.19826,-33.825088],[151.187499,-33.823897],[151.175513,-33.811878],[151.179499,-33.807332],[151.177998,-33.796098],[151.168269,-33.796875],[151.159758,-33.794161],[151.144734,-33.785473],[151.140132,-33.776637],[151.12198,-33.770095],[151.118856,-33.762505],[151.105367,-33.761185],[151.096971,-33.766929],[151.091376,-33.780952],[151.073789,-33.782273],[151.075565,-33.788496],[151.065727,-33.79089],[151.066068,-33.802624],[151.070243,-33.806194],[151.07386,-33.817188],[151.071641,-33.819693],[151.084492,-33.820334],[151.093708,-33.823032],[151.101542,-33.83332],[151.108484,-33.837229],[151.120207,-33.839663],[151.124449,-33.843059],[151.131424,-33.842188],[151.135387,-33.846828],[151.15172,-33.840804],[151.159279,-33.845383],[151.16194,-33.846754],[151.173688,-33.844691],[151.187207,-33.844913],[151.186236,-33.838056],[151.189155,-33.831219],[151.19826,-33.825088]]]},"bbox":[151.065727,-33.846828,151.19826,-33.761185]}]}