{"type":"FeatureCollection","features":[
{"properties":{"electorateShortName":"berowra","electorateName":"Berowra","area":750.67,"state":"NSW"},"type":"Feature","geometry":{"type":"MultiPolygon","coordinates":[[[[151.284798,-33.572214],[151.260413,-33.579351],[151.251151,-33.577001],[151.239819,-33.560895],[151.24875,-33.541251],[151.24238,-33.535399],[151.2305,-33.535448],[151.207769,-33.540864],[151.194585,-33.538259],[151.186379,-33.510212],[151.17654,-33.506317],[151.16873,-33.521295],[151.158792,-33.517262],[151.157741,-33.496559],[151.150473,-33.490606],[151.151061,-33.482338],[151.161672,-33.468899],[151.156365,-33.461077],[151.145295,-33.472193],[151.124807,-33.464472],[151.114089,-33.467592],[151.103296,-33.482514],[151.093559,-33.48074],[151.086202,-33.469627],[151.08229,-33.451135],[151.071362,-33.461391],[151.063987,-33.454504],[151.062181,-33.442013],[151.05257,-33.44112],[151.045882,-33.431075],[151.03233,-33.427343],[151.032748,-33.406351],[151.01766,-33.400094],[151.0026,-33.401579],[150.993367,-33.397455],[150.988457,-33.379232],[150.983831,-33.378535],[150.976652,-33.400233],[150.96106,-33.412259],[150.951743,-33.413756],[150.953407,-33.425229],[150.943673,-33.424896],[150.934273,-33.4165],[150.929947,-33.430799],[150.921461,-33.42606],[150.92221,-33.417664],[150.903575,-33.419493],[150.887353,-33.437201],[150.884608,-33.456488],[150.898251,-33.451749],[150.904842,-33.466797],[150.896116,-33.474744],[150.876553,-33.470806],[150.878734,-33.490145],[150.890205,-33.486066],[150.900901,-33.489371],[150.910294,-33.49996],[150.925449,-33.502048],[150.926583,-33.508451],[150.914559,-33.517305],[150.899585,-33.515352],[150.900538,-33.526885],[150.88933,-33.542181],[150.889073,-33.555299],[150.915946,-33.554714],[150.9328,-33.559643],[150.935653,-33.564909],[150.904352,-33.611808],[150.936636,-33.623191],[150.927854,-33.636523],[150.935792,-33.641505],[150.932899,-33.659754],[150.949119,-33.673934],[150.96206,-33.679846],[150.969687,-33.693746],[150.988761,-33.703407],[151.002089,-33.714615],[151.019071,-33.717193],[151.016831,-33.730682],[151.046947,-33.743364],[151.048939,-33.758638],[151.065997,-33.758983],[151.073789,-33.782273],[151.091376,-33.780952],[151.096971,-33.766929],[151.105367,-33.761185],[151.098584,-33.748537],[151.09079,-33.744555],[151.090964,-33.733974],[151.106559,-33.72758],[151.11712,-33.708308],[151.123726,-33.688952],[151.134878,-33.685044],[151.161505,-33.659605],[151.165104,-33.639403],[151.175919,-33.627211],[151.196143,-33.622227],[151.215461,-33.612847],[151.226685,-33.598772],[151.254334,-33.603694],[151.25021,-33.587935],[151.260747,-33.590032],[151.272277,-33.586237],[151.284798,-33.572214]]],[[[151.319113,-33.667793],[151.33830794901885,-33.6509124515772],[151.35481603007943,-33.63208361994901],[151.3625974354418,-33.619727858634555],[151.37074559890266,-33.59891625164417],[151.37430349076087,-33.581635630626224],[151.37442173680688,-33.563992941627276],[151.37109579291152,-33.54666618329095],[151.360156,-33.532518],[151.346402,-33.543242],[151.3352,-33.5822],[151.326445,-33.588515],[151.326997,-33.599985],[151.33358,-33.616319],[151.343021,-33.624508],[151.34014,-33.633376],[151.331914,-33.636464],[151.319113,-33.667793]]]]},"bbox":[150.876553,-33.782273,151.37442173680688,-33.378535]}]}