{"type":"FeatureCollection","features":[
{"properties":{"electorateShortName":"berowra","electorateName":"Berowra","area":750.67,"state":"NSW"},"type":"Feature","geometry":{"type":"Polygon","coordinates":[[[151.284798,-33.572214],[151.2305,-33.535448],[151.158792,-33.517262],[151.103296,-33.482514],[151.032748,-33.406351],[150.988457,-33.379232],[150.943673,-33.424896],[150.887353,-33.437201],[150.926583,-33.508451],[150.935653,-33.564909],[150.904352,-33.611808],[150.932899,-33.659754],[151.048939,-33.758638],[151.073789,-33.782273],[151.105367,-33.761185],[151.123726,-33.688952],[151.161505,-33.659605],[151.175919,-33.627211],[151.284798,-33.572214]]]},"bbox":[150.887353,-33.782273,151.284798,-33.379232]}]}