{"type":"FeatureCollection","features":[
{"properties":{"electorateShortName":"blair","electorateName":"Blair","area":6472.04186,"state":"QLD"},"type":"Feature","geometry":{"type":"Polygon","coordinates":[[[152.927745,-27.685328],[152.854983,-27.636885],[152.860306,-27.598022],[152.842256,-27.495533],[152.748793,-27.495279],[152.736847,-27.373346],[152.748503,-27.318755],[152.683571,-27.271608],[152.733396,-27.170662],[152.733514,-27.107431],[152.686287,-27.083222],[152.702502,-27.030798],[152.663073,-26.948173],[152.688433,-26.8969],[152.679196,-26.799965],[152.667303,-26.773009],[152.58682,-26.733463],[152.552933,-26.706037],[152.583203,-26.645384],[152.575195,-26.584007],[152.456971,-26.580891],[152.440343,-26.557075],[152.442847,-26.460453],[152.319366,-26.478005],[152.283717,-26.452212],[152.2063,-26.508644],[152.167652,-26.475419],[152.125717,-26.50656],[152.126748,-26.637973],[152.073393,-26.66841],[152.176618,-26.779782],[152.170568,-26.867411],[152.125438,-26.954225],[152.198108,-27.008236],[152.191318,-27.072344],[152.134036,-27.141624],[152.188492,-27.169149],[152.158259,-27.259283],[152.206186,-27.292046],[152.191723,-27.386849],[152.373374,-27.40198],[152.499344,-27.511697],[152.497013,-27.582952],[152.454721,-27.66096],[152.411128,-27.681393],[152.40235,-27.863703],[152.451324,-27.802114],[152.519312,-27.761203],[152.52928,-27.717604],[152.757806,-27.767276],[152.882789,-27.747358],[152.927745,-27.685328]]]},"bbox":[152.073393,-27.863703,152.927745,-26.452212]}]}