{"type":"FeatureCollection","features":[
{"properties":{"electorateShortName":"bonner","electorateName":"Bonner","area":371.337195,"state":"QLD"},"type":"Feature","geometry":{"type":"MultiPolygon","coordinates":[[[[153.453271,-27.388101],[153.458367,-27.390022],[153.473535,-27.408594],[153.483166,-27.415556],[153.505447,-27.420905],[153.514955,-27.420437],[153.527412,-27.425895],[153.53545,-27.423908],[153.54193285539768,-27.403563063168985],[153.54325258638235,-27.38628052969871],[153.54123491529143,-27.369065517169176],[153.53595467721019,-27.35255652753236],[153.52711571437402,-27.33677618537031],[153.52683127995508,-27.326683584419794],[153.52488916345033,-27.310454705674704],[153.51705307387593,-27.28214961063089],[153.50731924290338,-27.264335079140217],[153.5078899418371,-27.225385592093954],[153.51598224357338,-27.1742194891501],[153.53682731231035,-27.100553654766667],[153.55138459297365,-27.068400279887328],[153.55794321018578,-27.03470766531716],[153.55754214902183,-27.01683918205832],[153.55361805350242,-26.99940229534127],[153.54632568004482,-26.98308467194252],[153.53595262144182,-26.96852983771992],[153.52290796492832,-26.95631179857802],[153.50770615881382,-26.946912403124788],[153.4739622296892,-26.93404236046161],[153.45672728248127,-26.931987009493184],[153.4394183095734,-26.933278260722847],[153.41264173404483,-26.9428507787678],[153.38433782882018,-26.94536469237065],[153.3549106218745,-26.957618218595147],[153.3129986218745,-26.984636218595146],[153.29804214688656,-26.996721733805348],[153.28599441099286,-27.011708657498893],[153.09042441099285,-27.31677665749889],[153.08631016581356,-27.325285642918676],[153.087776,-27.326976],[153.087822,-27.329247],[153.082602,-27.333821],[153.093608,-27.338916],[153.109327,-27.349004],[153.122436,-27.352404],[153.138618,-27.361152],[153.15022,-27.360859],[153.156138,-27.363349],[153.157067,-27.374526],[153.152805,-27.384572],[153.146237,-27.387932],[153.153136,-27.397989],[153.144016,-27.415491],[153.122633,-27.429539],[153.108127,-27.442165],[153.099932,-27.445258],[153.095588,-27.481659],[153.101867,-27.491458],[153.094751,-27.53073],[153.083738,-27.521747],[153.071656,-27.529366],[153.06343,-27.520937],[153.055774,-27.525627],[153.060743,-27.542815],[153.078403,-27.562525],[153.098291,-27.574891],[153.111147,-27.593945],[153.122004,-27.595445],[153.123314,-27.587311],[153.1562,-27.591814],[153.175711,-27.606616],[153.171846,-27.591092],[153.177625,-27.586712],[153.181914,-27.562327],[153.191323,-27.560891],[153.183336,-27.544731],[153.172345,-27.535069],[153.188827,-27.517948],[153.201296,-27.514038],[153.184486,-27.502503],[153.188111,-27.484049],[153.196521,-27.481567],[153.201,-27.468066],[153.216586,-27.468238],[153.21773,-27.448402],[153.444361,-27.389399],[153.453271,-27.388101]]],[[[153.003899,-27.47611],[153.003037,-27.476914],[153.006586,-27.473604],[153.003899,-27.47611]]]]},"bbox":[153.003037,-27.606616,153.55794321018578,-26.931987009493184]}]}