{"type":"FeatureCollection","features":[
{"properties":{"electorateShortName":"bowman","electorateName":"Bowman","area":536.307046,"state":"QLD"},"type":"Feature","geometry":{"type":"MultiPolygon","coordinates":[[[[153.449354,-27.732333],[153.446654,-27.735027],[153.448823,-27.73787],[153.446258,-27.741784],[153.447907,-27.74855],[153.44706,-27.754669],[153.442026,-27.772872],[153.435009,-27.812718],[153.43270732466556,-27.830335228885943],[153.4477946801003,-27.82835318080557],[153.45300868010028,-27.826959180805574],[153.4672048027634,-27.821854990480603],[153.47066888618312,-27.819903782166218],[153.47525840040063,-27.818524426719158],[153.49043922966308,-27.8124079892509],[153.50426136335855,-27.803643458202227],[153.50890436335854,-27.800068458202226],[153.52120636413738,-27.788615341840796],[153.5311642259475,-27.775074511522],[153.53843063688944,-27.75991824649483],[153.54275215791841,-27.743675169398806],[153.54397806233172,-27.726911808878885],[153.5436645086766,-27.711629593152573],[153.54731250440744,-27.686705849435008],[153.55787462688906,-27.63807001005223],[153.56630817855316,-27.609278986516504],[153.5945174584279,-27.534078817484755],[153.61244549015245,-27.497963124178252],[153.61359869075147,-27.496890404228168],[153.62364459760948,-27.483181988133886],[153.63093429894585,-27.46782942577964],[153.63270542817034,-27.46101220296831],[153.6335158764742,-27.458904948079187],[153.6340026629355,-27.45601903910961],[153.63520784858594,-27.451380179903673],[153.63547390677977,-27.44729678378002],[153.63650561093783,-27.441180335356716],[153.63591341394954,-27.42321509917537],[153.63176290761905,-27.40572585375068],[153.6311408361487,-27.404380349142897],[153.6275673104965,-27.392230244285535],[153.61915906409,-27.376324495152357],[153.60775511057406,-27.36240898914914],[153.60655211057406,-27.361208989149144],[153.5913750340036,-27.3490393841172],[153.57393743673836,-27.34041539771447],[153.5550540268738,-27.33573995423323],[153.5475120268738,-27.33471995423323],[153.53928356864407,-27.334388706193856],[153.53123461028315,-27.331921609874733],[153.52663514473326,-27.331615978041313],[153.51708626178106,-27.321816074334496],[153.50430241600242,-27.312627313123663],[153.49011294623617,-27.305806829765828],[153.48501694623616,-27.30388582976583],[153.46546782403917,-27.298931288307305],[153.4453062772328,-27.29845411945616],[153.43415636937917,-27.30065762996392],[153.42797296658358,-27.3009036195514],[153.42343410798543,-27.30200133698718],[153.43445,-27.317881],[153.436867,-27.329219],[153.437221,-27.34178],[153.429513,-27.364644],[153.453271,-27.388101],[153.449728,-27.389953],[153.446685,-27.389639],[153.44657,-27.390531],[153.445053,-27.390385],[153.444361,-27.389399],[153.442514,-27.389969],[153.41917,-27.396128],[153.347567,-27.414748],[153.32411,-27.420839],[153.252947,-27.439288],[153.21773,-27.448402],[153.216586,-27.468238],[153.203431,-27.468044],[153.201,-27.468066],[153.199817,-27.468719],[153.197919,-27.471206],[153.197125,-27.474135],[153.197107,-27.477375],[153.197578,-27.480136],[153.196521,-27.481567],[153.194122,-27.482492],[153.191434,-27.48279],[153.188111,-27.484049],[153.187442,-27.484723],[153.186627,-27.486759],[153.18745,-27.490901],[153.188575,-27.491566],[153.191195,-27.49189],[153.191791,-27.492306],[153.192649,-27.494622],[153.192136,-27.495343],[153.189891,-27.494137],[153.187862,-27.494943],[153.185741,-27.498467],[153.186236,-27.499834],[153.184978,-27.501201],[153.184486,-27.502503],[153.185888,-27.502738],[153.186489,-27.501152],[153.187957,-27.502173],[153.187651,-27.503456],[153.186065,-27.504369],[153.188896,-27.504963],[153.19047,-27.506022],[153.190186,-27.508208],[153.191696,-27.50841],[153.193695,-27.508051],[153.195083,-27.508791],[153.195285,-27.509721],[153.194104,-27.510523],[153.19462,-27.511279],[153.195978,-27.510069],[153.197236,-27.50976],[153.198884,-27.511906],[153.200366,-27.511733],[153.201655,-27.512635],[153.201296,-27.514038],[153.199753,-27.514496],[153.199014,-27.515679],[153.196853,-27.516626],[153.19562,-27.514984],[153.193463,-27.515241],[153.193513,-27.516042],[153.194967,-27.517489],[153.193855,-27.518133],[153.191096,-27.518083],[153.189893,-27.517606],[153.188827,-27.517948],[153.185611,-27.520467],[153.184178,-27.522121],[153.184233,-27.523443],[153.185898,-27.52761],[153.18465,-27.529055],[153.181635,-27.528342],[153.179926,-27.528469],[153.180154,-27.529747],[153.178785,-27.531114],[153.175496,-27.533468],[153.172345,-27.535069],[153.171818,-27.536719],[153.172511,-27.537308],[153.173761,-27.539666],[153.17402,-27.541901],[153.175022,-27.542549],[153.177663,-27.542923],[153.178934,-27.542613],[153.180339,-27.541217],[153.181854,-27.541137],[153.183093,-27.542014],[153.18229,-27.543095],[153.183336,-27.544731],[153.183375,-27.545942],[153.18282,-27.547884],[153.18215,-27.548677],[153.182918,-27.550309],[153.188718,-27.551722],[153.189677,-27.553127],[153.189957,-27.556389],[153.190679,-27.557995],[153.191616,-27.558465],[153.191734,-27.560248],[153.191323,-27.560891],[153.18966,-27.560927],[153.186783,-27.560479],[153.181914,-27.562327],[153.181959,-27.564403],[153.180526,-27.56704],[153.179788,-27.570174],[153.180726,-27.571918],[153.182553,-27.57366],[153.180643,-27.576021],[153.178785,-27.577212],[153.177632,-27.578562],[153.179038,-27.581489],[153.178071,-27.582133],[153.177074,-27.584009],[153.177625,-27.586712],[153.175079,-27.588122],[153.174555,-27.589474],[153.172361,-27.590177],[153.171846,-27.591092],[153.172575,-27.593118],[153.174284,-27.593807],[153.174165,-27.595496],[153.173192,-27.597431],[153.171815,-27.59853],[153.171549,-27.599449],[153.172145,-27.601203],[153.173143,-27.601773],[153.173878,-27.600778],[153.176063,-27.601664],[153.176872,-27.602467],[153.177301,-27.603841],[153.178775,-27.604981],[153.178207,-27.605891],[153.176663,-27.60566],[153.175711,-27.606616],[153.176765,-27.606888],[153.180746,-27.609322],[153.182544,-27.610871],[153.183562,-27.612825],[153.181503,-27.624221],[153.175719,-27.623478],[153.173817,-27.634432],[153.177068,-27.635012],[153.178834,-27.634396],[153.182253,-27.634242],[153.183844,-27.635498],[153.183022,-27.636478],[153.183103,-27.638401],[153.18677,-27.639899],[153.187473,-27.640744],[153.193573,-27.641579],[153.193941,-27.639458],[153.206997,-27.64122],[153.206133,-27.644031],[153.208541,-27.645259],[153.223393,-27.647171],[153.238942,-27.649332],[153.238895,-27.647355],[153.254954,-27.649582],[153.254421,-27.652849],[153.262231,-27.653991],[153.26292,-27.656074],[153.273981,-27.657728],[153.279926,-27.658455],[153.280507,-27.65965],[153.280621,-27.663521],[153.281393,-27.66408],[153.281824,-27.665936],[153.28279,-27.667153],[153.281269,-27.668702],[153.281485,-27.670829],[153.282279,-27.671525],[153.281486,-27.672377],[153.28131,-27.673901],[153.282657,-27.674098],[153.280976,-27.683177],[153.282996,-27.683481],[153.282311,-27.687117],[153.285219,-27.686533],[153.288653,-27.687146],[153.287492,-27.688728],[153.288338,-27.691802],[153.286776,-27.692968],[153.286842,-27.693992],[153.290102,-27.691976],[153.291991,-27.691917],[153.29311,-27.692943],[153.29361,-27.694898],[153.293286,-27.698245],[153.294343,-27.700666],[153.298606,-27.707077],[153.302084,-27.708646],[153.308392,-27.709089],[153.317702,-27.706327],[153.322851,-27.703258],[153.325374,-27.69712],[153.327693,-27.695756],[153.331717,-27.695313],[153.339458,-27.696813],[153.342152,-27.69521],[153.345937,-27.692482],[153.352995,-27.690266],[153.358758,-27.690982],[153.360429,-27.694153],[153.361964,-27.699439],[153.36534,-27.704792],[153.369561,-27.706579],[153.377732,-27.70773],[153.378998,-27.707999],[153.382604,-27.709418],[153.385366,-27.709591],[153.386997,-27.708728],[153.388704,-27.707174],[153.390257,-27.706368],[153.392156,-27.706848],[153.394036,-27.709725],[153.398371,-27.714022],[153.401383,-27.717705],[153.404739,-27.723613],[153.405219,-27.725838],[153.405507,-27.728734],[153.405276,-27.731189],[153.40566,-27.733184],[153.406787,-27.735163],[153.409576,-27.738194],[153.413152,-27.740255],[153.418063,-27.741407],[153.424549,-27.741407],[153.429763,-27.740013],[153.434491,-27.7368],[153.440311,-27.734314],[153.449354,-27.732333]]],[[[153.160637,-27.381531],[153.1618972411552,-27.377859852858037],[153.1616008927305,-27.378049151321857],[153.14839223901396,-27.391073794283727],[153.153136,-27.397989],[153.154117,-27.390805],[153.160637,-27.381531]]]]},"bbox":[153.14839223901396,-27.830335228885943,153.63650561093783,-27.29845411945616]}]}