{"type":"FeatureCollection","features":[
{"properties":{"electorateShortName":"braddon","electorateName":"Braddon","area":21369.238842,"state":"TAS"},"type":"Feature","geometry":{"type":"MultiPolygon","coordinates":[[[[146.661412,-41.096121],[146.719432,-41.070753],[146.6964178441827,-41.01320784740611],[146.65402830163876,-41.00250403107627],[146.63673911430703,-41.00394538109362],[146.6239039008846,-41.00685824493302],[146.573728186797,-41.0388649344172],[146.50747567702106,-41.031804837649666],[146.44899168568054,-41.06972763452139],[146.23079490656193,-41.065644458259165],[146.0020572456329,-40.9812692068086],[145.84858432397772,-40.94724941424058],[145.77816107725064,-40.86934444471558],[145.600767792193,-40.82585986710979],[145.5209768222276,-40.76359429155161],[145.3982231057992,-40.76014755432487],[145.36218822332253,-40.67770582238351],[145.31164923489624,-40.638330867209206],[145.24359476783377,-40.623940223995355],[145.15144529836832,-40.68014454584468],[145.10145656683738,-40.60699308094654],[145.03982657695283,-40.59103935209548],[145.02069949850372,-40.51785642572112],[145.0598420651069,-40.42915663528121],[145.0257234535862,-40.33600874284964],[144.9647129846846,-40.301825638378695],[144.86972597383817,-40.300379150609956],[144.73287672495138,-40.32602397862351],[144.68083458366095,-40.28565017367729],[144.61056214560085,-40.29415253652702],[144.5724267655878,-40.33529003102105],[144.57228601486548,-40.42232271515729],[144.6228250756303,-40.466188552171005],[144.58858688290914,-40.5597203957866],[144.57989591754023,-40.67747704123148],[144.60834000399925,-40.82033702202569],[144.5222424581801,-40.92628635879122],[144.51863135315526,-41.02397331248368],[144.57579195050397,-41.10894115307449],[144.6069260347717,-41.28481703431757],[144.66578556278887,-41.37915686081965],[144.6687472727276,-41.46785329584843],[144.8005689623488,-41.618159145999925],[144.8364499548617,-41.74905239252246],[144.92142055541999,-41.813275257301356],[144.9639317190924,-41.87595756635859],[145.12348635217717,-42.008529709204765],[145.17060774073312,-42.10364412563792],[145.09494511966054,-42.141288527093685],[145.07568434646944,-42.20488226848402],[145.1091433420098,-42.28320794567027],[145.11121736004148,-42.357668092356505],[145.1808155765234,-42.57616320196338],[145.1765932822837,-42.64712422116958],[145.2175489369443,-42.70247759969406],[145.29085393795796,-42.738185231438266],[145.29258064133126,-42.80345521768683],[145.40408381016073,-42.97669033433636],[145.41586303111492,-43.034609850211545],[145.47016430283455,-43.07806307016417],[145.54590876223602,-43.07202151550713],[145.60714383446089,-43.16766385459556],[145.6702564227283,-43.21011311882763],[145.75580841377734,-43.363760252716176],[145.80131261152323,-43.3959463034366],[145.8266739236697,-43.40395583378425],[145.83394074792102,-43.4045372363466],[145.84628606171646,-43.40928517163375],[145.87992370094221,-43.412123160678796],[145.970756,-43.369699],[145.9757841577109,-43.235327617928476],[145.946408,-43.230004],[145.915252,-43.194875],[145.927708,-43.185034],[145.921338,-43.163191],[145.940454,-43.150439],[145.979595,-43.128207],[145.978141,-43.039171],[145.992963,-42.978703],[145.842663,-42.72503],[145.954701,-42.665621],[145.99276,-42.59866],[146.12571,-42.436789],[146.099125,-42.369677],[146.10695,-42.305306],[146.075328,-42.21047],[145.999753,-42.0669],[146.050484,-41.974556],[145.951331,-41.684662],[145.853526,-41.582863],[145.852831,-41.465863],[145.954065,-41.451806],[146.082866,-41.456594],[146.11467,-41.37119],[146.265684,-41.265593],[146.444449,-41.297836],[146.494373,-41.37673],[146.619945,-41.324477],[146.703586,-41.33269],[146.76206,-41.287177],[146.661412,-41.096121]]],[[[143.73235802303296,-39.65069051376161],[143.76964745205976,-39.821576942937114],[143.7434447355181,-39.92059499042378],[143.78536612476003,-40.00981666324445],[143.7684506116617,-40.054234787666985],[143.79367465161772,-40.15472955206884],[143.87747695923434,-40.23826591668423],[143.9763987924923,-40.23716465154227],[144.01068049106425,-40.197652278351455],[144.1642162657296,-40.11254646537165],[144.21347917564853,-40.02144819136641],[144.24902667863293,-39.85832555759274],[144.24384255039763,-39.78660412933339],[144.19106905250703,-39.74284236677841],[144.19960320853326,-39.66686779918851],[144.15801195491812,-39.59407248950936],[144.05908176655385,-39.52441428702827],[143.9421799316723,-39.48958094513899],[143.87246915696335,-39.52057483055965],[143.83681062311243,-39.575946896138845],[143.76102874501532,-39.60156798546575],[143.73235802303296,-39.65069051376161]]]]},"bbox":[143.73235802303296,-43.412123160678796,146.76206,-39.48958094513899]}]}