{"type":"FeatureCollection","features":[
{"properties":{"electorateShortName":"bradfield","electorateName":"Bradfield","area":104.92,"state":"NSW"},"type":"Feature","geometry":{"type":"MultiPolygon","coordinates":[[[[151.19826,-33.825088],[151.19906,-33.822066],[151.206784,-33.81959],[151.214088,-33.815751],[151.22002,-33.818588],[151.234028,-33.814165],[151.233208,-33.811542],[151.235228,-33.806873],[151.233018,-33.804093],[151.234281,-33.798376],[151.232766,-33.794651],[151.234942,-33.788918],[151.230948,-33.784291],[151.222669,-33.785059],[151.213645,-33.782764],[151.212466,-33.778566],[151.203599,-33.773133],[151.203518,-33.770556],[151.199426,-33.76791],[151.198416,-33.761605],[151.193803,-33.759981],[151.190988,-33.757003],[151.193976,-33.750466],[151.188384,-33.743645],[151.182132,-33.742698],[151.18035,-33.740095],[151.182553,-33.732406],[151.187522,-33.728208],[151.188837,-33.725118],[151.187746,-33.720649],[151.191417,-33.702699],[151.188405,-33.698545],[151.176324,-33.697875],[151.172725,-33.692784],[151.165852,-33.686067],[151.171846,-33.677542],[151.168831,-33.676212],[151.16723,-33.672301],[151.168875,-33.667781],[151.161505,-33.659605],[151.157562,-33.663748],[151.153918,-33.664515],[151.151533,-33.669365],[151.148547,-33.670048],[151.1471,-33.674492],[151.141743,-33.677882],[151.138037,-33.678086],[151.134878,-33.685044],[151.129055,-33.689544],[151.123726,-33.688952],[151.118667,-33.698759],[151.11712,-33.708308],[151.109965,-33.718635],[151.108333,-33.718286],[151.106559,-33.72758],[151.0942,-33.733431],[151.090964,-33.733974],[151.090303,-33.738462],[151.092173,-33.740938],[151.09079,-33.744555],[151.093491,-33.747789],[151.098584,-33.748537],[151.105355,-33.757541],[151.105367,-33.761185],[151.109517,-33.762595],[151.116135,-33.76121],[151.118856,-33.762505],[151.12198,-33.770095],[151.126483,-33.772773],[151.140132,-33.776637],[151.144734,-33.785473],[151.159758,-33.794161],[151.164582,-33.794275],[151.168269,-33.796875],[151.177998,-33.796098],[151.179436,-33.800523],[151.179499,-33.807332],[151.175513,-33.811878],[151.179876,-33.817245],[151.182075,-33.817786],[151.187499,-33.823897],[151.195625,-33.823253],[151.19826,-33.825088]]],[[[151.306896,-33.738127],[151.304278935487,-33.730834030218915],[151.30169,-33.731295],[151.305268,-33.734037],[151.306896,-33.738127]]],[[[151.286014,-33.886101],[151.29059475912695,-33.884166441141396],[151.3021331669028,-33.87300109641321],[151.31150398247695,-33.85996316742218],[151.31840895965635,-33.8454676140677],[151.31866195965637,-33.844785614067696],[151.32339825241385,-33.826057391524294],[151.3247472943902,-33.81616256037096],[151.324942,-33.788918],[151.32367942331052,-33.77389569311306],[151.3199271176843,-33.759294870992726],[151.31251039328387,-33.743233401732425],[151.307252,-33.7445],[151.298077,-33.751803],[151.301813,-33.760136],[151.302464,-33.768238],[151.299538,-33.767132],[151.292959,-33.773661],[151.295954,-33.781772],[151.289834,-33.782487],[151.288595,-33.787268],[151.288179,-33.795086],[151.290368,-33.799145],[151.29413,-33.800895],[151.297149,-33.799331],[151.30214,-33.802652],[151.303564,-33.806415],[151.307595,-33.807763],[151.301061,-33.818464],[151.301529,-33.823317],[151.290672,-33.828322],[151.280955,-33.832769],[151.287848,-33.850202],[151.286273,-33.852492],[151.286331,-33.857691],[151.282829,-33.862556],[151.28462,-33.873529],[151.282691,-33.877446],[151.286014,-33.886101]]]]},"bbox":[151.090303,-33.886101,151.324942,-33.659605]}]}