{"type":"FeatureCollection","features":[
{"properties":{"electorateShortName":"bradfield","electorateName":"Bradfield","area":104.92,"state":"NSW"},"type":"Feature","geometry":{"type":"Polygon","coordinates":[[[151.19826,-33.825088],[151.214088,-33.815751],[151.234028,-33.814165],[151.230948,-33.784291],[151.213645,-33.782764],[151.203599,-33.773133],[151.193976,-33.750466],[151.18035,-33.740095],[151.187522,-33.728208],[151.191417,-33.702699],[151.176324,-33.697875],[151.165852,-33.686067],[151.171846,-33.677542],[151.161505,-33.659605],[151.134878,-33.685044],[151.123726,-33.688952],[151.11712,-33.708308],[151.106559,-33.72758],[151.090964,-33.733974],[151.09079,-33.744555],[151.105367,-33.761185],[151.118856,-33.762505],[151.12198,-33.770095],[151.140132,-33.776637],[151.144734,-33.785473],[151.159758,-33.794161],[151.177998,-33.796098],[151.175513,-33.811878],[151.187499,-33.823897],[151.19826,-33.825088]]]},"bbox":[151.09079,-33.825088,151.234028,-33.659605]}]}