{"type":"FeatureCollection","features":[
{"properties":{"electorateShortName":"burt","electorateName":"Burt","area":221.82,"state":"WA"},"type":"Feature","geometry":{"type":"Polygon","coordinates":[[[116.015908,-32.192292],[116.015132,-32.170899],[116.021034,-32.149017],[116.017283,-32.141366],[116.017635,-32.120504],[116.01304,-32.09736],[116.018056,-32.089827],[116.012362,-32.076186],[116.001789,-32.069189],[116.015115,-32.054704],[116.008472,-32.031891],[115.994652,-32.009457],[115.989391,-32.013952],[115.974056,-32.003538],[115.971607,-32.024644],[115.957459,-32.038399],[115.931407,-32.053788],[115.941724,-32.07354],[115.951618,-32.082767],[115.916173,-32.115337],[115.897381,-32.136348],[115.898546,-32.180241],[115.896977,-32.202241],[115.885334,-32.203956],[115.884484,-32.236504],[115.924287,-32.237355],[115.973139,-32.235719],[115.973198,-32.240448],[116.005796,-32.241225],[116.011259,-32.205809],[116.015908,-32.192292]]]},"bbox":[115.884484,-32.241225,116.021034,-32.003538]}]}