{"type":"FeatureCollection","features":[
{"properties":{"electorateShortName":"calwell","electorateName":"Calwell","area":191.17,"state":"VIC"},"type":"Feature","geometry":{"type":"Polygon","coordinates":[[[144.958535,-37.692181],[144.957424,-37.683979],[144.956017,-37.67567],[144.953756,-37.658864],[144.950914,-37.640804],[144.947814,-37.621949],[144.945906,-37.608063],[144.945262,-37.601835],[144.943344,-37.598395],[144.942939,-37.59721],[144.942399,-37.59301],[144.940811,-37.586172],[144.939583,-37.580135],[144.939347,-37.577774],[144.939473,-37.575563],[144.941497,-37.564563],[144.944869,-37.543527],[144.945469,-37.540114],[144.945413,-37.53993],[144.950008,-37.511274],[144.949941,-37.511223],[144.917058,-37.507355],[144.915253,-37.507059],[144.896865,-37.504852],[144.890031,-37.503921],[144.888809,-37.504793],[144.886603,-37.504744],[144.885874,-37.503573],[144.884679,-37.502839],[144.883477,-37.50377],[144.883627,-37.504822],[144.881486,-37.505381],[144.877928,-37.505422],[144.876593,-37.504167],[144.875948,-37.50246],[144.875106,-37.502161],[144.873131,-37.503596],[144.872818,-37.504617],[144.871199,-37.50473],[144.869202,-37.503229],[144.867834,-37.503343],[144.868192,-37.504733],[144.87062,-37.505221],[144.869884,-37.506547],[144.867787,-37.505776],[144.866637,-37.506504],[144.86685,-37.508123],[144.868989,-37.509554],[144.866822,-37.510929],[144.867211,-37.512123],[144.869893,-37.51242],[144.871539,-37.513227],[144.870505,-37.515536],[144.869128,-37.516868],[144.867959,-37.517347],[144.867747,-37.518858],[144.868214,-37.520033],[144.866802,-37.5216],[144.867363,-37.522573],[144.866979,-37.523679],[144.865398,-37.524349],[144.863637,-37.525915],[144.862003,-37.526032],[144.862285,-37.527378],[144.860433,-37.527772],[144.859145,-37.524997],[144.855973,-37.527213],[144.855844,-37.528737],[144.856839,-37.529541],[144.859492,-37.529201],[144.858986,-37.531519],[144.85694,-37.531277],[144.855221,-37.531484],[144.85472,-37.534687],[144.853273,-37.534766],[144.853638,-37.533433],[144.852749,-37.53242],[144.851668,-37.532555],[144.851925,-37.534779],[144.850536,-37.535888],[144.851806,-37.537924],[144.85347,-37.538077],[144.854419,-37.539569],[144.858075,-37.541176],[144.856361,-37.541837],[144.855467,-37.54115],[144.854234,-37.542314],[144.854532,-37.543774],[144.856217,-37.54537],[144.853549,-37.545467],[144.853764,-37.547518],[144.852147,-37.548447],[144.848566,-37.54776],[144.848472,-37.54869],[144.849908,-37.549332],[144.849383,-37.550647],[144.849279,-37.552501],[144.84852,-37.553003],[144.84563,-37.553362],[144.845445,-37.554727],[144.847961,-37.556473],[144.845927,-37.557814],[144.844091,-37.557379],[144.842645,-37.556183],[144.843721,-37.55472],[144.842933,-37.55338],[144.841261,-37.553294],[144.84027,-37.554689],[144.839776,-37.556489],[144.83773,-37.557342],[144.83782,-37.555907],[144.838823,-37.554163],[144.838373,-37.553407],[144.833893,-37.554988],[144.831873,-37.55603],[144.830369,-37.555256],[144.828302,-37.555424],[144.827236,-37.557631],[144.830219,-37.558137],[144.830562,-37.558834],[144.828584,-37.559758],[144.828452,-37.56123],[144.829984,-37.562629],[144.831856,-37.563172],[144.832116,-37.564779],[144.830244,-37.565228],[144.828461,-37.567064],[144.827471,-37.567388],[144.827295,-37.569028],[144.825849,-37.568615],[144.823652,-37.570023],[144.820022,-37.571351],[144.81903,-37.572779],[144.819755,-37.574334],[144.819467,-37.576273],[144.821979,-37.577332],[144.822042,-37.578809],[144.820022,-37.58037],[144.818846,-37.581719],[144.817839,-37.581333],[144.815597,-37.581856],[144.813668,-37.581291],[144.812684,-37.581683],[144.810656,-37.581129],[144.808999,-37.581838],[144.809278,-37.582478],[144.811254,-37.58345],[144.811921,-37.585253],[144.81311,-37.586641],[144.812168,-37.58758],[144.810065,-37.586913],[144.808775,-37.588207],[144.807228,-37.590416],[144.808731,-37.590969],[144.811356,-37.590563],[144.811826,-37.591278],[144.811438,-37.593057],[144.813726,-37.594554],[144.815114,-37.593865],[144.816119,-37.594531],[144.815472,-37.595581],[144.813214,-37.595761],[144.81357,-37.597682],[144.813048,-37.598337],[144.811431,-37.59776],[144.809294,-37.598184],[144.806634,-37.597467],[144.806497,-37.598606],[144.808087,-37.599419],[144.809582,-37.599428],[144.811512,-37.600192],[144.81315,-37.600406],[144.814877,-37.599785],[144.817915,-37.600384],[144.817694,-37.601185],[144.815573,-37.60226],[144.813356,-37.603849],[144.808405,-37.606676],[144.812689,-37.606997],[144.821559,-37.608063],[144.820895,-37.613053],[144.818376,-37.627622],[144.836363,-37.629605],[144.835716,-37.633144],[144.83484,-37.636127],[144.834913,-37.637849],[144.833918,-37.643988],[144.842998,-37.645038],[144.844161,-37.645768],[144.844983,-37.647559],[144.844428,-37.649513],[144.845827,-37.650115],[144.84622,-37.651412],[144.845442,-37.654777],[144.849092,-37.656394],[144.84972,-37.657387],[144.851817,-37.658993],[144.853609,-37.658549],[144.855555,-37.659062],[144.856171,-37.660128],[144.858079,-37.661938],[144.85682,-37.663527],[144.858523,-37.664926],[144.86063,-37.665868],[144.859877,-37.666458],[144.860758,-37.66815],[144.862077,-37.669202],[144.862811,-37.670485],[144.864951,-37.670957],[144.86646,-37.670137],[144.867576,-37.67104],[144.866336,-37.677922],[144.871517,-37.681723],[144.874446,-37.684036],[144.875044,-37.684107],[144.879348,-37.687411],[144.882268,-37.689121],[144.883488,-37.682175],[144.884654,-37.68115],[144.886588,-37.680508],[144.893349,-37.68098],[144.901063,-37.680731],[144.905434,-37.681206],[144.905788,-37.682567],[144.905265,-37.685735],[144.905747,-37.68887],[144.907896,-37.690944],[144.909652,-37.693494],[144.909592,-37.69402],[144.915281,-37.694428],[144.919003,-37.694691],[144.932661,-37.693837],[144.94113,-37.692899],[144.94927,-37.69234],[144.958535,-37.692181]]]},"bbox":[144.806497,-37.694691,144.958535,-37.502161]}]}