{"type":"FeatureCollection","features":[
{"properties":{"electorateShortName":"canberra","electorateName":"Canberra","area":312.263142,"state":"ACT"},"type":"Feature","geometry":{"type":"MultiPolygon","coordinates":[[[[149.033922,-35.265958],[149.039087,-35.269816],[149.051275,-35.269336],[149.068163,-35.275677],[149.076306,-35.276682],[149.086357,-35.280492],[149.083611,-35.285805],[149.072333,-35.293584],[149.062358,-35.306344],[149.061983,-35.31133],[149.063934,-35.321315],[149.063437,-35.331451],[149.064803,-35.337577],[149.069556,-35.34837],[149.078092,-35.347702],[149.084113,-35.34887],[149.082634,-35.339486],[149.088741,-35.336927],[149.098612,-35.343853],[149.100461,-35.350697],[149.109315,-35.346368],[149.114291,-35.345143],[149.124797,-35.347758],[149.130707,-35.34501],[149.137208,-35.344117],[149.143322,-35.345642],[149.147553,-35.34524],[149.15875,-35.341648],[149.172674,-35.339438],[149.176195,-35.337632],[149.191732,-35.344058],[149.203401,-35.343707],[149.206345,-35.345905],[149.20587187584476,-35.34660455068865],[149.216186,-35.342191],[149.219651,-35.341255],[149.231257,-35.342381],[149.24269,-35.335951],[149.249529,-35.330125],[149.254744,-35.330121],[149.258576,-35.331968],[149.26262,-35.331368],[149.268373,-35.335067],[149.274513,-35.335999],[149.2832949774836,-35.337965011350875],[149.291264,-35.334205],[149.300307,-35.333099],[149.30497,-35.335922],[149.311959,-35.335847],[149.318915,-35.336781],[149.337549,-35.340249],[149.3474992360392,-35.35021786685693],[149.34891329005026,-35.35059901349064],[149.351718,-35.351355],[149.364049,-35.348137],[149.36647844769996,-35.34025979077041],[149.385354,-35.332516],[149.389986,-35.331145],[149.398036,-35.325252],[149.399287,-35.31909],[149.397201,-35.317313],[149.396428,-35.30968],[149.3945002506582,-35.309165662895616],[149.39493600792377,-35.30426006363548],[149.393416,-35.302924],[149.386579,-35.303418],[149.383697,-35.306471],[149.381897,-35.306266],[149.3739990766516,-35.30484994834338],[149.36989643706795,-35.30825819275128],[149.36584,-35.308526],[149.359659,-35.307538],[149.361991,-35.303089],[149.353713,-35.299731],[149.350421,-35.298166],[149.350505,-35.295952],[149.345034,-35.292206],[149.34321081378837,-35.292047070938786],[149.342838,-35.290187],[149.339709,-35.2863],[149.335757,-35.287382],[149.327561,-35.282402],[149.32543411944545,-35.28346401801312],[149.324581,-35.286388],[149.32127,-35.28522],[149.316264,-35.281788],[149.3153,-35.276231],[149.311697,-35.277525],[149.305417,-35.275532],[149.301643,-35.272894],[149.296672,-35.272429],[149.289293,-35.275698],[149.28752,-35.274128],[149.282976,-35.272059],[149.276381,-35.273082],[149.271808,-35.273485],[149.27236,-35.269429],[149.273461,-35.266102],[149.273179,-35.259179],[149.267703,-35.259439],[149.262261,-35.257395],[149.257329,-35.257203],[149.250653,-35.25224],[149.249429,-35.247183],[149.245803,-35.247379],[149.23489,-35.243419],[149.23455,-35.24047],[149.241242,-35.236755],[149.246794,-35.22915],[149.240728,-35.225046],[149.237105,-35.222363],[149.234392,-35.221003],[149.228775,-35.221687],[149.227037,-35.219844],[149.21378450096995,-35.219606008996514],[149.209762,-35.226491],[149.204986,-35.2291],[149.2024562761942,-35.2246254885253],[149.205028,-35.219863],[149.207621,-35.215875],[149.205895,-35.211567],[149.200702,-35.205411],[149.197769,-35.202536],[149.189542,-35.203324],[149.197769,-35.202537],[149.200699,-35.205565],[149.195544,-35.206559],[149.179534,-35.219513],[149.173557,-35.222126],[149.158113,-35.22677],[149.151283,-35.230968],[149.142117,-35.225562],[149.135675,-35.22835],[149.12512,-35.231391],[149.119028,-35.219613],[149.107773,-35.20902],[149.095138,-35.201506],[149.091307,-35.202603],[149.086463,-35.214146],[149.074179,-35.225857],[149.080283,-35.231015],[149.076883,-35.238064],[149.07339,-35.241107],[149.075773,-35.250452],[149.068285,-35.248317],[149.057919,-35.243969],[149.04812,-35.243333],[149.041859,-35.241307],[149.030149,-35.239596],[149.027563,-35.245358],[149.026108,-35.253528],[149.02762,-35.258563],[149.033922,-35.265958]]],[[[149.09454738577261,-35.138216729333564],[149.102863,-35.135229],[149.104328,-35.132328],[149.109725,-35.131145],[149.113387,-35.127539],[149.109679,-35.131109],[149.104145,-35.132131],[149.102574,-35.135224],[149.09454738577261,-35.138216729333564]]],[[[149.118076,-35.126527],[149.120902,-35.124517],[149.127186,-35.125622],[149.120948,-35.124416],[149.118076,-35.126527]]],[[[149.127163,-35.12572],[149.131698,-35.12906],[149.138819,-35.128466],[149.1386,-35.135257],[149.144961,-35.134596],[149.149591184939,-35.13862909308309],[149.149612,-35.138406],[149.144875,-35.134429],[149.138825,-35.13479],[149.138986,-35.127983],[149.132054,-35.128524],[149.127163,-35.12572]]],[[[149.15692418754602,-35.14365298285011],[149.159195,-35.141708],[149.16424706362102,-35.14204171067108],[149.15917,-35.1416],[149.15692418754602,-35.14365298285011]]],[[[149.16758607946574,-35.15975064305368],[149.176381,-35.158283],[149.185495,-35.161201],[149.18903339694174,-35.165597964106404],[149.185606,-35.161122],[149.176539,-35.158247],[149.16758607946574,-35.15975064305368]]]]},"bbox":[149.026108,-35.351355,149.399287,-35.124416]}]}