{"type":"FeatureCollection","features":[
{"properties":{"electorateShortName":"casey","electorateName":"Casey","area":2623.84,"state":"VIC"},"type":"Feature","geometry":{"type":"Polygon","coordinates":[[[146.191923,-37.58753],[146.186005,-37.534824],[145.820049,-37.534378],[145.675853,-37.624195],[145.618012,-37.572296],[145.480491,-37.561281],[145.417552,-37.526238],[145.332594,-37.5396],[145.241449,-37.642907],[145.251424,-37.664959],[145.241959,-37.73608],[145.258633,-37.765116],[145.2959,-37.7664],[145.304288,-37.821538],[145.317759,-37.844956],[145.29336,-37.963976],[145.379211,-37.975028],[145.442652,-37.907018],[145.489986,-37.919163],[145.5534,-37.873679],[145.62511,-37.916976],[145.721541,-37.885239],[145.747876,-37.907446],[145.811644,-37.855634],[145.795436,-37.814795],[145.845103,-37.797714],[145.894867,-37.825818],[145.943614,-37.758232],[146.044161,-37.774023],[146.163222,-37.747768],[146.130947,-37.643909],[146.191923,-37.58753]]]},"bbox":[145.241449,-37.975028,146.191923,-37.526238]}]}