{"type":"FeatureCollection","features":[
{"properties":{"electorateShortName":"casey","electorateName":"Casey","area":2623.84,"state":"VIC"},"type":"Feature","geometry":{"type":"Polygon","coordinates":[[[146.191923,-37.58753],[146.189567,-37.585323],[146.192502,-37.581131],[146.190419,-37.577445],[146.190703,-37.571798],[146.189442,-37.568323],[146.18445,-37.560747],[146.18638,-37.554582],[146.185245,-37.550742],[146.182864,-37.54922],[146.183402,-37.547052],[146.186346,-37.544748],[146.187342,-37.540405],[146.187366,-37.536337],[146.186005,-37.534824],[146.126401,-37.534366],[145.947787,-37.532819],[145.889692,-37.532258],[145.883631,-37.526866],[145.879665,-37.525205],[145.87085,-37.530302],[145.868759,-37.53013],[145.866249,-37.531896],[145.862058,-37.53163],[145.857569,-37.53215],[145.856198,-37.530992],[145.847205,-37.527997],[145.841287,-37.530873],[145.838919,-37.532744],[145.831385,-37.532485],[145.826867,-37.530625],[145.823678,-37.530681],[145.824038,-37.533342],[145.820049,-37.534378],[145.819758,-37.536022],[145.822041,-37.538693],[145.821551,-37.541136],[145.818958,-37.543877],[145.8186,-37.548156],[145.816942,-37.551675],[145.816082,-37.556685],[145.814518,-37.558112],[145.810348,-37.558874],[145.809038,-37.560051],[145.809821,-37.563606],[145.806927,-37.56463],[145.802602,-37.56331],[145.79546,-37.56391],[145.793009,-37.562103],[145.790844,-37.56202],[145.788521,-37.564979],[145.785111,-37.565087],[145.780899,-37.566494],[145.774041,-37.569876],[145.769809,-37.57026],[145.766084,-37.573626],[145.756949,-37.573735],[145.755355,-37.574765],[145.752843,-37.572925],[145.748461,-37.573306],[145.744706,-37.57171],[145.740551,-37.566665],[145.736567,-37.568164],[145.73675,-37.570563],[145.734111,-37.57255],[145.731192,-37.578878],[145.730573,-37.582107],[145.731213,-37.585865],[145.733081,-37.58596],[145.736182,-37.58989],[145.737342,-37.593992],[145.675853,-37.624195],[145.674073,-37.622541],[145.667337,-37.62215],[145.662474,-37.618339],[145.659109,-37.617531],[145.659109,-37.615179],[145.657545,-37.611037],[145.654684,-37.609081],[145.654989,-37.60639],[145.65381,-37.601759],[145.649754,-37.598436],[145.646891,-37.594001],[145.644626,-37.593087],[145.640675,-37.589238],[145.63262,-37.587564],[145.629933,-37.58558],[145.627326,-37.580817],[145.620806,-37.577084],[145.618012,-37.572296],[145.61492,-37.571045],[145.612358,-37.574066],[145.609262,-37.575209],[145.602516,-37.575948],[145.601902,-37.567359],[145.599868,-37.566077],[145.593609,-37.565894],[145.592301,-37.567654],[145.589329,-37.566883],[145.586142,-37.567326],[145.582458,-37.569711],[145.581655,-37.57125],[145.578024,-37.572054],[145.576504,-37.575699],[145.57353,-37.579211],[145.573209,-37.586314],[145.566526,-37.588947],[145.56288,-37.593215],[145.55864,-37.590779],[145.55366,-37.583849],[145.552613,-37.581179],[145.549582,-37.578256],[145.547142,-37.574324],[145.541276,-37.572521],[145.539238,-37.570502],[145.537619,-37.566649],[145.537515,-37.562639],[145.534941,-37.561391],[145.533526,-37.558267],[145.528872,-37.557935],[145.524785,-37.565792],[145.522614,-37.563777],[145.515329,-37.560554],[145.512264,-37.557621],[145.507977,-37.555906],[145.503713,-37.5567],[145.5087,-37.56365],[145.496811,-37.563591],[145.496821,-37.560205],[145.491474,-37.56019],[145.486855,-37.561765],[145.480491,-37.561281],[145.478235,-37.555764],[145.474189,-37.554655],[145.473443,-37.558142],[145.469915,-37.557672],[145.467753,-37.549822],[145.462941,-37.549157],[145.464607,-37.540408],[145.461514,-37.541598],[145.459345,-37.54376],[145.45398,-37.542394],[145.448083,-37.541591],[145.445257,-37.544121],[145.43839,-37.543218],[145.440531,-37.533434],[145.432688,-37.530814],[145.425998,-37.535001],[145.425366,-37.533806],[145.421376,-37.533245],[145.41852,-37.531499],[145.419157,-37.529265],[145.417552,-37.526238],[145.405039,-37.526551],[145.402776,-37.528006],[145.402399,-37.53634],[145.397241,-37.538388],[145.393901,-37.540893],[145.389529,-37.539738],[145.386468,-37.543395],[145.383451,-37.541963],[145.379897,-37.542872],[145.375822,-37.540541],[145.368431,-37.545339],[145.360728,-37.544526],[145.36093,-37.543325],[145.347863,-37.541262],[145.347373,-37.544135],[145.341339,-37.543472],[145.338719,-37.540297],[145.332594,-37.5396],[145.330839,-37.54943],[145.325606,-37.548859],[145.323239,-37.554175],[145.320026,-37.555968],[145.31643,-37.559182],[145.313988,-37.559679],[145.310101,-37.562992],[145.310191,-37.564797],[145.30792,-37.566806],[145.310891,-37.568516],[145.309753,-37.574396],[145.314515,-37.574969],[145.312806,-37.583968],[145.307559,-37.583335],[145.305009,-37.582049],[145.303642,-37.585308],[145.299025,-37.584102],[145.294006,-37.585012],[145.289186,-37.583214],[145.28566,-37.583968],[145.284847,-37.587781],[145.281042,-37.591728],[145.280382,-37.594855],[145.27689,-37.596579],[145.275266,-37.599667],[145.268016,-37.602639],[145.266085,-37.607175],[145.266849,-37.60898],[145.264185,-37.612288],[145.264706,-37.615592],[145.262798,-37.62001],[145.256564,-37.616158],[145.254247,-37.618685],[145.256212,-37.619804],[145.254078,-37.622148],[145.254889,-37.624944],[145.252607,-37.627217],[145.248339,-37.63303],[145.244179,-37.635663],[145.245427,-37.639441],[145.241449,-37.642907],[145.247144,-37.649905],[145.247572,-37.652911],[145.244358,-37.656471],[145.251001,-37.658746],[145.253921,-37.662576],[145.253913,-37.664515],[145.251424,-37.664959],[145.251239,-37.670074],[145.256512,-37.670576],[145.256512,-37.672074],[145.263524,-37.676532],[145.265251,-37.678446],[145.264589,-37.683653],[145.266471,-37.686387],[145.26482,-37.688946],[145.266432,-37.690485],[145.266932,-37.695643],[145.268697,-37.698823],[145.26571,-37.700282],[145.264078,-37.703005],[145.263065,-37.708035],[145.260632,-37.707954],[145.256359,-37.71197],[145.256274,-37.713668],[145.253913,-37.717085],[145.249609,-37.718627],[145.248667,-37.720733],[145.242948,-37.719283],[145.243657,-37.722731],[145.240933,-37.725018],[145.237679,-37.720745],[145.236134,-37.723215],[145.236761,-37.727127],[145.240196,-37.727185],[145.24232,-37.728321],[145.240409,-37.732031],[145.242479,-37.733059],[145.241959,-37.73608],[145.244017,-37.741356],[145.245884,-37.743067],[145.249335,-37.74803],[145.251292,-37.745356],[145.254579,-37.745736],[145.253684,-37.749596],[145.256857,-37.755073],[145.258147,-37.760242],[145.257487,-37.763415],[145.258633,-37.765116],[145.265384,-37.766921],[145.267531,-37.766539],[145.27192,-37.763107],[145.278203,-37.761845],[145.296433,-37.763453],[145.2959,-37.7664],[145.299809,-37.766847],[145.297237,-37.769276],[145.300555,-37.773428],[145.303471,-37.775757],[145.30788,-37.777556],[145.305959,-37.779798],[145.305266,-37.784352],[145.306328,-37.785638],[145.305688,-37.789231],[145.309132,-37.795421],[145.304288,-37.821538],[145.316808,-37.818159],[145.318723,-37.831721],[145.318727,-37.840281],[145.317759,-37.844956],[145.323049,-37.846198],[145.332829,-37.847435],[145.332123,-37.851022],[145.336151,-37.851049],[145.341239,-37.853776],[145.345167,-37.857221],[145.345773,-37.859197],[145.343061,-37.861539],[145.341126,-37.860998],[145.339538,-37.858523],[145.33662,-37.856186],[145.334167,-37.85834],[145.336062,-37.860757],[145.334352,-37.861784],[145.33059,-37.861808],[145.327001,-37.866088],[145.318807,-37.865573],[145.316857,-37.862851],[145.313569,-37.864484],[145.303827,-37.863449],[145.30283,-37.865759],[145.308496,-37.871066],[145.307856,-37.876219],[145.306153,-37.876039],[145.304971,-37.88246],[145.303548,-37.885459],[145.304535,-37.887985],[145.309904,-37.889638],[145.31166,-37.892762],[145.316101,-37.892489],[145.316172,-37.894897],[145.318843,-37.896336],[145.320568,-37.899203],[145.313873,-37.901635],[145.311252,-37.900914],[145.308916,-37.901921],[145.305011,-37.905713],[145.303826,-37.904616],[145.296978,-37.901218],[145.295557,-37.90511],[145.29272,-37.907225],[145.296251,-37.910466],[145.298684,-37.911693],[145.297978,-37.913507],[145.300804,-37.917997],[145.300406,-37.920393],[145.302495,-37.92262],[145.303341,-37.926257],[145.303867,-37.933429],[145.299877,-37.931462],[145.29336,-37.963976],[145.301021,-37.965848],[145.316999,-37.967844],[145.318933,-37.966372],[145.357963,-37.971294],[145.366813,-37.973467],[145.379211,-37.975028],[145.383411,-37.97474],[145.383845,-37.971254],[145.388033,-37.970981],[145.387523,-37.960027],[145.387748,-37.95798],[145.381787,-37.956658],[145.384422,-37.954406],[145.385149,-37.951624],[145.383939,-37.949341],[145.382168,-37.941172],[145.383684,-37.9381],[145.386364,-37.93705],[145.390455,-37.937595],[145.393833,-37.939618],[145.399259,-37.940117],[145.403309,-37.938174],[145.406844,-37.938099],[145.410034,-37.934956],[145.412259,-37.935408],[145.41311,-37.937968],[145.419769,-37.93787],[145.422222,-37.936517],[145.426594,-37.936942],[145.427495,-37.935013],[145.432033,-37.933846],[145.431419,-37.930373],[145.428961,-37.929387],[145.422682,-37.928982],[145.419683,-37.926378],[145.422918,-37.919187],[145.425508,-37.919938],[145.428501,-37.913492],[145.43871,-37.914577],[145.440281,-37.909937],[145.442653,-37.908987],[145.442652,-37.907018],[145.447399,-37.905871],[145.451372,-37.907059],[145.454713,-37.906332],[145.456547,-37.907212],[145.45858,-37.905307],[145.46028,-37.907197],[145.463323,-37.90796],[145.464743,-37.910819],[145.468159,-37.910972],[145.470225,-37.914996],[145.469299,-37.919017],[145.466802,-37.921265],[145.470787,-37.921742],[145.469198,-37.928453],[145.474957,-37.929149],[145.476521,-37.927448],[145.481671,-37.92739],[145.491619,-37.926126],[145.489986,-37.919163],[145.493365,-37.91681],[145.494045,-37.914354],[145.498341,-37.911322],[145.500298,-37.90806],[145.50382,-37.907159],[145.510447,-37.901046],[145.507707,-37.899837],[145.514802,-37.893743],[145.517611,-37.892342],[145.5224,-37.887081],[145.525513,-37.887403],[145.526626,-37.884497],[145.525574,-37.882738],[145.52651,-37.879159],[145.52856,-37.87703],[145.528481,-37.871813],[145.526297,-37.868471],[145.526776,-37.863836],[145.528972,-37.862603],[145.5319,-37.866915],[145.535014,-37.866571],[145.538982,-37.868404],[145.539357,-37.870496],[145.541372,-37.871748],[145.544261,-37.871312],[145.5534,-37.873679],[145.554047,-37.877425],[145.562242,-37.881873],[145.562603,-37.885624],[145.564595,-37.887107],[145.568665,-37.894325],[145.567544,-37.897011],[145.575233,-37.899342],[145.578541,-37.897701],[145.585328,-37.896606],[145.588154,-37.897579],[145.589937,-37.896277],[145.604326,-37.898018],[145.603732,-37.901113],[145.613332,-37.90249],[145.614981,-37.904864],[145.614753,-37.908094],[145.626749,-37.909611],[145.62511,-37.916976],[145.632127,-37.918141],[145.642089,-37.918364],[145.64467,-37.917101],[145.652606,-37.916435],[145.65057,-37.912693],[145.657956,-37.90799],[145.662232,-37.908808],[145.667832,-37.908373],[145.670701,-37.907142],[145.671127,-37.903421],[145.669073,-37.899542],[145.669263,-37.897071],[145.671682,-37.893451],[145.679666,-37.89355],[145.681437,-37.891263],[145.686312,-37.888819],[145.686242,-37.885672],[145.68492,-37.883717],[145.686853,-37.880815],[145.689547,-37.883804],[145.693888,-37.886008],[145.699482,-37.885123],[145.705945,-37.887188],[145.712971,-37.886073],[145.716096,-37.883755],[145.721541,-37.885239],[145.724663,-37.894238],[145.728072,-37.896927],[145.727127,-37.899516],[145.730391,-37.903432],[145.733545,-37.903059],[145.734368,-37.901545],[145.737896,-37.902006],[145.747876,-37.907446],[145.751913,-37.904051],[145.753647,-37.903752],[145.758913,-37.900636],[145.76079,-37.896782],[145.760959,-37.892807],[145.7635,-37.886679],[145.759324,-37.884926],[145.75903,-37.881981],[145.763646,-37.882589],[145.767335,-37.881131],[145.767825,-37.879737],[145.776114,-37.878353],[145.786014,-37.878586],[145.788032,-37.877817],[145.792875,-37.877703],[145.795137,-37.87493],[145.805232,-37.870498],[145.802959,-37.868039],[145.801731,-37.863528],[145.80325,-37.860687],[145.808019,-37.861704],[145.808763,-37.863263],[145.814567,-37.858434],[145.817615,-37.857751],[145.817061,-37.855763],[145.811644,-37.855634],[145.807695,-37.852846],[145.8048,-37.851997],[145.804138,-37.849525],[145.807819,-37.845997],[145.809534,-37.842773],[145.811209,-37.836134],[145.808895,-37.835479],[145.808637,-37.830252],[145.807308,-37.828985],[145.804272,-37.829266],[145.804009,-37.826154],[145.798191,-37.825933],[145.793828,-37.826352],[145.795654,-37.8219],[145.79604,-37.818276],[145.795436,-37.814795],[145.804158,-37.814014],[145.809612,-37.807549],[145.815071,-37.807237],[145.819971,-37.810148],[145.825267,-37.810592],[145.828034,-37.812267],[145.831784,-37.808228],[145.834897,-37.807189],[145.835925,-37.805132],[145.838423,-37.804337],[145.837909,-37.801316],[145.839158,-37.798623],[145.845103,-37.797714],[145.850499,-37.799839],[145.853765,-37.799816],[145.857424,-37.801097],[145.860528,-37.803397],[145.862678,-37.806102],[145.864399,-37.805913],[145.868967,-37.810899],[145.87108,-37.810833],[145.877097,-37.816256],[145.878005,-37.817996],[145.881468,-37.818476],[145.886899,-37.821267],[145.891563,-37.82495],[145.894867,-37.825818],[145.897962,-37.82396],[145.89852,-37.821387],[145.902944,-37.817205],[145.907272,-37.816942],[145.912478,-37.82272],[145.914703,-37.826069],[145.917135,-37.826083],[145.919059,-37.827993],[145.92638,-37.829646],[145.926753,-37.822639],[145.93131,-37.821359],[145.931627,-37.819975],[145.929061,-37.817914],[145.926373,-37.813277],[145.923386,-37.811491],[145.92298,-37.807005],[145.924845,-37.805093],[145.928833,-37.797838],[145.92238,-37.791915],[145.918059,-37.786006],[145.91871,-37.781995],[145.918165,-37.776138],[145.922217,-37.773526],[145.923703,-37.771607],[145.926245,-37.771861],[145.936771,-37.771579],[145.937201,-37.768694],[145.936404,-37.765191],[145.943614,-37.758232],[145.953672,-37.762452],[145.960248,-37.763924],[145.963577,-37.76596],[145.968325,-37.764695],[145.972747,-37.765164],[145.977389,-37.767581],[145.981411,-37.768656],[145.990279,-37.768788],[145.999515,-37.765447],[146.003476,-37.768528],[146.008376,-37.767698],[146.012546,-37.768775],[146.016637,-37.771563],[146.019143,-37.771784],[146.021449,-37.774841],[146.024142,-37.774169],[146.029233,-37.774458],[146.031246,-37.773445],[146.044161,-37.774023],[146.051842,-37.771193],[146.060742,-37.770198],[146.064085,-37.768742],[146.067768,-37.76898],[146.068357,-37.767035],[146.073083,-37.765492],[146.073405,-37.763741],[146.077223,-37.76244],[146.081144,-37.763284],[146.084572,-37.760861],[146.088764,-37.754043],[146.097799,-37.758143],[146.100017,-37.761985],[146.103869,-37.764173],[146.103272,-37.768229],[146.109509,-37.774808],[146.116719,-37.777493],[146.116654,-37.782226],[146.120826,-37.786583],[146.121324,-37.788192],[146.124095,-37.789404],[146.125817,-37.788091],[146.128814,-37.789142],[146.133761,-37.788026],[146.134755,-37.784908],[146.137548,-37.782637],[146.137735,-37.777542],[146.14184,-37.774909],[146.14227,-37.771882],[146.148139,-37.769064],[146.150949,-37.769113],[146.156876,-37.765061],[146.158857,-37.761954],[146.158808,-37.756605],[146.160468,-37.753325],[146.160351,-37.750864],[146.163222,-37.747768],[146.162387,-37.740559],[146.1602,-37.739436],[146.16031,-37.736208],[146.158785,-37.732872],[146.159047,-37.730449],[146.156053,-37.726225],[146.153797,-37.724949],[146.151809,-37.719333],[146.153112,-37.718713],[146.150558,-37.715199],[146.147859,-37.714778],[146.145394,-37.710678],[146.142381,-37.709538],[146.138585,-37.710135],[146.13803,-37.708532],[146.138971,-37.705019],[146.13583,-37.702564],[146.136244,-37.697937],[146.142495,-37.69226],[146.140368,-37.682051],[146.137378,-37.679159],[146.133926,-37.679097],[146.132224,-37.675712],[146.133174,-37.674786],[146.132159,-37.668441],[146.133952,-37.664425],[146.132589,-37.65357],[146.131042,-37.65083],[146.130947,-37.643909],[146.134252,-37.642852],[146.139811,-37.639081],[146.141295,-37.637014],[146.141247,-37.634719],[146.139331,-37.632549],[146.14416,-37.627429],[146.148444,-37.6261],[146.150314,-37.623782],[146.156333,-37.62518],[146.160639,-37.621764],[146.164825,-37.622996],[146.165545,-37.61721],[146.163079,-37.613849],[146.161406,-37.610144],[146.162452,-37.60806],[146.158819,-37.600772],[146.161263,-37.5994],[146.161299,-37.596261],[146.163661,-37.596354],[146.168465,-37.599562],[146.171982,-37.599485],[146.171388,-37.596121],[146.170117,-37.594898],[146.173225,-37.591126],[146.17325,-37.588702],[146.176144,-37.584872],[146.179607,-37.582959],[146.18705,-37.580067],[146.188308,-37.581593],[146.187618,-37.584732],[146.18987,-37.587185],[146.191923,-37.58753]]]},"bbox":[145.236134,-37.975028,146.192502,-37.525205]}]}