{"type":"FeatureCollection","features":[
{"properties":{"electorateShortName":"casey","electorateName":"Casey","area":2623.84,"state":"VIC"},"type":"Feature","geometry":{"type":"Polygon","coordinates":[[[146.191923,-37.58753],[146.190703,-37.571798],[146.18445,-37.560747],[146.18638,-37.554582],[146.183402,-37.547052],[146.186346,-37.544748],[146.186005,-37.534824],[146.126401,-37.534366],[145.889692,-37.532258],[145.879665,-37.525205],[145.866249,-37.531896],[145.857569,-37.53215],[145.847205,-37.527997],[145.838919,-37.532744],[145.826867,-37.530625],[145.820049,-37.534378],[145.822041,-37.538693],[145.818958,-37.543877],[145.816082,-37.556685],[145.809038,-37.560051],[145.809821,-37.563606],[145.79546,-37.56391],[145.780899,-37.566494],[145.769809,-37.57026],[145.766084,-37.573626],[145.748461,-37.573306],[145.740551,-37.566665],[145.736567,-37.568164],[145.731192,-37.578878],[145.731213,-37.585865],[145.737342,-37.593992],[145.675853,-37.624195],[145.667337,-37.62215],[145.659109,-37.617531],[145.654684,-37.609081],[145.65381,-37.601759],[145.640675,-37.589238],[145.63262,-37.587564],[145.618012,-37.572296],[145.602516,-37.575948],[145.601902,-37.567359],[145.593609,-37.565894],[145.586142,-37.567326],[145.578024,-37.572054],[145.57353,-37.579211],[145.573209,-37.586314],[145.55864,-37.590779],[145.547142,-37.574324],[145.541276,-37.572521],[145.537515,-37.562639],[145.528872,-37.557935],[145.524785,-37.565792],[145.507977,-37.555906],[145.5087,-37.56365],[145.496811,-37.563591],[145.496821,-37.560205],[145.480491,-37.561281],[145.478235,-37.555764],[145.469915,-37.557672],[145.467753,-37.549822],[145.459345,-37.54376],[145.448083,-37.541591],[145.43839,-37.543218],[145.440531,-37.533434],[145.432688,-37.530814],[145.425998,-37.535001],[145.41852,-37.531499],[145.417552,-37.526238],[145.405039,-37.526551],[145.402399,-37.53634],[145.386468,-37.543395],[145.375822,-37.540541],[145.368431,-37.545339],[145.347863,-37.541262],[145.341339,-37.543472],[145.332594,-37.5396],[145.330839,-37.54943],[145.310101,-37.562992],[145.309753,-37.574396],[145.314515,-37.574969],[145.312806,-37.583968],[145.303642,-37.585308],[145.28566,-37.583968],[145.280382,-37.594855],[145.268016,-37.602639],[145.262798,-37.62001],[145.254247,-37.618685],[145.254889,-37.624944],[145.241449,-37.642907],[145.247144,-37.649905],[145.244358,-37.656471],[145.251001,-37.658746],[145.251424,-37.664959],[145.251239,-37.670074],[145.265251,-37.678446],[145.266932,-37.695643],[145.263065,-37.708035],[145.256359,-37.71197],[145.253913,-37.717085],[145.236761,-37.727127],[145.24232,-37.728321],[145.241959,-37.73608],[145.249335,-37.74803],[145.256857,-37.755073],[145.258633,-37.765116],[145.265384,-37.766921],[145.278203,-37.761845],[145.296433,-37.763453],[145.2959,-37.7664],[145.305959,-37.779798],[145.305688,-37.789231],[145.309132,-37.795421],[145.304288,-37.821538],[145.316808,-37.818159],[145.318723,-37.831721],[145.317759,-37.844956],[145.332829,-37.847435],[145.345773,-37.859197],[145.341126,-37.860998],[145.33662,-37.856186],[145.327001,-37.866088],[145.303827,-37.863449],[145.308496,-37.871066],[145.303548,-37.885459],[145.320568,-37.899203],[145.308916,-37.901921],[145.305011,-37.905713],[145.296978,-37.901218],[145.29272,-37.907225],[145.302495,-37.92262],[145.299877,-37.931462],[145.29336,-37.963976],[145.316999,-37.967844],[145.318933,-37.966372],[145.357963,-37.971294],[145.379211,-37.975028],[145.388033,-37.970981],[145.387748,-37.95798],[145.384422,-37.954406],[145.382168,-37.941172],[145.390455,-37.937595],[145.399259,-37.940117],[145.406844,-37.938099],[145.419769,-37.93787],[145.432033,-37.933846],[145.431419,-37.930373],[145.419683,-37.926378],[145.422918,-37.919187],[145.428501,-37.913492],[145.43871,-37.914577],[145.442652,-37.907018],[145.463323,-37.90796],[145.468159,-37.910972],[145.470787,-37.921742],[145.469198,-37.928453],[145.491619,-37.926126],[145.489986,-37.919163],[145.507707,-37.899837],[145.525513,-37.887403],[145.528481,-37.871813],[145.5319,-37.866915],[145.5534,-37.873679],[145.554047,-37.877425],[145.562242,-37.881873],[145.568665,-37.894325],[145.575233,-37.899342],[145.589937,-37.896277],[145.604326,-37.898018],[145.613332,-37.90249],[145.614753,-37.908094],[145.626749,-37.909611],[145.62511,-37.916976],[145.642089,-37.918364],[145.652606,-37.916435],[145.65057,-37.912693],[145.657956,-37.90799],[145.670701,-37.907142],[145.669073,-37.899542],[145.671682,-37.893451],[145.679666,-37.89355],[145.693888,-37.886008],[145.705945,-37.887188],[145.716096,-37.883755],[145.721541,-37.885239],[145.727127,-37.899516],[145.730391,-37.903432],[145.737896,-37.902006],[145.747876,-37.907446],[145.758913,-37.900636],[145.7635,-37.886679],[145.767825,-37.879737],[145.792875,-37.877703],[145.805232,-37.870498],[145.801731,-37.863528],[145.808763,-37.863263],[145.811644,-37.855634],[145.804138,-37.849525],[145.809534,-37.842773],[145.811209,-37.836134],[145.804009,-37.826154],[145.793828,-37.826352],[145.795436,-37.814795],[145.804158,-37.814014],[145.809612,-37.807549],[145.815071,-37.807237],[145.828034,-37.812267],[145.838423,-37.804337],[145.839158,-37.798623],[145.845103,-37.797714],[145.857424,-37.801097],[145.868967,-37.810899],[145.894867,-37.825818],[145.902944,-37.817205],[145.907272,-37.816942],[145.914703,-37.826069],[145.92638,-37.829646],[145.926753,-37.822639],[145.93131,-37.821359],[145.92298,-37.807005],[145.928833,-37.797838],[145.918059,-37.786006],[145.918165,-37.776138],[145.923703,-37.771607],[145.936771,-37.771579],[145.936404,-37.765191],[145.943614,-37.758232],[145.963577,-37.76596],[145.972747,-37.765164],[145.981411,-37.768656],[145.990279,-37.768788],[145.999515,-37.765447],[146.019143,-37.771784],[146.021449,-37.774841],[146.031246,-37.773445],[146.044161,-37.774023],[146.060742,-37.770198],[146.084572,-37.760861],[146.088764,-37.754043],[146.097799,-37.758143],[146.103869,-37.764173],[146.103272,-37.768229],[146.109509,-37.774808],[146.116719,-37.777493],[146.116654,-37.782226],[146.124095,-37.789404],[146.133761,-37.788026],[146.137735,-37.777542],[146.14227,-37.771882],[146.150949,-37.769113],[146.158857,-37.761954],[146.160351,-37.750864],[146.163222,-37.747768],[146.159047,-37.730449],[146.153797,-37.724949],[146.150558,-37.715199],[146.145394,-37.710678],[146.138585,-37.710135],[146.136244,-37.697937],[146.142495,-37.69226],[146.140368,-37.682051],[146.133926,-37.679097],[146.132159,-37.668441],[146.133952,-37.664425],[146.130947,-37.643909],[146.139811,-37.639081],[146.139331,-37.632549],[146.150314,-37.623782],[146.156333,-37.62518],[146.165545,-37.61721],[146.161406,-37.610144],[146.158819,-37.600772],[146.163661,-37.596354],[146.168465,-37.599562],[146.176144,-37.584872],[146.18705,-37.580067],[146.191923,-37.58753]]]},"bbox":[145.236761,-37.975028,146.191923,-37.525205]}]}