{"type":"FeatureCollection","features":[
{"properties":{"electorateShortName":"chifley","electorateName":"Chifley","area":112.67,"state":"NSW"},"type":"Feature","geometry":{"type":"Polygon","coordinates":[[[150.904637,-33.76798],[150.906339,-33.765656],[150.904421,-33.758187],[150.903064,-33.754245],[150.90109,-33.749809],[150.900291,-33.746815],[150.900233,-33.741659],[150.899638,-33.740091],[150.898058,-33.738421],[150.893079,-33.734589],[150.892528,-33.734551],[150.890267,-33.732608],[150.881822,-33.722403],[150.876031,-33.712149],[150.87426,-33.704884],[150.865302,-33.688327],[150.860664,-33.679887],[150.858939,-33.676151],[150.856101,-33.666995],[150.854362,-33.664966],[150.853272,-33.663229],[150.852476,-33.661024],[150.85219,-33.659209],[150.851937,-33.653278],[150.851042,-33.650138],[150.839538,-33.655778],[150.835156,-33.658009],[150.832456,-33.657088],[150.827172,-33.657267],[150.826664,-33.658003],[150.8239,-33.659682],[150.819992,-33.660545],[150.817758,-33.66197],[150.816643,-33.663377],[150.81533,-33.665748],[150.813439,-33.667572],[150.813087,-33.669464],[150.813903,-33.672146],[150.815846,-33.673962],[150.818466,-33.673933],[150.819109,-33.675789],[150.818156,-33.676736],[150.815329,-33.67753],[150.812394,-33.677614],[150.810212,-33.678533],[150.807524,-33.678094],[150.805853,-33.676502],[150.805005,-33.674842],[150.803216,-33.675515],[150.80165,-33.67517],[150.8013,-33.674247],[150.799339,-33.675604],[150.796805,-33.679157],[150.795086,-33.684965],[150.792486,-33.685726],[150.790364,-33.686672],[150.79151,-33.68787],[150.791191,-33.6888],[150.789749,-33.689908],[150.788001,-33.690694],[150.785831,-33.691214],[150.785809,-33.692455],[150.785057,-33.693379],[150.783336,-33.694423],[150.782008,-33.694543],[150.779977,-33.695917],[150.778876,-33.697056],[150.779654,-33.698158],[150.779912,-33.700245],[150.779569,-33.701251],[150.777648,-33.702958],[150.775818,-33.704047],[150.772859,-33.701415],[150.771181,-33.701799],[150.769551,-33.703066],[150.767974,-33.705427],[150.765994,-33.705777],[150.766682,-33.71026],[150.767579,-33.711735],[150.767748,-33.713497],[150.766987,-33.714261],[150.765505,-33.718091],[150.763923,-33.71882],[150.764119,-33.719513],[150.76272,-33.720624],[150.762459,-33.721631],[150.763955,-33.725692],[150.763145,-33.727578],[150.760265,-33.728667],[150.75963,-33.730076],[150.761684,-33.732376],[150.761788,-33.735201],[150.774411,-33.736179],[150.775341,-33.737483],[150.777723,-33.737834],[150.777901,-33.73935],[150.778701,-33.74005],[150.782527,-33.740038],[150.783785,-33.740777],[150.78494,-33.744317],[150.786566,-33.746232],[150.788571,-33.746318],[150.788828,-33.74803],[150.789541,-33.74939],[150.788978,-33.751299],[150.790849,-33.751731],[150.79287,-33.753332],[150.7925,-33.755201],[150.791719,-33.755375],[150.792773,-33.758528],[150.794022,-33.75948],[150.795689,-33.764249],[150.7967,-33.764329],[150.798338,-33.767147],[150.800125,-33.768693],[150.801582,-33.771794],[150.802833,-33.772919],[150.802625,-33.774474],[150.803381,-33.776811],[150.810445,-33.7782],[150.815853,-33.779642],[150.825731,-33.781895],[150.831222,-33.783301],[150.844461,-33.786377],[150.84908,-33.787682],[150.849918,-33.78769],[150.856452,-33.789224],[150.858066,-33.783557],[150.858125,-33.781642],[150.857746,-33.779708],[150.856436,-33.777081],[150.855163,-33.775596],[150.853176,-33.774046],[150.849173,-33.771738],[150.847853,-33.770536],[150.86047,-33.766273],[150.864826,-33.764886],[150.86852,-33.763956],[150.873273,-33.763394],[150.87744,-33.763484],[150.88169,-33.764057],[150.904637,-33.76798]]]},"bbox":[150.75963,-33.789224,150.906339,-33.650138]}]}