{"type":"FeatureCollection","features":[
{"properties":{"electorateShortName":"clark","electorateName":"Clark","area":292.264918,"state":"TAS"},"type":"Feature","geometry":{"type":"Polygon","coordinates":[[[147.316069,-42.973681],[147.317314,-42.977441],[147.321578,-42.979526],[147.32422,-42.974379],[147.328476,-42.977419],[147.338563,-42.974427],[147.338751,-42.969721],[147.341401,-42.966912],[147.340776,-42.961879],[147.344532,-42.954768],[147.35585,-42.951108],[147.355195,-42.947349],[147.357731,-42.943052],[147.356,-42.941223],[147.360866,-42.932783],[147.361953,-42.926069],[147.359828,-42.916047],[147.360963,-42.914127],[147.357374,-42.91369],[147.357432,-42.910078],[147.355722,-42.908636],[147.344773,-42.907936],[147.33722,-42.9039],[147.338421,-42.901613],[147.332239,-42.90022],[147.333872,-42.894352],[147.339013,-42.891165],[147.338118,-42.889192],[147.339448,-42.886795],[147.331528,-42.884938],[147.341468,-42.88224],[147.341196,-42.877063],[147.33915,-42.877294],[147.335236,-42.873862],[147.334547,-42.870582],[147.336789,-42.864589],[147.331053,-42.863709],[147.328561,-42.860055],[147.319663,-42.855131],[147.321904,-42.851323],[147.327334,-42.851485],[147.327849,-42.84461],[147.314872,-42.846832],[147.31507,-42.844567],[147.317858,-42.843384],[147.318169,-42.839777],[147.320693,-42.840192],[147.3236,-42.837943],[147.323192,-42.834012],[147.317326,-42.829185],[147.305266,-42.826403],[147.304928,-42.833567],[147.30189,-42.833834],[147.300866,-42.830117],[147.295007,-42.82923],[147.297467,-42.827397],[147.300871,-42.827619],[147.297753,-42.82384],[147.302201,-42.824963],[147.306722,-42.823546],[147.303901,-42.820475],[147.298018,-42.818736],[147.286407,-42.820134],[147.279306,-42.825996],[147.272325,-42.824434],[147.267989,-42.819205],[147.255959,-42.815145],[147.256684,-42.811689],[147.26156,-42.813049],[147.262345,-42.811369],[147.261219,-42.808677],[147.25806,-42.807309],[147.255221,-42.808892],[147.253629,-42.806203],[147.258218,-42.804845],[147.257206,-42.801509],[147.261704,-42.800429],[147.265856,-42.796527],[147.262881,-42.796559],[147.258977,-42.794041],[147.258954,-42.791834],[147.272244,-42.795783],[147.283207,-42.789994],[147.275905,-42.788611],[147.27421,-42.790395],[147.269359,-42.790785],[147.261365,-42.784841],[147.260379,-42.788751],[147.257847,-42.787008],[147.252818,-42.786751],[147.252945,-42.784333],[147.256845,-42.782797],[147.256151,-42.779329],[147.257971,-42.777546],[147.253576,-42.769487],[147.253504,-42.765787],[147.24885,-42.766305],[147.245992,-42.763623],[147.243646,-42.764331],[147.2425,-42.761343],[147.237291,-42.759464],[147.236205,-42.755378],[147.232714,-42.751939],[147.226904,-42.75042],[147.222971,-42.758555],[147.220415,-42.759903],[147.212892,-42.766963],[147.211632,-42.766635],[147.206708,-42.777105],[147.205861,-42.780369],[147.203754,-42.780044],[147.201103,-42.78666],[147.203583,-42.787025],[147.205884,-42.789142],[147.205259,-42.791646],[147.202286,-42.791276],[147.200564,-42.79795],[147.197835,-42.797599],[147.19689,-42.801374],[147.199299,-42.801686],[147.200995,-42.804145],[147.200835,-42.806465],[147.195803,-42.805735],[147.195127,-42.80881],[147.19243,-42.809062],[147.193922,-42.813491],[147.185749,-42.811807],[147.178795,-42.814609],[147.180176,-42.816134],[147.17664,-42.817864],[147.180042,-42.822379],[147.177181,-42.824266],[147.173858,-42.829746],[147.168336,-42.829916],[147.167843,-42.831718],[147.163036,-42.831005],[147.161877,-42.835438],[147.159362,-42.834568],[147.153641,-42.834332],[147.152313,-42.837689],[147.148338,-42.837198],[147.147274,-42.842099],[147.142437,-42.841558],[147.139967,-42.844726],[147.136232,-42.84421],[147.135393,-42.847832],[147.146491,-42.849228],[147.145094,-42.854765],[147.151047,-42.855773],[147.150353,-42.858481],[147.150668,-42.875041],[147.150368,-42.913351],[147.155644,-42.914131],[147.154141,-42.919237],[147.157296,-42.91969],[147.154789,-42.928897],[147.153163,-42.933227],[147.155552,-42.93357],[147.154783,-42.936394],[147.152392,-42.936054],[147.151538,-42.939133],[147.157079,-42.939867],[147.156115,-42.943811],[147.157648,-42.94402],[147.156037,-42.951208],[147.153232,-42.950873],[147.151813,-42.956013],[147.150221,-42.955809],[147.147586,-42.964977],[147.148946,-42.965206],[147.146155,-42.974447],[147.152285,-42.9771],[147.158882,-42.976264],[147.161088,-42.978576],[147.170752,-42.979051],[147.173271,-42.981631],[147.177377,-42.981472],[147.18111,-42.985523],[147.184996,-42.986264],[147.188085,-42.985903],[147.200266,-42.981645],[147.206681,-42.980378],[147.214393,-42.979999],[147.219041,-42.978468],[147.226879,-42.972963],[147.235022,-42.970244],[147.24049,-42.969384],[147.249082,-42.966519],[147.25591,-42.966822],[147.265396,-42.970682],[147.270326,-42.972062],[147.274267,-42.972343],[147.281954,-42.970898],[147.290667,-42.965969],[147.297007,-42.965192],[147.301212,-42.966258],[147.308197,-42.969464],[147.310058,-42.970899],[147.312832,-42.975026],[147.316069,-42.973681]]]},"bbox":[147.135393,-42.986264,147.361953,-42.75042]}]}