{"type":"FeatureCollection","features":[
{"properties":{"electorateShortName":"cook","electorateName":"Cook","area":67.17,"state":"NSW"},"type":"Feature","geometry":{"type":"Polygon","coordinates":[[[151.231926,-34.016739],[151.22823,-34.004195],[151.221147,-34.001613],[151.163887,-34.000746],[151.149176,-33.994409],[151.148339,-33.985829],[151.143823,-33.985272],[151.130336,-33.983031],[151.121979,-33.987708],[151.113701,-34.003189],[151.102125,-34.003579],[151.099878,-33.995687],[151.086334,-33.994485],[151.07327,-33.99586],[151.069705,-34.002634],[151.071497,-34.006751],[151.065352,-34.010686],[151.064107,-34.021815],[151.059208,-34.02891],[151.066962,-34.031548],[151.065255,-34.042275],[151.075595,-34.049722],[151.072235,-34.063154],[151.082284,-34.063551],[151.086989,-34.066603],[151.096354,-34.056368],[151.109651,-34.073495],[151.112757,-34.075693],[151.131975,-34.070467],[151.138089,-34.077436],[151.152001,-34.077811],[151.162586,-34.072444],[151.156756,-34.069717],[151.155472,-34.063918],[151.158404,-34.058437],[151.154915,-34.055118],[151.158281,-34.048053],[151.16529,-34.040893],[151.175625,-34.036214],[151.185918,-34.034563],[151.194148,-34.036629],[151.198776,-34.041682],[151.220659,-34.039339],[151.230295,-34.026401],[151.231926,-34.016739]]]},"bbox":[151.059208,-34.077811,151.231926,-33.983031]}]}