{"type":"FeatureCollection","features":[
{"properties":{"electorateShortName":"cook","electorateName":"Cook","area":67.17,"state":"NSW"},"type":"Feature","geometry":{"type":"Polygon","coordinates":[[[151.162586,-34.072444],[151.169078,-34.074987],[151.171761,-34.086503],[151.151846,-34.109708],[151.151792,-34.115075],[151.135818,-34.120275],[151.127882,-34.137919],[151.095677,-34.158109],[151.09707229276623,-34.16431573951414],[151.1356639176509,-34.16740332170961],[151.1495759176509,-34.167778321709605],[151.16384177935302,-34.16702868851698],[151.18631831662466,-34.16148424584168],[151.20412851185833,-34.153987728463925],[151.21992794309168,-34.14286213635563],[151.23187196783292,-34.12983763618443],[151.2415695181609,-34.12776893969093],[151.25211191369948,-34.123307117135695],[151.2561500271334,-34.12204563209814],[151.27225294155747,-34.11308223829726],[151.28619243741466,-34.10102666959952],[151.30196528820727,-34.08162013890392],[151.30683728820728,-34.07374313890392],[151.31433410205494,-34.058610149721815],[151.31887181010575,-34.04234304226234],[151.32190936260267,-34.01846944928137],[151.32072480042794,-34.000221726838454],[151.31715931319778,-33.9841899095423],[151.31275807743862,-33.972091684327125],[151.30470449465903,-33.95653899480223],[151.29446611176627,-33.94316006040645],[151.2819137129544,-33.93192361729071],[151.28164171295438,-33.9317226172907],[151.27329840662867,-33.92624526542164],[151.26050446128522,-33.91995448408816],[151.257621,-33.922461],[151.265683,-33.94154],[151.258558,-33.945658],[151.256967,-33.951596],[151.262961,-33.961215],[151.256485,-33.964933],[151.251886,-33.964671],[151.258952,-33.975768],[151.254113,-33.983334],[151.24988,-34.001238],[151.231926,-34.016739],[151.22823,-34.004195],[151.221147,-34.001613],[151.163887,-34.000746],[151.149176,-33.994409],[151.143823,-33.985272],[151.130336,-33.983031],[151.121979,-33.987708],[151.113701,-34.003189],[151.102125,-34.003579],[151.099878,-33.995687],[151.07327,-33.99586],[151.065352,-34.010686],[151.065255,-34.042275],[151.075595,-34.049722],[151.072235,-34.063154],[151.086989,-34.066603],[151.096354,-34.056368],[151.112757,-34.075693],[151.131975,-34.070467],[151.138089,-34.077436],[151.152001,-34.077811],[151.162586,-34.072444]]]},"bbox":[151.065255,-34.167778321709605,151.32190936260267,-33.91995448408816]}]}