{"type":"FeatureCollection","features":[
{"properties":{"electorateShortName":"corangamite","electorateName":"Corangamite","area":639.9,"state":"VIC"},"type":"Feature","geometry":{"type":"Polygon","coordinates":[[[144.262376,-38.141269],[144.210504,-38.302272],[144.204071,-38.380812],[144.229339,-38.398384],[144.1418536103957,-38.44584273450938],[144.2230411752381,-38.488163381838305],[144.2399277775799,-38.487758928192214],[144.2646247775799,-38.48483292819221],[144.29841035908007,-38.47375816766416],[144.44748321842957,-38.373827113707385],[144.5491822287554,-38.36553984482068],[144.60317422380493,-38.381614108803625],[144.62140294238927,-38.3819379501919],[144.63932290898043,-38.37858148600431],[144.7173674724296,-38.34274963313034],[144.77945635030787,-38.28947411098035],[144.79110130694113,-38.25702640745987],[144.792061885384,-38.23973572625119],[144.79705268802437,-38.220042211676365],[144.80948350790825,-38.1783889442407],[144.8086567280576,-38.13003560119955],[144.76956600081974,-38.0661283490529],[144.75426301963648,-38.05399608709156],[144.75096889715675,-38.052392951115074],[144.74375364373162,-38.04631965021211],[144.73099462254558,-38.03876279528224],[144.6382512871268,-38.01764753349704],[144.60171482906756,-38.022415246741176],[144.58494963420588,-38.030287429307],[144.57649950291957,-38.03664688997299],[144.55229623210974,-38.04952784934665],[144.52418129835542,-38.06941382013093],[144.397943,-38.073816],[144.355617,-38.137201],[144.40667,-38.154661],[144.380248,-38.193155],[144.320571,-38.195553],[144.262376,-38.141269]]]},"bbox":[144.1418536103957,-38.488163381838305,144.80948350790825,-38.01764753349704]}]}