{"type":"FeatureCollection","features":[
{"properties":{"electorateShortName":"corio","electorateName":"Corio","area":1216.35,"state":"VIC"},"type":"Feature","geometry":{"type":"Polygon","coordinates":[[[144.40667,-38.154661],[144.557972,-38.154858],[144.63032181611604,-38.091602291028174],[144.7057829531789,-38.07352980992407],[144.74203295317892,-38.04622880992407],[144.755905468889,-38.03327561179119],[144.76675308201476,-38.01770123143529],[144.761028,-37.937347],[144.74049,-37.941279],[144.687889,-37.974337],[144.571459,-37.8804],[144.454269,-37.867244],[144.420317,-37.820586],[144.222446,-37.810201],[144.244126,-37.871819],[144.151584,-37.913072],[144.15996,-37.985069],[144.097165,-38.009768],[144.095631,-38.064297],[144.196952,-38.146593],[144.262376,-38.141269],[144.320571,-38.195553],[144.380248,-38.193155],[144.40667,-38.154661]]]},"bbox":[144.095631,-38.195553,144.76675308201476,-37.810201]}]}