{"type":"FeatureCollection","features":[
{"properties":{"electorateShortName":"corio","electorateName":"Corio","area":1216.35,"state":"VIC"},"type":"Feature","geometry":{"type":"MultiPolygon","coordinates":[[[[144.40667,-38.154661],[144.416901,-38.155141],[144.420991,-38.132493],[144.442823,-38.149522],[144.467679,-38.162727],[144.480662,-38.16449],[144.497936,-38.161013],[144.527042,-38.160288],[144.557972,-38.154858],[144.5861498054949,-38.13537097651594],[144.5937019462456,-38.12032191003415],[144.6077663292308,-38.112965552093144],[144.63032181611604,-38.091602291028174],[144.67145090144462,-38.08943030354165],[144.68946192337452,-38.08330455660309],[144.7057829531789,-38.07352980992407],[144.74203295317892,-38.04622880992407],[144.755905468889,-38.03327561179119],[144.76675308201476,-38.01770123143529],[144.77410836567464,-38.00014830968524],[144.77783750571714,-37.97774598098061],[144.77668294062636,-37.95944801879951],[144.7718629262651,-37.9418122528598],[144.761028,-37.937347],[144.74049,-37.941279],[144.723354,-37.951443],[144.701897,-37.971466],[144.687889,-37.974337],[144.670527,-37.972087],[144.664197,-37.950407],[144.663091,-37.93543],[144.667696,-37.925606],[144.657505,-37.919951],[144.628103,-37.929967],[144.616894,-37.936281],[144.620742,-37.915839],[144.609414,-37.919003],[144.588514,-37.89696],[144.59073,-37.882222],[144.571459,-37.8804],[144.454269,-37.867244],[144.421646,-37.846218],[144.420317,-37.820586],[144.407834,-37.809191],[144.399119,-37.815232],[144.361988,-37.81083],[144.354938,-37.843099],[144.330448,-37.846289],[144.30521,-37.83657],[144.296968,-37.828409],[144.296016,-37.819565],[144.222446,-37.810201],[144.210676,-37.824994],[144.228973,-37.832837],[144.23381,-37.848391],[144.232553,-37.860951],[144.244126,-37.871819],[144.223793,-37.897328],[144.213431,-37.901447],[144.201979,-37.925398],[144.191424,-37.924566],[144.1825,-37.913493],[144.171919,-37.915968],[144.151584,-37.913072],[144.149692,-37.930405],[144.160043,-37.943025],[144.156975,-37.961358],[144.15996,-37.985069],[144.144124,-37.9894],[144.134143,-38.002604],[144.113334,-38.000157],[144.110988,-38.012749],[144.097165,-38.009768],[144.092621,-38.033612],[144.100989,-38.035959],[144.095631,-38.064297],[144.095248,-38.082179],[144.105711,-38.089296],[144.106566,-38.102921],[144.098785,-38.115291],[144.104107,-38.123992],[144.117155,-38.121798],[144.129186,-38.111034],[144.133517,-38.120341],[144.144172,-38.113488],[144.163042,-38.125347],[144.173089,-38.135003],[144.188068,-38.13536],[144.196952,-38.146593],[144.219371,-38.137749],[144.240958,-38.141492],[144.262376,-38.141269],[144.268519,-38.14611],[144.285397,-38.145908],[144.293676,-38.156445],[144.290649,-38.171742],[144.306418,-38.18628],[144.313683,-38.199796],[144.320571,-38.195553],[144.350036,-38.189342],[144.358381,-38.184479],[144.36854,-38.192944],[144.380248,-38.193155],[144.386291,-38.205982],[144.395024,-38.214568],[144.40667,-38.154661]]],[[[144.45232380610435,-38.283586839608354],[144.428963,-38.281525],[144.398054,-38.297054],[144.3980905042416,-38.304767325467054],[144.43079337008305,-38.29734432885171],[144.45232380610435,-38.283586839608354]]]]},"bbox":[144.092621,-38.304767325467054,144.77783750571714,-37.809191]}]}