{"type":"FeatureCollection","features":[
{"properties":{"electorateShortName":"cowan","electorateName":"Cowan","area":107.64,"state":"WA"},"type":"Feature","geometry":{"type":"Polygon","coordinates":[[[115.927113,-31.795677],[115.861806,-31.795592],[115.850006,-31.790061],[115.833028,-31.788557],[115.824203,-31.785868],[115.808556,-31.783339],[115.819625,-31.805375],[115.820852,-31.820103],[115.809747,-31.819833],[115.799103,-31.821964],[115.783178,-31.817323],[115.784171,-31.82341],[115.795193,-31.841429],[115.800987,-31.858072],[115.800666,-31.882382],[115.803966,-31.882542],[115.816163,-31.889768],[115.826719,-31.888898],[115.850514,-31.888917],[115.880913,-31.890268],[115.888988,-31.887452],[115.879575,-31.879538],[115.87829,-31.867862],[115.885725,-31.868544],[115.912814,-31.86539],[115.917501,-31.866518],[115.917312,-31.828332],[115.914195,-31.810063],[115.915256,-31.804942],[115.927113,-31.795677]]]},"bbox":[115.783178,-31.890268,115.927113,-31.783339]}]}