{"type":"FeatureCollection","features":[
{"properties":{"electorateShortName":"cowan","electorateName":"Cowan","area":107.64,"state":"WA"},"type":"Feature","geometry":{"type":"MultiPolygon","coordinates":[[[[115.927113,-31.795677],[115.808556,-31.783339],[115.784171,-31.82341],[115.800666,-31.882382],[115.888988,-31.887452],[115.917501,-31.866518],[115.927113,-31.795677]]],[[[115.725301,-31.75029],[115.69889282206643,-31.785763393210562],[115.69434355006823,-31.80288553120113],[115.69323648671829,-31.82056710058343],[115.71049060149045,-31.875649277096013],[115.7104784656519,-31.880792456622952],[115.71072429524264,-31.88647396388405],[115.71090734239858,-31.888968606530746],[115.71425917101614,-31.90755857452775],[115.72141739822672,-31.92503946261768],[115.73206668939414,-31.94064120171441],[115.75445239641168,-31.95903520765821],[115.755236,-31.902835],[115.751811,-31.873396],[115.751671,-31.848348],[115.73771,-31.827174],[115.736891,-31.820312],[115.732277,-31.794305],[115.725301,-31.75029]]]]},"bbox":[115.69323648671829,-31.95903520765821,115.927113,-31.75029]}]}