{"type":"FeatureCollection","features":[
{"properties":{"electorateShortName":"cowper","electorateName":"Cowper","area":7271.18,"state":"NSW"},"type":"Feature","geometry":{"type":"Polygon","coordinates":[[[152.915196,-31.492814],[152.938449,-31.472927],[152.923912,-31.430142],[152.914747,-31.42373],[152.917846,-31.398803],[152.926162,-31.380203],[152.944161,-31.351373],[152.971419,-31.320303],[152.964537,-31.30634],[152.970611,-31.261072],[152.962094,-31.249701],[152.961352,-31.228513],[152.974418,-31.197795],[152.982477,-31.192452],[152.975547,-31.179434],[152.989217,-31.146896],[153.006635,-31.123408],[153.04925,-31.079172],[153.05995,-31.059596],[153.042042,-31.043417],[153.037643,-31.027349],[153.039757,-30.999138],[153.047178,-30.977959],[153.05734,-30.958407],[153.079782,-30.930921],[153.089288,-30.923973],[153.081609,-30.905726],[153.084223,-30.897525],[153.076483,-30.889125],[153.037184,-30.882482],[153.022509,-30.872758],[153.011463,-30.856409],[153.00502,-30.838266],[153.000911,-30.801073],[152.997264,-30.786115],[153.001682,-30.748759],[152.99059,-30.740378],[152.988718,-30.717562],[152.997705,-30.678396],[153.012058,-30.651544],[153.019183,-30.649375],[153.010114,-30.615465],[153.014517,-30.595788],[153.012376,-30.581591],[153.017103,-30.564111],[153.02959,-30.546964],[153.025013,-30.533623],[153.036029,-30.485721],[153.04919,-30.462434],[153.076319,-30.43189],[153.072085,-30.425023],[153.081203,-30.399806],[153.100156,-30.376029],[153.109789,-30.35632],[153.113451,-30.340617],[153.13202,-30.319282],[153.148992,-30.313694],[153.154572,-30.305148],[153.139025,-30.296585],[153.143465,-30.275998],[153.138428,-30.262793],[153.127555,-30.268214],[153.096454,-30.261703],[153.085653,-30.263382],[153.084884,-30.27267],[153.069036,-30.279087],[153.063319,-30.287125],[153.047405,-30.280003],[153.046471,-30.271946],[153.020376,-30.267484],[153.010696,-30.248775],[152.99494,-30.24676],[152.99908,-30.221404],[152.98726,-30.222288],[152.982412,-30.213909],[152.966118,-30.222588],[152.952152,-30.215507],[152.937008,-30.218641],[152.927924,-30.227114],[152.911059,-30.228489],[152.873489,-30.220503],[152.868435,-30.210215],[152.82954,-30.222078],[152.80927,-30.200639],[152.803453,-30.189567],[152.767521,-30.184706],[152.755184,-30.180789],[152.750763,-30.196616],[152.692987,-30.189015],[152.698602,-30.200212],[152.694852,-30.209951],[152.697823,-30.223335],[152.670631,-30.239541],[152.655376,-30.255316],[152.635409,-30.25166],[152.625973,-30.258376],[152.603012,-30.252486],[152.586725,-30.24099],[152.559647,-30.243719],[152.551689,-30.259172],[152.55721,-30.262152],[152.547091,-30.28865],[152.529328,-30.301111],[152.527107,-30.309438],[152.506245,-30.320598],[152.490477,-30.337341],[152.480573,-30.333043],[152.474912,-30.356637],[152.478585,-30.396994],[152.44109,-30.398902],[152.430484,-30.406173],[152.428078,-30.418897],[152.41753,-30.436503],[152.401805,-30.435009],[152.39205,-30.442917],[152.389645,-30.453052],[152.395074,-30.468166],[152.394568,-30.479499],[152.408423,-30.489261],[152.400253,-30.500942],[152.385807,-30.505194],[152.382551,-30.519325],[152.386854,-30.528965],[152.376388,-30.540287],[152.363655,-30.546112],[152.361994,-30.555286],[152.335809,-30.567038],[152.329911,-30.584223],[152.317728,-30.593425],[152.316055,-30.602971],[152.321906,-30.615829],[152.333149,-30.620307],[152.331578,-30.628318],[152.369291,-30.658905],[152.364359,-30.663496],[152.358405,-30.684213],[152.369327,-30.698688],[152.365915,-30.702985],[152.37586,-30.731802],[152.375309,-30.745347],[152.351956,-30.769156],[152.343857,-30.791901],[152.333339,-30.789489],[152.315673,-30.793799],[152.298103,-30.823219],[152.291453,-30.823737],[152.28454,-30.841506],[152.28951,-30.844152],[152.299116,-30.868431],[152.290613,-30.882266],[152.289493,-30.900382],[152.294739,-30.910623],[152.291013,-30.924718],[152.296107,-30.930719],[152.284306,-30.949125],[152.290658,-30.961333],[152.29117,-30.975444],[152.269825,-30.999147],[152.275066,-31.008692],[152.285222,-31.010356],[152.307849,-31.025194],[152.340341,-31.036442],[152.34517,-31.050618],[152.331474,-31.05557],[152.340634,-31.06821],[152.334987,-31.096198],[152.338112,-31.106029],[152.349587,-31.117004],[152.368173,-31.136362],[152.36943,-31.156354],[152.385897,-31.166653],[152.412845,-31.165378],[152.431331,-31.158611],[152.449824,-31.159897],[152.455832,-31.155831],[152.470766,-31.166289],[152.49118,-31.168036],[152.505574,-31.163125],[152.513884,-31.167638],[152.539697,-31.162886],[152.541162,-31.152034],[152.555966,-31.148409],[152.561495,-31.129865],[152.574175,-31.131573],[152.597606,-31.123699],[152.614845,-31.136131],[152.631646,-31.138326],[152.64048,-31.14974],[152.657781,-31.149226],[152.671742,-31.153149],[152.681127,-31.140929],[152.693307,-31.141455],[152.706943,-31.151512],[152.709376,-31.163456],[152.705956,-31.180721],[152.740383,-31.187278],[152.751654,-31.194713],[152.746399,-31.21646],[152.726882,-31.213217],[152.724094,-31.206176],[152.705219,-31.207461],[152.679693,-31.227203],[152.674271,-31.253765],[152.69005,-31.262699],[152.711973,-31.301117],[152.735387,-31.319015],[152.732222,-31.325718],[152.736674,-31.340141],[152.744183,-31.345726],[152.759192,-31.34064],[152.785939,-31.343094],[152.793948,-31.355012],[152.804653,-31.382577],[152.824844,-31.413747],[152.823998,-31.446452],[152.81498,-31.476781],[152.839538,-31.475982],[152.843392,-31.479562],[152.874346,-31.488122],[152.915196,-31.492814]]]},"bbox":[152.269825,-31.492814,153.154572,-30.180789]}]}