{"type":"FeatureCollection","features":[
{"properties":{"electorateShortName":"cunningham","electorateName":"Cunningham","area":535.54,"state":"NSW"},"type":"Feature","geometry":{"type":"MultiPolygon","coordinates":[[[[151.066158,-34.172329],[151.060313,-34.171458],[151.060403,-34.170943],[151.060833,-34.168514],[151.055163,-34.16772],[151.054478,-34.171526],[151.048254,-34.170751],[151.048204,-34.170744],[151.045294,-34.170382],[151.034783,-34.169071],[151.01602,-34.166455],[151.015923,-34.16644],[151.015885,-34.166319],[151.015797,-34.166152],[151.015709,-34.166007],[151.015568,-34.165781],[151.015469,-34.165572],[151.015356,-34.165324],[151.015229,-34.16501],[151.015153,-34.16488],[151.015002,-34.164703],[151.014838,-34.164518],[151.014702,-34.164353],[151.014584,-34.164187],[151.01443,-34.163981],[151.014258,-34.163771],[151.014159,-34.163566],[151.014081,-34.163253],[151.014113,-34.163031],[151.014222,-34.16281],[151.014333,-34.162649],[151.014467,-34.162525],[151.014629,-34.162363],[151.014776,-34.162218],[151.014937,-34.162104],[151.015072,-34.161949],[151.015225,-34.161792],[151.01536,-34.161591],[151.01553,-34.161368],[151.015628,-34.161215],[151.015724,-34.161012],[151.015799,-34.160797],[151.015804,-34.160584],[151.015803,-34.160399],[151.015764,-34.160102],[151.015722,-34.159906],[151.01574,-34.159666],[151.015796,-34.15949],[151.01592,-34.159281],[151.01613,-34.159034],[151.016301,-34.158877],[151.016454,-34.158709],[151.016651,-34.158522],[151.0169,-34.158316],[151.01712,-34.15815],[151.017359,-34.157946],[151.017534,-34.157771],[151.017697,-34.157574],[151.017861,-34.15733],[151.018067,-34.156991],[151.018224,-34.156692],[151.018368,-34.15652],[151.018505,-34.156393],[151.018633,-34.156248],[151.018697,-34.156125],[151.018782,-34.156035],[151.01889,-34.15595],[151.019054,-34.155862],[151.019201,-34.155831],[151.019395,-34.155857],[151.019628,-34.155962],[151.019897,-34.156184],[151.020134,-34.156355],[151.020198,-34.156488],[151.020347,-34.156774],[151.020688,-34.156775],[151.021058,-34.156591],[151.021396,-34.156368],[151.021636,-34.156126],[151.021847,-34.155942],[151.021994,-34.15582],[151.022131,-34.155713],[151.021984,-34.155689],[151.013652,-34.154531],[151.007178,-34.152057],[151.00527,-34.151327],[151.001158,-34.149813],[150.995633,-34.147714],[150.994972,-34.147523],[150.993024,-34.146755],[150.991107,-34.146034],[150.99087,-34.145887],[150.990562,-34.145697],[150.990304,-34.14553],[150.990057,-34.145326],[150.988128,-34.144053],[150.987633,-34.143744],[150.987572,-34.143681],[150.986816,-34.143198],[150.984397,-34.141526],[150.983748,-34.141066],[150.98195,-34.139808],[150.979872,-34.13841],[150.968635,-34.136813],[150.955032,-34.134781],[150.953749,-34.134638],[150.953647,-34.134662],[150.953207,-34.134549],[150.950524,-34.134333],[150.945934,-34.133541],[150.941855,-34.132914],[150.941122,-34.132814],[150.928539,-34.130901],[150.92813,-34.13075],[150.923326,-34.13024],[150.922732,-34.130009],[150.923108,-34.131254],[150.922458,-34.133936],[150.921441,-34.134218],[150.92065,-34.134867],[150.91969,-34.135912],[150.91873,-34.136984],[150.917943,-34.137899],[150.918023,-34.139384],[150.91839,-34.140315],[150.919211,-34.14098],[150.91947,-34.141238],[150.919729,-34.14177],[150.919516,-34.142439],[150.918999,-34.143047],[150.918634,-34.14367],[150.91871,-34.144278],[150.918771,-34.145023],[150.918738,-34.145449],[150.918877,-34.146072],[150.91871,-34.146877],[150.918208,-34.147303],[150.917754,-34.147329],[150.917262,-34.14758],[150.917097,-34.148078],[150.916808,-34.148671],[150.916565,-34.149036],[150.916398,-34.149249],[150.916075,-34.149505],[150.916075,-34.149534],[150.91588,-34.149731],[150.91588,-34.14976],[150.915737,-34.149972],[150.915631,-34.150071],[150.915492,-34.15014],[150.915371,-34.150152],[150.915354,-34.150138],[150.915302,-34.150141],[150.915179,-34.150249],[150.915108,-34.150334],[150.915055,-34.150405],[150.915054,-34.150462],[150.915035,-34.150533],[150.915051,-34.150577],[150.915083,-34.150649],[150.915202,-34.150737],[150.915304,-34.150767],[150.915339,-34.150768],[150.915476,-34.15077],[150.915596,-34.150787],[150.91597,-34.150993],[150.916258,-34.151156],[150.916492,-34.151418],[150.916575,-34.151577],[150.916671,-34.151837],[150.916669,-34.151921],[150.916713,-34.152239],[150.916686,-34.152624],[150.916663,-34.152868],[150.916606,-34.153081],[150.91657,-34.153138],[150.916568,-34.153225],[150.916531,-34.153338],[150.916477,-34.153437],[150.916349,-34.153737],[150.916295,-34.153836],[150.916094,-34.154305],[150.916055,-34.15449],[150.915779,-34.155245],[150.915646,-34.155744],[150.915571,-34.155972],[150.91557,-34.156044],[150.915197,-34.15651],[150.915016,-34.15688],[150.914864,-34.157436],[150.914792,-34.157578],[150.914543,-34.157889],[150.9144,-34.15813],[150.914361,-34.15833],[150.914322,-34.158516],[150.914298,-34.158773],[150.914278,-34.158902],[150.914205,-34.159044],[150.914114,-34.159257],[150.91399,-34.159399],[150.913638,-34.159694],[150.913166,-34.160015],[150.912938,-34.160183],[150.912588,-34.160449],[150.912446,-34.160591],[150.912359,-34.160662],[150.91227,-34.160775],[150.912058,-34.160972],[150.911831,-34.16114],[150.911569,-34.161278],[150.911015,-34.161398],[150.910929,-34.161424],[150.910492,-34.161676],[150.910018,-34.162127],[150.909613,-34.162492],[150.909451,-34.162719],[150.909294,-34.162816],[150.909206,-34.16293],[150.909066,-34.162999],[150.908591,-34.163392],[150.908418,-34.163475],[150.908313,-34.163573],[150.907927,-34.163825],[150.90777,-34.163951],[150.907733,-34.164037],[150.907313,-34.16433],[150.907085,-34.164498],[150.906927,-34.164653],[150.906873,-34.164738],[150.906838,-34.164781],[150.906801,-34.164852],[150.9068,-34.164895],[150.906764,-34.16498],[150.906758,-34.165238],[150.90682,-34.165497],[150.906815,-34.165669],[150.906779,-34.165754],[150.906406,-34.166235],[150.906386,-34.166335],[150.906256,-34.166705],[150.906214,-34.16702],[150.906192,-34.167234],[150.906171,-34.167363],[150.906185,-34.167492],[150.906191,-34.167965],[150.906216,-34.168309],[150.906215,-34.168367],[150.906288,-34.168883],[150.906294,-34.169342],[150.906325,-34.169486],[150.906439,-34.169746],[150.906469,-34.169918],[150.906485,-34.16999],[150.906501,-34.170033],[150.906478,-34.170248],[150.906477,-34.170305],[150.906421,-34.170462],[150.90642,-34.170519],[150.906364,-34.170705],[150.906237,-34.170946],[150.906023,-34.171243],[150.905969,-34.171343],[150.905916,-34.171399],[150.905844,-34.171555],[150.905659,-34.17188],[150.905376,-34.172378],[150.905303,-34.172549],[150.905301,-34.172592],[150.905283,-34.172635],[150.905293,-34.172936],[150.905291,-34.173022],[150.905321,-34.173163],[150.905368,-34.173381],[150.905427,-34.173755],[150.905421,-34.174013],[150.905321,-34.17457],[150.905264,-34.174784],[150.905229,-34.17484],[150.905135,-34.17514],[150.905025,-34.175425],[150.904934,-34.175595],[150.904823,-34.175951],[150.904849,-34.176281],[150.904911,-34.176526],[150.904961,-34.176598],[150.90496,-34.176641],[150.905109,-34.176887],[150.905074,-34.176915],[150.905073,-34.176944],[150.904932,-34.177071],[150.904913,-34.177142],[150.904874,-34.177342],[150.90482,-34.177441],[150.904801,-34.177513],[150.904676,-34.177697],[150.904499,-34.17788],[150.904481,-34.177923],[150.904444,-34.178037],[150.904424,-34.178137],[150.904382,-34.178451],[150.904363,-34.178522],[150.904345,-34.179224],[150.904215,-34.179623],[150.904014,-34.180078],[150.904013,-34.180136],[150.904011,-34.180207],[150.904033,-34.180695],[150.904029,-34.180867],[150.904029,-34.180881],[150.904079,-34.180939],[150.904078,-34.180982],[150.904111,-34.181054],[150.904595,-34.182352],[150.904642,-34.182539],[150.90464,-34.182611],[150.904651,-34.18284],[150.904574,-34.183211],[150.904519,-34.183325],[150.904518,-34.183354],[150.904309,-34.184138],[150.904274,-34.184195],[150.904235,-34.184352],[150.904088,-34.18475],[150.903908,-34.185063],[150.903467,-34.185471],[150.903292,-34.185597],[150.903118,-34.185694],[150.902909,-34.185762],[150.902702,-34.185802],[150.902581,-34.1858],[150.901977,-34.185875],[150.901907,-34.185903],[150.901439,-34.186038],[150.901335,-34.186094],[150.901179,-34.186148],[150.901074,-34.186204],[150.900623,-34.18634],[150.900451,-34.186365],[150.900398,-34.186393],[150.900085,-34.186502],[150.899894,-34.186599],[150.899265,-34.186961],[150.899036,-34.187172],[150.898911,-34.187371],[150.898936,-34.187785],[150.898943,-34.187901],[150.898982,-34.187959],[150.89904,-34.188182],[150.899061,-34.188261],[150.899383,-34.189141],[150.899397,-34.18927],[150.899361,-34.18944],[150.899365,-34.189461],[150.899372,-34.189472],[150.899372,-34.189541],[150.899365,-34.189564],[150.899355,-34.189613],[150.885318,-34.187551],[150.884973,-34.189121],[150.884648,-34.189117],[150.8846,-34.1891],[150.884539,-34.189082],[150.884491,-34.189058],[150.884436,-34.189035],[150.884374,-34.189017],[150.884326,-34.189011],[150.884312,-34.189005],[150.884285,-34.189005],[150.88425,-34.188999],[150.884216,-34.188981],[150.884161,-34.188958],[150.884107,-34.188928],[150.884052,-34.188905],[150.884004,-34.188876],[150.883888,-34.188812],[150.883847,-34.188777],[150.883779,-34.188708],[150.883752,-34.188673],[150.883732,-34.188627],[150.883705,-34.188581],[150.883679,-34.188529],[150.883659,-34.188477],[150.883605,-34.188362],[150.883579,-34.18831],[150.883559,-34.188264],[150.883538,-34.18823],[150.883518,-34.188201],[150.883478,-34.188155],[150.88343,-34.188114],[150.883403,-34.188085],[150.883362,-34.188056],[150.883328,-34.188016],[150.88328,-34.187987],[150.883178,-34.18794],[150.88315,-34.187922],[150.883102,-34.187905],[150.88304,-34.187887],[150.882972,-34.187863],[150.882896,-34.187845],[150.882848,-34.187828],[150.882814,-34.187821],[150.882793,-34.187821],[150.882759,-34.187815],[150.882676,-34.187814],[150.882477,-34.187789],[150.882394,-34.187777],[150.882222,-34.187764],[150.882112,-34.187751],[150.881927,-34.187704],[150.881837,-34.187674],[150.881748,-34.18765],[150.881659,-34.187621],[150.881563,-34.187585],[150.881474,-34.18755],[150.881385,-34.187521],[150.881303,-34.187491],[150.88122,-34.187467],[150.881124,-34.187443],[150.881021,-34.187408],[150.880925,-34.187378],[150.880747,-34.187308],[150.880651,-34.187267],[150.880446,-34.187196],[150.880336,-34.187161],[150.87987,-34.186995],[150.87976,-34.186954],[150.87965,-34.186924],[150.879554,-34.186901],[150.879458,-34.186888],[150.879361,-34.186887],[150.879113,-34.186896],[150.878858,-34.186882],[150.878769,-34.186875],[150.878672,-34.186874],[150.878562,-34.186885],[150.878334,-34.186882],[150.87781,-34.1869],[150.877693,-34.18691],[150.877568,-34.186932],[150.87743,-34.186953],[150.877313,-34.186986],[150.877167,-34.187025],[150.877022,-34.187058],[150.876918,-34.18708],[150.876856,-34.187091],[150.876815,-34.187102],[150.876752,-34.187112],[150.876469,-34.18715],[150.876352,-34.18716],[150.876207,-34.187176],[150.876076,-34.187186],[150.875924,-34.187218],[150.875751,-34.187251],[150.875564,-34.187289],[150.875398,-34.187316],[150.87526,-34.187349],[150.875142,-34.187365],[150.87499,-34.187392],[150.874921,-34.187409],[150.874831,-34.187425],[150.874762,-34.18743],[150.874728,-34.187429],[150.874693,-34.187435],[150.874645,-34.187434],[150.874417,-34.187443],[150.874383,-34.187443],[150.874293,-34.187454],[150.874197,-34.187453],[150.87419,-34.187441],[150.874121,-34.187423],[150.87406,-34.187388],[150.873971,-34.187353],[150.873916,-34.187324],[150.873896,-34.187318],[150.873869,-34.187283],[150.873794,-34.187231],[150.873787,-34.187202],[150.873767,-34.187162],[150.873761,-34.18711],[150.873769,-34.187036],[150.873763,-34.18695],[150.873766,-34.186767],[150.87376,-34.186721],[150.873761,-34.186658],[150.873769,-34.186561],[150.873821,-34.186332],[150.873851,-34.186161],[150.873895,-34.186001],[150.87391,-34.185926],[150.873918,-34.185869],[150.873912,-34.185835],[150.873912,-34.185806],[150.873906,-34.185778],[150.873899,-34.185755],[150.8739,-34.185714],[150.873894,-34.185651],[150.873895,-34.185571],[150.873889,-34.185497],[150.873876,-34.185439],[150.873849,-34.185399],[150.873829,-34.185376],[150.873802,-34.185353],[150.873761,-34.185324],[150.87372,-34.185289],[150.873618,-34.185225],[150.87357,-34.18519],[150.873495,-34.185149],[150.873406,-34.185108],[150.873303,-34.185067],[150.873201,-34.18502],[150.873043,-34.184938],[150.872948,-34.18488],[150.872907,-34.184857],[150.872859,-34.184833],[150.872811,-34.184804],[150.872763,-34.184769],[150.872675,-34.184694],[150.872634,-34.184654],[150.872587,-34.184613],[150.872559,-34.184584],[150.872526,-34.184544],[150.872417,-34.184434],[150.872363,-34.184341],[150.872336,-34.184307],[150.872316,-34.184261],[150.872283,-34.184215],[150.872256,-34.184174],[150.872229,-34.184128],[150.872206,-34.183842],[150.872153,-34.183698],[150.872119,-34.183635],[150.872079,-34.183577],[150.872031,-34.18352],[150.871984,-34.183456],[150.871944,-34.183387],[150.87189,-34.183312],[150.871829,-34.183243],[150.871768,-34.183179],[150.87172,-34.183121],[150.871687,-34.183058],[150.871613,-34.182943],[150.871586,-34.182891],[150.871519,-34.182798],[150.871431,-34.1827],[150.871267,-34.182573],[150.871172,-34.182509],[150.870981,-34.182369],[150.870899,-34.1823],[150.870817,-34.182241],[150.870674,-34.182131],[150.870613,-34.182096],[150.87049,-34.182032],[150.870381,-34.181962],[150.870299,-34.181904],[150.870251,-34.181875],[150.870115,-34.181782],[150.870067,-34.181753],[150.870026,-34.181735],[150.869991,-34.181723],[150.869964,-34.181706],[150.869916,-34.181688],[150.869861,-34.18167],[150.869799,-34.181664],[150.869731,-34.181663],[150.869655,-34.181674],[150.869571,-34.181696],[150.869488,-34.18173],[150.869419,-34.181752],[150.86935,-34.181785],[150.869308,-34.181808],[150.869238,-34.181836],[150.868989,-34.181913],[150.868803,-34.18194],[150.868706,-34.181951],[150.868637,-34.181961],[150.868464,-34.181982],[150.868374,-34.181999],[150.868285,-34.182009],[150.868209,-34.182014],[150.86814,-34.182025],[150.868036,-34.182047],[150.867904,-34.18208],[150.867759,-34.182107],[150.867531,-34.182139],[150.867379,-34.182172],[150.867221,-34.182176],[150.867055,-34.182174],[150.866918,-34.182161],[150.86667,-34.182136],[150.866525,-34.182129],[150.866201,-34.182125],[150.866077,-34.182118],[150.86596,-34.182117],[150.865829,-34.182121],[150.86565,-34.182108],[150.865382,-34.1821],[150.865168,-34.182109],[150.865078,-34.182102],[150.86501,-34.18209],[150.864941,-34.182084],[150.864755,-34.182064],[150.864672,-34.182064],[150.864603,-34.182074],[150.864506,-34.182102],[150.864368,-34.182146],[150.864222,-34.182179],[150.86414,-34.18219],[150.864084,-34.182212],[150.864049,-34.182229],[150.863994,-34.182251],[150.863918,-34.182285],[150.863841,-34.182313],[150.863717,-34.182352],[150.86362,-34.182385],[150.863592,-34.182385],[150.863557,-34.182419],[150.863383,-34.182514],[150.863335,-34.182531],[150.863251,-34.182599],[150.863174,-34.182649],[150.863146,-34.182672],[150.863112,-34.182689],[150.863091,-34.182689],[150.863077,-34.182694],[150.863056,-34.182711],[150.863008,-34.182716],[150.862946,-34.182727],[150.86287,-34.182726],[150.862794,-34.182731],[150.862718,-34.182731],[150.86267,-34.182724],[150.86265,-34.182718],[150.862602,-34.182701],[150.862492,-34.182648],[150.862355,-34.182589],[150.862328,-34.182572],[150.862314,-34.182566],[150.862294,-34.182549],[150.862267,-34.18252],[150.862212,-34.182473],[150.862137,-34.182415],[150.86196,-34.182299],[150.861885,-34.182252],[150.861824,-34.182206],[150.861531,-34.181957],[150.861408,-34.181864],[150.861354,-34.181835],[150.861265,-34.181782],[150.861163,-34.181718],[150.861108,-34.181689],[150.86106,-34.181665],[150.861019,-34.181648],[150.860978,-34.181642],[150.860937,-34.18163],[150.860902,-34.181624],[150.860882,-34.181595],[150.860827,-34.18156],[150.860779,-34.181542],[150.860759,-34.181531],[150.860725,-34.181507],[150.860697,-34.181496],[150.860677,-34.18149],[150.860636,-34.181461],[150.860574,-34.181431],[150.860492,-34.181396],[150.86041,-34.181372],[150.860341,-34.181349],[150.86028,-34.181331],[150.860232,-34.181313],[150.860177,-34.181296],[150.860095,-34.18126],[150.860047,-34.181237],[150.859992,-34.181213],[150.859944,-34.181196],[150.85991,-34.18119],[150.859889,-34.181172],[150.859834,-34.181143],[150.859773,-34.181125],[150.859725,-34.181113],[150.859581,-34.18106],[150.859526,-34.181048],[150.859481,-34.181253],[150.85935,-34.181444],[150.859122,-34.181562],[150.858868,-34.181644],[150.858557,-34.181648],[150.858303,-34.181644],[150.8581,-34.181681],[150.857843,-34.181829],[150.857712,-34.182013],[150.857647,-34.182311],[150.857656,-34.18251],[150.857754,-34.182835],[150.857803,-34.183222],[150.857838,-34.183764],[150.857846,-34.184267],[150.857805,-34.184701],[150.857773,-34.185211],[150.857783,-34.185574],[150.857783,-34.18593],[150.857802,-34.186365],[150.857812,-34.186738],[150.85781,-34.187181],[150.857821,-34.187554],[150.857844,-34.187763],[150.85797,-34.18821],[150.858031,-34.18847],[150.858113,-34.18869],[150.858183,-34.188966],[150.858275,-34.189209],[150.858338,-34.189372],[150.858383,-34.189518],[150.85836,-34.189703],[150.858217,-34.189912],[150.858018,-34.190053],[150.857891,-34.190146],[150.857799,-34.190281],[150.857736,-34.190473],[150.857836,-34.190742],[150.857928,-34.19097],[150.858039,-34.191182],[150.858109,-34.191433],[150.858113,-34.191636],[150.85805,-34.191828],[150.857909,-34.192067],[150.857739,-34.192283],[150.85758,-34.192402],[150.857451,-34.192529],[150.857482,-34.192771],[150.857607,-34.192903],[150.857769,-34.19301],[150.857922,-34.193142],[150.858063,-34.193241],[150.858207,-34.19335],[150.858436,-34.193499],[150.858638,-34.193599],[150.858869,-34.193667],[150.859055,-34.19368],[150.859212,-34.193634],[150.859348,-34.193586],[150.859487,-34.193502],[150.859693,-34.193366],[150.859863,-34.193184],[150.860082,-34.193002],[150.86028,-34.192893],[150.860447,-34.19279],[150.860634,-34.192673],[150.860743,-34.192586],[150.860932,-34.192483],[150.86114,-34.192375],[150.86165,-34.192158],[150.861915,-34.192058],[150.862119,-34.192011],[150.862431,-34.191978],[150.862713,-34.191973],[150.863034,-34.191971],[150.863316,-34.192049],[150.863584,-34.192207],[150.86384,-34.192389],[150.864028,-34.192684],[150.864127,-34.192991],[150.864165,-34.193769],[150.864195,-34.194173],[150.864221,-34.194593],[150.864212,-34.194964],[150.864177,-34.195238],[150.864182,-34.195805],[150.864179,-34.19628],[150.864191,-34.196613],[150.864287,-34.197049],[150.864375,-34.197455],[150.864501,-34.197805],[150.86457,-34.198025],[150.86469,-34.19823],[150.864772,-34.198496],[150.864852,-34.198723],[150.864821,-34.19887],[150.864917,-34.199299],[150.86487,-34.19959],[150.864951,-34.199889],[150.865063,-34.200053],[150.865215,-34.200201],[150.865436,-34.200293],[150.865669,-34.200305],[150.865971,-34.200318],[150.86624,-34.200421],[150.866597,-34.200468],[150.866947,-34.20053],[150.867247,-34.200551],[150.867577,-34.200565],[150.86783,-34.200561],[150.868026,-34.200557],[150.868192,-34.200496],[150.868348,-34.200417],[150.868566,-34.200267],[150.868754,-34.200181],[150.868922,-34.200054],[150.869149,-34.199906],[150.869395,-34.199773],[150.869683,-34.199592],[150.870059,-34.199365],[150.870393,-34.199224],[150.870735,-34.199102],[150.871057,-34.19909],[150.871356,-34.199103],[150.87165,-34.199093],[150.871998,-34.199124],[150.872318,-34.19916],[150.872726,-34.199225],[150.873171,-34.199297],[150.873469,-34.199343],[150.873788,-34.199453],[150.874154,-34.199596],[150.874471,-34.199772],[150.874768,-34.199988],[150.875036,-34.200129],[150.875284,-34.200286],[150.875551,-34.200484],[150.875857,-34.2007],[150.876116,-34.200875],[150.876497,-34.201164],[150.876808,-34.201384],[150.877075,-34.201564],[150.877413,-34.201748],[150.877671,-34.201948],[150.877929,-34.202041],[150.878103,-34.202133],[150.878312,-34.20233],[150.8785,-34.202544],[150.878651,-34.202747],[150.879045,-34.203361],[150.879132,-34.203693],[150.879248,-34.204173],[150.879314,-34.204593],[150.879393,-34.204973],[150.879462,-34.20529],[150.879534,-34.205565],[150.879671,-34.20586],[150.879803,-34.206073],[150.879882,-34.206356],[150.879952,-34.206729],[150.880042,-34.20703],[150.880111,-34.207346],[150.880191,-34.207686],[150.880281,-34.207979],[150.880401,-34.20819],[150.880619,-34.208404],[150.880721,-34.208617],[150.88092,-34.208846],[150.88112,-34.209018],[150.881339,-34.209217],[150.881585,-34.209333],[150.881883,-34.209491],[150.882229,-34.209642],[150.882478,-34.209809],[150.882745,-34.209999],[150.882964,-34.210196],[150.883231,-34.210411],[150.883449,-34.210601],[150.883657,-34.210863],[150.883922,-34.211142],[150.884197,-34.211414],[150.884492,-34.211709],[150.884778,-34.211876],[150.885008,-34.212002],[150.885194,-34.212021],[150.885448,-34.212009],[150.885747,-34.212046],[150.886096,-34.212133],[150.886366,-34.212211],[150.886644,-34.212368],[150.88693,-34.212567],[150.887197,-34.212749],[150.887544,-34.21295],[150.88782,-34.213156],[150.88808,-34.213274],[150.888379,-34.21332],[150.888699,-34.213382],[150.889049,-34.213396],[150.889406,-34.21345],[150.889764,-34.213607],[150.889974,-34.213727],[150.8903,-34.213925],[150.890517,-34.214076],[150.890812,-34.214379],[150.891028,-34.214682],[150.891329,-34.215084],[150.891675,-34.215606],[150.891868,-34.216071],[150.89198,-34.216614],[150.892047,-34.217116],[150.892083,-34.217632],[150.892158,-34.218063],[150.892274,-34.21854],[150.892457,-34.21894],[150.892693,-34.219299],[150.892954,-34.219749],[150.893177,-34.220124],[150.893371,-34.220546],[150.893539,-34.220812],[150.893605,-34.220991],[150.893618,-34.221177],[150.893605,-34.221364],[150.89353,-34.221653],[150.893354,-34.222061],[150.893228,-34.222374],[150.893146,-34.222599],[150.893073,-34.222808],[150.892937,-34.223144],[150.892784,-34.223466],[150.89269,-34.223714],[150.892513,-34.224163],[150.892439,-34.224444],[150.892352,-34.22475],[150.892277,-34.225064],[150.892172,-34.225362],[150.892077,-34.225708],[150.89192,-34.2261],[150.891795,-34.226446],[150.89167,-34.226799],[150.891544,-34.227209],[150.891412,-34.227657],[150.891322,-34.228092],[150.891236,-34.228438],[150.891239,-34.228713],[150.891305,-34.229141],[150.891462,-34.229459],[150.89172,-34.229666],[150.891949,-34.229815],[150.892297,-34.229958],[150.892699,-34.230136],[150.893096,-34.230295],[150.893645,-34.230475],[150.894147,-34.230613],[150.894553,-34.230749],[150.894921,-34.230837],[150.895249,-34.230922],[150.895905,-34.231103],[150.896427,-34.231274],[150.896861,-34.231419],[150.897264,-34.231596],[150.897591,-34.231714],[150.897784,-34.231814],[150.897928,-34.231938],[150.897923,-34.232156],[150.897907,-34.232266],[150.897996,-34.232417],[150.897491,-34.233339],[150.897208,-34.233649],[150.897189,-34.233707],[150.897012,-34.23389],[150.896399,-34.234309],[150.896296,-34.234308],[150.895739,-34.234513],[150.895099,-34.234645],[150.894045,-34.234757],[150.893872,-34.234811],[150.893487,-34.235034],[150.89289,-34.235496],[150.892175,-34.235857],[150.891911,-34.23611],[150.891802,-34.236337],[150.891668,-34.236837],[150.891506,-34.237149],[150.891382,-34.237276],[150.890751,-34.237709],[150.890362,-34.238132],[150.890182,-34.238416],[150.890036,-34.238743],[150.889752,-34.239799],[150.889533,-34.240267],[150.8893,-34.240636],[150.889033,-34.240975],[150.888751,-34.241243],[150.888312,-34.24155],[150.88709,-34.242217],[150.886652,-34.24251],[150.886336,-34.242763],[150.886102,-34.24316],[150.885846,-34.243744],[150.885125,-34.245708],[150.884965,-34.24658],[150.884892,-34.246779],[150.884766,-34.246977],[150.88453,-34.247475],[150.884526,-34.247604],[150.884355,-34.248426],[150.884215,-34.248647],[150.884002,-34.248929],[150.883837,-34.249284],[150.883836,-34.249327],[150.883783,-34.249398],[150.883673,-34.249668],[150.883563,-34.249924],[150.883492,-34.249994],[150.883367,-34.250164],[150.883257,-34.250448],[150.883217,-34.250648],[150.883145,-34.250762],[150.883126,-34.250833],[150.882857,-34.251243],[150.88275,-34.251385],[150.882626,-34.25154],[150.882534,-34.251768],[150.882514,-34.251853],[150.882494,-34.251982],[150.882474,-34.252082],[150.882484,-34.252354],[150.882465,-34.252425],[150.882395,-34.252481],[150.882252,-34.252694],[150.882215,-34.252765],[150.882195,-34.252879],[150.882064,-34.253292],[150.88206,-34.25345],[150.881877,-34.253876],[150.881798,-34.254261],[150.881809,-34.254491],[150.881629,-34.25549],[150.881627,-34.255547],[150.881607,-34.255647],[150.881452,-34.256332],[150.881415,-34.256446],[150.881394,-34.256589],[150.881152,-34.2573],[150.881095,-34.2575],[150.881002,-34.25777],[150.880814,-34.258531],[150.88076,-34.258598],[150.880665,-34.258725],[150.88061,-34.258765],[150.880576,-34.258828],[150.880515,-34.258875],[150.880467,-34.258938],[150.880378,-34.258996],[150.88033,-34.259013],[150.880241,-34.259105],[150.880158,-34.25914],[150.880069,-34.259203],[150.879966,-34.259256],[150.879904,-34.259262],[150.879829,-34.259325],[150.87978,-34.259337],[150.879678,-34.259423],[150.879595,-34.259447],[150.879527,-34.25951],[150.879424,-34.259557],[150.879327,-34.259592],[150.879272,-34.259598],[150.879177,-34.259673],[150.879053,-34.259725],[150.878888,-34.259754],[150.878633,-34.259779],[150.878543,-34.259779],[150.878308,-34.259781],[150.878088,-34.259805],[150.877971,-34.2598],[150.877792,-34.259807],[150.877488,-34.259837],[150.87735,-34.25982],[150.877302,-34.259821],[150.87724,-34.259787],[150.877012,-34.259731],[150.876908,-34.259714],[150.876756,-34.259715],[150.876673,-34.25971],[150.876625,-34.259693],[150.876494,-34.259665],[150.876384,-34.25966],[150.876359,-34.25966],[150.876325,-34.25967],[150.876308,-34.259678],[150.876278,-34.259697],[150.876267,-34.259706],[150.876248,-34.259727],[150.876237,-34.259741],[150.876107,-34.259877],[150.873944,-34.26174],[150.852796,-34.279952],[150.851433,-34.27851],[150.850832,-34.278252],[150.849945,-34.278052],[150.848828,-34.277852],[150.847339,-34.277766],[150.846137,-34.277652],[150.844534,-34.277194],[150.842787,-34.27645],[150.840526,-34.27542],[150.838808,-34.274762],[150.837176,-34.274533],[150.835229,-34.274676],[150.832853,-34.274905],[150.829532,-34.275191],[150.828529,-34.275209],[150.827281,-34.274914],[150.825508,-34.274093],[150.823471,-34.273141],[150.821894,-34.272124],[150.819792,-34.271008],[150.817033,-34.269794],[150.81562,-34.269466],[150.813978,-34.269334],[150.812171,-34.269728],[150.810102,-34.270418],[150.807671,-34.270976],[150.80519,-34.27134],[150.805514,-34.2731],[150.805844,-34.274846],[150.806316,-34.276924],[150.80627,-34.277632],[150.806317,-34.278954],[150.806418,-34.279908],[150.806647,-34.280748],[150.807214,-34.281598],[150.808064,-34.282967],[150.808962,-34.283911],[150.809482,-34.284855],[150.809812,-34.286035],[150.810096,-34.287263],[150.810615,-34.28849],[150.811371,-34.289812],[150.812505,-34.291134],[150.813781,-34.292173],[150.814961,-34.293258],[150.815623,-34.294957],[150.815836,-34.29591],[150.815561,-34.29635],[150.815009,-34.297067],[150.814513,-34.297839],[150.814568,-34.298775],[150.814347,-34.300539],[150.814734,-34.301696],[150.81523,-34.30335],[150.816057,-34.304562],[150.81676,-34.306375],[150.814317,-34.306063],[150.801929,-34.304482],[150.792833,-34.303348],[150.792824,-34.303364],[150.792675,-34.303743],[150.792588,-34.303818],[150.792585,-34.303918],[150.792259,-34.304528],[150.792166,-34.304756],[150.792161,-34.304942],[150.792124,-34.305056],[150.792136,-34.305242],[150.792085,-34.305857],[150.792047,-34.305999],[150.792045,-34.306085],[150.791947,-34.306513],[150.7918,-34.306868],[150.791788,-34.306926],[150.79178,-34.306968],[150.791745,-34.307086],[150.791483,-34.307053],[150.791455,-34.30705],[150.787148,-34.306507],[150.786929,-34.306479],[150.778914,-34.305468],[150.778758,-34.305449],[150.778205,-34.305379],[150.751171,-34.301965],[150.751149,-34.301962],[150.750861,-34.301926],[150.749054,-34.314295],[150.74902,-34.31453],[150.748997,-34.314688],[150.748879,-34.315493],[150.748667,-34.316948],[150.748629,-34.317206],[150.745861,-34.336413],[150.745727,-34.337069],[150.745677,-34.337416],[150.745572,-34.337611],[150.745431,-34.337872],[150.744605,-34.33941],[150.744573,-34.339469],[150.744515,-34.339576],[150.740616,-34.346832],[150.740059,-34.34787],[150.726336,-34.373408],[150.726324,-34.37343],[150.702299,-34.418138],[150.689634,-34.441706],[150.690926,-34.442007],[150.693359,-34.442769],[150.695484,-34.442845],[150.697732,-34.442972],[150.699456,-34.443353],[150.701766,-34.443988],[150.703337,-34.444953],[150.70423,-34.445994],[150.706817,-34.446984],[150.70928,-34.447213],[150.711898,-34.449777],[150.713807,-34.449803],[150.715224,-34.449574],[150.716918,-34.449473],[150.71738,-34.450488],[150.716764,-34.453307],[150.717595,-34.45478],[150.720305,-34.455706],[150.722276,-34.456074],[150.724956,-34.456937],[150.726357,-34.457255],[150.727989,-34.456861],[150.728466,-34.457229],[150.729298,-34.45789],[150.730468,-34.458563],[150.730622,-34.458779],[150.731438,-34.459071],[150.733209,-34.459223],[150.733917,-34.460099],[150.734918,-34.460658],[150.737012,-34.459997],[150.737751,-34.460137],[150.73866,-34.460594],[150.739499,-34.460747],[150.740408,-34.460579],[150.74147,-34.460036],[150.742406,-34.459752],[150.742902,-34.459684],[150.74366,-34.459969],[150.744708,-34.46036],[150.745247,-34.460576],[150.745468,-34.46077],[150.746117,-34.461228],[150.747162,-34.461249],[150.7474,-34.461167],[150.74778,-34.461036],[150.74834,-34.460536],[150.751164,-34.455918],[150.751991,-34.455359],[150.752888,-34.455179],[150.753703,-34.455159],[150.754283,-34.455034],[150.755197,-34.454579],[150.756154,-34.453162],[150.757303,-34.452318],[150.758399,-34.450775],[150.75903,-34.450263],[150.760032,-34.449966],[150.764662,-34.449418],[150.766458,-34.449297],[150.767618,-34.449712],[150.768597,-34.450287],[150.769382,-34.450523],[150.771125,-34.45058],[150.77228,-34.45047],[150.774283,-34.45014],[150.775783,-34.449893],[150.776986,-34.449496],[150.77819,-34.448709],[150.78108,-34.448109],[150.781862,-34.448133],[150.783898,-34.448299],[150.78477,-34.448065],[150.78678,-34.445352],[150.787005,-34.445053],[150.787337,-34.444756],[150.787642,-34.444539],[150.788195,-34.4443],[150.789469,-34.443703],[150.790461,-34.44324],[150.790514,-34.442978],[150.790662,-34.442886],[150.790959,-34.442756],[150.791219,-34.4427],[150.79146,-34.442682],[150.791682,-34.442682],[150.791886,-34.442737],[150.792072,-34.442793],[150.792239,-34.44283],[150.792443,-34.442941],[150.792666,-34.443108],[150.792926,-34.443183],[150.793037,-34.443238],[150.793297,-34.443387],[150.793593,-34.443554],[150.793909,-34.443758],[150.794095,-34.443925],[150.794781,-34.444611],[150.794799,-34.444648],[150.794868,-34.44473],[150.794941,-34.444825],[150.795007,-34.444923],[150.795063,-34.445023],[150.7951,-34.445108],[150.795123,-34.445167],[150.795133,-34.445194],[150.79516,-34.445283],[150.795163,-34.445296],[150.795189,-34.445335],[150.795078,-34.445706],[150.79506,-34.446002],[150.795097,-34.446448],[150.795245,-34.446745],[150.795283,-34.446944],[150.795317,-34.447044],[150.795371,-34.447164],[150.795437,-34.447281],[150.79549,-34.44736],[150.795653,-34.447524],[150.795895,-34.447709],[150.796136,-34.447913],[150.796693,-34.448396],[150.796952,-34.448655],[150.797175,-34.448915],[150.797416,-34.449193],[150.797695,-34.449546],[150.797917,-34.449843],[150.798122,-34.450065],[150.798363,-34.450307],[150.798734,-34.450455],[150.799068,-34.450548],[150.799569,-34.450659],[150.800107,-34.450807],[150.800404,-34.4509],[150.800812,-34.450974],[150.801146,-34.451104],[150.801387,-34.451253],[150.801542,-34.451372],[150.801629,-34.451438],[150.801233,-34.451363],[150.801575,-34.451573],[150.801662,-34.451627],[150.802032,-34.451857],[150.802215,-34.451966],[150.802401,-34.452071],[150.802585,-34.452179],[150.802761,-34.452292],[150.802924,-34.452417],[150.803044,-34.452525],[150.803119,-34.4526],[150.803186,-34.452676],[150.803249,-34.452755],[150.803307,-34.452836],[150.803361,-34.452919],[150.803413,-34.453003],[150.803455,-34.453075],[150.803495,-34.453148],[150.803526,-34.453211],[150.803531,-34.453222],[150.803566,-34.453296],[150.803596,-34.453372],[150.803621,-34.453447],[150.803641,-34.453523],[150.803695,-34.453756],[150.803727,-34.453878],[150.803765,-34.454],[150.803807,-34.45412],[150.803853,-34.454238],[150.803916,-34.454383],[150.80395,-34.454455],[150.803987,-34.454525],[150.804027,-34.454595],[150.804087,-34.454688],[150.804152,-34.454781],[150.804222,-34.454871],[150.804298,-34.454957],[150.804381,-34.455036],[150.804457,-34.455099],[150.804538,-34.455159],[150.804622,-34.455215],[150.804629,-34.455218],[150.804711,-34.455267],[150.804801,-34.455315],[150.804877,-34.455352],[150.804956,-34.455385],[150.805037,-34.455417],[150.805201,-34.455474],[150.805288,-34.455502],[150.805377,-34.455527],[150.805467,-34.455551],[150.805732,-34.455616],[150.805987,-34.455672],[150.8062,-34.455722],[150.806327,-34.455755],[150.80639,-34.455773],[150.806545,-34.455825],[150.80662,-34.455854],[150.806695,-34.455885],[150.806767,-34.455919],[150.80682,-34.455946],[150.806916,-34.456001],[150.806974,-34.456036],[150.807087,-34.456109],[150.8071,-34.456118],[150.807142,-34.456147],[150.807214,-34.456201],[150.807286,-34.456257],[150.807354,-34.456314],[150.80742,-34.456375],[150.807481,-34.456437],[150.807534,-34.4565],[150.807584,-34.456566],[150.80784,-34.45695],[150.807938,-34.457139],[150.808295,-34.457797],[150.808659,-34.458174],[150.809673,-34.458806],[150.809941,-34.458973],[150.810882,-34.459519],[150.81089,-34.459478],[150.811277,-34.459708],[150.813669,-34.461129],[150.813774,-34.461177],[150.814016,-34.461297],[150.814238,-34.461438],[150.81446,-34.461539],[150.814682,-34.46168],[150.814883,-34.461801],[150.815065,-34.461861],[150.815407,-34.461982],[150.815649,-34.462002],[150.815911,-34.462042],[150.816119,-34.462014],[150.81614,-34.462012],[150.816496,-34.461962],[150.816819,-34.461861],[150.817161,-34.461781],[150.817463,-34.4617],[150.817826,-34.461619],[150.818169,-34.461539],[150.818451,-34.461539],[150.818774,-34.461559],[150.818848,-34.461559],[150.819056,-34.461559],[150.819439,-34.461579],[150.819782,-34.461599],[150.820084,-34.461619],[150.820366,-34.461539],[150.82081,-34.461479],[150.820978,-34.461441],[150.821153,-34.461398],[150.821475,-34.461317],[150.821838,-34.461237],[150.822402,-34.461237],[150.822536,-34.461247],[150.82302,-34.461312],[150.82317,-34.461337],[150.82338,-34.461378],[150.82356,-34.461416],[150.823739,-34.461458],[150.823917,-34.461505],[150.824092,-34.461558],[150.824264,-34.461616],[150.824382,-34.46166],[150.824498,-34.461707],[150.824613,-34.461756],[150.824727,-34.461808],[150.824837,-34.461863],[150.824984,-34.461946],[150.825126,-34.462036],[150.825401,-34.462227],[150.82579,-34.462492],[150.826037,-34.46267],[150.826287,-34.462845],[150.826543,-34.46301],[150.826596,-34.463039],[150.826679,-34.463084],[150.827272,-34.463363],[150.827408,-34.463417],[150.827615,-34.463489],[150.827826,-34.46355],[150.827959,-34.463582],[150.828093,-34.463611],[150.828229,-34.463636],[150.828366,-34.463657],[150.828503,-34.463675],[150.829024,-34.463729],[150.829775,-34.463702],[150.830634,-34.463523],[150.830725,-34.463487],[150.831383,-34.463232],[150.831592,-34.463153],[150.831567,-34.463354],[150.831491,-34.463727],[150.831466,-34.463858],[150.831449,-34.463943],[150.831367,-34.464325],[150.832132,-34.464771],[150.833043,-34.465306],[150.833337,-34.465482],[150.833591,-34.465709],[150.83349,-34.466225],[150.832444,-34.466554],[150.832067,-34.466702],[150.831297,-34.466965],[150.830336,-34.467261],[150.829129,-34.467638],[150.828815,-34.467729],[150.828544,-34.467821],[150.828274,-34.467915],[150.828006,-34.468011],[150.827738,-34.468109],[150.827408,-34.468228],[150.827157,-34.468316],[150.82668,-34.468482],[150.827159,-34.469408],[150.827208,-34.469498],[150.82727,-34.469607],[150.827364,-34.469762],[150.827427,-34.469858],[150.827491,-34.469954],[150.827558,-34.470049],[150.827627,-34.470142],[150.827782,-34.470342],[150.82789,-34.470474],[150.828002,-34.470604],[150.828119,-34.470731],[150.828239,-34.470856],[150.828328,-34.470942],[150.828419,-34.471027],[150.828606,-34.471194],[150.828779,-34.471343],[150.828879,-34.471426],[150.829019,-34.47154],[150.8291,-34.471604],[150.829287,-34.471745],[150.829383,-34.471814],[150.830683,-34.472736],[150.831646,-34.473313],[150.831706,-34.473364],[150.831977,-34.473542],[150.831461,-34.473983],[150.830835,-34.474518],[150.830056,-34.475193],[150.829894,-34.475331],[150.826956,-34.47783],[150.82637,-34.478365],[150.825481,-34.479116],[150.824705,-34.479786],[150.823834,-34.480531],[150.823971,-34.480533],[150.824142,-34.480556],[150.824314,-34.480591],[150.824521,-34.480646],[150.824723,-34.48074],[150.824759,-34.480769],[150.824848,-34.480843],[150.824912,-34.480964],[150.824986,-34.481097],[150.825001,-34.481161],[150.824985,-34.481215],[150.824958,-34.481268],[150.824966,-34.481344],[150.825033,-34.481504],[150.825121,-34.481657],[150.825276,-34.481799],[150.825454,-34.481984],[150.825666,-34.482157],[150.825951,-34.482316],[150.826217,-34.482416],[150.826502,-34.482491],[150.826792,-34.482596],[150.827028,-34.482654],[150.827258,-34.48271],[150.827358,-34.482743],[150.827403,-34.482797],[150.82744,-34.482861],[150.827426,-34.482928],[150.827415,-34.482965],[150.827408,-34.48301],[150.827332,-34.48306],[150.827259,-34.48312],[150.827214,-34.483151],[150.827106,-34.483206],[150.826887,-34.483254],[150.826433,-34.483278],[150.825826,-34.483354],[150.825402,-34.483451],[150.824851,-34.483627],[150.82449,-34.483848],[150.82431,-34.484015],[150.824265,-34.484082],[150.824258,-34.48417],[150.824251,-34.484306],[150.82426,-34.484415],[150.824295,-34.484559],[150.824327,-34.48466],[150.824384,-34.484746],[150.824465,-34.484908],[150.824567,-34.485092],[150.824632,-34.4852],[150.824653,-34.485238],[150.8247,-34.485295],[150.824902,-34.485528],[150.824931,-34.48557],[150.825147,-34.485801],[150.825257,-34.485978],[150.825401,-34.486246],[150.825567,-34.486574],[150.825771,-34.486862],[150.825874,-34.487079],[150.826026,-34.487297],[150.826181,-34.487584],[150.826324,-34.487882],[150.82647,-34.488099],[150.826594,-34.488421],[150.826633,-34.488552],[150.826711,-34.488808],[150.826752,-34.489084],[150.826804,-34.48941],[150.826815,-34.489675],[150.826803,-34.48989],[150.82676,-34.490184],[150.826699,-34.490478],[150.826602,-34.490722],[150.826523,-34.490945],[150.826457,-34.491184],[150.826392,-34.491378],[150.826299,-34.491691],[150.82617,-34.491999],[150.826117,-34.492193],[150.826036,-34.492496],[150.825969,-34.49279],[150.825961,-34.493065],[150.825943,-34.4933],[150.825934,-34.493566],[150.825916,-34.493791],[150.825893,-34.494015],[150.825868,-34.494255],[150.825856,-34.49448],[150.825887,-34.4947],[150.825881,-34.49491],[150.825888,-34.495125],[150.82587,-34.495355],[150.82587,-34.495446],[150.82587,-34.49559],[150.825914,-34.495801],[150.825992,-34.496018],[150.826052,-34.496192],[150.826071,-34.496249],[150.826174,-34.496471],[150.826307,-34.496673],[150.826453,-34.49689],[150.826629,-34.497088],[150.826824,-34.497257],[150.826995,-34.497395],[150.827232,-34.497589],[150.827571,-34.4978],[150.82779,-34.497964],[150.828058,-34.498109],[150.82835,-34.498259],[150.828511,-34.498352],[150.828739,-34.498406],[150.829009,-34.498451],[150.82931,-34.498525],[150.829381,-34.498543],[150.829754,-34.498624],[150.830137,-34.498746],[150.830484,-34.498832],[150.830795,-34.498943],[150.831197,-34.499045],[150.831586,-34.499167],[150.831922,-34.499293],[150.832394,-34.499456],[150.832698,-34.499597],[150.833123,-34.499744],[150.833488,-34.4999],[150.833828,-34.500047],[150.834097,-34.500195],[150.834232,-34.500274],[150.834401,-34.500371],[150.834572,-34.500451],[150.835437,-34.500694],[150.835916,-34.500605],[150.836458,-34.5007],[150.837204,-34.500725],[150.837644,-34.500485],[150.837909,-34.500198],[150.837985,-34.499896],[150.8379,-34.499502],[150.837883,-34.499458],[150.837881,-34.499421],[150.837879,-34.499412],[150.837874,-34.499402],[150.83786,-34.499383],[150.837858,-34.499373],[150.837853,-34.499366],[150.837848,-34.49935],[150.837836,-34.499334],[150.837792,-34.49922],[150.83779,-34.499208],[150.837782,-34.499188],[150.837775,-34.499155],[150.837772,-34.499106],[150.837769,-34.499086],[150.837768,-34.499072],[150.837768,-34.499032],[150.837766,-34.499018],[150.837756,-34.498979],[150.837736,-34.498943],[150.83773,-34.498921],[150.837722,-34.498901],[150.8377,-34.498872],[150.837682,-34.498846],[150.837673,-34.498838],[150.837648,-34.498805],[150.837645,-34.498795],[150.837626,-34.498767],[150.837618,-34.498746],[150.837613,-34.498736],[150.837595,-34.498707],[150.83757,-34.498643],[150.837563,-34.498633],[150.837553,-34.498604],[150.837548,-34.498596],[150.837531,-34.498578],[150.837524,-34.498572],[150.837501,-34.498537],[150.837312,-34.498272],[150.837182,-34.498071],[150.837046,-34.497908],[150.836943,-34.497809],[150.836863,-34.497725],[150.836782,-34.497685],[150.836683,-34.49764],[150.836607,-34.497614],[150.83655,-34.49756],[150.836534,-34.497496],[150.836512,-34.497437],[150.836351,-34.497333],[150.836311,-34.497293],[150.836306,-34.497249],[150.836318,-34.497181],[150.836328,-34.49709],[150.836301,-34.496992],[150.836198,-34.496883],[150.836203,-34.496699],[150.836181,-34.496636],[150.836136,-34.496538],[150.836063,-34.496454],[150.83594,-34.496422],[150.835824,-34.496377],[150.835764,-34.496434],[150.835797,-34.496522],[150.83596,-34.496573],[150.836064,-34.496633],[150.836084,-34.496755],[150.836069,-34.496871],[150.836107,-34.496984],[150.836141,-34.497062],[150.836098,-34.497144],[150.836112,-34.497256],[150.836198,-34.497325],[150.83622,-34.497398],[150.836331,-34.497434],[150.836335,-34.497478],[150.83631,-34.497541],[150.836228,-34.497525],[150.836067,-34.497434],[150.835929,-34.497316],[150.835767,-34.497201],[150.835412,-34.496894],[150.835309,-34.49678],[150.83517,-34.496724],[150.834828,-34.496553],[150.834545,-34.496393],[150.834302,-34.496262],[150.834175,-34.496158],[150.834101,-34.496089],[150.834067,-34.49603],[150.833937,-34.495922],[150.833758,-34.495803],[150.833593,-34.495646],[150.833351,-34.495399],[150.833231,-34.495235],[150.833093,-34.495093],[150.832926,-34.495002],[150.832787,-34.494896],[150.832729,-34.494741],[150.832614,-34.494695],[150.832475,-34.494604],[150.832257,-34.494071],[150.832163,-34.493937],[150.832044,-34.493744],[150.831874,-34.493454],[150.831774,-34.493195],[150.831709,-34.492959],[150.831632,-34.492847],[150.831472,-34.492521],[150.831371,-34.492291],[150.831334,-34.492127],[150.831275,-34.492053],[150.831223,-34.491941],[150.831208,-34.491812],[150.831142,-34.491606],[150.831079,-34.491358],[150.831057,-34.491267],[150.831009,-34.491163],[150.83095,-34.49096],[150.830936,-34.490717],[150.830966,-34.490359],[150.830994,-34.490224],[150.83105,-34.490006],[150.831084,-34.489878],[150.831131,-34.489751],[150.831193,-34.489641],[150.831249,-34.489495],[150.831289,-34.489361],[150.831366,-34.489265],[150.831496,-34.489071],[150.831605,-34.488877],[150.831732,-34.488573],[150.8318,-34.488232],[150.83176,-34.488023],[150.831692,-34.487813],[150.831629,-34.487671],[150.83161,-34.487536],[150.831706,-34.487431],[150.831879,-34.487331],[150.832017,-34.487316],[150.832155,-34.487273],[150.832569,-34.487201],[150.832673,-34.487187],[150.832828,-34.487144],[150.83288,-34.487115],[150.832914,-34.487072],[150.832879,-34.486914],[150.832707,-34.486714],[150.832689,-34.4866],[150.832371,-34.486363],[150.832395,-34.486299],[150.832723,-34.486556],[150.832793,-34.486613],[150.832862,-34.486699],[150.832913,-34.486713],[150.832965,-34.486713],[150.833882,-34.48732],[150.833921,-34.4875],[150.834067,-34.487709],[150.834446,-34.48799],[150.834744,-34.488235],[150.835097,-34.488447],[150.835194,-34.488497],[150.835319,-34.488532],[150.83544,-34.488527],[150.83553,-34.488509],[150.835547,-34.488469],[150.835524,-34.488388],[150.83559,-34.488376],[150.835726,-34.488412],[150.835935,-34.488442],[150.836103,-34.488519],[150.836302,-34.488623],[150.836478,-34.488673],[150.83667,-34.488736],[150.836888,-34.488767],[150.837032,-34.488816],[150.837193,-34.488812],[150.837332,-34.488761],[150.83748,-34.488684],[150.837724,-34.488588],[150.83806,-34.488413],[150.838372,-34.488218],[150.838561,-34.488095],[150.838823,-34.487946],[150.839046,-34.487762],[150.839375,-34.487528],[150.839564,-34.487417],[150.839792,-34.487328],[150.839899,-34.487263],[150.840004,-34.487258],[150.840052,-34.487279],[150.840167,-34.487201],[150.840299,-34.487103],[150.84046,-34.487092],[150.840558,-34.487047],[150.840785,-34.487003],[150.841051,-34.48689],[150.841437,-34.486779],[150.841683,-34.48662],[150.842137,-34.48642],[150.842604,-34.486183],[150.842914,-34.486043],[150.843403,-34.485744],[150.843803,-34.485551],[150.844014,-34.485428],[150.844503,-34.485174],[150.844693,-34.485023],[150.844992,-34.484883],[150.845391,-34.484709],[150.845801,-34.484562],[150.84591,-34.484555],[150.846055,-34.484458],[150.846264,-34.484416],[150.846596,-34.484331],[150.846883,-34.484218],[150.847247,-34.484134],[150.847587,-34.484113],[150.847695,-34.484108],[150.847779,-34.484149],[150.84788,-34.484119],[150.847986,-34.484086],[150.848153,-34.484073],[150.848258,-34.484051],[150.848448,-34.484051],[150.848785,-34.483942],[150.848915,-34.483885],[150.849069,-34.483829],[150.849174,-34.483815],[150.84926,-34.483813],[150.849326,-34.483814],[150.849392,-34.483846],[150.849462,-34.483899],[150.849509,-34.483931],[150.849533,-34.483932],[150.849609,-34.483931],[150.84966,-34.484059],[150.849717,-34.484212],[150.849782,-34.484378],[150.849871,-34.484493],[150.850092,-34.484529],[150.850451,-34.484573],[150.85088,-34.484593],[150.851223,-34.484625],[150.851568,-34.484625],[150.852119,-34.484634],[150.852464,-34.484634],[150.852756,-34.484614],[150.852849,-34.484552],[150.853002,-34.48458],[150.853095,-34.484525],[150.853283,-34.484369],[150.853462,-34.484258],[150.853685,-34.484263],[150.853897,-34.484261],[150.85393,-34.483617],[150.854304,-34.483643],[150.854294,-34.484278],[150.854744,-34.484276],[150.85478,-34.483766],[150.855183,-34.483792],[150.855204,-34.484313],[150.855801,-34.484328],[150.856,-34.484457],[150.856045,-34.484453],[150.856149,-34.484348],[150.85635,-34.48438],[150.856413,-34.484398],[150.856923,-34.484576],[150.857291,-34.484723],[150.857452,-34.484794],[150.857698,-34.484897],[150.857902,-34.485007],[150.85814,-34.485191],[150.85842,-34.485376],[150.858487,-34.485431],[150.858628,-34.485548],[150.858703,-34.485702],[150.858801,-34.485873],[150.858856,-34.486058],[150.858969,-34.486271],[150.859017,-34.486399],[150.858971,-34.486568],[150.858856,-34.4867],[150.858687,-34.486675],[150.858577,-34.486624],[150.858472,-34.486707],[150.858453,-34.486827],[150.858475,-34.486947],[150.858499,-34.487011],[150.858368,-34.487107],[150.85822,-34.487253],[150.858137,-34.487498],[150.858138,-34.487774],[150.858152,-34.487922],[150.858302,-34.488059],[150.858579,-34.488219],[150.85873,-34.488285],[150.858833,-34.488287],[150.859011,-34.488332],[150.859292,-34.488351],[150.859453,-34.488389],[150.859582,-34.488335],[150.859803,-34.488353],[150.860025,-34.488357],[150.860221,-34.488346],[150.860426,-34.48835],[150.860486,-34.488323],[150.860656,-34.488326],[150.860863,-34.488259],[150.861114,-34.488122],[150.861382,-34.487964],[150.861547,-34.487854],[150.861744,-34.487816],[150.862176,-34.487922],[150.862507,-34.487984],[150.862903,-34.488153],[150.863106,-34.488249],[150.863239,-34.488322],[150.863362,-34.488402],[150.863496,-34.488425],[150.863599,-34.488515],[150.86369,-34.488588],[150.863806,-34.4886],[150.864023,-34.488699],[150.864206,-34.488813],[150.864395,-34.488893],[150.864498,-34.488909],[150.864664,-34.488998],[150.864864,-34.489112],[150.864914,-34.48918],[150.865023,-34.489215],[150.865177,-34.489328],[150.865319,-34.489407],[150.86541,-34.489476],[150.865431,-34.489562],[150.865481,-34.48964],[150.865485,-34.489717],[150.865391,-34.489773],[150.865434,-34.489888],[150.865437,-34.490003],[150.865469,-34.490129],[150.865565,-34.490202],[150.865646,-34.490208],[150.865723,-34.490162],[150.865777,-34.490091],[150.865825,-34.490025],[150.865901,-34.489973],[150.866004,-34.490018],[150.866153,-34.490102],[150.866428,-34.490226],[150.866688,-34.490358],[150.867064,-34.49053],[150.867329,-34.490629],[150.867649,-34.490769],[150.868016,-34.490925],[150.868422,-34.491081],[150.868779,-34.49123],[150.869195,-34.491379],[150.869515,-34.491534],[150.869948,-34.491691],[150.870156,-34.491781],[150.870808,-34.492025],[150.87071,-34.492044],[150.87062,-34.492065],[150.870521,-34.492078],[150.870385,-34.492128],[150.870464,-34.492181],[150.870581,-34.492198],[150.870759,-34.492231],[150.870939,-34.492241],[150.871031,-34.492243],[150.871056,-34.492243],[150.871174,-34.492179],[150.871346,-34.492152],[150.871598,-34.492119],[150.871713,-34.49218],[150.871594,-34.492253],[150.871405,-34.492279],[150.871349,-34.492375],[150.871572,-34.492423],[150.871743,-34.492434],[150.871854,-34.492451],[150.871904,-34.492459],[150.872154,-34.492493],[150.872321,-34.49252],[150.87236,-34.492526],[150.872449,-34.492572],[150.872727,-34.492592],[150.8728,-34.492564],[150.872836,-34.492527],[150.872962,-34.492522],[150.873322,-34.492528],[150.873366,-34.492536],[150.873454,-34.492605],[150.873507,-34.492673],[150.873632,-34.492705],[150.873946,-34.49271],[150.874296,-34.492724],[150.874764,-34.492709],[150.875015,-34.492699],[150.875294,-34.492704],[150.87633,-34.492588],[150.876664,-34.492527],[150.876754,-34.492528],[150.87687,-34.492575],[150.877083,-34.492668],[150.877359,-34.492777],[150.877734,-34.492843],[150.878026,-34.492848],[150.878058,-34.492819],[150.878072,-34.492788],[150.878003,-34.492766],[150.877908,-34.492753],[150.877832,-34.492747],[150.877719,-34.492677],[150.877622,-34.492533],[150.877536,-34.492427],[150.877489,-34.492284],[150.877492,-34.492158],[150.877507,-34.492059],[150.877527,-34.492002],[150.877566,-34.491987],[150.877642,-34.491972],[150.877705,-34.491984],[150.877718,-34.492005],[150.877697,-34.492068],[150.877682,-34.492141],[150.877717,-34.492288],[150.877759,-34.492384],[150.87777,-34.492441],[150.877768,-34.492499],[150.877831,-34.492542],[150.877893,-34.492601],[150.877973,-34.492681],[150.878054,-34.49273],[150.878161,-34.492758],[150.87825,-34.492775],[150.878388,-34.492814],[150.87854,-34.492838],[150.878716,-34.492888],[150.879044,-34.492957],[150.879164,-34.492975],[150.879464,-34.492891],[150.879713,-34.492827],[150.880032,-34.49278],[150.880331,-34.492717],[150.880694,-34.492686],[150.88095,-34.492596],[150.881173,-34.492532],[150.881486,-34.492433],[150.881589,-34.492377],[150.881787,-34.492343],[150.881953,-34.492266],[150.882229,-34.492169],[150.882422,-34.492105],[150.882615,-34.492051],[150.88278,-34.491998],[150.882931,-34.491978],[150.883205,-34.491926],[150.883632,-34.49182],[150.883977,-34.491657],[150.884202,-34.491423],[150.884369,-34.49129],[150.88444,-34.491178],[150.884604,-34.491193],[150.884725,-34.491251],[150.884655,-34.491307],[150.884736,-34.491376],[150.884871,-34.491423],[150.885061,-34.491472],[150.885307,-34.491465],[150.885566,-34.491481],[150.885785,-34.491473],[150.886113,-34.491479],[150.88648,-34.491553],[150.886605,-34.491595],[150.886654,-34.49194],[150.886764,-34.492735],[150.886822,-34.493255],[150.886871,-34.493657],[150.88694,-34.494207],[150.88699,-34.494589],[150.886927,-34.494588],[150.886944,-34.49477],[150.887014,-34.494768],[150.887065,-34.495168],[150.887095,-34.495543],[150.887157,-34.495912],[150.887187,-34.496011],[150.887262,-34.496048],[150.887381,-34.496069],[150.887445,-34.496114],[150.887465,-34.496205],[150.887481,-34.496393],[150.887443,-34.496644],[150.887383,-34.496868],[150.887256,-34.497153],[150.887034,-34.497373],[150.887028,-34.497616],[150.886849,-34.497801],[150.886422,-34.497973],[150.886149,-34.498031],[150.886061,-34.498061],[150.886026,-34.498061],[150.885976,-34.498067],[150.885945,-34.498083],[150.885929,-34.4981],[150.885923,-34.498108],[150.885897,-34.498117],[150.885764,-34.498222],[150.885621,-34.498319],[150.885369,-34.498426],[150.88514,-34.498554],[150.885001,-34.498595],[150.884631,-34.498686],[150.884379,-34.498791],[150.884114,-34.498862],[150.883785,-34.4989],[150.883538,-34.49882],[150.883302,-34.498805],[150.883118,-34.498802],[150.882884,-34.498678],[150.882701,-34.498642],[150.882479,-34.498595],[150.882311,-34.498494],[150.882167,-34.498481],[150.882072,-34.498577],[150.88189,-34.498541],[150.881741,-34.498546],[150.881692,-34.498548],[150.881493,-34.498632],[150.881361,-34.498662],[150.88106,-34.498635],[150.880848,-34.498697],[150.880713,-34.498847],[150.880537,-34.499039],[150.880403,-34.499157],[150.880149,-34.499315],[150.87987,-34.499452],[150.879711,-34.499536],[150.879524,-34.49962],[150.879299,-34.499692],[150.879062,-34.499731],[150.87896,-34.499747],[150.878811,-34.49977],[150.878417,-34.499774],[150.877997,-34.499767],[150.877657,-34.499718],[150.877278,-34.499646],[150.876976,-34.499619],[150.876597,-34.499569],[150.876386,-34.499548],[150.876321,-34.499542],[150.876113,-34.499484],[150.87593,-34.499448],[150.875429,-34.499527],[150.875218,-34.499556],[150.875061,-34.49952],[150.874892,-34.499441],[150.874853,-34.499419],[150.874711,-34.49934],[150.874571,-34.499175],[150.874446,-34.498933],[150.874399,-34.498683],[150.874418,-34.498651],[150.87444,-34.49862],[150.874464,-34.498591],[150.874491,-34.498565],[150.87452,-34.498542],[150.874555,-34.498521],[150.874595,-34.498504],[150.874679,-34.498479],[150.874746,-34.498458],[150.874772,-34.498449],[150.874851,-34.498426],[150.87513,-34.498316],[150.875199,-34.498302],[150.875354,-34.498244],[150.875423,-34.498158],[150.875405,-34.498101],[150.875353,-34.498058],[150.875267,-34.498015],[150.875198,-34.498001],[150.874905,-34.498002],[150.874732,-34.498031],[150.874421,-34.498145],[150.87418,-34.498289],[150.874007,-34.498361],[150.87399,-34.498367],[150.87389,-34.498426],[150.873835,-34.498452],[150.873772,-34.498521],[150.873607,-34.498639],[150.873463,-34.498847],[150.873367,-34.499017],[150.87321,-34.49941],[150.87306,-34.499872],[150.872923,-34.500405],[150.872862,-34.500723],[150.872852,-34.500825],[150.87282,-34.501149],[150.872785,-34.501314],[150.872778,-34.501569],[150.872817,-34.501889],[150.87289,-34.502343],[150.872984,-34.502568],[150.873027,-34.503015],[150.873054,-34.503463],[150.873107,-34.503808],[150.873129,-34.504019],[150.873169,-34.504245],[150.873301,-34.504985],[150.873384,-34.505351],[150.873429,-34.505728],[150.873447,-34.50622],[150.873491,-34.506603],[150.873497,-34.506993],[150.873475,-34.507254],[150.873687,-34.507258],[150.873683,-34.507393],[150.873459,-34.508954],[150.873193,-34.510019],[150.873097,-34.510401],[150.872597,-34.511575],[150.872166,-34.512993],[150.87189,-34.513537],[150.871752,-34.514039],[150.871614,-34.515013],[150.871433,-34.515862],[150.871254,-34.515838],[150.871248,-34.515879],[150.871232,-34.515988],[150.871214,-34.516171],[150.871178,-34.51653],[150.871168,-34.516683],[150.871132,-34.516791],[150.871095,-34.516911],[150.871072,-34.517027],[150.871038,-34.517153],[150.870994,-34.51729],[150.870946,-34.517408],[150.870929,-34.517472],[150.870913,-34.517638],[150.870904,-34.517808],[150.870878,-34.517998],[150.870849,-34.518142],[150.870824,-34.518227],[150.87084,-34.518381],[150.870832,-34.518431],[150.87083,-34.518479],[150.870828,-34.518511],[150.870822,-34.518535],[150.870805,-34.518822],[150.870866,-34.519678],[150.870822,-34.519853],[150.870702,-34.520168],[150.870287,-34.520856],[150.870218,-34.521114],[150.870081,-34.522016],[150.869925,-34.522431],[150.869408,-34.523219],[150.869356,-34.523405],[150.869356,-34.523669],[150.869356,-34.524694],[150.869253,-34.524967],[150.869029,-34.525382],[150.868822,-34.525597],[150.868528,-34.525769],[150.8682,-34.525869],[150.867682,-34.525927],[150.866662,-34.525927],[150.866213,-34.525999],[150.865332,-34.526257],[150.864918,-34.526457],[150.864745,-34.526601],[150.864718,-34.526666],[150.864476,-34.52679],[150.864449,-34.526799],[150.8644,-34.526759],[150.864123,-34.52683],[150.863812,-34.527088],[150.863691,-34.527246],[150.863381,-34.527842],[150.862742,-34.529093],[150.86269,-34.529394],[150.862777,-34.529895],[150.862933,-34.530268],[150.863521,-34.531327],[150.863831,-34.531757],[150.864298,-34.532229],[150.864886,-34.532959],[150.865474,-34.533489],[150.865958,-34.533789],[150.866251,-34.533889],[150.868122,-34.534226],[150.868826,-34.534476],[150.869035,-34.534604],[150.869154,-34.534676],[150.869465,-34.534991],[150.869725,-34.535392],[150.869933,-34.535864],[150.870278,-34.536824],[150.870728,-34.537783],[150.870902,-34.538301],[150.870921,-34.538447],[150.871091,-34.538775],[150.871008,-34.539341],[150.871009,-34.539351],[150.870999,-34.53952],[150.871031,-34.539666],[150.871246,-34.539957],[150.871399,-34.540183],[150.871575,-34.540425],[150.871774,-34.54072],[150.871851,-34.540916],[150.871853,-34.541062],[150.87191,-34.541126],[150.872027,-34.541152],[150.872138,-34.541178],[150.872288,-34.541288],[150.872398,-34.541334],[150.872495,-34.541457],[150.873202,-34.541775],[150.87348,-34.541911],[150.87388,-34.542069],[150.874274,-34.542197],[150.874636,-34.542279],[150.874841,-34.542305],[150.87465,-34.537108],[150.877995,-34.525865],[150.885949,-34.512485],[150.891364,-34.506365],[150.90884,-34.49317],[150.918791,-34.493344],[150.920347,-34.49482],[150.921958,-34.493755],[150.921261,-34.492035],[150.917707,-34.491015],[150.916685,-34.487736],[150.918699,-34.486612],[150.915732,-34.485651],[150.913669,-34.481025],[150.915456,-34.47783],[150.913061,-34.474807],[150.913644,-34.4648],[150.901876,-34.46205],[150.900447,-34.451096],[150.901841,-34.450939],[150.900477,-34.450789],[150.899948,-34.44525],[150.902981,-34.431233],[150.907179,-34.423381],[150.910776,-34.42216],[150.902211,-34.417201],[150.903327,-34.416355],[150.902047,-34.416199],[150.903085,-34.411056],[150.902049,-34.408038],[150.903812,-34.401143],[150.911563,-34.388634],[150.916523,-34.386118],[150.915508,-34.384758],[150.917455,-34.381515],[150.923669,-34.375865],[150.926676,-34.375683],[150.926591,-34.373309],[150.9313,-34.368752],[150.925308,-34.367648],[150.924774,-34.365706],[150.921077,-34.363643],[150.919416,-34.358597],[150.921322,-34.349162],[150.924327,-34.347907],[150.922679,-34.346363],[150.92311,-34.344346],[150.925568,-34.34013],[150.927537,-34.339655],[150.925275,-34.337629],[150.9257,-34.33343],[150.930286,-34.331102],[150.924459,-34.327555],[150.92639,-34.319425],[150.934869,-34.309468],[150.935681,-34.306399],[150.938567,-34.305355],[150.93817,-34.303738],[150.943418,-34.301322],[150.941502,-34.299923],[150.94174,-34.297551],[150.944556,-34.294167],[150.947034,-34.293765],[150.946098,-34.29256],[150.947484,-34.29047],[150.950037,-34.289998],[150.948858,-34.288536],[150.94974,-34.286359],[150.952639,-34.285],[150.954026,-34.281781],[150.956727,-34.280991],[150.956231,-34.278328],[150.958781,-34.274473],[150.964255,-34.270479],[150.963922,-34.268639],[150.967967,-34.267245],[150.968054,-34.26256],[150.97369,-34.258473],[150.972696,-34.254842],[150.977384,-34.25169],[150.975802,-34.249838],[150.978717,-34.249306],[150.977149,-34.245157],[150.986237,-34.236572],[150.987831,-34.232737],[150.993284,-34.227982],[151.000297,-34.226329],[151.004358,-34.220978],[151.01083,-34.218945],[151.012875,-34.213105],[151.021278,-34.204055],[151.025802,-34.202779],[151.0331,-34.196075],[151.038634,-34.194912],[151.039335,-34.192124],[151.041803,-34.191173],[151.044957,-34.186403],[151.054813,-34.185158],[151.053579,-34.183513],[151.054196,-34.180529],[151.057465,-34.178316],[151.060797,-34.178908],[151.063242,-34.17684],[151.063078,-34.17442],[151.066158,-34.172329]]],[[[150.935712,-34.492914],[150.928929,-34.488444],[150.927191,-34.48904],[150.92717,-34.492721],[150.929486,-34.49279],[150.93093,-34.490887],[150.934604,-34.493936],[150.935712,-34.492914]]],[[[150.930971,-34.45667],[150.929172,-34.454368],[150.928889,-34.456831],[150.930971,-34.45667]]],[[[150.947132,-34.464415],[150.944312,-34.464313],[150.945462,-34.465497],[150.947132,-34.464415]]]]},"bbox":[150.689634,-34.542305,151.066158,-34.130009]}]}