{"type":"FeatureCollection","features":[
{"properties":{"electorateShortName":"cunningham","electorateName":"Cunningham","area":535.54,"state":"NSW"},"type":"Feature","geometry":{"type":"Polygon","coordinates":[[[151.066158,-34.172329],[151.015923,-34.16644],[151.01889,-34.15595],[150.991107,-34.146034],[150.979872,-34.13841],[150.922732,-34.130009],[150.914114,-34.159257],[150.907085,-34.164498],[150.903908,-34.185063],[150.899355,-34.189613],[150.859526,-34.181048],[150.857451,-34.192529],[150.873469,-34.199343],[150.890517,-34.214076],[150.891236,-34.228438],[150.876359,-34.25966],[150.852796,-34.279952],[150.817033,-34.269794],[150.80519,-34.27134],[150.815836,-34.29591],[150.81676,-34.306375],[150.791745,-34.307086],[150.750861,-34.301926],[150.745677,-34.337416],[150.689634,-34.441706],[150.701766,-34.443988],[150.717595,-34.45478],[150.747162,-34.461249],[150.760032,-34.449966],[150.78477,-34.448065],[150.798363,-34.450307],[150.814883,-34.461801],[150.830634,-34.463523],[150.831977,-34.473542],[150.823834,-34.480531],[150.830966,-34.490359],[150.856149,-34.484348],[150.870808,-34.492025],[150.873367,-34.499017],[150.868822,-34.525597],[150.874841,-34.542305],[150.877995,-34.525865],[150.891364,-34.506365],[150.90884,-34.49317],[150.913669,-34.481025],[150.913644,-34.4648],[150.901876,-34.46205],[150.899948,-34.44525],[150.907179,-34.423381],[150.902211,-34.417201],[150.903812,-34.401143],[150.925308,-34.367648],[150.919416,-34.358597],[150.925568,-34.34013],[150.92639,-34.319425],[150.958781,-34.274473],[150.967967,-34.267245],[150.977149,-34.245157],[150.993284,-34.227982],[151.01083,-34.218945],[151.021278,-34.204055],[151.054813,-34.185158],[151.066158,-34.172329]]]},"bbox":[150.689634,-34.542305,151.066158,-34.130009]}]}