{"type":"FeatureCollection","features":[
{"properties":{"electorateShortName":"dobell","electorateName":"Dobell","area":675,"state":"NSW"},"type":"Feature","geometry":{"type":"Polygon","coordinates":[[[151.449605,-33.429352],[151.45963,-33.419528],[151.462406,-33.418854],[151.462956,-33.415253],[151.468196,-33.410269],[151.4764,-33.40752],[151.479228,-33.402519],[151.485003,-33.398629],[151.484475,-33.394819],[151.48661,-33.394159],[151.487178,-33.390914],[151.483409,-33.384339],[151.488672,-33.381832],[151.48608,-33.37907],[151.489404,-33.371634],[151.499447,-33.364883],[151.501059,-33.361923],[151.500244,-33.359158],[151.502582,-33.354171],[151.504939,-33.354148],[151.503193,-33.34893],[151.504285,-33.345398],[151.502814,-33.344011],[151.509143,-33.331355],[151.527994,-33.312872],[151.55034,-33.299767],[151.557885,-33.296603],[151.564012,-33.296576],[151.562559,-33.294352],[151.56418,-33.291816],[151.570336,-33.289529],[151.571714,-33.285655],[151.579025,-33.282227],[151.57654,-33.27939],[151.573976,-33.280665],[151.572228,-33.278741],[151.567509,-33.278539],[151.567402,-33.276246],[151.563591,-33.271727],[151.561813,-33.262433],[151.565085,-33.247326],[151.549461,-33.240454],[151.538012,-33.245949],[151.527986,-33.244476],[151.513245,-33.220786],[151.509745,-33.218635],[151.508896,-33.216175],[151.514821,-33.211567],[151.51656,-33.208755],[151.516367,-33.205833],[151.520224,-33.203425],[151.5227,-33.199574],[151.519071,-33.195038],[151.51218,-33.194307],[151.50294,-33.192448],[151.490526,-33.186818],[151.488004,-33.189099],[151.484423,-33.188669],[151.481901,-33.189962],[151.474832,-33.189586],[151.468636,-33.19324],[151.464382,-33.193886],[151.462775,-33.195687],[151.461136,-33.199749],[151.455115,-33.202843],[151.447346,-33.201216],[151.443243,-33.20103],[151.4447,-33.193356],[151.438643,-33.195382],[151.436276,-33.197345],[151.435442,-33.199876],[151.43146,-33.199307],[151.43317,-33.194209],[151.418526,-33.19214],[151.417933,-33.195151],[151.410957,-33.194141],[151.412386,-33.189345],[151.411069,-33.187461],[151.398625,-33.185747],[151.400568,-33.175853],[151.403517,-33.176262],[151.404056,-33.173599],[151.399372,-33.172938],[151.397806,-33.170178],[151.392869,-33.169819],[151.397477,-33.165259],[151.393007,-33.158897],[151.392175,-33.156158],[151.392312,-33.152037],[151.388489,-33.150296],[151.387511,-33.147327],[151.387441,-33.143349],[151.384638,-33.141938],[151.383068,-33.139816],[151.38303,-33.134097],[151.3837,-33.129183],[151.381047,-33.126862],[151.381317,-33.122904],[151.380152,-33.119225],[151.382308,-33.115779],[151.38035,-33.113107],[151.382327,-33.109643],[151.379138,-33.104155],[151.37894,-33.099711],[151.377415,-33.098157],[151.374041,-33.096862],[151.372522,-33.094448],[151.369313,-33.095562],[151.367928,-33.09391],[151.363189,-33.093981],[151.360404,-33.09071],[151.356616,-33.090045],[151.356018,-33.088134],[151.35748,-33.083085],[151.353888,-33.079317],[151.348037,-33.0761],[151.33887,-33.073234],[151.333025,-33.069337],[151.33194,-33.066247],[151.331542,-33.062234],[151.326263,-33.060143],[151.323272,-33.055273],[151.319182,-33.053025],[151.317397,-33.049907],[151.315283,-33.048252],[151.31077,-33.048127],[151.308291,-33.046758],[151.305915,-33.043917],[151.30355,-33.043733],[151.300625,-33.047559],[151.299838,-33.051594],[151.296928,-33.054257],[151.29185,-33.055911],[151.289266,-33.055201],[151.283656,-33.056852],[151.281592,-33.058352],[151.27775,-33.056723],[151.275903,-33.057781],[151.272555,-33.056975],[151.266703,-33.058556],[151.267284,-33.063614],[151.266181,-33.069001],[151.264317,-33.073257],[151.262303,-33.074641],[151.262408,-33.077517],[151.2644,-33.079602],[151.262305,-33.087064],[151.263999,-33.089813],[151.262187,-33.090987],[151.259939,-33.095132],[151.262461,-33.097273],[151.260164,-33.100473],[151.255614,-33.101636],[151.25077,-33.099827],[151.244454,-33.102881],[151.244185,-33.105701],[151.240883,-33.107953],[151.238143,-33.108688],[151.235641,-33.107224],[151.230745,-33.109931],[151.232215,-33.114063],[151.225718,-33.117494],[151.220687,-33.121583],[151.218492,-33.124764],[151.218179,-33.129495],[151.213652,-33.129335],[151.207311,-33.13327],[151.215521,-33.134492],[151.214105,-33.141216],[151.21167,-33.142824],[151.209288,-33.14745],[151.212617,-33.148557],[151.212032,-33.151363],[151.216003,-33.15196],[151.213239,-33.165516],[151.21693,-33.16602],[151.218687,-33.162986],[151.224534,-33.163825],[151.223498,-33.168928],[151.221417,-33.168631],[151.220299,-33.174612],[151.225865,-33.175384],[151.223056,-33.189733],[151.215835,-33.188713],[151.214752,-33.19406],[151.211719,-33.193628],[151.210017,-33.194816],[151.208269,-33.203652],[151.215842,-33.204744],[151.215183,-33.208316],[151.225361,-33.209767],[151.22424,-33.215632],[151.234627,-33.217127],[151.236224,-33.209428],[151.239802,-33.215164],[151.246954,-33.216144],[151.250938,-33.215742],[151.25044,-33.218182],[151.258392,-33.219318],[151.254989,-33.235193],[151.274767,-33.237854],[151.28351,-33.238654],[151.282008,-33.247193],[151.287601,-33.247886],[151.286766,-33.253126],[151.300551,-33.254959],[151.299131,-33.262361],[151.276231,-33.259348],[151.276946,-33.255079],[151.272593,-33.254263],[151.242163,-33.250262],[151.24046,-33.257854],[151.243974,-33.258012],[151.246362,-33.256902],[151.247484,-33.258611],[151.252651,-33.258596],[151.253495,-33.26117],[151.256508,-33.263982],[151.257689,-33.266568],[151.256352,-33.269034],[151.259339,-33.2702],[151.260044,-33.272392],[151.26309,-33.275289],[151.264415,-33.280991],[151.264766,-33.285505],[151.263532,-33.288413],[151.27091,-33.287678],[151.274162,-33.287792],[151.278719,-33.293358],[151.282875,-33.29596],[151.279207,-33.299971],[151.28134,-33.30265],[151.281279,-33.305849],[151.282479,-33.307273],[151.279948,-33.319933],[151.296322,-33.322193],[151.296881,-33.319423],[151.300126,-33.319908],[151.298491,-33.32784],[151.302527,-33.328444],[151.300129,-33.340321],[151.293104,-33.339319],[151.290931,-33.350176],[151.295728,-33.351467],[151.299425,-33.356064],[151.299982,-33.360495],[151.302593,-33.36238],[151.306936,-33.362828],[151.312153,-33.364762],[151.321805,-33.365557],[151.325034,-33.366797],[151.329939,-33.364503],[151.366269,-33.369596],[151.376638,-33.371292],[151.376567,-33.373395],[151.374883,-33.377343],[151.371765,-33.38088],[151.3687,-33.382809],[151.365867,-33.383223],[151.358641,-33.382049],[151.354362,-33.383311],[151.350671,-33.389574],[151.343542,-33.395501],[151.343612,-33.399409],[151.348346,-33.404232],[151.348734,-33.408066],[151.34508,-33.412419],[151.363073,-33.414984],[151.370613,-33.418764],[151.373135,-33.418679],[151.376485,-33.420062],[151.379307,-33.418728],[151.383522,-33.422005],[151.38581,-33.42299],[151.390708,-33.422519],[151.393183,-33.423761],[151.39507,-33.427578],[151.398257,-33.426043],[151.405028,-33.424945],[151.41098,-33.425376],[151.414406,-33.427199],[151.420909,-33.426961],[151.422506,-33.425673],[151.427531,-33.424141],[151.433947,-33.423938],[151.438677,-33.422679],[151.445688,-33.425939],[151.449605,-33.429352]]]},"bbox":[151.207311,-33.429352,151.579025,-33.043733]}]}