{"type":"FeatureCollection","features":[
{"properties":{"electorateShortName":"dunkley","electorateName":"Dunkley","area":147.83,"state":"VIC"},"type":"Feature","geometry":{"type":"MultiPolygon","coordinates":[[[[145.235699,-38.097367],[145.237135,-38.090427],[145.239583,-38.077677],[145.235633,-38.077239],[145.231287,-38.076758],[145.227714,-38.076308],[145.221462,-38.075503],[145.212605,-38.074372],[145.203088,-38.073189],[145.202566,-38.073123],[145.194728,-38.072144],[145.181656,-38.070548],[145.168139,-38.068886],[145.167058,-38.068746],[145.166728,-38.068706],[145.157571,-38.067578],[145.156254,-38.067395],[145.155222,-38.067251],[145.154763,-38.067256],[145.154498,-38.067258],[145.15027,-38.067299],[145.149827,-38.065286],[145.149552,-38.064415],[145.14941,-38.063963],[145.148865,-38.062445],[145.148751,-38.062135],[145.147702,-38.059269],[145.147153,-38.057769],[145.146846,-38.056983],[145.146804,-38.056877],[145.146601,-38.056326],[145.146112,-38.054996],[145.145827,-38.054222],[145.145304,-38.052799],[145.144829,-38.051508],[145.144329,-38.050152],[145.143872,-38.048787],[145.143517,-38.047726],[145.143083,-38.046573],[145.141821,-38.043226],[145.139776,-38.044017],[145.13936,-38.044303],[145.136979,-38.045104],[145.13589,-38.04547],[145.135665,-38.045546],[145.134802,-38.045836],[145.134157,-38.046053],[145.133936,-38.046152],[145.133732,-38.046221],[145.132643,-38.046587],[145.132205,-38.046705],[145.132004,-38.046748],[145.131774,-38.046774],[145.131544,-38.046771],[145.131336,-38.046756],[145.131122,-38.046708],[145.130639,-38.046555],[145.130405,-38.046487],[145.130223,-38.046442],[145.130025,-38.046416],[145.129887,-38.046405],[145.129649,-38.046408],[145.129297,-38.046468],[145.127464,-38.047086],[145.125002,-38.047916],[145.124707,-38.048015],[145.124446,-38.048103],[145.124051,-38.04802],[145.123864,-38.047987],[145.123737,-38.047973],[145.123588,-38.047968],[145.12341,-38.047984],[145.122511,-38.048288],[145.121359,-38.048676],[145.119566,-38.049281],[145.119331,-38.04936],[145.117965,-38.04982],[145.115621,-38.050609],[145.115427,-38.050674],[145.115731,-38.051315],[145.115507,-38.051384],[145.114895,-38.051563],[145.114303,-38.051736],[145.113722,-38.051906],[145.113253,-38.052043],[145.113236,-38.052047],[145.112848,-38.052151],[145.11272411965007,-38.05190968853074],[145.1107700891429,-38.048103354654145],[145.11044888532285,-38.0518010018545],[145.11041851288698,-38.05280361034553],[145.10780050634236,-38.05347560963083],[145.10759747413564,-38.05355835744823],[145.1058641636641,-38.054022956131334],[145.1058516584266,-38.054010503939516],[145.102618369003,-38.05483806758426],[145.10224947263092,-38.05499184238769],[145.10107156904212,-38.05530756912284],[145.10104472729734,-38.05527947217114],[145.09748360161547,-38.056187709112606],[145.09697139415806,-38.05640658507118],[145.0962740720608,-38.05659349614881],[145.09623452220785,-38.056549907566676],[145.09239596135598,-38.05752445867517],[145.09176187629907,-38.057802950682934],[145.09147166519432,-38.05788073922648],[145.09142118554323,-38.05782206159377],[145.08806988182567,-38.058667796547496],[145.0879355394737,-38.05815560894195],[145.08665995255467,-38.05623939734772],[145.08607956032682,-38.05570382360231],[145.09027073612788,-38.052681030282784],[145.09100451104695,-38.05007026286378],[145.09400804307626,-38.0467342733267],[145.0950184892323,-38.04454712303913],[145.09728655313234,-38.04176994229592],[145.0954706085432,-38.03945572368606],[145.09324268774884,-38.034689177680676],[145.0917113228713,-38.025767956614615],[145.0809750069196,-38.02183005775331],[145.08268875056967,-38.035968442799394],[145.0832904074101,-38.04093211170922],[145.08389206425048,-38.04589578061905],[145.0844937210909,-38.05085944952887],[145.08503676809732,-38.05533958731071],[145.08571370503876,-38.05574816969804],[145.08531691270642,-38.05765078032495],[145.08540784423022,-38.05840096539276],[145.08569624435833,-38.05932379461023],[145.08236251944447,-38.06015809668144],[145.08181708981235,-38.06041365642281],[145.08178637199822,-38.06037370321418],[145.0776729742272,-38.06139048773606],[145.07786387107777,-38.061055664119976],[145.0783062657748,-38.05912031406154],[145.07667878846954,-38.057213212277034],[145.08019838840787,-38.055298790970376],[145.07954615893277,-38.05149373133441],[145.0795641644258,-38.051456971551715],[145.07872570745425,-38.046556515650174],[145.07874230731545,-38.04651999358381],[145.07790516996576,-38.04161931821042],[145.07792052320573,-38.041583006767375],[145.0770845606263,-38.036682136011834],[145.0770988007004,-38.03664601248373],[145.07416097864152,-38.019400561361955],[145.06729351772498,-38.017650868900255],[145.07157821350015,-38.03785014903556],[145.07261573453937,-38.042741319661616],[145.07365325557856,-38.047632490287675],[145.07469077661779,-38.05252366091373],[145.07572829765698,-38.05741483153979],[145.07657456067773,-38.061404357219246],[145.07678006769694,-38.06170110233236],[145.0725273057499,-38.06273137168228],[145.07239016337252,-38.06280114628134],[145.07236005363376,-38.062464117497406],[145.0737798192145,-38.060392248294214],[145.07169617783927,-38.058384323470634],[145.07332955539866,-38.0575393031623],[145.07219802183184,-38.05308890996037],[145.07227105868293,-38.05303693441374],[145.07105571289264,-38.04821975832197],[145.07112068779688,-38.04816970163392],[145.06991256614185,-38.04335082389401],[145.0699709452858,-38.04330233556244],[145.06876879878888,-38.03848205036288],[145.06882168111667,-38.03843486802448],[145.06414045444942,-38.019580996554026],[145.06176035397843,-38.02191813363732],[145.06161753673135,-38.02211364189735],[145.0660443247083,-38.03918839549599],[145.06694383608135,-38.04265793935802],[145.06342066845744,-38.0414253397241],[145.0644017466576,-38.04485911342117],[145.0673071031932,-38.04405911250165],[145.0677701471256,-38.045845139095285],[145.0652667084732,-38.047886479772714],[145.06576551687778,-38.04963230918694],[145.06857127487197,-38.04893520325503],[145.0686199525271,-38.04912295992445],[145.06706225924987,-38.05417090748472],[145.0671301330846,-38.05440846590604],[145.06936976927648,-38.05391144269978],[145.06894866434294,-38.058701303827384],[145.07053959644108,-38.058777284859445],[145.07043022819715,-38.05916497298326],[145.07046728591476,-38.0624523936574],[145.07160210892152,-38.06307562501511],[145.0680160818769,-38.06391138653821],[145.067508022624,-38.064524136030556],[145.0673691382066,-38.06461344566383],[145.06708983288718,-38.064325919171885],[145.06297446144202,-38.06518938661608],[145.06290900275806,-38.06522652242306],[145.06282256889455,-38.06579507250961],[145.06248492664847,-38.06639652920498],[145.0618239981294,-38.06599955998221],[145.05871822192648,-38.0661126883747],[145.05860939140132,-38.066178842764366],[145.05859427290153,-38.067031712731634],[145.0579363725458,-38.068111437462],[145.05617996943127,-38.06465111921076],[145.05563592153038,-38.06527198167397],[145.05561405311306,-38.06623170304469],[145.0544900842994,-38.066973934541],[145.05461587538568,-38.067554053325395],[145.05609967837006,-38.06701194182496],[145.0570409960332,-38.0682356832375],[145.05466388951524,-38.068295339723136],[145.0528567069935,-38.069741418141575],[145.05274815195233,-38.06961024788912],[145.0480745662931,-38.069647506236926],[145.04801878343423,-38.07100456884216],[145.04324582504512,-38.070949116159206],[145.04321827405494,-38.07240730321428],[145.03849003810032,-38.07224536869624],[145.0384152067824,-38.07236532432168],[145.03842044209355,-38.07382002641466],[145.03478940751862,-38.07359967345742],[145.035540787162,-38.07252520584967],[145.03729742028455,-38.0720359931502],[145.03598060384343,-38.0709564545578],[145.03523069218951,-38.07189179949662],[145.0337660072004,-38.071358440523184],[145.03275084126057,-38.071823828087894],[145.03410687399196,-38.07370904432434],[145.03429547245352,-38.073854327271654],[145.0344375446339,-38.0746786149506],[145.03667536100153,-38.07496867773934],[145.03584014936197,-38.07677266008004],[145.03680047566766,-38.07745380762986],[145.03805222889784,-38.07919404992556],[145.04097187626866,-38.08325307188041],[145.0438915236395,-38.08731209383526],[145.04681117101035,-38.09137111579011],[145.04973081838116,-38.09543013774497],[145.052650465752,-38.099489159699814],[145.05557011312288,-38.103548181654666],[145.05848976049367,-38.10760720360952],[145.06140940786452,-38.11166622556436],[145.06432905523536,-38.115725247519215],[145.0672487026062,-38.11978426947407],[145.07016834997702,-38.123843291428926],[145.0730879973479,-38.12790231338377],[145.07600764471871,-38.131961335338616],[145.07892729208956,-38.13602035729347],[145.08184693946038,-38.14007937924833],[145.08476658683122,-38.14413840120317],[145.08768623420207,-38.148197423158024],[145.08928120689987,-38.150414824225855],[145.09071174309813,-38.1493725538406],[145.09080941777898,-38.14857421143753],[145.09040165608798,-38.14691126008595],[145.09006423268787,-38.1469996264453],[145.08834186768024,-38.147725827147454],[145.0877297683475,-38.14300109195204],[145.08767484189207,-38.14280683806045],[145.0862416422526,-38.14307739642647],[145.08480084608533,-38.138621173325284],[145.08387264917735,-38.13862228980289],[145.08215612485333,-38.13432583589232],[145.08143632961327,-38.134215611004606],[145.07958031917636,-38.12999977706737],[145.07897305787534,-38.12982831885768],[145.07703282309902,-38.125661098300434],[145.07649630405115,-38.125450724351744],[145.0744996945211,-38.12131601474457],[145.07401184397278,-38.12107867294096],[145.07197485542216,-38.116967235878825],[145.07152256652049,-38.116710086658735],[145.06945523241308,-38.1126161317682],[145.06903007700896,-38.11234381080509],[145.06693910430283,-38.108263469690634],[145.06653533879853,-38.10797915243663],[145.0644254321319,-38.1039097127967],[145.0640389650218,-38.10361567052818],[145.06191355162645,-38.09955515720857],[145.06154136447924,-38.09925307103017],[145.05940301826084,-38.09520000108822],[145.0590428202125,-38.09489115035133],[145.0568935233303,-38.090844382050975],[145.05654353440968,-38.090529763058164],[145.05438484575856,-38.08648839864902],[145.05404365535145,-38.08616880249248],[145.05187682306533,-38.08213212331329],[145.05154329425469,-38.0818081886563],[145.05065465741035,-38.080159816216835],[145.05090536577399,-38.07933834533637],[145.0533302189846,-38.076009914379604],[145.05370980554844,-38.07110682744941],[145.05728488736943,-38.07123504461538],[145.05840497504525,-38.07374767372667],[145.0604353567124,-38.07830231368387],[145.0622849812761,-38.07747208675502],[145.05945979691933,-38.073277451927495],[145.06011092019045,-38.0729584503088],[145.05779521263247,-38.068738492659875],[145.05781177101278,-38.06860837760288],[145.05937127606063,-38.06918313498742],[145.060566457662,-38.07040235729814],[145.06139323792988,-38.0724375087273],[145.06327512316426,-38.077069841613074],[145.06441164581318,-38.07986743582652],[145.0612240271879,-38.08007149339968],[145.06245097310983,-38.08282383154958],[145.06432056451973,-38.08205922281691],[145.06524921407018,-38.08706156470682],[145.06601648242562,-38.0867775207686],[145.06747292313793,-38.091555031660334],[145.0678926238838,-38.09141547810064],[145.06951625413254,-38.09612177720603],[145.06981119718114,-38.09603452003452],[145.07151687454146,-38.10070587392716],[145.0717463493474,-38.100646171388256],[145.07350077071223,-38.10529676487003],[145.07368968435455,-38.105254174969566],[145.075476402427,-38.109891013248166],[145.07563765668817,-38.10986011130894],[145.0774473469937,-38.11448716578019],[145.07758851063338,-38.11446476307449],[145.07941537744426,-38.1190845021719],[145.07951167367975,-38.119072310213255],[145.08079133980067,-38.118393022700126],[145.07803899931068,-38.1142639428208],[145.07875725552853,-38.11381116093573],[145.07632965661233,-38.10955162941512],[145.0768091990374,-38.10919832917022],[145.07453950918398,-38.1048753373951],[145.0748942726265,-38.10457357057584],[145.0727179481865,-38.10021304901432],[145.07296126843565,-38.09997634089605],[145.07462824764454,-38.09944187860437],[145.0750131202327,-38.10453078543764],[145.07617656228751,-38.10420972454286],[145.07704068459927,-38.109114994368035],[145.0778501308678,-38.108926686069346],[145.0789442655326,-38.11374383733433],[145.07957123103662,-38.11362433788799],[145.08080044481602,-38.11838974489459],[145.08131542357188,-38.11831260843276],[145.08234186734134,-38.12199712500677],[145.0796716176019,-38.11939537396204],[145.08136561379828,-38.12364286054072],[145.08276873967523,-38.12302908075233],[145.08307257234245,-38.122995615506944],[145.08370941735123,-38.1251663927845],[145.0824705742515,-38.126100499040845],[145.08330753224914,-38.12818495045874],[145.08474615723222,-38.127681932369114],[145.0848377162316,-38.12767537456421],[145.08491412407162,-38.12792631197844],[145.08508988276193,-38.132335207599496],[145.0852542794404,-38.13274239710716],[145.08638591130068,-38.13244026844039],[145.08735445254965,-38.13728683051935],[145.08811770021978,-38.13714257569947],[145.08935801937642,-38.14187967856405],[145.08967822291595,-38.14184275458254],[145.09006649263105,-38.141685057335835],[145.09057670076817,-38.141412968597315],[145.09118585258344,-38.14121351896792],[145.0915062203145,-38.141037810848246],[145.09234796664256,-38.14078326440162],[145.09266970131281,-38.14079793348503],[145.0938483764086,-38.140417406785424],[145.09426179285606,-38.140339160697],[145.09433329024841,-38.14034169668519],[145.09430249670876,-38.14309458882299],[145.09321263646697,-38.14248155047009],[145.09268613049537,-38.14086012715566],[145.09252265426554,-38.14394378894003],[145.09184030976886,-38.14304296385783],[145.09171723552953,-38.14398938451773],[145.09127456183955,-38.14363105005424],[145.09099912326477,-38.14549109472117],[145.09128321327344,-38.14645491750333],[145.09225858987452,-38.14613374363273],[145.09252020410855,-38.14600416080437],[145.0933388851553,-38.14573306258137],[145.09341179267068,-38.14572166809726],[145.0938252409242,-38.14553367629795],[145.09494269749223,-38.14536587998778],[145.09513068415225,-38.14692236174768],[145.0950087161429,-38.14868499070573],[145.09358230972663,-38.14629497631146],[145.09381670427746,-38.14756332868968],[145.0936063188551,-38.14841428608246],[145.09310575918352,-38.148252171998266],[145.09306685887006,-38.149112724176774],[145.09351047898417,-38.15089864061461],[145.0941133530381,-38.15075142222986],[145.0944556713833,-38.15059458692247],[145.09516135250914,-38.15035805496913],[145.09527619703556,-38.15033505860906],[145.09554501561414,-38.15033816779789],[145.0956874601722,-38.152446020342374],[145.09551865742338,-38.15288956130136],[145.0949442837446,-38.15302813992572],[145.09502576378648,-38.15456366675233],[145.09526371159015,-38.155360202834316],[145.09457520690717,-38.15576329363184],[145.09443381660117,-38.15589908622874],[145.09504963212075,-38.15668691924603],[145.0967367013112,-38.15821719954274],[145.09686093196004,-38.159581107890226],[145.09701887270052,-38.16007704472036],[145.09823300069854,-38.15995827069419],[145.09884017208637,-38.15998765209448],[145.09989194444606,-38.16020057196555],[145.097905,-38.162404],[145.097987,-38.162518],[145.098031,-38.162542],[145.098035,-38.162575],[145.098042,-38.162608],[145.098056,-38.162662],[145.098074,-38.162712],[145.09809,-38.162768],[145.098103,-38.1628],[145.09814,-38.162883],[145.098149,-38.1629],[145.098158,-38.162914],[145.098175,-38.162934],[145.098225,-38.162982],[145.098257,-38.163009],[145.098307,-38.163046],[145.098358,-38.163081],[145.098368,-38.163091],[145.09838,-38.163108],[145.098387,-38.163116],[145.098395,-38.163122],[145.098419,-38.163136],[145.098467,-38.163178],[145.098508,-38.163208],[145.098557,-38.16324],[145.098575,-38.163253],[145.098658,-38.163306],[145.098672,-38.163318],[145.098684,-38.163331],[145.098713,-38.16337],[145.098725,-38.163376],[145.098741,-38.163389],[145.098776,-38.16341],[145.098781,-38.163415],[145.098791,-38.16343],[145.098794,-38.16344],[145.098793,-38.163452],[145.09879,-38.163465],[145.098769,-38.163527],[145.098755,-38.163555],[145.098747,-38.163573],[145.098741,-38.163591],[145.098738,-38.163608],[145.098736,-38.163625],[145.098735,-38.163637],[145.098736,-38.163649],[145.098738,-38.163657],[145.098743,-38.163666],[145.098754,-38.163675],[145.098762,-38.163692],[145.098764,-38.1637],[145.098764,-38.163709],[145.09876,-38.163743],[145.098754,-38.163782],[145.098749,-38.163791],[145.098746,-38.1638],[145.098747,-38.163808],[145.098749,-38.163815],[145.098796,-38.163859],[145.098835,-38.163883],[145.098879,-38.163903],[145.098921,-38.163932],[145.098949,-38.163965],[145.098968,-38.163984],[145.099027,-38.164007],[145.099057,-38.164028],[145.099121,-38.164057],[145.099168,-38.164073],[145.099264,-38.164101],[145.099307,-38.164102],[145.099346,-38.164108],[145.099388,-38.164126],[145.099427,-38.16415],[145.099449,-38.164173],[145.099474,-38.164208],[145.099487,-38.164244],[145.099493,-38.164267],[145.099522,-38.164305],[145.099554,-38.164336],[145.099605,-38.164362],[145.099614,-38.16437],[145.099754,-38.164391],[145.099837,-38.164393],[145.099888,-38.164402],[145.099922,-38.164416],[145.099929,-38.164446],[145.099917,-38.164471],[145.099893,-38.164496],[145.09986,-38.164528],[145.099832,-38.164565],[145.099832,-38.164598],[145.09984,-38.164667],[145.099833,-38.164709],[145.099823,-38.164736],[145.099845,-38.164762],[145.099881,-38.164779],[145.1,-38.164829],[145.100065,-38.164879],[145.10009,-38.164916],[145.100085,-38.164964],[145.100081,-38.165091],[145.100086,-38.165138],[145.100145,-38.16525],[145.100198,-38.165307],[145.100274,-38.165374],[145.10033,-38.165413],[145.100391,-38.165458],[145.100429,-38.165483],[145.100451,-38.165496],[145.100461,-38.165531],[145.100455,-38.16556],[145.100416,-38.165602],[145.100435,-38.16566],[145.100444,-38.165704],[145.10043,-38.165773],[145.100439,-38.165804],[145.10044,-38.165867],[145.100444,-38.165903],[145.100417,-38.165963],[145.100404,-38.166063],[145.100399,-38.166138],[145.100401,-38.166199],[145.100412,-38.166259],[145.100418,-38.166325],[145.10041,-38.166367],[145.100395,-38.16661],[145.100878,-38.16659],[145.101705,-38.166413],[145.101652,-38.167209],[145.10165,-38.167416],[145.101602,-38.168025],[145.101549,-38.16833],[145.101351,-38.16894],[145.101142,-38.169353],[145.100836,-38.169843],[145.100574,-38.170198],[145.100135,-38.170788],[145.099942,-38.171103],[145.099743,-38.171509],[145.099473,-38.172021],[145.099133,-38.172455],[145.098862,-38.172705],[145.098468,-38.173005],[145.09759,-38.173618],[145.09734,-38.173847],[145.097065,-38.174165],[145.096866,-38.174472],[145.096734,-38.174755],[145.096623,-38.175111],[145.096581,-38.175425],[145.09657,-38.175851],[145.096585,-38.176157],[145.096587,-38.177266],[145.096495,-38.177781],[145.096065,-38.179132],[145.095953,-38.179531],[145.095856,-38.179811],[145.095794,-38.180036],[145.095744,-38.180431],[145.095787,-38.180888],[145.095905,-38.181412],[145.096063,-38.181938],[145.096625,-38.183315],[145.096705,-38.183491],[145.096754,-38.183626],[145.096783,-38.183717],[145.096815,-38.183847],[145.096839,-38.18397],[145.096855,-38.184088],[145.096863,-38.184187],[145.096867,-38.184322],[145.096865,-38.184415],[145.096854,-38.184556],[145.096842,-38.184649],[145.096826,-38.184742],[145.096794,-38.18488],[145.096781,-38.184926],[145.096643,-38.185343],[145.096136,-38.186869],[145.09565,-38.188154],[145.095349,-38.189013],[145.094796,-38.190753],[145.095466,-38.191617],[145.096005,-38.192305],[145.096488,-38.192917],[145.098956,-38.196082],[145.098964,-38.196091],[145.099969,-38.197379],[145.10047,-38.19802],[145.100999,-38.198699],[145.102261,-38.200333],[145.102782,-38.201007],[145.10314,-38.201467],[145.103649,-38.202117],[145.103928,-38.202476],[145.104619,-38.20336],[145.105317,-38.204247],[145.105383,-38.20433],[145.105982,-38.205081],[145.106974,-38.206322],[145.107321,-38.206756],[145.108153,-38.207706],[145.109943,-38.210011],[145.110146,-38.210303],[145.110461,-38.210386],[145.116011,-38.206463],[145.117932,-38.205104],[145.123488,-38.202518],[145.125487,-38.201587],[145.12694,-38.200922],[145.128752,-38.200087],[145.128944,-38.199996],[145.133534,-38.195668],[145.139662,-38.197277],[145.142501,-38.196185],[145.143093,-38.195958],[145.146894,-38.194497],[145.147995,-38.194073],[145.148119,-38.194077],[145.1487,-38.194111],[145.150533,-38.19421],[145.151297,-38.194305],[145.152387,-38.194479],[145.153874,-38.192313],[145.15431,-38.191689],[145.156614,-38.186191],[145.157557,-38.183941],[145.159062,-38.181571],[145.159285,-38.181741],[145.160595,-38.182737],[145.161759,-38.183622],[145.163473,-38.185203],[145.167372,-38.188166],[145.170581,-38.190586],[145.17086,-38.190797],[145.172107,-38.191755],[145.17416,-38.193333],[145.174636,-38.193695],[145.175142,-38.194079],[145.175604,-38.194431],[145.179379,-38.197304],[145.179987,-38.197734],[145.180746,-38.198345],[145.181201,-38.198542],[145.181897,-38.198647],[145.181817,-38.199064],[145.182029,-38.199097],[145.19673,-38.199549],[145.200993,-38.199669],[145.209598,-38.19991],[145.215767,-38.200652],[145.216459,-38.19698],[145.21715,-38.193307],[145.217468,-38.191621],[145.218087,-38.188356],[145.218738,-38.184927],[145.219166,-38.182579],[145.22007,-38.177766],[145.220299,-38.176883],[145.220538,-38.176002],[145.220774,-38.174812],[145.220691,-38.174484],[145.220765,-38.174097],[145.221737,-38.168976],[145.221751,-38.168905],[145.22275,-38.164029],[145.22296,-38.163007],[145.223155,-38.161641],[145.223635,-38.15919],[145.223884,-38.157917],[145.224421,-38.154994],[145.226199,-38.145656],[145.226216,-38.145569],[145.226527,-38.14394],[145.22694,-38.141763],[145.226965,-38.141635],[145.227477,-38.138949],[145.227949,-38.136467],[145.228338,-38.13395],[145.229566,-38.127663],[145.229612,-38.127428],[145.229703,-38.12696],[145.229708,-38.126934],[145.229956,-38.125668],[145.230239,-38.124217],[145.230673,-38.121999],[145.230731,-38.121705],[145.231627,-38.117259],[145.23223,-38.114268],[145.232348,-38.113683],[145.232624,-38.112312],[145.233674,-38.107106],[145.233696,-38.106997],[145.235699,-38.097367]],[[145.08059733793286,-38.107904429357724],[145.08028189787825,-38.10794815758874],[145.0790038944555,-38.103159620430404],[145.07877581160787,-38.1031762165439],[145.07743884513422,-38.098406698887054],[145.07725821430014,-38.09840841947251],[145.07588546405452,-38.09365044356039],[145.07573478367442,-38.09364272239559],[145.0743380059968,-38.08889249594173],[145.0742079907024,-38.088878235763346],[145.07279396575066,-38.08413357180548],[145.0726790834378,-38.08411451027643],[145.07125207634058,-38.07937403314464],[145.071148760265,-38.07935129451646],[145.06971162814168,-38.07461408270917],[145.0696174424927,-38.074588436812306],[145.0681721927679,-38.06985384289511],[145.06808539936296,-38.06982584023685],[145.0675462779408,-38.06806858500455],[145.0671788886863,-38.06565968189129],[145.0673249269641,-38.065351227197226],[145.0695609416265,-38.066145076151585],[145.07082696254207,-38.0680621044303],[145.07109190324417,-38.06486986549258],[145.07127212757874,-38.06453748685089],[145.07164074495887,-38.064270374436354],[145.07193716402006,-38.06865245718837],[145.07282672878358,-38.06852397546069],[145.07333947226493,-38.07345420159927],[145.07408064635575,-38.07336579178959],[145.0747143256678,-38.07826306393218],[145.07535095342436,-38.078202925405215],[145.07607284961176,-38.0830761598285],[145.0766317837098,-38.08303705238747],[145.0774208737577,-38.08789197789469],[145.07791977213202,-38.08786913418777],[145.07876174792972,-38.092709649657834],[145.07921285017343,-38.09269976181116],[145.08009753396644,-38.09752864056716],[145.08050967628876,-38.09752931855629],[145.08142957046363,-38.10234860357934],[145.08180934233442,-38.10235806389275],[145.08275876432668,-38.10716930357073],[145.08311121162825,-38.10718617972974],[145.0840857518097,-38.111990575586574],[145.08441482457118,-38.11201379738125],[145.0854109924699,-38.11681230048241],[145.08559387059074,-38.11682930258718],[145.08714257031713,-38.11634563251129],[145.08723003517164,-38.11634069681826],[145.0878078574385,-38.119231645874066],[145.08605550163773,-38.11842620646216],[145.0867327481579,-38.12162457474728],[145.08836718650485,-38.12123939536914],[145.0886984716478,-38.12284444997348],[145.0878549504907,-38.125516369190954],[145.08804201970008,-38.12638485664265],[145.08951147309494,-38.126147267715254],[145.08959782663575,-38.126556699556545],[145.08960921876832,-38.131139156424794],[145.0905854850414,-38.13105106550181],[145.0910322537809,-38.13594855135974],[145.09169358141108,-38.13593454503146],[145.0923238035693,-38.140675556636026],[145.09019943538823,-38.13665858969636],[145.0908420354048,-38.13953287711195],[145.08984766725763,-38.13858324014333],[145.09007755008878,-38.1401773249661],[145.0882923669385,-38.137064712222475],[145.08864461527997,-38.136859349729576],[145.08886595614862,-38.136784790919165],[145.08963307196478,-38.13641174968224],[145.08691451131563,-38.13222852532358],[145.0876252618946,-38.131899527691246],[145.08763940407115,-38.13189017983453],[145.0856740561406,-38.12733561147626],[145.0859336374202,-38.12718008633076],[145.08411227391963,-38.12257323674132],[145.0842702140624,-38.122455271655014],[145.08355440938402,-38.12057402044087],[145.08467369930838,-38.11937947293683],[145.0839284251019,-38.11732826505507],[145.08313189871944,-38.11755042149018],[145.08229712126825,-38.112618855468426],[145.0817598883182,-38.11273021313251],[145.08059733793286,-38.107904429357724]],[[145.08340829073862,-38.09667574886984],[145.08293522551986,-38.101158292267684],[145.0815533580112,-38.09723112377815],[145.08184100736608,-38.09704455228717],[145.08320345991478,-38.096719197832364],[145.0807785554288,-38.09218677363874],[145.08164121853417,-38.09193933152087],[145.0800363752891,-38.08721388490401],[145.08040299097092,-38.087090735005866],[145.07897954542307,-38.082322572024395],[145.0792160941785,-38.08223125014556],[145.07787236802366,-38.077444312209],[145.0780467929063,-38.07736803290218],[145.07674788331028,-38.07257053947502],[145.0768856012385,-38.0725030954397],[145.07561541052505,-38.067698837722624],[145.07572881318677,-38.06763722387684],[145.0751609564332,-38.06545296133964],[145.0767312385778,-38.063129421102595],[145.07692076363165,-38.06303645686343],[145.0778033397354,-38.0671971727919],[145.07884086077462,-38.07208834341795],[145.07987838181384,-38.07697951404401],[145.08091590285304,-38.08187068467007],[145.08195342389226,-38.086761855296125],[145.08299094493145,-38.091653025922184],[145.0840259260949,-38.09653222284819],[145.08340829073862,-38.09667574886984]],[[145.0886214164554,-38.10576168994809],[145.08773507600964,-38.10086919678187],[145.08779450030596,-38.10082532519707],[145.08691951099414,-38.095930944575144],[145.08696917039438,-38.09588876817478],[145.0861023880012,-38.090993022848494],[145.08614484759278,-38.09095208907856],[145.0852842753811,-38.08605531104274],[145.08532120410266,-38.086015327641555],[145.08446549500974,-38.08111774088121],[145.0844980404597,-38.081078508041244],[145.08364624282964,-38.07618027080029],[145.0836752283285,-38.076141645833474],[145.08282664495144,-38.07124287404929],[145.08285268139235,-38.07120475148082],[145.0820255016291,-38.06641392773321],[145.08219421003798,-38.06624796917879],[145.0823178734063,-38.06265560835268],[145.08384951350578,-38.062472066805796],[145.08596197160958,-38.062972516250795],[145.08629869161211,-38.06575045625836],[145.0869003484525,-38.07071412516819],[145.08750200529292,-38.07567779407802],[145.0881036621333,-38.08064146298784],[145.08870531897372,-38.08560513189767],[145.08930697581414,-38.090568800807496],[145.08990863265453,-38.09553246971733],[145.09051028949494,-38.10049613862716],[145.09111194633533,-38.10545980753698],[145.09171360317575,-38.11042347644681],[145.09231526001616,-38.11538714535664],[145.09291691685655,-38.120350814266466],[145.09351857369697,-38.1253144831763],[145.094110311129,-38.13019631696737],[145.09352606344444,-38.13030831058655],[145.09105819361557,-38.12572054727873],[145.09202314522253,-38.12549574723466],[145.09090536505195,-38.12064171461288],[145.09113314665046,-38.12056702883792],[145.09015140431003,-38.115690394833],[145.0902859243626,-38.11563312543702],[145.08935573261405,-38.11074792283125],[145.08945104729293,-38.11069772564602],[145.08854797644648,-38.10580801420224],[145.0886214164554,-38.10576168994809]],[[145.09182001135474,-38.130646620415995],[145.09198238050413,-38.13056801073176],[145.09293290481176,-38.13043413211437],[145.0932758671679,-38.135417096173725],[145.09362143263147,-38.13539933160498],[145.09418218369362,-38.13994962365524],[145.09243934424174,-38.13566130194839],[145.09249776721163,-38.135631644255064],[145.09306591508775,-38.13544254491084],[145.09182001135474,-38.130646620415995]],[[145.08269416559494,-38.10210525724663],[145.08315638999642,-38.10184653479852],[145.0839621136636,-38.10169201830424],[145.08459097051846,-38.1066473790939],[145.08500412441376,-38.10658717317688],[145.08584275277573,-38.11149310037078],[145.0861072265665,-38.1114664895377],[145.08688961169872,-38.11559344786266],[145.0846799972773,-38.11193803375086],[145.08578381842136,-38.111505601597436],[145.083778460167,-38.106995537289905],[145.08444933524785,-38.1066774229391],[145.08269416559494,-38.10210525724663]],[[145.06621681869055,-38.08127162656787],[145.06715740470617,-38.08078818251624],[145.0646105744314,-38.07652731453594],[145.06527153294832,-38.07615296424675],[145.0629168345787,-38.07181854758888],[145.0634235385379,-38.07150411013221],[145.0618749396656,-38.06847254663612],[145.06198472205034,-38.06729786899376],[145.06217641156027,-38.06688711954515],[145.06246457966742,-38.06662275773434],[145.06393418463463,-38.06787917944784],[145.06503085187202,-38.0709254773325],[145.06672444921193,-38.075629914392366],[145.06841804655184,-38.08033435145224],[145.07011164389172,-38.085038788512115],[145.07180524123163,-38.08974322557198],[145.0728033720125,-38.092515811077035],[145.06991871240862,-38.092784717179896],[145.06903515413023,-38.09090615738852],[145.06907758609157,-38.090853277469016],[145.07144040898893,-38.08987456517922],[145.06751032085697,-38.08614299007493],[145.06913417616485,-38.08539067689345],[145.06621681869055,-38.08127162656787]],[[145.0735147380729,-38.09449182791356],[145.07359582523281,-38.09471707002465],[145.07263318740016,-38.09919146791874],[145.07088092486237,-38.09555765347795],[145.0710165705893,-38.09540785589316],[145.0735147380729,-38.09449182791356]]],[[[145.02160983021352,-38.11497774846304],[145.02050228980153,-38.11648210485257],[145.01910028587452,-38.11948888320081],[145.0211711373714,-38.12061843856283],[145.0255606152359,-38.12301269921638],[145.02995009310038,-38.125406959869935],[145.03433957096487,-38.12780122052349],[145.03872904882937,-38.13019548117704],[145.04311852669386,-38.13258974183059],[145.04750800455838,-38.134984002484146],[145.05189748242285,-38.13737826313769],[145.05628696028734,-38.139772523791244],[145.06067643815183,-38.1421667844448],[145.06506591601632,-38.14456104509836],[145.0694553938808,-38.1469553057519],[145.07384487174528,-38.149349566405455],[145.07823434960977,-38.15174382705901],[145.0826238274743,-38.15413808771256],[145.08701330533876,-38.156532348366106],[145.09114028682464,-38.15878342917679],[145.09230014793582,-38.15719688147688],[145.08827048819924,-38.154227513122116],[145.08834467684085,-38.15388292570951],[145.08448837345412,-38.15071975341645],[145.08447219317515,-38.15050927722987],[145.08066049234662,-38.14729589870851],[145.0806150965273,-38.14712456089526],[145.07682384337008,-38.14388811842714],[145.07676352943085,-38.14373586716404],[145.07298401004337,-38.140486176121065],[145.0729145728136,-38.14034529571976],[145.06914266513056,-38.13708700505623],[145.0690670548049,-38.13695368948683],[145.06530048435815,-38.13368936640062],[145.06522041365685,-38.13356145252958],[145.0614577929238,-38.130292663958535],[145.06137434640655,-38.13016880276862],[145.05761476669676,-38.126896575303064],[145.0575286752456,-38.12677586810141],[145.0537715091045,-38.1235009108171],[145.05368328894255,-38.12338272853636],[145.0499280849496,-38.12010555169608],[145.0498381143497,-38.119989436688506],[145.0460845369005,-38.11671041971439],[145.04599310138917,-38.11659602857877],[145.04319200685674,-38.114147022246335],[145.04175331461605,-38.11480366921689],[145.04122770597323,-38.115172973009244],[145.0336927437069,-38.118545433758555],[145.0278573862493,-38.11880195235884],[145.02602192166225,-38.11753292804605],[145.02312196812645,-38.11704191551223],[145.02160983021352,-38.11497774846304]]],[[[145.02652564308045,-38.07638945449758],[145.02790332891175,-38.08200010990577],[145.02803030032408,-38.08235802498644],[145.02904090288544,-38.081734247657536],[145.0297892186453,-38.07837869435279],[145.0335174762187,-38.078639744879325],[145.03397510952271,-38.07655989906509],[145.03236321726905,-38.07604279534629],[145.0319467930885,-38.075091309506206],[145.02874285324287,-38.07479661133253],[145.02883642937957,-38.07668894078666],[145.02652564308045,-38.07638945449758]]],[[[145.02615347875803,-38.072537005036644],[145.02585593741298,-38.07366206365155],[145.0261812161811,-38.074986768484884],[145.02846916682677,-38.0743598398345],[145.0277606409546,-38.07215884922497],[145.02615347875803,-38.072537005036644]]],[[[145.02387450776962,-38.0404001048376],[145.02288376459495,-38.046551460878874],[145.02338055494707,-38.05879684467557],[145.02345399204364,-38.0588989401513],[145.02637363941446,-38.06295796210616],[145.0292932867853,-38.067016984061006],[145.0302095024004,-38.06829074723328],[145.03199652123647,-38.07001539120752],[145.03353070146275,-38.06839289418773],[145.03386149416534,-38.06702920533808],[145.0318277119684,-38.0651939764733],[145.03233860078302,-38.0619998480712],[145.0309523836387,-38.05966447941881],[145.03097525127282,-38.05663661858374],[145.02989433289113,-38.054266414278864],[145.02972411879685,-38.05129542599723],[145.0275584966805,-38.04577464821912],[145.02387450776962,-38.0404001048376]]],[[[145.09253947832795,-38.1570247315457],[145.09443727865596,-38.159537647058904],[145.0945303136807,-38.158580185419765],[145.09448264386558,-38.15835555761453],[145.09350519794447,-38.15653596418674],[145.09277159166547,-38.156803904953534],[145.09253947832795,-38.1570247315457]]],[[[145.09204020556624,-38.15317488675292],[145.09274564298138,-38.15354686845323],[145.093559709924,-38.15360700055081],[145.09364567717734,-38.15308387884981],[145.0934277830891,-38.15143922282958],[145.09331337887252,-38.1509873579556],[145.09285704890956,-38.151062221753065],[145.09270486915986,-38.151122332191704],[145.09206299664112,-38.151482273408305],[145.09087272156302,-38.15233736229956],[145.09204020556624,-38.15317488675292]]],[[[145.08927341702764,-38.135212652457795],[145.08971905877198,-38.13637500009028],[145.09008007314802,-38.13629991643247],[145.09068119141278,-38.1360230191346],[145.08901724483397,-38.13157753934005],[145.08927341702764,-38.135212652457795]]],[[[145.08641272187214,-38.127035756002364],[145.08636176041318,-38.12705776547549],[145.08825552558127,-38.13160859274988],[145.08895880221192,-38.13139277083901],[145.0890371627417,-38.13134320293732],[145.08641272187214,-38.127035756002364]]],[[[145.08693140826443,-38.12678309912589],[145.0871569728305,-38.12669025052329],[145.085318961686,-38.12210736196063],[145.0846090278949,-38.122358467702774],[145.08693140826443,-38.12678309912589]]],[[[145.0608915911124,-38.065410876133804],[145.06014477832682,-38.06388461292233],[145.0596235197962,-38.064065996466745],[145.05966318905107,-38.06549863377106],[145.0608915911124,-38.065410876133804]]],[[[145.06473309968408,-38.06286222103706],[145.06187956054805,-38.06217189031286],[145.06277453708427,-38.06465793624922],[145.06473309968408,-38.06286222103706]]],[[[145.04822599428763,-38.05091374391299],[145.05026179043915,-38.05548052987573],[145.0522975865907,-38.06004731583846],[145.05359112191633,-38.062949030218356],[145.05574316056232,-38.06311242470694],[145.05390186911683,-38.05933215374868],[145.05409691001003,-38.05921109565783],[145.05196511086598,-38.05472121836035],[145.05212208278746,-38.05461652045475],[145.05002090359366,-38.050113603620154],[145.0501516232586,-38.0500201708761],[145.0480724053714,-38.04550790171305],[145.04818390759786,-38.04542270660102],[145.04579423659473,-38.04018701348644],[145.0444488647356,-38.04244072356434],[145.04619019813612,-38.046346957950256],[145.04822599428763,-38.05091374391299]]],[[[145.03145926297216,-38.07128858521921],[145.02995367467489,-38.074005867865516],[145.03160176627065,-38.07355122517112],[145.03269004540067,-38.07180300682192],[145.03203272823117,-38.07115365221683],[145.03145926297216,-38.07128858521921]]],[[[145.03905119476053,-38.07162675799457],[145.0430345397742,-38.070501237215694],[145.04227011023218,-38.06874485644736],[145.0418877183028,-38.06883483101915],[145.03905119476053,-38.07162675799457]]],[[[145.043633465557,-38.07043759974813],[145.04787739908076,-38.06920839255877],[145.0471166065124,-38.067604504379275],[145.04701248390373,-38.067629003816656],[145.043633465557,-38.07043759974813]]],[[[145.05217131390157,-38.06806323201569],[145.05182388734485,-38.06662335606999],[145.04819434766296,-38.06927660383286],[145.05217131390157,-38.06806323201569]]],[[[145.04754034496338,-38.038338079877974],[145.05010192652367,-38.044643511412616],[145.05198381175805,-38.0492758442984],[145.05386569699243,-38.05390817718418],[145.0557475822268,-38.05854051006996],[145.05730044779173,-38.06236294838469],[145.05941744540584,-38.06142866990813],[145.05767697034491,-38.05775669614717],[145.05796727537805,-38.05752596856293],[145.05590984913462,-38.05307774037662],[145.05616177079654,-38.05286181810999],[145.05413806969378,-38.048400677012246],[145.05435962539778,-38.04819645835128],[145.0523630067627,-38.04372494756576],[145.05255993480583,-38.0435302148621],[145.04929845525893,-38.036129710837244],[145.04754034496338,-38.038338079877974]]],[[[145.05486926783266,-38.04269885497327],[145.05656286517257,-38.04740329203313],[145.05825646251245,-38.05210772909301],[145.05995005985235,-38.05681216615288],[145.06157434685073,-38.06132407448608],[145.06475137608479,-38.05943300540453],[145.0635576428826,-38.05557205024258],[145.06348646309172,-38.05553906098795],[145.06202026744123,-38.05081122187639],[145.06195285888302,-38.05077702640091],[145.06048316211266,-38.04605031633511],[145.0604190391757,-38.04601506939335],[145.05894627654297,-38.041289348005606],[145.05888504181598,-38.041253176340696],[145.05523187152514,-38.02955474806461],[145.05387353935478,-38.0305603373113],[145.05156169035416,-38.03351113974615],[145.05486926783266,-38.04269885497327]]],[[[145.0658354755086,-38.03924254158488],[145.06152197926835,-38.03477992756917],[145.06303882163763,-38.04008887585618],[145.0658354755086,-38.03924254158488]]]]},"bbox":[145.01910028587452,-38.210386,145.239583,-38.017650868900255]}]}