{"type":"FeatureCollection","features":[
{"properties":{"electorateShortName":"dunkley","electorateName":"Dunkley","area":147.83,"state":"VIC"},"type":"Feature","geometry":{"type":"MultiPolygon","coordinates":[[[[145.239583,-38.077677],[145.231287,-38.076758],[145.212605,-38.074372],[145.194728,-38.072144],[145.157571,-38.067578],[145.155222,-38.067251],[145.15027,-38.067299],[145.14941,-38.063963],[145.141821,-38.043226],[145.13936,-38.044303],[145.132643,-38.046587],[145.129297,-38.046468],[145.124446,-38.048103],[145.12341,-38.047984],[145.115427,-38.050674],[145.115731,-38.051315],[145.112848,-38.052151],[145.101611,-38.030262],[145.090609,-38.014952],[145.086158,-38.010835],[145.084145,-38.011152],[145.080235,-38.004839],[145.069208,-37.995219],[145.051691,-37.98682],[145.05142245124944,-37.986949326448055],[145.0429242627663,-37.995488217053264],[145.03289596497365,-38.01082701065793],[145.02618266950893,-38.02787919555803],[145.02306272563592,-38.04593774744054],[145.0236654936793,-38.06425391561377],[145.02796598143627,-38.082068267999304],[145.03218478771575,-38.09403797034446],[145.03342715468798,-38.09951496669676],[145.03106676695108,-38.10213252579455],[145.02050228980153,-38.11648210485257],[145.01297198548087,-38.132631814243894],[145.00877104061382,-38.1499485881585],[145.0084270372579,-38.158613051456456],[145.00741745904423,-38.16317904865964],[145.00645648745856,-38.169128783218945],[145.0063465728677,-38.175977111260636],[145.00538281754197,-38.180492259153056],[145.0050781733501,-38.19787420644414],[145.0081210552276,-38.2149904493027],[145.01439792802998,-38.23120235133597],[145.02367459086176,-38.24590501865924],[145.02692724060802,-38.25007426133127],[145.028268,-38.246738],[145.027394,-38.242731],[145.02859,-38.239029],[145.027611,-38.235102],[145.025691,-38.234286],[145.026596,-38.22784],[145.025502,-38.226506],[145.028908,-38.22641],[145.031692,-38.223573],[145.031794,-38.218538],[145.033537,-38.216981],[145.03242,-38.212673],[145.033874,-38.212129],[145.034025,-38.214574],[145.03542,-38.21494],[145.044952,-38.213405],[145.061688,-38.201202],[145.071279,-38.188753],[145.073957,-38.180281],[145.078551,-38.173571],[145.084028,-38.171029],[145.088287,-38.163556],[145.091199,-38.162621],[145.093463,-38.164217],[145.097905,-38.162404],[145.098749,-38.163815],[145.099922,-38.164416],[145.100395,-38.16661],[145.101705,-38.166413],[145.101351,-38.16894],[145.099133,-38.172455],[145.09759,-38.173618],[145.096581,-38.175425],[145.096587,-38.177266],[145.095794,-38.180036],[145.096063,-38.181938],[145.096783,-38.183717],[145.096781,-38.184926],[145.094796,-38.190753],[145.105317,-38.204247],[145.110146,-38.210303],[145.110461,-38.210386],[145.117932,-38.205104],[145.128944,-38.199996],[145.133534,-38.195668],[145.139662,-38.197277],[145.147995,-38.194073],[145.152387,-38.194479],[145.15431,-38.191689],[145.157557,-38.183941],[145.159062,-38.181571],[145.163473,-38.185203],[145.180746,-38.198345],[145.182029,-38.199097],[145.209598,-38.19991],[145.215767,-38.200652],[145.221737,-38.168976],[145.227949,-38.136467],[145.228338,-38.13395],[145.230731,-38.121705],[145.233696,-38.106997],[145.237135,-38.090427],[145.239583,-38.077677]]],[[[145.259036,-38.2438],[145.27996947449623,-38.263433290358314],[145.29029999535695,-38.2510983338918],[145.29203457975532,-38.24786831150069],[145.277306,-38.24593],[145.277426,-38.244692],[145.274132,-38.244101],[145.27367,-38.242177],[145.27858,-38.234076],[145.273637,-38.229236],[145.271575,-38.222965],[145.26792,-38.224662],[145.262894,-38.222079],[145.261358,-38.222433],[145.26028155137382,-38.22344557982533],[145.259059,-38.22575],[145.25422,-38.22361],[145.251337,-38.226912],[145.255331,-38.226436],[145.254169,-38.228189],[145.255552,-38.232477],[145.252791,-38.231841],[145.252526,-38.23345],[145.254441,-38.237032],[145.261488,-38.241072],[145.261634,-38.24254],[145.259036,-38.2438]]]]},"bbox":[145.0050781733501,-38.263433290358314,145.29203457975532,-37.98682]}]}