{"type":"FeatureCollection","features":[
{"properties":{"electorateShortName":"durack","electorateName":"Durack","area":1410946.74,"state":"WA"},"type":"Feature","geometry":{"type":"MultiPolygon","coordinates":[[[[129.000535,-23.440312],[129.000483,-19.018525],[129.00044,-15.387439],[129.001242,-14.879473],[128.90806,-14.856078],[128.83179,-14.859459],[128.738228,-14.839079],[128.693078,-14.799552],[128.603464,-14.804782],[128.542665,-14.770512],[128.436395,-14.812151],[128.439065,-14.851941],[128.477134,-14.911612],[128.401045,-14.938512],[128.354835,-14.887401],[128.289216,-14.974082],[128.228166,-15.003152],[128.194027,-15.093513],[128.221067,-15.130853],[128.220238,-15.203753],[128.271008,-15.271304],[128.258018,-15.306325],[128.188169,-15.228784],[128.128299,-15.183684],[128.11164,-15.239254],[128.128171,-15.291725],[128.11867,-15.415576],[128.067131,-15.335325],[128.082401,-15.285745],[128.097609,-15.164854],[128.074948,-15.103994],[128.113357,-14.993273],[128.110816,-14.936302],[128.157696,-14.840559],[128.183877,-14.744259],[128.130907,-14.66414],[128.086867,-14.64621],[128.014096,-14.569825],[127.962707,-14.590376],[127.931777,-14.556775],[127.943436,-14.522254],[127.854647,-14.486534],[127.788277,-14.388424],[127.779667,-14.333224],[127.670388,-14.195967],[127.503158,-14.072758],[127.449119,-14.054059],[127.455478,-13.980239],[127.347398,-13.906579],[127.305599,-13.95386],[127.265579,-13.90193],[127.226629,-13.94252],[127.16981,-13.91064],[127.1373,-13.974241],[127.06935,-13.896161],[127.08142,-13.839971],[127.01105,-13.822662],[126.984139,-13.756761],[126.931959,-13.741422],[126.881,-13.748662],[126.792723,-13.784917],[126.744768,-13.788042],[126.772811,-13.860723],[126.809481,-13.916793],[126.856951,-13.940923],[126.855761,-13.971603],[126.786802,-13.970273],[126.740683,-13.997003],[126.754752,-14.047863],[126.720363,-14.089854],[126.649604,-14.131425],[126.575465,-14.228705],[126.562614,-14.169996],[126.515445,-14.157416],[126.499484,-14.100186],[126.456894,-14.099326],[126.539223,-13.964375],[126.464884,-14.005626],[126.393904,-14.017746],[126.300928,-14.140187],[126.357087,-14.186897],[126.25745,-14.237917],[126.22476,-14.221408],[126.179398,-14.130359],[126.221697,-14.110478],[126.175176,-14.057949],[126.132355,-13.94449],[126.074915,-13.91575],[126.072786,-13.962491],[126.095626,-14.01477],[126.029287,-14.034671],[126.022678,-14.09139],[126.100497,-14.07496],[126.152198,-14.125679],[126.157299,-14.178528],[126.12779,-14.233048],[126.057671,-14.246859],[126.082891,-14.303509],[126.045812,-14.35916],[125.996134,-14.39637],[126.047843,-14.48051],[126.041913,-14.53672],[126.000293,-14.55499],[125.964754,-14.51923],[125.903864,-14.56442],[125.934304,-14.62155],[125.857494,-14.61344],[125.849274,-14.55916],[125.802115,-14.4723],[125.714256,-14.481967],[125.661604,-14.445623],[125.676044,-14.360327],[125.710573,-14.300925],[125.673773,-14.290226],[125.629212,-14.233576],[125.589942,-14.244537],[125.587904,-14.357856],[125.620084,-14.413364],[125.595155,-14.466911],[125.606295,-14.509268],[125.506116,-14.517595],[125.465226,-14.545461],[125.437247,-14.594601],[125.405627,-14.544831],[125.374447,-14.575771],[125.335667,-14.555772],[125.282477,-14.578602],[125.287848,-14.628982],[125.228318,-14.663192],[125.146709,-14.752173],[125.192979,-14.791203],[125.209439,-14.855063],[125.274109,-14.858232],[125.316609,-14.895442],[125.277989,-14.931343],[125.230709,-14.919133],[125.213719,-14.969813],[125.278739,-14.959303],[125.285599,-14.999193],[125.371139,-14.996682],[125.399389,-15.067282],[125.385399,-15.144152],[125.31512,-15.154663],[125.23102,-15.102163],[125.17175,-15.144293],[125.05901,-15.028274],[125.01895,-15.007954],[125.034991,-15.102154],[124.974441,-15.135314],[124.895172,-15.113514],[124.849122,-15.149794],[124.865912,-15.235955],[124.907942,-15.245664],[124.876142,-15.305305],[124.920082,-15.356465],[125.026372,-15.300314],[125.102851,-15.305454],[125.062622,-15.460934],[125.026223,-15.491354],[124.952562,-15.386305],[124.770573,-15.302065],[124.719723,-15.261615],[124.690543,-15.274895],[124.661984,-15.354946],[124.696433,-15.353296],[124.668904,-15.428606],[124.677064,-15.478196],[124.617854,-15.466096],[124.603024,-15.505226],[124.554674,-15.502796],[124.517204,-15.468627],[124.483155,-15.475497],[124.430075,-15.560787],[124.435596,-15.637698],[124.402466,-15.685178],[124.392146,-15.745538],[124.415626,-15.872288],[124.483296,-15.887108],[124.479296,-15.925078],[124.516376,-15.979718],[124.599745,-15.820257],[124.675485,-15.777966],[124.716515,-15.793486],[124.712865,-15.835956],[124.656075,-15.854387],[124.586335,-15.982828],[124.589036,-16.113358],[124.560716,-16.119458],[124.516996,-16.171009],[124.468946,-16.102569],[124.432266,-16.182029],[124.383067,-16.22727],[124.418787,-16.35899],[124.480476,-16.35644],[124.570956,-16.32929],[124.673426,-16.350389],[124.703356,-16.401319],[124.452377,-16.40649],[124.387487,-16.34562],[124.340597,-16.424491],[124.256728,-16.409591],[124.224718,-16.417551],[124.169798,-16.305801],[124.124448,-16.280432],[123.990609,-16.260132],[123.941719,-16.289073],[123.98038,-16.347443],[123.825361,-16.322823],[123.79055,-16.200473],[123.738379,-16.152773],[123.67061,-16.151934],[123.63111,-16.174994],[123.5749,-16.169424],[123.56674,-16.203495],[123.59945,-16.247304],[123.550201,-16.283154],[123.596101,-16.318033],[123.640321,-16.308693],[123.697421,-16.337533],[123.697213,-16.414851],[123.667413,-16.4345],[123.540362,-16.394534],[123.512912,-16.424014],[123.599233,-16.448731],[123.625213,-16.49044],[123.583003,-16.519362],[123.507942,-16.490554],[123.491002,-16.546015],[123.615142,-16.554332],[123.507271,-16.657736],[123.61776,-16.679497],[123.717589,-16.784868],[123.76872,-16.888688],[123.79612,-16.911838],[123.855909,-16.892497],[123.796449,-17.004007],[123.817891,-17.054487],[123.829603,-17.134649],[123.807264,-17.169159],[123.761123,-17.087749],[123.704423,-17.042679],[123.660033,-17.039649],[123.642932,-16.997789],[123.585064,-17.0349],[123.587615,-17.092841],[123.646226,-17.183951],[123.623806,-17.198661],[123.602928,-17.339401],[123.573848,-17.367192],[123.582759,-17.424752],[123.545078,-17.496361],[123.52419,-17.433202],[123.459279,-17.350613],[123.388768,-17.307613],[123.383408,-17.240033],[123.344578,-17.162732],[123.290602,-17.107721],[123.278176,-17.035544],[123.234835,-16.969948],[123.148254,-16.920208],[123.163393,-16.858986],[123.157883,-16.807376],[123.110623,-16.783917],[123.103453,-16.745297],[123.050614,-16.690788],[122.968734,-16.56188],[123.000424,-16.52715],[122.991924,-16.45677],[123.018264,-16.40883],[122.924874,-16.397131],[122.901524,-16.434981],[122.896825,-16.500081],[122.847726,-16.546502],[122.780027,-16.578753],[122.741798,-16.683403],[122.757428,-16.746053],[122.734458,-16.777653],[122.63741,-16.800705],[122.58249,-16.764166],[122.533801,-16.836947],[122.589581,-16.951107],[122.536532,-16.957027],[122.490252,-16.913657],[122.467632,-16.968838],[122.424282,-16.960348],[122.366353,-16.997639],[122.351043,-17.036949],[122.303974,-17.06055],[122.253195,-17.11985],[122.270795,-17.15469],[122.226375,-17.186451],[122.201656,-17.245921],[122.173206,-17.263592],[122.150017,-17.355372],[122.145169,-17.560353],[122.172549,-17.601233],[122.199649,-17.684823],[122.1987,-17.774314],[122.212131,-17.852943],[122.193871,-17.997405],[122.255371,-17.958204],[122.351888,-17.975223],[122.372597,-17.993713],[122.380958,-18.070664],[122.362544,-18.128334],[122.32278,-18.161726],[122.214613,-18.204036],[122.130022,-18.307426],[122.063513,-18.325816],[122.017415,-18.390527],[121.903643,-18.464057],[121.823393,-18.446858],[121.792294,-18.482498],[121.764754,-18.552828],[121.792255,-18.642598],[121.717273,-18.706368],[121.618145,-18.706309],[121.649746,-18.757699],[121.645816,-18.79938],[121.564597,-18.96711],[121.517109,-19.080101],[121.465639,-19.163582],[121.333221,-19.341653],[121.210132,-19.466302],[121.113922,-19.538571],[120.981888,-19.621038],[120.631003,-19.770045],[120.567994,-19.786216],[120.322975,-19.875736],[120.195936,-19.913908],[120.133206,-19.912429],[119.972766,-19.933001],[119.813248,-19.972013],[119.745078,-19.966444],[119.741138,-20.005914],[119.615468,-20.065656],[119.573409,-20.074716],[119.490312,-20.018016],[119.258261,-19.972083],[119.218269,-19.953213],[119.11869,-19.961713],[119.068349,-20.015393],[118.99383,-20.035794],[118.976411,-20.095514],[118.940872,-20.144755],[118.896502,-20.167756],[118.815754,-20.281018],[118.768224,-20.281728],[118.676765,-20.326659],[118.561962,-20.294396],[118.491045,-20.334271],[118.297766,-20.351633],[118.166098,-20.385193],[118.134758,-20.371573],[117.992309,-20.472155],[117.943268,-20.497636],[117.914228,-20.547098],[117.871818,-20.561138],[117.85412,-20.606039],[117.774291,-20.66422],[117.693452,-20.686001],[117.641661,-20.664991],[117.526991,-20.713971],[117.442572,-20.730602],[117.347532,-20.735652],[117.274002,-20.723162],[117.193602,-20.686452],[117.200013,-20.63253],[117.174346,-20.594753],[117.106752,-20.653043],[117.084502,-20.636063],[116.988127,-20.658549],[116.898773,-20.724107],[116.828193,-20.708718],[116.793713,-20.663573],[116.819102,-20.580795],[116.808738,-20.529266],[116.739932,-20.641089],[116.619424,-20.726719],[116.525909,-20.752861],[116.45945,-20.822651],[116.345391,-20.838822],[116.29085,-20.877693],[116.20459,-20.833754],[116.191621,-20.933015],[116.130452,-20.997017],[115.989383,-21.040109],[115.881502,-21.121142],[115.833533,-21.205602],[115.821505,-21.251523],[115.767424,-21.254113],[115.652546,-21.315654],[115.518576,-21.446576],[115.492747,-21.485766],[115.416139,-21.541929],[115.290847,-21.595521],[115.204046,-21.598001],[115.147166,-21.640612],[115.108809,-21.631568],[115.048926,-21.682012],[114.967966,-21.675413],[114.916195,-21.690823],[114.769466,-21.795086],[114.720886,-21.798786],[114.643606,-21.848927],[114.642507,-21.909328],[114.607048,-21.99042],[114.570598,-22.001781],[114.504859,-22.123566],[114.50364,-22.161037],[114.45539,-22.206948],[114.45207,-22.265635],[114.40872,-22.331167],[114.3814,-22.445677],[114.35485,-22.500606],[114.32087,-22.487347],[114.31744,-22.440617],[114.26197,-22.440626],[114.21861,-22.497188],[114.14957,-22.520139],[114.121799,-22.472668],[114.159618,-22.366934],[114.182368,-22.343522],[114.084757,-22.191275],[114.080266,-22.154135],[114.140754,-21.943042],[114.148873,-21.866652],[114.191014,-21.814581],[114.161215,-21.786211],[114.078749,-21.815962],[113.995084,-21.875463],[113.924886,-22.006985],[113.866887,-22.151067],[113.832909,-22.274589],[113.78031,-22.37676],[113.74938,-22.408421],[113.737741,-22.471031],[113.654012,-22.583393],[113.709393,-22.715284],[113.771424,-22.785264],[113.816655,-22.906935],[113.829426,-23.030908],[113.812495,-23.082769],[113.770855,-23.13065],[113.764476,-23.180351],[113.791947,-23.283782],[113.779729,-23.470595],[113.75326,-23.528236],[113.70047,-23.575201],[113.613213,-23.630908],[113.567276,-23.752229],[113.531906,-23.774839],[113.513827,-23.84733],[113.470308,-23.898561],[113.4587,-24.013642],[113.429991,-24.032653],[113.419422,-24.090333],[113.443343,-24.181694],[113.390165,-24.223995],[113.405446,-24.294155],[113.399528,-24.411406],[113.406958,-24.484176],[113.489939,-24.575957],[113.617272,-24.736344],[113.646983,-24.864515],[113.677804,-24.924985],[113.665985,-25.022706],[113.697706,-25.086596],[113.739897,-25.127367],[113.817067,-25.173566],[113.847168,-25.270127],[113.891339,-25.337007],[113.90205,-25.410088],[113.98629,-25.554959],[113.990189,-25.58992],[114.045179,-25.669004],[114.119555,-25.728185],[114.119404,-25.755256],[114.232095,-25.87567],[114.256917,-25.989661],[114.194667,-25.983571],[114.239278,-26.072702],[114.253839,-26.155372],[114.191179,-26.168333],[114.20403,-26.244795],[114.23798,-26.283905],[114.217271,-26.363776],[114.166352,-26.390016],[114.089562,-26.467617],[114.053862,-26.419217],[113.980802,-26.354197],[113.950481,-26.267597],[113.93522,-26.181837],[113.947559,-26.143006],[113.880028,-26.071046],[113.78024,-26.213409],[113.72102,-26.196729],[113.703228,-26.12593],[113.699924,-26.044962],[113.734327,-26.013658],[113.731638,-25.949526],[113.761857,-25.878595],[113.720357,-25.851835],[113.691993,-25.789351],[113.606655,-25.714325],[113.585384,-25.640184],[113.537754,-25.625765],[113.515162,-25.555774],[113.472752,-25.558264],[113.431983,-25.625725],[113.414475,-25.724737],[113.478696,-25.783337],[113.464296,-25.808577],[113.512917,-25.852117],[113.517617,-25.919578],[113.559108,-25.946398],[113.567249,-26.038799],[113.588669,-26.094389],[113.620809,-26.100899],[113.68805,-26.217539],[113.75352,-26.233319],[113.836641,-26.280818],[113.883561,-26.341009],[113.870522,-26.40194],[113.889024,-26.4815],[113.863654,-26.536721],[113.812366,-26.576002],[113.814227,-26.603852],[113.697006,-26.611464],[113.676678,-26.667895],[113.628695,-26.540193],[113.591365,-26.578704],[113.558225,-26.574004],[113.577194,-26.504623],[113.552323,-26.469113],[113.567072,-26.433343],[113.527382,-26.356572],[113.486573,-26.396523],[113.479871,-26.271092],[113.44431,-26.168001],[113.37877,-26.153651],[113.336712,-26.344944],[113.318521,-26.239123],[113.31903,-26.116832],[113.260891,-26.191223],[113.19725,-26.173983],[113.277522,-26.294014],[113.329004,-26.433725],[113.503515,-26.588595],[113.584357,-26.671426],[113.756407,-26.892138],[113.966426,-27.232014],[114.051992,-27.391057],[114.103051,-27.499391],[114.158784,-27.693008],[114.105093,-27.849492],[114.137659,-27.946277],[114.175106,-28.1109],[114.239521,-28.186845],[114.321181,-28.230331],[114.405392,-28.335488],[114.432984,-28.394242],[114.494687,-28.450561],[114.556284,-28.53412],[114.6017,-28.624143],[114.618976,-28.719306],[114.606372,-28.773958],[114.634522,-28.874875],[114.696743,-28.942045],[114.831984,-29.066018],[114.872084,-29.116741],[114.920793,-29.255486],[114.926874,-29.312732],[114.997569,-29.493548],[114.977133,-29.55739],[114.957949,-29.683704],[114.959298,-29.770488],[114.9818,-29.852865],[114.977788,-29.945078],[114.959264,-30.049314],[114.984038,-30.079087],[115.00622,-30.159243],[114.992691,-30.207583],[115.032096,-30.242117],[115.057312,-30.50379],[115.103602,-30.591548],[115.190247,-30.793067],[115.250986,-30.873152],[115.325324,-30.998787],[115.383226,-31.121401],[115.440517,-31.276682],[115.5504,-31.42737],[115.560745,-31.45522],[115.670095,-31.455129],[115.678385,-31.477001],[115.855007,-31.474564],[115.861396,-31.627194],[115.955359,-31.682999],[115.982838,-31.741886],[116.094234,-31.742279],[116.099034,-31.695844],[116.148679,-31.667658],[116.150741,-31.527592],[116.165808,-31.527666],[116.16518,-31.354327],[116.245571,-31.354112],[116.245005,-31.23057],[116.360671,-31.236504],[116.40254,-31.307601],[116.498913,-31.298133],[116.547855,-31.276656],[116.568785,-31.311746],[116.625346,-31.273595],[116.597809,-31.395178],[116.600232,-31.509432],[116.650585,-31.488068],[116.762718,-31.50384],[116.818969,-31.484561],[116.86034,-31.519217],[116.961452,-31.68298],[116.989337,-31.761261],[117.020857,-31.784291],[117.134159,-31.817336],[117.185362,-31.795475],[117.288631,-31.856223],[117.428026,-31.807919],[117.484607,-31.838794],[117.648654,-31.813906],[117.87919,-31.811603],[117.992069,-31.828698],[117.991937,-31.708666],[118.053204,-31.72003],[118.2356,-31.696448],[118.378141,-31.6965],[118.378345,-31.78133],[118.66999,-31.78031],[118.789911,-31.757553],[118.738919,-31.695583],[118.804433,-31.695543],[118.804326,-31.61842],[118.755113,-31.618452],[118.740999,-31.555373],[118.738657,-31.259378],[118.81008,-31.217907],[118.811075,-31.149038],[118.870448,-31.074881],[118.863406,-30.962139],[118.918405,-30.967584],[118.95748,-30.926315],[118.917335,-30.847196],[118.859633,-30.817494],[118.784855,-30.81153],[118.755178,-30.720975],[118.751476,-30.632799],[118.507917,-30.203307],[118.508165,-29.636857],[118.4357,-29.279378],[118.435744,-29.105093],[118.720335,-29.106923],[118.720338,-29.292284],[119.200641,-29.290941],[119.344406,-29.110937],[119.663042,-29.112987],[119.775784,-28.915122],[119.802614,-28.847811],[119.80261,-28.464089],[120.045187,-28.464007],[120.044976,-28.291144],[120.196178,-28.291143],[120.196175,-28.047205],[120.154283,-28.047607],[120.157504,-27.612622],[120.074693,-27.612623],[120.058396,-27.502273],[120.058394,-27.290273],[119.584957,-27.290279],[119.584957,-27.242168],[119.332534,-27.242172],[119.201084,-27.231052],[119.201353,-27.169384],[119.236548,-27.062833],[119.287867,-27.008656],[119.339526,-26.863788],[119.411368,-26.785149],[119.44751,-26.768846],[119.528459,-26.644437],[119.613872,-26.552722],[119.804642,-26.440293],[119.804632,-26.382191],[119.867298,-26.256946],[119.921764,-26.187648],[119.961071,-26.085744],[120.00788,-26.027034],[120.118849,-25.754399],[120.088338,-25.527427],[120.085041,-25.338552],[120.136996,-25.232399],[120.202186,-25.192078],[120.18968,-25.142323],[120.115382,-24.997553],[120.105409,-24.940156],[120.055309,-24.844965],[120.05603,-24.73353],[120.042849,-24.707384],[120.08504,-24.552886],[120.078139,-24.476128],[120.111407,-24.456297],[120.132462,-24.370668],[120.183458,-24.330903],[120.219556,-24.246102],[120.321122,-24.108595],[120.41012,-24.017236],[120.43642,-23.953645],[120.493061,-23.866211],[120.610007,-23.812349],[120.671006,-23.72795],[121.004776,-23.727947],[121.004772,-23.440313],[121.504833,-23.440328],[121.842459,-23.440984],[122.483783,-23.440217],[122.99685,-23.442986],[123.558797,-23.444084],[124.120744,-23.443158],[124.668017,-23.440313],[125.489188,-23.446435],[126.001329,-23.44908],[127.815929,-23.440315],[128.483794,-23.441419],[129.000535,-23.440312]]],[[[113.2379,-26.106352],[113.203978,-26.003292],[113.136678,-25.977432],[113.109726,-25.867971],[113.114756,-25.838651],[113.076785,-25.76862],[113.007513,-25.528678],[112.970672,-25.480388],[112.928673,-25.526509],[112.929794,-25.6432],[112.979595,-25.749471],[112.967175,-25.778512],[113.022966,-25.860412],[113.061237,-25.944003],[113.135968,-26.022343],[113.18159,-26.123633],[113.2379,-26.106352]]],[[[115.476919,-20.733548],[115.435609,-20.665658],[115.32717,-20.79935],[115.306821,-20.860441],[115.394931,-20.886431],[115.44745,-20.82889],[115.476919,-20.733548]]],[[[124.655094,-15.398576],[124.568237,-15.28821],[124.504557,-15.28162],[124.49995,-15.319529],[124.459965,-15.362864],[124.478059,-15.389892],[124.547055,-15.387565],[124.517624,-15.441167],[124.566554,-15.444256],[124.655094,-15.398576]]],[[[125.216127,-14.495703],[125.153597,-14.453653],[125.095748,-14.551973],[125.100128,-14.632273],[125.213138,-14.601252],[125.195258,-14.550712],[125.216127,-14.495703]]],[[[128.201957,-15.142463],[128.128347,-15.059813],[128.114008,-15.121604],[128.163138,-15.170753],[128.201957,-15.142463]]],[[[113.921806,-25.883864],[113.913026,-25.826463],[113.855826,-25.810704],[113.858346,-25.868224],[113.921806,-25.883864]]],[[[124.462982,-15.303344],[124.424557,-15.25752],[124.39479,-15.31323],[124.462982,-15.303344]]],[[[125.23087,-15.070653],[125.15378,-15.038653],[125.17508,-15.122053],[125.22886,-15.099573],[125.23087,-15.070653]]],[[[126.620493,-13.889947],[126.510688,-13.869507],[126.513642,-13.907166],[126.620493,-13.889947]]],[[[116.648254,-20.684929],[116.583344,-20.689629],[116.601914,-20.728379],[116.648254,-20.684929]]]]},"bbox":[112.928673,-31.856223,129.001242,-13.741422]}]}