{"type":"FeatureCollection","features":[
{"properties":{"electorateShortName":"eden-monaro","electorateName":"Eden-Monaro","area":31913.08,"state":"NSW"},"type":"Feature","geometry":{"type":"Polygon","coordinates":[[[150.14129,-36.050883],[150.052638,-36.041306],[149.966665,-36.010489],[149.817232,-35.753041],[149.934096,-35.61165],[149.929853,-35.565592],[150.038056,-35.406213],[150.03804,-35.331635],[150.197489,-35.230222],[150.204326,-35.177566],[150.141643,-35.14446],[150.129401,-35.09779],[150.071681,-35.049501],[150.05552,-34.965285],[150.088242,-34.924887],[150.037447,-34.843872],[150.07422,-34.768097],[150.127115,-34.817387],[150.209564,-34.814495],[150.33353,-34.752388],[150.301885,-34.733907],[150.194342,-34.751262],[150.092571,-34.680435],[150.082942,-34.582311],[150.063435,-34.616134],[149.984211,-34.631041],[149.751725,-34.596673],[149.69959,-34.548699],[149.660748,-34.558604],[149.622309,-34.620513],[149.557194,-34.604548],[149.520353,-34.645136],[149.525556,-34.695678],[149.489413,-34.848722],[149.521342,-34.907129],[149.455029,-34.911692],[149.38799,-34.979272],[149.376162,-35.095307],[149.294466,-35.175134],[149.200702,-35.205411],[149.189542,-35.203324],[149.200699,-35.205565],[149.205895,-35.211567],[149.207621,-35.215875],[149.205028,-35.219863],[149.2024562761942,-35.2246254885253],[149.204986,-35.2291],[149.21378450096995,-35.219606008996514],[149.227037,-35.219844],[149.237105,-35.222363],[149.240728,-35.225046],[149.262261,-35.257395],[149.26716,-35.25952],[149.273179,-35.259179],[149.273461,-35.266102],[149.27236,-35.269429],[149.271808,-35.273485],[149.276381,-35.273082],[149.282976,-35.272059],[149.28752,-35.274128],[149.301643,-35.272894],[149.305417,-35.275532],[149.311697,-35.277525],[149.32127,-35.28522],[149.324581,-35.286388],[149.32543411944545,-35.28346401801312],[149.335757,-35.287382],[149.342838,-35.290187],[149.34321081378837,-35.292047070938786],[149.345034,-35.292206],[149.350421,-35.298166],[149.353713,-35.299731],[149.36584,-35.308526],[149.36989643706795,-35.30825819275128],[149.3739990766516,-35.30484994834338],[149.381897,-35.306266],[149.383697,-35.306471],[149.386579,-35.303418],[149.393416,-35.302924],[149.39493600792377,-35.30426006363548],[149.3945002506582,-35.309165662895616],[149.396428,-35.30968],[149.385354,-35.332516],[149.36647844769996,-35.34025979077041],[149.34891329005026,-35.35059901349064],[149.3474992360392,-35.35021786685693],[149.318915,-35.336781],[149.311959,-35.335847],[149.291264,-35.334205],[149.2832949774836,-35.337965011350875],[149.274513,-35.335999],[149.216186,-35.342191],[149.206345,-35.345905],[149.20587187584476,-35.34660455068865],[149.190824,-35.368854],[149.176683,-35.386268],[149.14746133161285,-35.41409143538375],[149.14600182423732,-35.417830879219984],[149.1441347787106,-35.42401006011702],[149.14115945243404,-35.42669599438661],[149.13826074756375,-35.42931275975108],[149.1395210984464,-35.4319047125085],[149.14071080155344,-35.43409798101443],[149.1530644207616,-35.43408574193946],[149.1550672358324,-35.435965935679405],[149.15486803788127,-35.43662655359973],[149.1424874037575,-35.45077258730747],[149.13986491874044,-35.45138271466751],[149.14461757563004,-35.47584857546797],[149.14514354790415,-35.47709489160337],[149.15150696662204,-35.49294338884814],[149.15129973222972,-35.49858240091288],[149.1507035612932,-35.508924535353096],[149.13785901020594,-35.538995386349775],[149.1315148260096,-35.553847989322584],[149.13290283547826,-35.55943848426971],[149.14142541583482,-35.58882967503234],[149.12601351799265,-35.591627775124095],[149.12554975882222,-35.587477215147295],[149.1211960779789,-35.58671417843172],[149.108345,-35.58398],[149.078148,-35.586417],[149.085926,-35.625371],[149.10379585814243,-35.69073293161737],[149.10595517793118,-35.691181055565366],[149.1020428998127,-35.720513553214],[149.1040471304159,-35.725026661153585],[149.09909814391958,-35.729288635856285],[149.10068061078368,-35.73631288048073],[149.09562643764502,-35.74600452961437],[149.0969504053163,-35.7474234483048],[149.09588876574614,-35.7490991680849],[149.0951023743962,-35.75034042884521],[149.09301274759355,-35.75993643810818],[149.09323300979352,-35.7627410605128],[149.09087394496478,-35.76543012169332],[149.0907192230254,-35.76560648681731],[149.0973100291117,-35.77752353090494],[149.09314620116163,-35.78318428848697],[149.0941406384174,-35.787226235054284],[149.0961402401652,-35.787226966437515],[149.09652383640332,-35.78750961629718],[149.10029395448734,-35.791160623507686],[149.10026363359924,-35.79204964142219],[149.09683785772705,-35.79808549006984],[149.0967719950677,-35.79820153299213],[149.09699779385994,-35.79857568445653],[149.10142607289345,-35.80363524268684],[149.1014750726457,-35.80369122766383],[149.10089580764907,-35.8044567296634],[149.09826603523473,-35.80793198891997],[149.0985819136128,-35.8082364842934],[149.100580463547,-35.814715037528096],[149.0946005476632,-35.82125448529158],[149.09451836828947,-35.8308368264235],[149.0943752443011,-35.83109982814736],[149.09567847833307,-35.84564038773923],[149.08437415047786,-35.851252041786864],[149.084513141083,-35.8522268670515],[149.08216249591464,-35.853192117140544],[149.07971599564888,-35.8589806028083],[149.07679480644285,-35.86064281006541],[149.07430098875813,-35.865786110630836],[149.06768734406091,-35.8708262172937],[149.061711,-35.879879],[149.060433,-35.889338],[149.058578,-35.894666],[149.0518727269916,-35.90218979871267],[149.05616585362216,-35.91033588913843],[149.0549108307289,-35.91382934444265],[149.04836268501046,-35.920300975475094],[149.00882,-35.901306],[149.003487,-35.901203],[148.997398,-35.900995],[148.99764835103693,-35.89667857023487],[148.99717964069458,-35.89638664288008],[148.98757191385135,-35.89552429729962],[148.975656,-35.892176],[148.96784872020112,-35.89398520881752],[148.9586210086767,-35.89287280306202],[148.95837823023533,-35.8917671445938],[148.95080080629913,-35.886076413832136],[148.94056586346068,-35.875825653466165],[148.93243003569194,-35.87299534885047],[148.93072724613256,-35.869137664315275],[148.919952801646,-35.85863671825737],[148.92004229238105,-35.85728587104083],[148.90431099286334,-35.83763054423292],[148.90317612814673,-35.835248821571085],[148.90610788537916,-35.83252028068976],[148.90695755667602,-35.83014053650266],[148.90706217755886,-35.82957817137331],[148.90644218267371,-35.82895351352403],[148.88692480512847,-35.809656134316555],[148.89311116112054,-35.79939108276771],[148.89777482138172,-35.794651174822796],[148.89763198155438,-35.79413812167361],[148.89491538217644,-35.776990260501265],[148.89488803763396,-35.77184909021984],[148.90307371441978,-35.75922873289137],[148.888087,-35.737026],[148.88823991093318,-35.73520031964143],[148.8906388586748,-35.7319122031086],[148.892479,-35.730487],[148.892315,-35.728359],[148.8875542290256,-35.720631335322615],[148.88669291273317,-35.71923325011231],[148.87250935263611,-35.721399117416766],[148.86939653496108,-35.72909468639135],[148.86860828517476,-35.73104914163085],[148.86581202151655,-35.73161514810799],[148.86431844249032,-35.73353994195236],[148.8654115712826,-35.74160418809451],[148.86391521533722,-35.748007633125596],[148.862538321887,-35.74920802988355],[148.86132827714752,-35.7505375287646],[148.86073772918016,-35.75287111859575],[148.86113865711818,-35.753966582131795],[148.8608883722961,-35.75926724459301],[148.855670790814,-35.76087283380334],[148.85578775882064,-35.758793496073665],[148.83863,-35.744237],[148.83765,-35.743509],[148.823575,-35.724213],[148.820684,-35.719515],[148.804147,-35.714019],[148.8039421658606,-35.71416967373412],[148.803349,-35.714606],[148.719968,-35.667395],[148.6447,-35.652666],[148.609707,-35.616867],[148.452427,-35.842814],[148.444844,-35.904969],[148.538488,-35.999434],[148.55342,-36.083223],[148.454005,-36.125948],[148.425739,-36.204249],[148.428411,-36.260512],[148.328746,-36.383258],[148.289314,-36.410161],[148.247015,-36.510224],[148.303837,-36.599133],[148.249953,-36.625519],[148.254457,-36.69157],[148.200705,-36.798637],[148.992556,-37.118474],[149.592094,-37.355679],[149.976192,-37.505159],[149.906609,-37.542865],[149.94367766519343,-37.589080499224494],[150.026935857542,-37.57948975353956],[150.04029658466317,-37.56833021357994],[150.05125897438722,-37.554807256327344],[150.05326297438722,-37.55177725632734],[150.0617036692582,-37.53569191368549],[150.0667423691321,-37.518239261125146],[150.06701843343998,-37.45506640788834],[150.04493872797684,-37.38669953546762],[150.11813075403904,-37.32324614953057],[150.14193057342615,-37.261766264116424],[150.08507615287644,-37.097652453553536],[150.03455068113178,-37.05398367905843],[150.02771673370313,-36.89988532015922],[150.08831293075718,-36.69664353355051],[150.15524884441868,-36.577321476849654],[150.17025999319247,-36.40108524370718],[150.21778840583346,-36.348965308725006],[150.28696536780615,-36.32786644884946],[150.31818904780616,-36.22287249613729],[150.2775225262046,-36.16680404257324],[150.21978000895572,-36.14065255804302],[150.2297264463286,-36.112223959216614],[150.23039579313993,-36.08329083591917],[150.2312197429336,-36.08119438299286],[150.23432792075886,-36.063093752337714],[150.21526466958383,-35.999577552097314],[150.17385408952293,-35.95216155035256],[150.14129,-36.050883]]]},"bbox":[148.200705,-37.589080499224494,150.33353,-34.548699]}]}