{"type":"FeatureCollection","features":[
{"properties":{"electorateShortName":"eden-monaro","electorateName":"Eden-Monaro","area":31913.08,"state":"NSW"},"type":"Feature","geometry":{"type":"MultiPolygon","coordinates":[[[[150.33353,-34.752388],[150.331315,-34.75091],[150.325621,-34.744171],[150.320058,-34.743287],[150.313929,-34.740634],[150.308812,-34.736553],[150.304578,-34.734365],[150.301885,-34.733907],[150.297311,-34.736169],[150.29312,-34.736438],[150.285617,-34.734398],[150.278057,-34.733807],[150.277232,-34.732838],[150.270408,-34.732832],[150.267547,-34.736539],[150.262806,-34.738877],[150.257998,-34.739002],[150.256727,-34.741415],[150.253258,-34.741144],[150.250293,-34.739131],[150.246351,-34.740729],[150.243081,-34.74073],[150.243325,-34.742853],[150.24172,-34.744879],[150.236628,-34.744846],[150.23427,-34.745661],[150.2296,-34.742882],[150.227217,-34.746494],[150.223672,-34.74727],[150.216106,-34.747265],[150.216967,-34.748754],[150.214542,-34.750188],[150.21107,-34.753972],[150.207596,-34.754098],[150.202535,-34.757018],[150.197768,-34.755659],[150.194342,-34.751262],[150.189456,-34.754398],[150.190199,-34.757343],[150.187022,-34.758613],[150.18596,-34.76132],[150.183266,-34.761708],[150.180369,-34.764717],[150.177108,-34.762966],[150.175017,-34.764415],[150.173761,-34.767697],[150.171269,-34.769315],[150.169182,-34.769189],[150.17291,-34.748716],[150.176355,-34.74921],[150.178146,-34.740046],[150.178511,-34.73539],[150.177186,-34.735222],[150.178459,-34.728125],[150.17016,-34.726836],[150.169985,-34.723178],[150.170697,-34.719616],[150.159315,-34.717606],[150.141094,-34.715296],[150.143399,-34.702748],[150.130525,-34.700885],[150.124939,-34.70035],[150.119476,-34.699122],[150.116738,-34.699591],[150.118,-34.693232],[150.114279,-34.69274],[150.11523,-34.687913],[150.11171,-34.68737],[150.112608,-34.68363],[150.092571,-34.680435],[150.098483,-34.655064],[150.088592,-34.653437],[150.081541,-34.649351],[150.078817,-34.645618],[150.077828,-34.642512],[150.078388,-34.639572],[150.082857,-34.636785],[150.087113,-34.636693],[150.090834,-34.633916],[150.093986,-34.629695],[150.099629,-34.627263],[150.09724,-34.623978],[150.09697,-34.621445],[150.09981,-34.619273],[150.100903,-34.61674],[150.097594,-34.616789],[150.091331,-34.615387],[150.090063,-34.614303],[150.091522,-34.611858],[150.09265,-34.605824],[150.095264,-34.602999],[150.095497,-34.599654],[150.097481,-34.597398],[150.095913,-34.591873],[150.0934,-34.588353],[150.095669,-34.585987],[150.099031,-34.584975],[150.097613,-34.579867],[150.091927,-34.580097],[150.092105,-34.582911],[150.088996,-34.586248],[150.08732,-34.58641],[150.082942,-34.582311],[150.081903,-34.584894],[150.084721,-34.590665],[150.088807,-34.593117],[150.089062,-34.59609],[150.082447,-34.597239],[150.081222,-34.598684],[150.081995,-34.602529],[150.078048,-34.603621],[150.073554,-34.603882],[150.066254,-34.602894],[150.063435,-34.616134],[150.05824,-34.61721],[150.05482,-34.61027],[150.051419,-34.609823],[150.049688,-34.618469],[150.047599,-34.620233],[150.044245,-34.619818],[150.044708,-34.61724],[150.039882,-34.617519],[150.036885,-34.616858],[150.029995,-34.616606],[150.024859,-34.619311],[150.020168,-34.619924],[150.014091,-34.618827],[150.008403,-34.618891],[150.004877,-34.621502],[150.003735,-34.626348],[149.996776,-34.622528],[149.991419,-34.623433],[149.985827,-34.628346],[149.984211,-34.631041],[149.980677,-34.630975],[149.977832,-34.628804],[149.972965,-34.630443],[149.971399,-34.62938],[149.967515,-34.62168],[149.964775,-34.621232],[149.962655,-34.623433],[149.962882,-34.629863],[149.957345,-34.629207],[149.957044,-34.631042],[149.94944,-34.63015],[149.948957,-34.632623],[149.94459,-34.625104],[149.942637,-34.623886],[149.940273,-34.62531],[149.925836,-34.623459],[149.896544,-34.619348],[149.895405,-34.625068],[149.885995,-34.623835],[149.884328,-34.632489],[149.882094,-34.632207],[149.884195,-34.62125],[149.878675,-34.620318],[149.876432,-34.619214],[149.873014,-34.616061],[149.870324,-34.614652],[149.868357,-34.616625],[149.86487,-34.617707],[149.865964,-34.612151],[149.86168,-34.611555],[149.859961,-34.609223],[149.859981,-34.60619],[149.850369,-34.605116],[149.847986,-34.603329],[149.835555,-34.601693],[149.831496,-34.601768],[149.827614,-34.601038],[149.82406,-34.618624],[149.830218,-34.619466],[149.831426,-34.614596],[149.836412,-34.616653],[149.839832,-34.617067],[149.838596,-34.614197],[149.840661,-34.61366],[149.843089,-34.615649],[149.84967,-34.615869],[149.849918,-34.612159],[149.852892,-34.612541],[149.857101,-34.611826],[149.857581,-34.6151],[149.860189,-34.61572],[149.855028,-34.643461],[149.837997,-34.641255],[149.819989,-34.638517],[149.817195,-34.6532],[149.793149,-34.650146],[149.793915,-34.644987],[149.797604,-34.640128],[149.798956,-34.63526],[149.802461,-34.635729],[149.80428,-34.625351],[149.799231,-34.62486],[149.798685,-34.621745],[149.79974,-34.616398],[149.80492,-34.617099],[149.805809,-34.618833],[149.810618,-34.620978],[149.811896,-34.613837],[149.813847,-34.607893],[149.813741,-34.605102],[149.809584,-34.604185],[149.808086,-34.60277],[149.805192,-34.604864],[149.802542,-34.60552],[149.797404,-34.604617],[149.794272,-34.60537],[149.791797,-34.603875],[149.789155,-34.604049],[149.783367,-34.60613],[149.781852,-34.605096],[149.78263,-34.601672],[149.779074,-34.602766],[149.774388,-34.60291],[149.770806,-34.604064],[149.768177,-34.601002],[149.763379,-34.598103],[149.751725,-34.596673],[149.752332,-34.593638],[149.74889,-34.593173],[149.748386,-34.589855],[149.749277,-34.585383],[149.756106,-34.586158],[149.755034,-34.584236],[149.756494,-34.582857],[149.759136,-34.583211],[149.759785,-34.579887],[149.753974,-34.579117],[149.754717,-34.576462],[149.761389,-34.57731],[149.756725,-34.569223],[149.753675,-34.5688],[149.752835,-34.572837],[149.749124,-34.571943],[149.748663,-34.57019],[149.742699,-34.569366],[149.74312,-34.567186],[149.737,-34.567121],[149.735608,-34.569913],[149.72337,-34.568247],[149.722975,-34.570266],[149.718652,-34.569678],[149.720048,-34.562521],[149.724159,-34.563079],[149.726021,-34.556946],[149.730897,-34.557613],[149.73175,-34.553307],[149.709177,-34.550266],[149.69959,-34.548699],[149.699711,-34.552548],[149.697639,-34.563399],[149.685919,-34.561743],[149.68646,-34.559147],[149.678756,-34.558588],[149.666872,-34.55698],[149.660748,-34.558604],[149.655421,-34.585867],[149.647479,-34.584963],[149.645921,-34.592746],[149.637022,-34.591515],[149.635187,-34.602632],[149.633537,-34.606201],[149.628387,-34.605485],[149.628583,-34.607993],[149.626506,-34.611462],[149.626942,-34.614878],[149.622309,-34.620513],[149.62346,-34.62395],[149.619419,-34.626593],[149.621305,-34.628393],[149.619089,-34.639442],[149.618021,-34.641554],[149.618056,-34.644725],[149.605307,-34.64304],[149.605916,-34.639471],[149.602565,-34.633791],[149.603768,-34.629523],[149.589059,-34.627271],[149.585437,-34.628828],[149.588338,-34.613099],[149.570104,-34.6107],[149.570859,-34.607712],[149.567989,-34.607341],[149.557194,-34.604548],[149.555526,-34.607342],[149.558004,-34.609303],[149.555646,-34.611992],[149.553775,-34.619396],[149.549627,-34.620167],[149.548586,-34.625704],[149.544314,-34.627113],[149.537441,-34.626032],[149.537537,-34.62969],[149.534477,-34.630277],[149.534672,-34.634366],[149.532719,-34.635756],[149.528957,-34.636589],[149.527372,-34.640752],[149.525353,-34.639714],[149.520353,-34.645136],[149.52442,-34.651174],[149.524013,-34.653153],[149.520903,-34.65584],[149.522857,-34.657851],[149.522411,-34.660143],[149.523659,-34.663518],[149.522695,-34.665317],[149.519405,-34.664256],[149.517105,-34.666245],[149.514825,-34.666321],[149.512276,-34.663596],[149.507006,-34.662066],[149.50705,-34.659776],[149.509072,-34.657174],[149.503948,-34.654311],[149.500032,-34.655162],[149.499283,-34.656515],[149.500032,-34.65985],[149.496616,-34.664894],[149.495332,-34.668034],[149.496167,-34.671591],[149.501485,-34.675854],[149.504738,-34.679872],[149.507332,-34.679569],[149.515888,-34.681115],[149.514606,-34.68382],[149.515324,-34.685474],[149.520295,-34.68656],[149.521229,-34.689457],[149.520209,-34.693329],[149.526534,-34.692684],[149.527563,-34.694296],[149.525556,-34.695678],[149.527536,-34.703819],[149.529677,-34.705183],[149.527983,-34.707506],[149.53028,-34.7098],[149.533547,-34.711135],[149.532441,-34.713189],[149.529658,-34.712179],[149.520222,-34.711752],[149.517664,-34.725783],[149.516096,-34.733149],[149.507908,-34.732017],[149.508237,-34.736149],[149.507172,-34.743278],[149.504558,-34.757059],[149.504197,-34.761059],[149.501192,-34.775414],[149.507856,-34.776328],[149.505162,-34.789935],[149.498749,-34.790411],[149.497732,-34.795521],[149.499216,-34.797398],[149.498119,-34.802167],[149.496091,-34.802511],[149.495287,-34.806264],[149.502199,-34.807279],[149.50109,-34.813279],[149.503516,-34.813618],[149.502734,-34.817202],[149.507575,-34.818074],[149.503251,-34.828133],[149.502636,-34.831189],[149.498885,-34.830684],[149.496893,-34.84025],[149.491191,-34.839452],[149.489413,-34.848722],[149.478963,-34.848255],[149.478735,-34.849728],[149.472058,-34.849357],[149.470466,-34.858319],[149.481527,-34.859799],[149.487929,-34.861556],[149.487368,-34.858049],[149.48892,-34.850144],[149.497958,-34.851416],[149.498337,-34.854159],[149.50278,-34.856393],[149.503929,-34.857953],[149.504845,-34.865541],[149.52229,-34.868065],[149.521156,-34.8736],[149.536311,-34.875744],[149.537444,-34.870609],[149.542594,-34.871258],[149.540064,-34.875239],[149.52812,-34.88619],[149.523641,-34.889528],[149.519961,-34.891389],[149.523385,-34.892922],[149.521342,-34.907129],[149.490968,-34.902197],[149.488522,-34.916068],[149.455029,-34.911692],[149.453442,-34.920119],[149.449441,-34.920368],[149.447813,-34.927857],[149.444698,-34.928437],[149.428791,-34.926166],[149.427775,-34.930593],[149.422659,-34.929875],[149.421703,-34.934533],[149.4199,-34.938275],[149.414874,-34.943368],[149.412709,-34.946337],[149.409019,-34.953607],[149.406654,-34.962493],[149.396006,-34.973589],[149.391569,-34.975876],[149.38799,-34.979272],[149.386965,-34.989846],[149.385097,-34.997916],[149.382303,-35.001683],[149.379915,-35.007109],[149.379367,-35.014968],[149.377814,-35.024707],[149.376912,-35.03828],[149.376798,-35.043976],[149.375676,-35.049741],[149.374866,-35.057095],[149.373419,-35.062902],[149.373653,-35.069609],[149.374501,-35.075072],[149.374711,-35.089426],[149.376162,-35.095307],[149.375596,-35.098183],[149.372172,-35.105091],[149.368313,-35.109606],[149.363387,-35.112627],[149.352882,-35.116581],[149.347879,-35.11941],[149.344363,-35.123056],[149.342809,-35.125887],[149.338826,-35.136248],[149.334529,-35.142479],[149.330372,-35.150576],[149.328084,-35.154215],[149.324355,-35.157552],[149.320028,-35.159742],[149.313898,-35.162025],[149.307865,-35.165816],[149.301534,-35.171417],[149.294466,-35.175134],[149.287344,-35.176302],[149.278702,-35.175701],[149.272422,-35.176775],[149.262661,-35.180635],[149.258342,-35.18169],[149.254565,-35.181838],[149.243984,-35.180417],[149.239032,-35.180436],[149.234333,-35.181641],[149.231572,-35.183564],[149.224329,-35.190989],[149.215035,-35.199308],[149.213205,-35.200548],[149.204447,-35.204298],[149.200702,-35.205411],[149.205895,-35.211567],[149.208518,-35.211512],[149.207621,-35.215875],[149.206099,-35.216268],[149.205028,-35.219863],[149.202456,-35.224626],[149.204986,-35.2291],[149.209762,-35.226491],[149.213784,-35.219606],[149.227037,-35.219844],[149.228775,-35.221687],[149.231715,-35.222002],[149.234392,-35.221003],[149.237105,-35.222363],[149.238697,-35.222228],[149.240728,-35.225046],[149.243261,-35.225466],[149.246794,-35.22915],[149.24297,-35.232867],[149.241242,-35.236755],[149.23455,-35.24047],[149.23489,-35.243419],[149.237943,-35.243572],[149.240608,-35.245811],[149.245803,-35.247379],[149.249429,-35.247183],[149.250653,-35.25224],[149.2539,-35.25364],[149.255379,-35.256345],[149.257329,-35.257203],[149.262261,-35.257395],[149.267703,-35.259439],[149.273179,-35.259179],[149.272778,-35.262649],[149.273461,-35.266102],[149.27236,-35.269429],[149.271808,-35.273485],[149.275378,-35.275051],[149.276381,-35.273082],[149.277021,-35.271338],[149.281524,-35.270994],[149.282976,-35.272059],[149.285433,-35.27163],[149.28752,-35.274128],[149.289293,-35.275698],[149.296672,-35.272429],[149.301643,-35.272894],[149.305417,-35.275532],[149.311697,-35.277525],[149.3153,-35.276231],[149.316264,-35.281788],[149.32127,-35.28522],[149.324581,-35.286388],[149.325435,-35.283461],[149.327561,-35.282402],[149.335757,-35.287382],[149.339709,-35.2863],[149.342838,-35.290187],[149.345034,-35.292206],[149.34808,-35.293479],[149.350505,-35.295952],[149.350421,-35.298166],[149.353713,-35.299731],[149.359507,-35.301587],[149.361991,-35.303089],[149.359659,-35.307538],[149.361666,-35.309025],[149.36584,-35.308526],[149.369891,-35.308263],[149.373793,-35.304813],[149.381897,-35.306266],[149.383697,-35.306471],[149.384176,-35.304349],[149.386579,-35.303418],[149.389676,-35.302698],[149.393416,-35.302924],[149.394956,-35.304035],[149.394498,-35.309191],[149.396428,-35.30968],[149.397281,-35.311003],[149.396688,-35.314182],[149.397201,-35.317313],[149.399287,-35.31909],[149.397422,-35.323356],[149.398036,-35.325252],[149.393625,-35.3279],[149.389986,-35.331145],[149.385354,-35.332516],[149.366417,-35.340285],[149.363893,-35.348106],[149.351447,-35.351251],[149.347522,-35.350241],[149.337533,-35.34009],[149.318915,-35.336781],[149.311959,-35.335847],[149.30482,-35.335754],[149.301782,-35.333311],[149.293662,-35.332135],[149.295419,-35.333171],[149.291264,-35.334205],[149.283011,-35.338099],[149.274513,-35.335999],[149.268373,-35.335067],[149.26262,-35.331368],[149.258576,-35.331968],[149.254744,-35.330121],[149.249529,-35.330125],[149.245997,-35.331927],[149.24269,-35.335951],[149.231257,-35.342381],[149.219651,-35.341255],[149.216186,-35.342191],[149.205116,-35.346928],[149.190824,-35.368854],[149.176683,-35.386268],[149.157323,-35.407171],[149.147043,-35.414385],[149.144065,-35.424241],[149.138203,-35.429194],[149.140591,-35.434105],[149.152351,-35.433416],[149.155095,-35.435992],[149.15244,-35.443415],[149.146285,-35.445083],[149.143408,-35.447119],[149.142417,-35.451052],[149.137293,-35.451716],[149.135092,-35.454034],[149.138601,-35.468311],[149.144669,-35.475913],[149.15161,-35.4932],[149.150652,-35.509819],[149.131454,-35.553603],[149.135749,-35.570902],[149.135848,-35.571256],[149.142682,-35.592789],[149.130345,-35.590979],[149.130056,-35.592403],[149.126035,-35.591852],[149.125617,-35.587489],[149.112471,-35.585185],[149.110108,-35.587072],[149.108345,-35.58398],[149.084614,-35.580815],[149.082923,-35.584594],[149.078148,-35.586417],[149.078589,-35.596725],[149.07818,-35.598819],[149.07952,-35.602471],[149.080424,-35.608997],[149.082571,-35.613639],[149.084948,-35.616768],[149.085208,-35.619576],[149.08419,-35.621677],[149.085926,-35.625371],[149.087874,-35.627905],[149.088585,-35.634092],[149.086505,-35.635878],[149.087563,-35.639653],[149.089042,-35.641058],[149.095629,-35.640335],[149.097479,-35.647295],[149.095388,-35.653021],[149.098535,-35.657212],[149.095892,-35.661441],[149.097271,-35.673605],[149.09496,-35.676824],[149.095298,-35.67928],[149.099419,-35.683883],[149.104382,-35.684869],[149.103755,-35.690725],[149.105934,-35.691148],[149.109418,-35.696586],[149.107476,-35.702307],[149.102253,-35.707238],[149.099349,-35.714659],[149.104099,-35.724982],[149.099098,-35.729288],[149.100686,-35.736304],[149.096228,-35.74365],[149.095615,-35.745993],[149.096983,-35.747372],[149.095064,-35.750401],[149.0964,-35.752824],[149.092925,-35.759119],[149.093305,-35.762659],[149.09071,-35.765617],[149.093271,-35.770778],[149.091631,-35.773947],[149.09737,-35.777442],[149.093142,-35.78319],[149.093476,-35.78723],[149.096124,-35.787215],[149.100323,-35.790309],[149.100195,-35.794062],[149.096759,-35.79818],[149.099832,-35.803272],[149.101504,-35.803653],[149.098263,-35.807936],[149.100478,-35.810023],[149.1006,-35.814703],[149.095921,-35.817586],[149.093572,-35.824112],[149.094558,-35.830764],[149.092046,-35.83538],[149.092987,-35.83824],[149.095384,-35.839119],[149.095687,-35.845637],[149.084204,-35.850202],[149.084531,-35.85222],[149.082193,-35.853119],[149.079757,-35.858958],[149.076829,-35.860572],[149.074317,-35.865774],[149.067737,-35.870751],[149.061711,-35.879879],[149.062377,-35.884516],[149.060433,-35.889338],[149.061737,-35.891448],[149.058578,-35.894666],[149.0588,-35.895948],[149.051781,-35.902102],[149.057245,-35.907332],[149.05487,-35.913943],[149.048449,-35.920291],[149.046381,-35.92053],[149.044067,-35.916293],[149.039965,-35.913871],[149.036315,-35.913763],[149.034033,-35.911029],[149.027769,-35.912736],[149.022882,-35.90598],[149.014055,-35.900145],[149.00882,-35.901306],[149.003487,-35.901203],[148.999417,-35.902677],[148.997398,-35.900995],[148.997663,-35.896426],[148.987973,-35.895637],[148.975656,-35.892176],[148.967759,-35.894006],[148.966295,-35.89718],[148.959179,-35.895414],[148.958367,-35.891716],[148.944555,-35.881421],[148.940549,-35.875802],[148.93216,-35.872902],[148.930346,-35.868136],[148.919813,-35.860747],[148.920045,-35.857245],[148.909446,-35.853074],[148.907907,-35.847875],[148.903988,-35.842526],[148.905312,-35.839658],[148.903148,-35.835275],[148.906596,-35.832066],[148.907063,-35.829579],[148.903606,-35.826096],[148.897635,-35.824705],[148.896604,-35.817905],[148.892516,-35.81661],[148.886679,-35.810064],[148.893154,-35.79932],[148.897777,-35.794659],[148.894994,-35.784663],[148.894863,-35.771878],[148.902299,-35.763292],[148.90332,-35.757937],[148.898822,-35.751304],[148.894098,-35.751339],[148.890913,-35.740678],[148.888073,-35.737059],[148.888375,-35.733696],[148.892473,-35.730467],[148.892306,-35.728422],[148.886705,-35.719239],[148.877714,-35.714962],[148.872486,-35.721428],[148.868609,-35.731049],[148.865823,-35.731601],[148.86406,-35.733873],[148.867445,-35.738688],[148.864872,-35.742378],[148.863932,-35.747993],[148.86142,-35.750183],[148.86073,-35.75285],[148.862441,-35.757525],[148.859657,-35.760649],[148.855666,-35.760958],[148.856083,-35.753545],[148.854042,-35.751204],[148.847079,-35.750527],[148.83863,-35.744237],[148.83765,-35.743509],[148.834721,-35.740535],[148.828992,-35.727704],[148.823575,-35.724213],[148.822495,-35.720971],[148.820684,-35.719515],[148.812775,-35.719753],[148.804147,-35.714019],[148.803349,-35.714606],[148.802251,-35.718344],[148.801854,-35.722765],[148.799818,-35.725621],[148.79816,-35.723415],[148.793995,-35.724071],[148.786724,-35.730672],[148.782028,-35.736648],[148.773861,-35.719402],[148.772348,-35.714862],[148.769549,-35.710288],[148.766595,-35.702813],[148.764759,-35.701507],[148.759773,-35.700649],[148.757547,-35.69916],[148.756223,-35.694154],[148.753532,-35.687802],[148.750472,-35.685198],[148.74781,-35.684701],[148.74489,-35.686196],[148.740895,-35.68419],[148.735846,-35.678069],[148.730809,-35.676691],[148.725921,-35.671923],[148.719968,-35.667395],[148.711108,-35.666222],[148.706203,-35.665028],[148.702191,-35.66179],[148.698363,-35.660249],[148.69069,-35.658792],[148.685027,-35.658188],[148.677681,-35.656378],[148.667952,-35.66048],[148.662435,-35.659307],[148.656693,-35.656988],[148.649352,-35.653271],[148.6447,-35.652666],[148.633832,-35.645657],[148.629918,-35.639064],[148.625942,-35.639563],[148.624153,-35.638908],[148.621835,-35.63542],[148.618804,-35.632843],[148.619081,-35.630622],[148.616127,-35.62886],[148.615422,-35.625279],[148.612716,-35.623885],[148.611818,-35.619062],[148.609707,-35.616867],[148.60615,-35.615146],[148.603841,-35.614964],[148.599377,-35.617446],[148.592532,-35.616407],[148.589069,-35.617046],[148.586184,-35.619262],[148.583419,-35.619407],[148.580057,-35.621815],[148.581042,-35.624319],[148.579832,-35.625923],[148.583684,-35.629004],[148.586204,-35.633015],[148.58035,-35.640017],[148.58165,-35.642726],[148.581206,-35.645375],[148.57898,-35.64662],[148.580538,-35.650201],[148.578067,-35.651647],[148.578713,-35.656546],[148.580657,-35.659032],[148.578762,-35.662662],[148.57629,-35.664166],[148.57361,-35.662045],[148.571577,-35.662488],[148.569175,-35.66538],[148.566581,-35.666439],[148.570312,-35.668689],[148.566981,-35.671451],[148.571113,-35.678542],[148.56659,-35.680416],[148.565908,-35.67947],[148.557407,-35.681414],[148.559525,-35.684365],[148.563064,-35.685999],[148.566902,-35.686746],[148.567147,-35.688149],[148.562627,-35.691161],[148.557699,-35.689491],[148.551615,-35.69261],[148.549998,-35.698523],[148.550398,-35.701617],[148.551938,-35.705255],[148.549234,-35.705647],[148.547461,-35.713501],[148.544619,-35.715547],[148.537695,-35.717323],[148.533152,-35.719086],[148.530082,-35.72118],[148.525548,-35.729052],[148.525248,-35.731892],[148.526227,-35.735749],[148.523437,-35.74235],[148.517968,-35.749294],[148.51719,-35.753651],[148.511671,-35.760468],[148.508025,-35.761959],[148.506757,-35.765379],[148.506968,-35.768469],[148.503461,-35.773905],[148.503496,-35.778028],[148.500638,-35.778914],[148.494329,-35.779586],[148.490282,-35.782526],[148.488413,-35.786731],[148.484088,-35.790668],[148.479691,-35.792745],[148.478378,-35.796436],[148.474411,-35.804058],[148.473447,-35.807666],[148.468934,-35.815583],[148.468831,-35.821842],[148.471023,-35.823566],[148.466244,-35.826189],[148.460071,-35.828633],[148.457038,-35.833373],[148.456591,-35.836709],[148.453833,-35.839065],[148.452427,-35.842814],[148.453192,-35.846415],[148.451507,-35.854133],[148.446922,-35.859211],[148.450104,-35.861907],[148.450618,-35.871962],[148.44843,-35.871972],[148.445774,-35.873771],[148.446291,-35.87886],[148.444922,-35.881607],[148.440163,-35.887266],[148.440594,-35.891793],[148.438312,-35.898899],[148.439352,-35.900515],[148.444583,-35.902671],[148.444844,-35.904969],[148.451238,-35.906179],[148.455579,-35.905634],[148.462812,-35.907689],[148.464105,-35.909462],[148.471353,-35.915032],[148.472775,-35.918281],[148.470825,-35.920693],[148.471368,-35.924677],[148.470779,-35.927617],[148.470495,-35.937421],[148.468887,-35.941868],[148.473931,-35.945625],[148.481439,-35.945427],[148.483066,-35.946192],[148.484761,-35.949695],[148.488118,-35.952411],[148.487459,-35.955455],[148.494255,-35.958787],[148.493991,-35.963857],[148.494887,-35.965643],[148.498165,-35.968517],[148.50183,-35.970127],[148.505802,-35.97002],[148.509792,-35.971063],[148.514408,-35.97359],[148.514849,-35.978764],[148.516946,-35.981234],[148.519675,-35.981657],[148.523063,-35.983483],[148.527593,-35.984846],[148.532269,-35.990724],[148.536021,-35.992452],[148.536325,-35.994962],[148.533153,-35.99788],[148.535244,-36.000117],[148.538488,-35.999434],[148.551799,-36.000759],[148.555554,-35.99916],[148.557869,-35.999778],[148.560988,-36.005056],[148.559457,-36.007359],[148.559255,-36.012728],[148.557398,-36.015916],[148.559863,-36.019186],[148.560212,-36.022945],[148.557417,-36.02656],[148.556222,-36.034227],[148.556327,-36.037234],[148.55381,-36.041185],[148.55856,-36.048787],[148.56119,-36.051566],[148.561339,-36.055468],[148.565939,-36.061839],[148.569241,-36.063024],[148.570366,-36.065712],[148.56938,-36.068493],[148.56663,-36.070956],[148.566623,-36.073533],[148.561061,-36.078761],[148.555039,-36.081049],[148.55342,-36.083223],[148.558565,-36.086753],[148.562049,-36.087309],[148.565282,-36.089966],[148.566347,-36.092131],[148.566204,-36.095206],[148.561527,-36.100941],[148.561789,-36.104808],[148.55768,-36.104411],[148.554457,-36.105706],[148.551434,-36.105015],[148.549806,-36.102559],[148.5381,-36.099459],[148.532282,-36.095828],[148.527429,-36.08922],[148.526006,-36.08797],[148.522125,-36.090254],[148.514903,-36.087822],[148.512948,-36.087699],[148.491413,-36.100335],[148.487829,-36.100374],[148.486358,-36.098405],[148.482087,-36.100575],[148.480597,-36.104174],[148.476891,-36.106218],[148.478908,-36.113604],[148.472759,-36.116179],[148.470722,-36.118891],[148.465723,-36.119727],[148.460881,-36.118197],[148.458995,-36.122117],[148.454005,-36.125948],[148.453852,-36.127575],[148.457484,-36.130721],[148.458171,-36.13693],[148.456692,-36.139188],[148.45867,-36.14024],[148.459788,-36.143988],[148.460979,-36.144911],[148.457808,-36.148442],[148.452712,-36.149204],[148.448783,-36.155967],[148.446673,-36.161479],[148.445191,-36.162007],[148.442065,-36.168231],[148.440714,-36.172287],[148.434179,-36.174653],[148.430183,-36.175493],[148.428095,-36.177259],[148.434737,-36.180208],[148.43666,-36.181959],[148.438333,-36.186849],[148.437227,-36.194857],[148.435594,-36.1988],[148.434948,-36.202408],[148.428068,-36.203021],[148.425739,-36.204249],[148.424686,-36.209336],[148.426007,-36.21575],[148.424373,-36.220219],[148.428082,-36.226298],[148.427469,-36.233884],[148.429521,-36.23608],[148.43416,-36.238619],[148.433779,-36.249326],[148.431002,-36.256909],[148.428411,-36.260512],[148.425956,-36.262523],[148.423751,-36.262768],[148.420155,-36.261457],[148.415849,-36.263482],[148.412945,-36.266971],[148.411017,-36.270436],[148.410075,-36.277841],[148.409032,-36.278978],[148.405199,-36.279145],[148.404202,-36.281795],[148.401717,-36.283656],[148.400945,-36.28588],[148.396416,-36.290599],[148.394634,-36.29075],[148.391063,-36.288419],[148.382622,-36.290037],[148.377254,-36.287203],[148.373817,-36.287346],[148.372406,-36.288895],[148.371161,-36.295499],[148.368876,-36.29831],[148.368952,-36.30074],[148.373289,-36.303862],[148.374623,-36.3059],[148.374589,-36.309292],[148.373058,-36.314246],[148.372013,-36.315336],[148.372064,-36.319049],[148.373379,-36.32472],[148.37082,-36.326054],[148.368554,-36.325243],[148.366529,-36.331172],[148.36641,-36.334977],[148.367467,-36.339147],[148.361511,-36.340417],[148.357424,-36.340509],[148.356553,-36.343982],[148.353518,-36.34825],[148.35487,-36.351755],[148.351074,-36.357731],[148.34629,-36.358952],[148.345295,-36.364431],[148.342933,-36.365821],[148.342753,-36.368045],[148.336599,-36.371398],[148.334471,-36.369338],[148.332404,-36.369959],[148.331066,-36.373491],[148.331651,-36.375736],[148.330554,-36.380402],[148.328746,-36.383258],[148.325788,-36.384774],[148.321809,-36.385362],[148.317975,-36.388174],[148.315303,-36.39173],[148.31068,-36.391469],[148.307117,-36.392689],[148.304982,-36.395464],[148.304551,-36.401505],[148.302741,-36.403867],[148.299598,-36.405165],[148.295829,-36.408088],[148.289314,-36.410161],[148.287599,-36.40942],[148.286895,-36.414752],[148.284634,-36.418498],[148.280635,-36.420826],[148.279816,-36.424509],[148.274076,-36.433066],[148.270621,-36.438983],[148.269131,-36.445167],[148.265185,-36.451458],[148.263416,-36.45244],[148.26243,-36.456368],[148.266693,-36.457932],[148.2714,-36.457953],[148.27306,-36.459029],[148.273006,-36.461848],[148.270895,-36.463317],[148.26965,-36.465954],[148.271354,-36.4686],[148.269073,-36.470366],[148.270616,-36.481654],[148.265212,-36.481257],[148.26337,-36.482862],[148.263019,-36.48614],[148.259987,-36.49013],[148.258673,-36.495976],[148.257355,-36.497467],[148.259065,-36.500124],[148.25698,-36.501434],[148.251224,-36.501794],[148.249928,-36.502674],[148.247015,-36.510224],[148.247843,-36.511983],[148.254445,-36.516488],[148.260392,-36.524549],[148.261028,-36.528292],[148.257234,-36.534139],[148.251393,-36.540118],[148.250414,-36.542795],[148.25126,-36.544944],[148.253659,-36.546291],[148.260207,-36.548137],[148.268376,-36.548767],[148.270184,-36.550542],[148.269784,-36.55427],[148.270899,-36.5588],[148.272214,-36.559685],[148.277331,-36.560256],[148.280525,-36.564084],[148.28762,-36.568869],[148.295847,-36.580855],[148.297341,-36.587331],[148.301969,-36.59101],[148.30886,-36.593756],[148.311296,-36.59564],[148.303837,-36.599133],[148.302955,-36.602761],[148.304327,-36.609708],[148.302511,-36.609904],[148.295096,-36.608675],[148.289791,-36.609321],[148.284856,-36.613906],[148.275419,-36.618605],[148.272597,-36.619026],[148.265776,-36.617573],[148.261364,-36.618165],[148.257173,-36.616842],[148.254908,-36.618863],[148.252673,-36.623727],[148.249953,-36.625519],[148.250052,-36.629168],[148.248943,-36.635044],[148.247592,-36.637191],[148.246392,-36.642724],[148.245966,-36.648638],[148.244061,-36.653012],[148.24229,-36.654019],[148.242135,-36.657776],[148.239101,-36.664088],[148.243321,-36.664768],[148.246961,-36.667814],[148.248209,-36.670592],[148.249823,-36.679046],[148.251506,-36.680811],[148.252764,-36.684115],[148.251845,-36.688045],[148.254457,-36.69157],[148.251369,-36.706035],[148.245279,-36.705177],[148.241095,-36.705406],[148.238451,-36.706868],[148.238296,-36.715985],[148.23559,-36.721724],[148.235875,-36.724299],[148.23963,-36.727439],[148.240473,-36.730247],[148.237636,-36.734243],[148.233513,-36.738897],[148.233196,-36.743862],[148.231818,-36.746952],[148.223805,-36.747983],[148.218923,-36.750115],[148.211187,-36.752174],[148.207393,-36.7555],[148.208564,-36.758099],[148.208117,-36.762934],[148.201841,-36.771679],[148.201341,-36.779114],[148.202773,-36.78452],[148.200678,-36.791097],[148.202126,-36.797419],[148.200705,-36.798637],[148.251246,-36.819266],[148.354087,-36.86124],[148.424936,-36.890059],[148.523569,-36.929898],[148.679955,-36.993066],[148.752737,-37.022464],[148.798383,-37.040901],[148.875055,-37.071533],[148.992556,-37.118474],[149.053074,-37.142652],[149.134539,-37.175197],[149.206151,-37.203617],[149.27469,-37.230621],[149.356271,-37.262765],[149.442228,-37.296632],[149.490948,-37.315828],[149.592094,-37.355679],[149.677578,-37.388999],[149.726398,-37.408028],[149.794194,-37.434454],[149.876212,-37.466423],[149.976192,-37.505159],[149.978196,-37.502129],[149.973986,-37.498286],[149.974922,-37.4947],[149.977295,-37.493278],[149.974384,-37.488447],[149.975835,-37.487738],[149.973809,-37.482602],[149.975363,-37.48167],[149.976762,-37.474017],[149.97632,-37.471313],[149.972893,-37.468817],[149.972451,-37.465165],[149.973828,-37.459417],[149.977038,-37.456943],[149.974807,-37.454637],[149.975041,-37.449496],[149.97364,-37.447761],[149.97541,-37.44545],[149.966972,-37.439859],[149.967118,-37.435542],[149.963945,-37.432957],[149.963664,-37.430861],[149.96087,-37.428542],[149.961363,-37.426599],[149.956554,-37.423509],[149.95653,-37.416115],[149.953872,-37.409552],[149.955636,-37.404587],[149.95368,-37.394588],[149.955242,-37.387617],[149.95184,-37.376254],[149.949831,-37.374669],[149.951181,-37.366104],[149.957081,-37.351221],[149.963338,-37.340525],[149.96895,-37.336203],[149.969213,-37.329622],[149.972162,-37.328523],[149.96679,-37.31284],[149.968865,-37.312924],[149.967462,-37.309075],[149.957567,-37.298723],[149.950848,-37.295648],[149.951209,-37.288696],[149.942936,-37.282524],[149.944008,-37.277729],[149.952408,-37.263619],[149.962841,-37.253629],[149.966632,-37.252059],[149.966025,-37.249843],[149.9774,-37.243141],[149.98687,-37.23995],[149.990881,-37.240342],[149.993509,-37.245053],[150.01009,-37.249914],[150.010232,-37.252499],[150.013111,-37.255496],[150.016126,-37.25455],[150.020724,-37.25568],[150.026972,-37.259132],[150.029262,-37.258679],[150.030402,-37.256027],[150.040152,-37.259206],[150.044789,-37.258854],[150.048743,-37.263135],[150.051932,-37.262273],[150.046698,-37.254073],[150.042713,-37.252011],[150.04171,-37.247997],[150.037587,-37.246016],[150.035602,-37.243842],[150.035078,-37.239084],[150.030915,-37.237878],[150.032561,-37.234901],[150.029571,-37.230396],[150.030849,-37.228166],[150.027834,-37.222515],[150.021337,-37.218882],[150.019301,-37.215003],[150.015304,-37.216027],[150.015217,-37.214332],[150.019073,-37.212253],[150.022997,-37.21332],[150.023489,-37.211984],[150.021514,-37.208711],[150.022633,-37.206777],[150.020353,-37.205169],[150.020902,-37.202463],[150.015613,-37.201124],[150.015827,-37.199082],[150.019594,-37.197142],[150.017718,-37.190948],[150.020127,-37.190268],[150.02095,-37.185432],[150.015626,-37.181205],[150.011993,-37.180514],[150.01291,-37.176508],[150.009777,-37.173793],[150.010134,-37.171515],[150.004994,-37.170559],[150.003048,-37.168523],[150.002736,-37.163914],[150.004924,-37.163533],[150.005532,-37.161428],[150.00955,-37.161268],[150.005886,-37.151023],[150.007215,-37.148911],[150.004599,-37.14645],[150.004869,-37.141269],[149.999103,-37.141549],[149.993418,-37.138685],[149.987312,-37.138611],[149.983811,-37.136842],[149.980333,-37.130121],[149.9769,-37.130971],[149.976332,-37.127419],[149.970836,-37.127568],[149.968962,-37.125682],[149.971312,-37.117834],[149.969295,-37.116514],[149.966904,-37.118207],[149.964359,-37.115308],[149.959864,-37.114791],[149.958769,-37.111359],[149.954218,-37.108416],[149.95232,-37.108727],[149.953789,-37.100888],[149.948674,-37.104389],[149.946041,-37.103472],[149.94324,-37.105383],[149.938777,-37.101003],[149.938309,-37.09858],[149.932566,-37.099181],[149.928158,-37.101793],[149.92984,-37.104958],[149.929726,-37.110113],[149.924403,-37.111782],[149.922762,-37.110009],[149.9147,-37.109496],[149.911385,-37.1118],[149.900064,-37.105475],[149.893487,-37.097087],[149.886502,-37.103689],[149.878305,-37.101044],[149.872759,-37.093308],[149.872235,-37.091243],[149.874,-37.088239],[149.872514,-37.083208],[149.876396,-37.080923],[149.878738,-37.076806],[149.886499,-37.076391],[149.890401,-37.07747],[149.890807,-37.074646],[149.897058,-37.072281],[149.901876,-37.069158],[149.904566,-37.071446],[149.909283,-37.071447],[149.91031,-37.075639],[149.914847,-37.076119],[149.917265,-37.072817],[149.910354,-37.06835],[149.912898,-37.066816],[149.909715,-37.064129],[149.909916,-37.062083],[149.915492,-37.052727],[149.923414,-37.046306],[149.933304,-37.050595],[149.937288,-37.050102],[149.9431,-37.056276],[149.944652,-37.053996],[149.944593,-37.049025],[149.940838,-37.043825],[149.944432,-37.04173],[149.939397,-37.038901],[149.94166,-37.033609],[149.939898,-37.031216],[149.94129,-37.029958],[149.940742,-37.026715],[149.943927,-37.024166],[149.943234,-37.018731],[149.947176,-37.018986],[149.947732,-37.017556],[149.939964,-37.016693],[149.937584,-37.013133],[149.939591,-37.011962],[149.937774,-37.008857],[149.934504,-37.010243],[149.930788,-37.007831],[149.927494,-37.000756],[149.926665,-36.99206],[149.927898,-36.977168],[149.933505,-36.959335],[149.939062,-36.950893],[149.945918,-36.94913],[149.932952,-36.946553],[149.928804,-36.941873],[149.923473,-36.943289],[149.923314,-36.946426],[149.920394,-36.947689],[149.913436,-36.944592],[149.908606,-36.939094],[149.905328,-36.931263],[149.903966,-36.922997],[149.904788,-36.914648],[149.910042,-36.903386],[149.919697,-36.895441],[149.926329,-36.897558],[149.933249,-36.903004],[149.938102,-36.902453],[149.936307,-36.898932],[149.933237,-36.899165],[149.929592,-36.894714],[149.930012,-36.889074],[149.932536,-36.888134],[149.935305,-36.884159],[149.9313,-36.883991],[149.930163,-36.882338],[149.930172,-36.873988],[149.933532,-36.865279],[149.939116,-36.857512],[149.945212,-36.854542],[149.945213,-36.851645],[149.939825,-36.850471],[149.938742,-36.847789],[149.93641,-36.84685],[149.934352,-36.844126],[149.934175,-36.836919],[149.936752,-36.826749],[149.939388,-36.822572],[149.93881,-36.82017],[149.940621,-36.811683],[149.945056,-36.802947],[149.953738,-36.792314],[149.958626,-36.789689],[149.962337,-36.791492],[149.96348,-36.789482],[149.962479,-36.787568],[149.967162,-36.78743],[149.96798,-36.783958],[149.971127,-36.781497],[149.971335,-36.779465],[149.974124,-36.774947],[149.977309,-36.765895],[149.979174,-36.764611],[149.980161,-36.75814],[149.983877,-36.753796],[149.981012,-36.752205],[149.983214,-36.74998],[149.980764,-36.748019],[149.981787,-36.745503],[149.985114,-36.74365],[149.98277,-36.741585],[149.984522,-36.73991],[149.987596,-36.735025],[149.987013,-36.732874],[149.990847,-36.73072],[149.989185,-36.729243],[149.991869,-36.725572],[149.990966,-36.724512],[149.983718,-36.72721],[149.979306,-36.722228],[149.978639,-36.714203],[149.982757,-36.702281],[149.984761,-36.699658],[149.98785,-36.699938],[149.988671,-36.697615],[149.99116,-36.697576],[149.990185,-36.69404],[149.997116,-36.692217],[149.99341,-36.691033],[149.992487,-36.687797],[149.993558,-36.68574],[149.999328,-36.685645],[149.998856,-36.681806],[149.995694,-36.681011],[149.994564,-36.678438],[149.999881,-36.665002],[150.011805,-36.646325],[150.015573,-36.644299],[150.014666,-36.640946],[150.016744,-36.63587],[150.022121,-36.626042],[150.02721,-36.621651],[150.029393,-36.618994],[150.031384,-36.610623],[150.03677,-36.603323],[150.042377,-36.596707],[150.041784,-36.594848],[150.045155,-36.592812],[150.043531,-36.590976],[150.044143,-36.589002],[150.051462,-36.583305],[150.055482,-36.581845],[150.058028,-36.579313],[150.055295,-36.575357],[150.055783,-36.570668],[150.057413,-36.570148],[150.0627,-36.555876],[150.068277,-36.554172],[150.065877,-36.547563],[150.062614,-36.544638],[150.057277,-36.543901],[150.055537,-36.540206],[150.056284,-36.52921],[150.057605,-36.526381],[150.06049,-36.525384],[150.059378,-36.517988],[150.060765,-36.516337],[150.059011,-36.510048],[150.061195,-36.509191],[150.062206,-36.50655],[150.061152,-36.503648],[150.058036,-36.501513],[150.060675,-36.497105],[150.056378,-36.4971],[150.055037,-36.495297],[150.054818,-36.488115],[150.056758,-36.480614],[150.06241,-36.469288],[150.069799,-36.460731],[150.073652,-36.459095],[150.074011,-36.456964],[150.071201,-36.453364],[150.071423,-36.448136],[150.073305,-36.446696],[150.07238,-36.4442],[150.075859,-36.441775],[150.074412,-36.439697],[150.078445,-36.432944],[150.080913,-36.43272],[150.08476,-36.429194],[150.082699,-36.422783],[150.078017,-36.425185],[150.074896,-36.42379],[150.074887,-36.421878],[150.070198,-36.422343],[150.067383,-36.41891],[150.06532,-36.406374],[150.068941,-36.393006],[150.076899,-36.379626],[150.080611,-36.377548],[150.080838,-36.374487],[150.083311,-36.372919],[150.079326,-36.369259],[150.093005,-36.34995],[150.111436,-36.331004],[150.116885,-36.329113],[150.115788,-36.327736],[150.120489,-36.322894],[150.124307,-36.320491],[150.127437,-36.320541],[150.127353,-36.31864],[150.131203,-36.316547],[150.135273,-36.311369],[150.136439,-36.305905],[150.139723,-36.304902],[150.134219,-36.30254],[150.134137,-36.298801],[150.131559,-36.293956],[150.133565,-36.292191],[150.130755,-36.288952],[150.13876,-36.275335],[150.145811,-36.267901],[150.148569,-36.266969],[150.147763,-36.262871],[150.144835,-36.259958],[150.146102,-36.254097],[150.143496,-36.249566],[150.145144,-36.240295],[150.147542,-36.237994],[150.141582,-36.227016],[150.140756,-36.220637],[150.142481,-36.21778],[150.137569,-36.215364],[150.132015,-36.206964],[150.13162,-36.203206],[150.133113,-36.201373],[150.130927,-36.199566],[150.132561,-36.193356],[150.132253,-36.190422],[150.133267,-36.185352],[150.13192,-36.181055],[150.133898,-36.179073],[150.132838,-36.174403],[150.135859,-36.172524],[150.135437,-36.170667],[150.131481,-36.169406],[150.133479,-36.166112],[150.131025,-36.166107],[150.130306,-36.16298],[150.126691,-36.162177],[150.125418,-36.16014],[150.124334,-36.141924],[150.128798,-36.119013],[150.13455,-36.106223],[150.138333,-36.103503],[150.136469,-36.101323],[150.137539,-36.097026],[150.141502,-36.094435],[150.134597,-36.091658],[150.133861,-36.087611],[150.136032,-36.086626],[150.133682,-36.08457],[150.132475,-36.080872],[150.135084,-36.06907],[150.134482,-36.065902],[150.137374,-36.065698],[150.138681,-36.06344],[150.141666,-36.063714],[150.142047,-36.05829],[150.144535,-36.056992],[150.141419,-36.053646],[150.14129,-36.050883],[150.139938,-36.049072],[150.134623,-36.046484],[150.128419,-36.044872],[150.125564,-36.039405],[150.12536,-36.037493],[150.127795,-36.035629],[150.125489,-36.034478],[150.123989,-36.031596],[150.119341,-36.029122],[150.119835,-36.027985],[150.11562,-36.025008],[150.11587,-36.021217],[150.10484,-36.019871],[150.103193,-36.022619],[150.100029,-36.024809],[150.089442,-36.023388],[150.085026,-36.022247],[150.083514,-36.0228],[150.084762,-36.016312],[150.083835,-36.01619],[150.085094,-36.009695],[150.080295,-36.011188],[150.078119,-36.010912],[150.074777,-36.008335],[150.070907,-36.009208],[150.066964,-36.01211],[150.064295,-36.012106],[150.061663,-36.01716],[150.058923,-36.015953],[150.057361,-36.01233],[150.054301,-36.009264],[150.052115,-36.01993],[150.05356,-36.020138],[150.05028,-36.035655],[150.05352,-36.036569],[150.052638,-36.041306],[150.030846,-36.038177],[150.029338,-36.039609],[150.023026,-36.037994],[150.02196,-36.0369],[150.014268,-36.035793],[150.01502,-36.032365],[150.003422,-36.030681],[150.004167,-36.027329],[149.994146,-36.020303],[149.991548,-36.020286],[149.985369,-36.017413],[149.980512,-36.014521],[149.979138,-36.012518],[149.971933,-36.009169],[149.966665,-36.010489],[149.965206,-36.007787],[149.855705,-35.809015],[149.859796,-35.795142],[149.837634,-35.786406],[149.826941,-35.778131],[149.824958,-35.763239],[149.817232,-35.753041],[149.817356,-35.749602],[149.820648,-35.745059],[149.818616,-35.743848],[149.818138,-35.739615],[149.814402,-35.7363],[149.818132,-35.733504],[149.822735,-35.734519],[149.825287,-35.728889],[149.829816,-35.725133],[149.830246,-35.721324],[149.838721,-35.723793],[149.839891,-35.72276],[149.838349,-35.718662],[149.838718,-35.716328],[149.840917,-35.7148],[149.843685,-35.717013],[149.845995,-35.717459],[149.84929,-35.714841],[149.851493,-35.716035],[149.851564,-35.718883],[149.853893,-35.720146],[149.856847,-35.719476],[149.858306,-35.717047],[149.862616,-35.713806],[149.861464,-35.711407],[149.875458,-35.688275],[149.890393,-35.666336],[149.904062,-35.644347],[149.908399,-35.637019],[149.915654,-35.63802],[149.917782,-35.635544],[149.922055,-35.634334],[149.920079,-35.623145],[149.921935,-35.621057],[149.921992,-35.618577],[149.924278,-35.615923],[149.927372,-35.613891],[149.934096,-35.61165],[149.934245,-35.609052],[149.933371,-35.601819],[149.936329,-35.59496],[149.933224,-35.5876],[149.931649,-35.585995],[149.929019,-35.578612],[149.93093,-35.571775],[149.929853,-35.565592],[149.93065,-35.564288],[149.936133,-35.561516],[149.940246,-35.563675],[149.945965,-35.565714],[149.94824,-35.561737],[149.941329,-35.560716],[149.94285,-35.553309],[149.949419,-35.553218],[149.951979,-35.551942],[149.949281,-35.5498],[149.950938,-35.545259],[149.956147,-35.544326],[149.955365,-35.542513],[149.95134,-35.542496],[149.949166,-35.54055],[149.948148,-35.537659],[149.949173,-35.533429],[149.949323,-35.529432],[149.957434,-35.53073],[149.959893,-35.520231],[149.964045,-35.500787],[149.967182,-35.501888],[149.970396,-35.500581],[149.97505,-35.502973],[149.979007,-35.50246],[149.980371,-35.498434],[149.977443,-35.492064],[149.9774,-35.490247],[149.984012,-35.486435],[149.998742,-35.478744],[150.002058,-35.475315],[150.003473,-35.471765],[150.003983,-35.463062],[150.00586,-35.460507],[150.005018,-35.456441],[150.005519,-35.454109],[150.004259,-35.451109],[150.005391,-35.449181],[150.005378,-35.444573],[150.006562,-35.442971],[150.011202,-35.44145],[150.014081,-35.437419],[150.007436,-35.430683],[150.007298,-35.429058],[150.010876,-35.424016],[150.017923,-35.419233],[150.019891,-35.413282],[150.023195,-35.411063],[150.026321,-35.41031],[150.028411,-35.411096],[150.032974,-35.409895],[150.038056,-35.406213],[150.03819,-35.400093],[150.041141,-35.394143],[150.040872,-35.391872],[150.041956,-35.383131],[150.041795,-35.38008],[150.040343,-35.37957],[150.038737,-35.37542],[150.038443,-35.371235],[150.037014,-35.36742],[150.041095,-35.364542],[150.044911,-35.358536],[150.044039,-35.354695],[150.046721,-35.347397],[150.042132,-35.345622],[150.04258,-35.34172],[150.038004,-35.334237],[150.03804,-35.331635],[150.040196,-35.32835],[150.041609,-35.323806],[150.044663,-35.317827],[150.047397,-35.315651],[150.051054,-35.315626],[150.049844,-35.312397],[150.051053,-35.309066],[150.053093,-35.309068],[150.059799,-35.306551],[150.062927,-35.306383],[150.067782,-35.309166],[150.071484,-35.307452],[150.074898,-35.306849],[150.080905,-35.30421],[150.085367,-35.305263],[150.087254,-35.30093],[150.084514,-35.297755],[150.08258,-35.29272],[150.086044,-35.291091],[150.090035,-35.292515],[150.097391,-35.293294],[150.101728,-35.290452],[150.103024,-35.285844],[150.106661,-35.285429],[150.113762,-35.290943],[150.114848,-35.293761],[150.119526,-35.292527],[150.121069,-35.291332],[150.12103,-35.285714],[150.12219,-35.283854],[150.125283,-35.281961],[150.133541,-35.279441],[150.133983,-35.276876],[150.137655,-35.273471],[150.140454,-35.272963],[150.144132,-35.270554],[150.147838,-35.27008],[150.151921,-35.266784],[150.15594,-35.269053],[150.16437,-35.269778],[150.166889,-35.26644],[150.164432,-35.264452],[150.162682,-35.259596],[150.161001,-35.257476],[150.162041,-35.254636],[150.167727,-35.253149],[150.170762,-35.250774],[150.172095,-35.248615],[150.168741,-35.245646],[150.16752,-35.241216],[150.169962,-35.238724],[150.173803,-35.239281],[150.176032,-35.237219],[150.178951,-35.237678],[150.182887,-35.236339],[150.185247,-35.231557],[150.189408,-35.230412],[150.190241,-35.233338],[150.193655,-35.23286],[150.197489,-35.230222],[150.197854,-35.228732],[150.195924,-35.226487],[150.197363,-35.225117],[150.195121,-35.222204],[150.194985,-35.219216],[150.187801,-35.219063],[150.190467,-35.21591],[150.188506,-35.209069],[150.185575,-35.207877],[150.187963,-35.203164],[150.186318,-35.199841],[150.192057,-35.198515],[150.198725,-35.198883],[150.203359,-35.202835],[150.208309,-35.203745],[150.215661,-35.200984],[150.214686,-35.194311],[150.21141,-35.190667],[150.21137,-35.188366],[150.208912,-35.185283],[150.207942,-35.182578],[150.205728,-35.180825],[150.204326,-35.177566],[150.205097,-35.172917],[150.204276,-35.171045],[150.200728,-35.170068],[150.196289,-35.171109],[150.187879,-35.166018],[150.180803,-35.165037],[150.175798,-35.165427],[150.173089,-35.160376],[150.175301,-35.158223],[150.171845,-35.156098],[150.170401,-35.149334],[150.168623,-35.148189],[150.163546,-35.148796],[150.160378,-35.151311],[150.156757,-35.14631],[150.150828,-35.143184],[150.147441,-35.143466],[150.145783,-35.144809],[150.141643,-35.14446],[150.141061,-35.141315],[150.142653,-35.139213],[150.141924,-35.137164],[150.142638,-35.130457],[150.139419,-35.124415],[150.139542,-35.118163],[150.138579,-35.116455],[150.135844,-35.116941],[150.133658,-35.114022],[150.130929,-35.114212],[150.129059,-35.112935],[150.133266,-35.107805],[150.132332,-35.104664],[150.127215,-35.103463],[150.126852,-35.10191],[150.129401,-35.09779],[150.126842,-35.095481],[150.1232,-35.094005],[150.120387,-35.091647],[150.119234,-35.088688],[150.113612,-35.08856],[150.108607,-35.0844],[150.105474,-35.085594],[150.103221,-35.082239],[150.104183,-35.077807],[150.106058,-35.076327],[150.105934,-35.071545],[150.102617,-35.072296],[150.101512,-35.069977],[150.095467,-35.069098],[150.092334,-35.067844],[150.088819,-35.067617],[150.085833,-35.06393],[150.085636,-35.062162],[150.087768,-35.059964],[150.084956,-35.057667],[150.081781,-35.057131],[150.081114,-35.053802],[150.074115,-35.052122],[150.071681,-35.049501],[150.074463,-35.046078],[150.076088,-35.042905],[150.072872,-35.041757],[150.071444,-35.040034],[150.06753,-35.040616],[150.065935,-35.03841],[150.066822,-35.035528],[150.061611,-35.036075],[150.064098,-35.031142],[150.063426,-35.027682],[150.064688,-35.022681],[150.064212,-35.021789],[150.059222,-35.021253],[150.057997,-35.019462],[150.0526,-35.018163],[150.054157,-35.015285],[150.053885,-35.013622],[150.050664,-35.012655],[150.049832,-35.008711],[150.052103,-35.007305],[150.054126,-35.008042],[150.061782,-35.005312],[150.066042,-35.00462],[150.07045,-35.002117],[150.078756,-34.995103],[150.08431,-34.991209],[150.08569,-34.987732],[150.080025,-34.977187],[150.077951,-34.975538],[150.070195,-34.973511],[150.067429,-34.972116],[150.058914,-34.969725],[150.055792,-34.967665],[150.05552,-34.965285],[150.05848,-34.956811],[150.061109,-34.951154],[150.06773,-34.945405],[150.068425,-34.943138],[150.067422,-34.938335],[150.068376,-34.93595],[150.075565,-34.93373],[150.082656,-34.927977],[150.088242,-34.924887],[150.08837,-34.92242],[150.086383,-34.917602],[150.086015,-34.915013],[150.086993,-34.912088],[150.090761,-34.912264],[150.090648,-34.910119],[150.087889,-34.910216],[150.085266,-34.90893],[150.082016,-34.905845],[150.080905,-34.901686],[150.081677,-34.900108],[150.087646,-34.896227],[150.085969,-34.893131],[150.081471,-34.893829],[150.079661,-34.896507],[150.075703,-34.897556],[150.074352,-34.894842],[150.065262,-34.889651],[150.058519,-34.882233],[150.053563,-34.882432],[150.051965,-34.880873],[150.053294,-34.877189],[150.052724,-34.872803],[150.051559,-34.870293],[150.047397,-34.868763],[150.046168,-34.862722],[150.040608,-34.8602],[150.04167,-34.857365],[150.042188,-34.851413],[150.038338,-34.846392],[150.037447,-34.843872],[150.039707,-34.837953],[150.043161,-34.830863],[150.043756,-34.827779],[150.039497,-34.821622],[150.037239,-34.813644],[150.036388,-34.807472],[150.038337,-34.804863],[150.043816,-34.806397],[150.046692,-34.804662],[150.045378,-34.800689],[150.041808,-34.798034],[150.040306,-34.79555],[150.041993,-34.793191],[150.048584,-34.789406],[150.052921,-34.785142],[150.06334,-34.784775],[150.066872,-34.782762],[150.067381,-34.778912],[150.061307,-34.774481],[150.058365,-34.774619],[150.055134,-34.773662],[150.056201,-34.770454],[150.060478,-34.768306],[150.06787,-34.767167],[150.07422,-34.768097],[150.07625,-34.773529],[150.081419,-34.773718],[150.085992,-34.778201],[150.088298,-34.779647],[150.092258,-34.780547],[150.095096,-34.78215],[150.100097,-34.78621],[150.105446,-34.78885],[150.107134,-34.795418],[150.110133,-34.799142],[150.115468,-34.799362],[150.121431,-34.8037],[150.125277,-34.807969],[150.125367,-34.813475],[150.127115,-34.817387],[150.134084,-34.819608],[150.13761,-34.819282],[150.148277,-34.820338],[150.156572,-34.822593],[150.162728,-34.823063],[150.167396,-34.822181],[150.177659,-34.818223],[150.184216,-34.819659],[150.189571,-34.818969],[150.193709,-34.819725],[150.204052,-34.816574],[150.209564,-34.814495],[150.212288,-34.811582],[150.214706,-34.807754],[150.21836,-34.804617],[150.223409,-34.80306],[150.231571,-34.801705],[150.234577,-34.799697],[150.236136,-34.794164],[150.239596,-34.792463],[150.243494,-34.791523],[150.251182,-34.792236],[150.25581,-34.791464],[150.257641,-34.790168],[150.259739,-34.785546],[150.263265,-34.781014],[150.264719,-34.778219],[150.267865,-34.774374],[150.276501,-34.769241],[150.284211,-34.768017],[150.28782,-34.764691],[150.291627,-34.764687],[150.29459,-34.765937],[150.302836,-34.766331],[150.305563,-34.767266],[150.310168,-34.772091],[150.314872,-34.773623],[150.313591,-34.769921],[150.323026,-34.763504],[150.32664,-34.762522],[150.330255,-34.759229],[150.33353,-34.752388]]],[[[150.230948,-36.250533],[150.226848,-36.248051],[150.230611,-36.243611],[150.224006,-36.243903],[150.223148,-36.245812],[150.225878,-36.248262],[150.223262,-36.251314],[150.222919,-36.25637],[150.227063,-36.259517],[150.22909,-36.258943],[150.229304,-36.251089],[150.230948,-36.250533]]]]},"bbox":[148.200678,-37.505159,150.33353,-34.548699]}]}