{"type":"FeatureCollection","features":[
{"properties":{"electorateShortName":"farrer","electorateName":"Farrer","area":126562.92,"state":"NSW"},"type":"Feature","geometry":{"type":"MultiPolygon","coordinates":[[[[147.68933,-35.937725],[147.693528,-35.930877],[147.687408,-35.918169],[147.696419,-35.911994],[147.691175,-35.886085],[147.707661,-35.879104],[147.702677,-35.85558],[147.714259,-35.838507],[147.740138,-35.833926],[147.760588,-35.839756],[147.761631,-35.830996],[147.774158,-35.818821],[147.772424,-35.807024],[147.786954,-35.804549],[147.801045,-35.790542],[147.803619,-35.780123],[147.812585,-35.771236],[147.813854,-35.754279],[147.819657,-35.744114],[147.807815,-35.720898],[147.813475,-35.711886],[147.804491,-35.703656],[147.801663,-35.678005],[147.808373,-35.674983],[147.811878,-35.662247],[147.821428,-35.649327],[147.833648,-35.641585],[147.859549,-35.637966],[147.868081,-35.642939],[147.87593,-35.633769],[147.884944,-35.63541],[147.89396,-35.62422],[147.88467,-35.613079],[147.872577,-35.586756],[147.855324,-35.559898],[147.845391,-35.554599],[147.812125,-35.549421],[147.79159,-35.55146],[147.779775,-35.547543],[147.754375,-35.544684],[147.755718,-35.533462],[147.736915,-35.531022],[147.738286,-35.541082],[147.685594,-35.534198],[147.681189,-35.556669],[147.666595,-35.545982],[147.645953,-35.538789],[147.63176,-35.547102],[147.607787,-35.539571],[147.600213,-35.528844],[147.588633,-35.524311],[147.581315,-35.515544],[147.556535,-35.505655],[147.553328,-35.498601],[147.535372,-35.491722],[147.525087,-35.483406],[147.51477,-35.488634],[147.518147,-35.496963],[147.498231,-35.513771],[147.501735,-35.522092],[147.488405,-35.5408],[147.480995,-35.54516],[147.456277,-35.530956],[147.444597,-35.530111],[147.438399,-35.537211],[147.419431,-35.533527],[147.4043,-35.544418],[147.395214,-35.554942],[147.382318,-35.550764],[147.387917,-35.53793],[147.383966,-35.529828],[147.363804,-35.513871],[147.341398,-35.509225],[147.303027,-35.495596],[147.283199,-35.500123],[147.279422,-35.493703],[147.263197,-35.488551],[147.246758,-35.488113],[147.238204,-35.47101],[147.226524,-35.473668],[147.195453,-35.46609],[147.194093,-35.454699],[147.184978,-35.448477],[147.174938,-35.457091],[147.16624,-35.456831],[147.157792,-35.46916],[147.138084,-35.467031],[147.124671,-35.462578],[147.121813,-35.456215],[147.10058,-35.454613],[147.087341,-35.450465],[147.073065,-35.452919],[147.071242,-35.460598],[147.016605,-35.493886],[146.993901,-35.489287],[146.991181,-35.51684],[146.980825,-35.521619],[146.970767,-35.51943],[146.953062,-35.528029],[146.910234,-35.554649],[146.890907,-35.560482],[146.888378,-35.573241],[146.871365,-35.57586],[146.798401,-35.566387],[146.796881,-35.574699],[146.777012,-35.571154],[146.701943,-35.561181],[146.699587,-35.55815],[146.672963,-35.555276],[146.662323,-35.547763],[146.667093,-35.537631],[146.669769,-35.520279],[146.554291,-35.494367],[146.540094,-35.487174],[146.491178,-35.480714],[146.470028,-35.476339],[146.428237,-35.471405],[146.405522,-35.444508],[146.374573,-35.404905],[146.364495,-35.389009],[146.354226,-35.387797],[146.364032,-35.337739],[146.369914,-35.337214],[146.372944,-35.321002],[146.388761,-35.322851],[146.392465,-35.302996],[146.403804,-35.304452],[146.413658,-35.250545],[146.386399,-35.247397],[146.389251,-35.231731],[146.451315,-35.191178],[146.535133,-35.138242],[146.563727,-35.119126],[146.572021,-35.116577],[146.592103,-35.117195],[146.599272,-35.113671],[146.615161,-35.114348],[146.634513,-35.096349],[146.662039,-35.089024],[146.688478,-35.067979],[146.761524,-35.076441],[146.778785,-35.098405],[146.784221,-35.070069],[146.7942,-35.058208],[146.807657,-34.986944],[146.804343,-34.969337],[146.795358,-34.967424],[146.793643,-34.958616],[146.779606,-34.947042],[146.784477,-34.924058],[146.813658,-34.913318],[146.84358,-34.899125],[146.831065,-34.880911],[146.835375,-34.860049],[146.846616,-34.842743],[146.843266,-34.83723],[146.876409,-34.66252],[146.888326,-34.605114],[146.911568,-34.482591],[146.835253,-34.472721],[146.834718,-34.475518],[146.795492,-34.470798],[146.791751,-34.472298],[146.799998,-34.426499],[146.802747,-34.426883],[146.823028,-34.310851],[146.718745,-34.298111],[146.729043,-34.236768],[146.623872,-34.224735],[146.635404,-34.151187],[146.458206,-34.13293],[146.471543,-34.056649],[146.4868,-33.955644],[146.492809,-33.919657],[146.417433,-33.910635],[146.437185,-33.794499],[146.353269,-33.78524],[146.317227,-33.780549],[146.0703,-33.753534],[146.074577,-33.731759],[146.095141,-33.603131],[146.053962,-33.475767],[146.0671,-33.370964],[146.066897,-33.359114],[146.076061,-33.338914],[146.083297,-33.334511],[146.087751,-33.320942],[146.081561,-33.309145],[146.087068,-33.289565],[146.095088,-33.276178],[146.058892,-33.211808],[146.093631,-33.189083],[146.03166,-33.093579],[145.905331,-33.087748],[145.906825,-33.078623],[145.872639,-33.0748],[145.87087,-33.086311],[145.754709,-33.082677],[145.686333,-33.082059],[145.645258,-33.080312],[145.668529,-32.935871],[145.651787,-32.935351],[145.671923,-32.805722],[145.586515,-32.796236],[145.595723,-32.737769],[145.556637,-32.733284],[145.552592,-32.755852],[145.569099,-32.757875],[145.560599,-32.781409],[145.550822,-32.791615],[145.537932,-32.783255],[145.544859,-32.775372],[145.504348,-32.770092],[145.510436,-32.727862],[145.467462,-32.722507],[145.414944,-32.761412],[145.412631,-32.775949],[145.330563,-32.766674],[145.344278,-32.682486],[145.257279,-32.671254],[145.249374,-32.724393],[145.164993,-32.71483],[145.15955,-32.747169],[145.127254,-32.954686],[145.118833,-32.953708],[145.107556,-33.033712],[145.027698,-33.021923],[145.010266,-33.024449],[145.007975,-33.035543],[144.991731,-33.033662],[144.987542,-33.026363],[144.979402,-33.083791],[144.96278,-33.087289],[144.941139,-33.084777],[144.942311,-33.078304],[144.908865,-33.074448],[144.913078,-33.049131],[144.798235,-33.036219],[144.777974,-33.163461],[144.760138,-33.156815],[144.747612,-33.161452],[144.741889,-33.173591],[144.733424,-33.231398],[144.645681,-33.222352],[144.642648,-33.241122],[144.61222,-33.237804],[144.609422,-33.256341],[144.598011,-33.255087],[144.595668,-33.270038],[144.58018,-33.268377],[144.577529,-33.288666],[144.549233,-33.28552],[144.546947,-33.300011],[144.530284,-33.296625],[144.491092,-33.292975],[144.488676,-33.300463],[144.471793,-33.29897],[144.471702,-33.291203],[144.433578,-33.287676],[144.433489,-33.280482],[144.416202,-33.279072],[144.414163,-33.286491],[144.262641,-33.272906],[144.264268,-33.263015],[144.277778,-33.254216],[144.236255,-33.249829],[144.251426,-33.15507],[144.07974,-33.135369],[143.905907,-33.115708],[143.898192,-33.161392],[143.839023,-33.15459],[143.816663,-33.137446],[143.789876,-33.148866],[143.720951,-33.140453],[143.714801,-33.154611],[143.674028,-33.170711],[143.66485,-33.178855],[143.648475,-33.15901],[143.636107,-33.157788],[143.637288,-33.149916],[143.55246,-33.140481],[143.57281,-33.012429],[143.602799,-33.007104],[143.653413,-33.012413],[143.661538,-32.955298],[143.671807,-32.940764],[143.585153,-32.93103],[143.591987,-32.885141],[143.505852,-32.876004],[143.499566,-32.918349],[143.438317,-32.9112],[143.416969,-32.907493],[143.432435,-32.808446],[143.269614,-32.791387],[143.271212,-32.780229],[143.071628,-32.759322],[142.964638,-32.748537],[142.94435,-32.890533],[142.705129,-32.866688],[142.515536,-32.847454],[142.549908,-32.991416],[142.547987,-33.01714],[142.424469,-33.005226],[142.428011,-32.979027],[142.376475,-32.973676],[142.374359,-32.989311],[142.382492,-33.005539],[142.362969,-33.025362],[142.334034,-33.046291],[142.314154,-33.049337],[142.311348,-33.067128],[142.28965,-33.081676],[142.288328,-33.087881],[142.296702,-33.101595],[142.29338,-33.116597],[142.273788,-33.115048],[142.27428,-33.123423],[142.244604,-33.119457],[142.242827,-33.130873],[142.226627,-33.126217],[142.224487,-33.120035],[142.178229,-33.115346],[142.168599,-33.116529],[142.105679,-33.11242],[142.107802,-33.090131],[142.022933,-33.0848],[142.038355,-33.143941],[141.755369,-33.115945],[141.560773,-33.096293],[141.573204,-33.005572],[141.40258,-32.98766],[141.388322,-33.081312],[141.362415,-33.26469],[141.348003,-33.366658],[141.30584,-33.362454],[141.308721,-33.341403],[141.266626,-33.337241],[141.263992,-33.355755],[141.167885,-33.345854],[141.002405,-33.329023],[141.00254,-33.498505],[141.002682,-33.678602],[141.002821,-33.853836],[141.002956,-34.021892],[141.001718,-34.037832],[141.008944,-34.044659],[141.039458,-34.05277],[141.04785,-34.061641],[141.06243,-34.054447],[141.092046,-34.076505],[141.097716,-34.068773],[141.088369,-34.054368],[141.097564,-34.050095],[141.107535,-34.061261],[141.120338,-34.064866],[141.135263,-34.05971],[141.153324,-34.064288],[141.152782,-34.079665],[141.167825,-34.082082],[141.179352,-34.089498],[141.207196,-34.061189],[141.236717,-34.070109],[141.242274,-34.080614],[141.26102,-34.078979],[141.268692,-34.09213],[141.283027,-34.103317],[141.298544,-34.10696],[141.30244,-34.113958],[141.312667,-34.111777],[141.313396,-34.124121],[141.331916,-34.131711],[141.346407,-34.124348],[141.349121,-34.111895],[141.362952,-34.11346],[141.383055,-34.123049],[141.391122,-34.134739],[141.403364,-34.127205],[141.410202,-34.132819],[141.406049,-34.142194],[141.411923,-34.149966],[141.431295,-34.145354],[141.432066,-34.158131],[141.444028,-34.167684],[141.4525,-34.161286],[141.466963,-34.16547],[141.472961,-34.15945],[141.49464,-34.154513],[141.50176,-34.160725],[141.510846,-34.177706],[141.506808,-34.190087],[141.517339,-34.206709],[141.532805,-34.211603],[141.545044,-34.200583],[141.567974,-34.19183],[141.582695,-34.19875],[141.588245,-34.188353],[141.600925,-34.19216],[141.601265,-34.18195],[141.589922,-34.175268],[141.602561,-34.168795],[141.599335,-34.156085],[141.61202,-34.156492],[141.632119,-34.140138],[141.630048,-34.131428],[141.635073,-34.12039],[141.653775,-34.117081],[141.67745,-34.101225],[141.689371,-34.102078],[141.704908,-34.095686],[141.717027,-34.11496],[141.729872,-34.105577],[141.725828,-34.092984],[141.735509,-34.093071],[141.745353,-34.103104],[141.774652,-34.11443],[141.787229,-34.111996],[141.802109,-34.115877],[141.825395,-34.127681],[141.842404,-34.132526],[141.86698,-34.128459],[141.877846,-34.13685],[141.887961,-34.126081],[141.885359,-34.114701],[141.903691,-34.111366],[141.922351,-34.114383],[141.929784,-34.12579],[141.925518,-34.134344],[141.93751,-34.137049],[141.939754,-34.12226],[141.947014,-34.119832],[141.964165,-34.13677],[141.971663,-34.13525],[141.969742,-34.119898],[141.983491,-34.112412],[142.013258,-34.125416],[142.016095,-34.116431],[142.013312,-34.105381],[142.026612,-34.106682],[142.035889,-34.099899],[142.042142,-34.106],[142.032603,-34.113095],[142.028827,-34.124174],[142.03409,-34.129289],[142.051773,-34.125488],[142.074484,-34.130491],[142.075157,-34.141388],[142.066631,-34.152763],[142.078003,-34.158076],[142.082079,-34.172992],[142.09306,-34.171915],[142.103859,-34.177298],[142.120886,-34.174093],[142.118617,-34.159819],[142.138001,-34.160132],[142.147839,-34.14871],[142.165861,-34.152266],[142.159255,-34.171483],[142.16594,-34.182742],[142.175995,-34.184426],[142.183613,-34.175673],[142.19858,-34.183496],[142.220316,-34.181665],[142.228062,-34.189576],[142.229132,-34.207086],[142.238324,-34.204652],[142.24353,-34.216685],[142.235809,-34.222639],[142.24403,-34.232457],[142.2435,-34.24603],[142.235705,-34.248787],[142.249565,-34.266928],[142.244728,-34.276919],[142.248612,-34.286547],[142.232465,-34.296749],[142.238545,-34.30782],[142.255865,-34.304631],[142.266585,-34.295623],[142.272191,-34.30357],[142.286132,-34.296536],[142.2874,-34.306919],[142.280596,-34.315901],[142.283404,-34.326334],[142.292443,-34.323761],[142.313689,-34.329489],[142.32161,-34.336936],[142.3337,-34.339302],[142.348615,-34.336576],[142.365135,-34.32712],[142.396798,-34.338096],[142.384364,-34.347335],[142.391499,-34.360112],[142.368628,-34.369736],[142.370652,-34.38329],[142.351891,-34.394745],[142.351842,-34.406075],[142.359827,-34.413653],[142.352636,-34.419082],[142.365178,-34.447058],[142.35397,-34.470661],[142.371176,-34.471511],[142.374881,-34.476951],[142.361416,-34.487859],[142.359993,-34.499667],[142.367935,-34.503424],[142.375841,-34.492236],[142.392212,-34.49227],[142.383653,-34.50648],[142.376443,-34.511827],[142.384,-34.523811],[142.368408,-34.527088],[142.376705,-34.540985],[142.392498,-34.549364],[142.400806,-34.546329],[142.410691,-34.553474],[142.406254,-34.56541],[142.411656,-34.569297],[142.424287,-34.562414],[142.428641,-34.572575],[142.443567,-34.575235],[142.451608,-34.572796],[142.4486,-34.560005],[142.454787,-34.557591],[142.467968,-34.564295],[142.472794,-34.575279],[142.465987,-34.583102],[142.471178,-34.593386],[142.458713,-34.616912],[142.465543,-34.634413],[142.472026,-34.640124],[142.471582,-34.666869],[142.479002,-34.673551],[142.490818,-34.672996],[142.511171,-34.658278],[142.513827,-34.666666],[142.498038,-34.67243],[142.513521,-34.691322],[142.501304,-34.698178],[142.518898,-34.704022],[142.509895,-34.713661],[142.513045,-34.723122],[142.499571,-34.739194],[142.512731,-34.743069],[142.508737,-34.750085],[142.526373,-34.759805],[142.550496,-34.763101],[142.556744,-34.775374],[142.565852,-34.767248],[142.576501,-34.771524],[142.596081,-34.772941],[142.61578,-34.785261],[142.631431,-34.784395],[142.644439,-34.775337],[142.646377,-34.763986],[142.636643,-34.757716],[142.628027,-34.760479],[142.619222,-34.754454],[142.616551,-34.737954],[142.62349,-34.72752],[142.631779,-34.733594],[142.654948,-34.727746],[142.679521,-34.739085],[142.696762,-34.720164],[142.684825,-34.714704],[142.690497,-34.704752],[142.678929,-34.680153],[142.689193,-34.671752],[142.701869,-34.678401],[142.710435,-34.676748],[142.708608,-34.662167],[142.695435,-34.659971],[142.689336,-34.651391],[142.696939,-34.639536],[142.704207,-34.612494],[142.699545,-34.603155],[142.714821,-34.600443],[142.724632,-34.592388],[142.732112,-34.59973],[142.746444,-34.60306],[142.763517,-34.596737],[142.756938,-34.579449],[142.780544,-34.579179],[142.769991,-34.568882],[142.781468,-34.565084],[142.793074,-34.550467],[142.805408,-34.553901],[142.809125,-34.56197],[142.796435,-34.571949],[142.800298,-34.579682],[142.785959,-34.583718],[142.787947,-34.5907],[142.805372,-34.608622],[142.835569,-34.611128],[142.839467,-34.623659],[142.854341,-34.619617],[142.861506,-34.628214],[142.864381,-34.644002],[142.871909,-34.652369],[142.874045,-34.673405],[142.899365,-34.66883],[142.902088,-34.654502],[142.924713,-34.649592],[142.934211,-34.659828],[142.96334,-34.676609],[142.967695,-34.691671],[142.976247,-34.694389],[142.982427,-34.68274],[142.976762,-34.670149],[142.990699,-34.667595],[143.012939,-34.671045],[143.017449,-34.675659],[143.008007,-34.685967],[143.013864,-34.694796],[143.030659,-34.693733],[143.040044,-34.702511],[143.057406,-34.697819],[143.06552,-34.688324],[143.090001,-34.701286],[143.103934,-34.694086],[143.109596,-34.701696],[143.133792,-34.701049],[143.137234,-34.709644],[143.147435,-34.709825],[143.1654,-34.700807],[143.16429,-34.717289],[143.169809,-34.719968],[143.193547,-34.712979],[143.200913,-34.733447],[143.214857,-34.735448],[143.229428,-34.747326],[143.242936,-34.746825],[143.248926,-34.757856],[143.263304,-34.751202],[143.271401,-34.75965],[143.254281,-34.766646],[143.273545,-34.777018],[143.273565,-34.789081],[143.283663,-34.795215],[143.307494,-34.780064],[143.315042,-34.789406],[143.330791,-34.787467],[143.351547,-34.796004],[143.34711,-34.80503],[143.35939,-34.817289],[143.345851,-34.854911],[143.348683,-34.864411],[143.342716,-34.875834],[143.332288,-34.88505],[143.323269,-34.884978],[143.333176,-34.911127],[143.3422,-34.919159],[143.342517,-34.933699],[143.328517,-34.940203],[143.319738,-34.948405],[143.319595,-34.968512],[143.323788,-34.979248],[143.31811,-34.986117],[143.33583,-35.002986],[143.333318,-35.018187],[143.334877,-35.03455],[143.322705,-35.035511],[143.339884,-35.055978],[143.341107,-35.088849],[143.349291,-35.105291],[143.357705,-35.104908],[143.362187,-35.117111],[143.374051,-35.122919],[143.386585,-35.137155],[143.391141,-35.146715],[143.382961,-35.174203],[143.39638,-35.193114],[143.417855,-35.194828],[143.424645,-35.189763],[143.446411,-35.189924],[143.464875,-35.203292],[143.471481,-35.219294],[143.492321,-35.219897],[143.505151,-35.213824],[143.519785,-35.21272],[143.529485,-35.219801],[143.543169,-35.216482],[143.546418,-35.207392],[143.563927,-35.202627],[143.579485,-35.213803],[143.580911,-35.218937],[143.573815,-35.234879],[143.565316,-35.235718],[143.576014,-35.265483],[143.59086,-35.281659],[143.582126,-35.287789],[143.577937,-35.303197],[143.568071,-35.308083],[143.562883,-35.318016],[143.566838,-35.343647],[143.581993,-35.34111],[143.597496,-35.354631],[143.603015,-35.365407],[143.615964,-35.368795],[143.613369,-35.37613],[143.629308,-35.392188],[143.642339,-35.401037],[143.653874,-35.394879],[143.657617,-35.384924],[143.665834,-35.382458],[143.667875,-35.371169],[143.676871,-35.371752],[143.697951,-35.38129],[143.710475,-35.392663],[143.727031,-35.390209],[143.739094,-35.393584],[143.746463,-35.388599],[143.767905,-35.401179],[143.758929,-35.415006],[143.763844,-35.423582],[143.790117,-35.422477],[143.80312,-35.434457],[143.818017,-35.437545],[143.82703,-35.455101],[143.841471,-35.458623],[143.867954,-35.481485],[143.894671,-35.492389],[143.912221,-35.494889],[143.919107,-35.500666],[143.936755,-35.502901],[143.948097,-35.500833],[143.958981,-35.50448],[143.962828,-35.514784],[143.970976,-35.520764],[143.977879,-35.534142],[143.99581,-35.53499],[143.99922,-35.545367],[143.989386,-35.553193],[144.008603,-35.563155],[144.012702,-35.554073],[144.04785,-35.556174],[144.046549,-35.562766],[144.064049,-35.571377],[144.062189,-35.576694],[144.08057,-35.584531],[144.105766,-35.591691],[144.113178,-35.601909],[144.117546,-35.625926],[144.140571,-35.646439],[144.153337,-35.646066],[144.16235,-35.671526],[144.174917,-35.674408],[144.185471,-35.67049],[144.195138,-35.685858],[144.213589,-35.686764],[144.215049,-35.704491],[144.229695,-35.714869],[144.24841,-35.721499],[144.247442,-35.729076],[144.267919,-35.753779],[144.284989,-35.737265],[144.301187,-35.741758],[144.309384,-35.751144],[144.353145,-35.778209],[144.352408,-35.78644],[144.375726,-35.801211],[144.36476,-35.819647],[144.375538,-35.824381],[144.374914,-35.840618],[144.389813,-35.859222],[144.405422,-35.86166],[144.403628,-35.880666],[144.412385,-35.886894],[144.408538,-35.898891],[144.408187,-35.904217],[144.422781,-35.910236],[144.427327,-35.919365],[144.439345,-35.924652],[144.439135,-35.931164],[144.464427,-35.941173],[144.481258,-35.952831],[144.493353,-35.968218],[144.51424,-35.974182],[144.52039,-35.995961],[144.529754,-35.994404],[144.54234,-36.001779],[144.553573,-36.002946],[144.55677,-36.013647],[144.578053,-36.021128],[144.583275,-36.039025],[144.606073,-36.036373],[144.618703,-36.039635],[144.608914,-36.064948],[144.616754,-36.07666],[144.627637,-36.066618],[144.624999,-36.052081],[144.637464,-36.04764],[144.653191,-36.05324],[144.652922,-36.073876],[144.678538,-36.069273],[144.692392,-36.069351],[144.682496,-36.084961],[144.684781,-36.091486],[144.711636,-36.091425],[144.719131,-36.10068],[144.718402,-36.113565],[144.743472,-36.109001],[144.747587,-36.121229],[144.773574,-36.120814],[144.777974,-36.129919],[144.786868,-36.127681],[144.797083,-36.11365],[144.805787,-36.123842],[144.824151,-36.102563],[144.843371,-36.096736],[144.84204,-36.082885],[144.863836,-36.068204],[144.86346,-36.059111],[144.874824,-36.057628],[144.888575,-36.063568],[144.913623,-36.063051],[144.932614,-36.067049],[144.936547,-36.07587],[144.946483,-36.082332],[144.964728,-36.079335],[144.982405,-36.071558],[144.986877,-36.064296],[144.982057,-36.048278],[144.967808,-36.042078],[144.965626,-36.028529],[144.958388,-36.019617],[144.946338,-36.012795],[144.946451,-36.005122],[144.923616,-35.988951],[144.930904,-35.968554],[144.95625,-35.962092],[144.955293,-35.946613],[144.949012,-35.931999],[144.952877,-35.916534],[144.960997,-35.911863],[144.964745,-35.895903],[144.975001,-35.883433],[144.968179,-35.865842],[144.979344,-35.858355],[145.004784,-35.85472],[145.020321,-35.856001],[145.047102,-35.837093],[145.069007,-35.835033],[145.072862,-35.827757],[145.098615,-35.828399],[145.11031,-35.824018],[145.13423,-35.827608],[145.168352,-35.842476],[145.17922,-35.841764],[145.18282,-35.835103],[145.213105,-35.835798],[145.246515,-35.830412],[145.271516,-35.845274],[145.284146,-35.856572],[145.307473,-35.860464],[145.324755,-35.850767],[145.341485,-35.862385],[145.352396,-35.865795],[145.38715,-35.850142],[145.410328,-35.848783],[145.411242,-35.835465],[145.419874,-35.828174],[145.442293,-35.835642],[145.450332,-35.821679],[145.46021,-35.827212],[145.471522,-35.811322],[145.494301,-35.813983],[145.503544,-35.809894],[145.521322,-35.818651],[145.53239,-35.804858],[145.555842,-35.814555],[145.563703,-35.831635],[145.574532,-35.837714],[145.5824,-35.848499],[145.592459,-35.848861],[145.588695,-35.862565],[145.605401,-35.874273],[145.614021,-35.86588],[145.624984,-35.862166],[145.632215,-35.888655],[145.658834,-35.902649],[145.673865,-35.925893],[145.685362,-35.930692],[145.697709,-35.924741],[145.713028,-35.936987],[145.726301,-35.942312],[145.746964,-35.964157],[145.756865,-35.958348],[145.763966,-35.96535],[145.778211,-35.960244],[145.793445,-35.982817],[145.84426,-35.983005],[145.859313,-35.971565],[145.848998,-35.969258],[145.870564,-35.955476],[145.879855,-35.957726],[145.894426,-35.95325],[145.908007,-35.953565],[145.91489,-35.964542],[145.924338,-35.964288],[145.934625,-35.972692],[145.944401,-35.966444],[145.950694,-35.974942],[145.952516,-35.992491],[145.967772,-36.005838],[145.986695,-36.013257],[146.006762,-36.003395],[146.017319,-36.006358],[146.030717,-35.994849],[146.046726,-36.002882],[146.056015,-35.998672],[146.057723,-36.013044],[146.09554,-36.020293],[146.107678,-36.014369],[146.124466,-36.014302],[146.133686,-36.019959],[146.141672,-36.016598],[146.15468,-36.025159],[146.173874,-36.019726],[146.177275,-36.034041],[146.185976,-36.04207],[146.19808,-36.029929],[146.243982,-36.027784],[146.256313,-36.013278],[146.272762,-36.026643],[146.276391,-36.015839],[146.288234,-36.015356],[146.291056,-36.035452],[146.306049,-36.042575],[146.327027,-36.035358],[146.330924,-36.026673],[146.345825,-36.029383],[146.347215,-36.03835],[146.361572,-36.043299],[146.366896,-36.050099],[146.386841,-36.036842],[146.379593,-36.028127],[146.380858,-36.012572],[146.398316,-36.008021],[146.402962,-35.98878],[146.436366,-35.966703],[146.45664,-35.966665],[146.488434,-35.989957],[146.500431,-35.978239],[146.501034,-35.964774],[146.511963,-35.964179],[146.526564,-35.97042],[146.5316,-35.982155],[146.549581,-35.992457],[146.563412,-35.968881],[146.569591,-35.979283],[146.594545,-35.974378],[146.607993,-35.974706],[146.60782,-35.986372],[146.612864,-35.994714],[146.622249,-35.995307],[146.640126,-36.009378],[146.650868,-36.007736],[146.650336,-36.018411],[146.656852,-36.026428],[146.670222,-36.027913],[146.682653,-36.038985],[146.703433,-36.034052],[146.716628,-36.026506],[146.732358,-36.030981],[146.730519,-36.044629],[146.750628,-36.050572],[146.76021,-36.058168],[146.776922,-36.059994],[146.795648,-36.057436],[146.814468,-36.063948],[146.816655,-36.074578],[146.825463,-36.088817],[146.836347,-36.082188],[146.848713,-36.086605],[146.872952,-36.073681],[146.880556,-36.087524],[146.901931,-36.083048],[146.91202,-36.106241],[146.945682,-36.115517],[146.950574,-36.094491],[146.958912,-36.085164],[146.972589,-36.082113],[146.978369,-36.092685],[146.988983,-36.087066],[147.016177,-36.089497],[147.035284,-36.114914],[147.048679,-36.103795],[147.052277,-36.090543],[147.06302,-36.082492],[147.059515,-36.07404],[147.068277,-36.06058],[147.074524,-36.064091],[147.085088,-36.052465],[147.095444,-36.05271],[147.100295,-36.035767],[147.097214,-36.022613],[147.10473,-36.018735],[147.113583,-36.000574],[147.123129,-35.997317],[147.127863,-36.018578],[147.137173,-36.028625],[147.154914,-36.035702],[147.161588,-36.031054],[147.183891,-36.038357],[147.204328,-36.049889],[147.226105,-36.047803],[147.242226,-36.038531],[147.263604,-36.039264],[147.280262,-36.043162],[147.285646,-36.039642],[147.300282,-36.045277],[147.306669,-36.05719],[147.318012,-36.060321],[147.331614,-36.047841],[147.343917,-36.042073],[147.352244,-36.032293],[147.346068,-36.024247],[147.353257,-36.000376],[147.360761,-35.988997],[147.383679,-35.972352],[147.391587,-35.97393],[147.392717,-35.95406],[147.404264,-35.943562],[147.431041,-35.952994],[147.456156,-35.957779],[147.454421,-35.951598],[147.464072,-35.944137],[147.478951,-35.942745],[147.481252,-35.949017],[147.498602,-35.946642],[147.512367,-35.96232],[147.523503,-35.961395],[147.51523,-35.975987],[147.525896,-35.986192],[147.555245,-36.003209],[147.569283,-35.991339],[147.583884,-35.985671],[147.574885,-35.975159],[147.582327,-35.967786],[147.594092,-35.969808],[147.60546,-35.977376],[147.62011,-35.96778],[147.638341,-35.961612],[147.64229,-35.949978],[147.653714,-35.944149],[147.680009,-35.944439],[147.68933,-35.937725]]],[[[140.9631,-33.990028],[140.96368199783424,-33.980650249566125],[140.963616,-33.980648],[140.9631,-33.990028]]]]},"bbox":[140.9631,-36.129919,147.89396,-32.671254]}]}