{"type":"FeatureCollection","features":[
{"properties":{"electorateShortName":"fenner","electorateName":"Fenner","area":238.212122,"state":"ACT"},"type":"Feature","geometry":{"type":"MultiPolygon","coordinates":[[[[149.033922,-35.265958],[149.026108,-35.253528],[149.030149,-35.239596],[149.057919,-35.243969],[149.07339,-35.241107],[149.080283,-35.231015],[149.074179,-35.225857],[149.095138,-35.201506],[149.119028,-35.219613],[149.12512,-35.231391],[149.142117,-35.225562],[149.151283,-35.230968],[149.179534,-35.219513],[149.200699,-35.205565],[149.205895,-35.211567],[149.200702,-35.205411],[149.189542,-35.203324],[149.196375,-35.188447],[149.19701290503585,-35.185471076355455],[149.19218489778655,-35.17987590063748],[149.1836545148494,-35.17564375917763],[149.18510895266286,-35.172927398423276],[149.18903339694174,-35.165597964106404],[149.176539,-35.158247],[149.16758607946574,-35.15975064305368],[149.16757833465618,-35.159741458330096],[149.16282463420112,-35.154103950478095],[149.16364242337121,-35.152186761266094],[149.16322366982448,-35.14684166797134],[149.16424706362102,-35.14204171067108],[149.15692418754602,-35.14365298285011],[149.15601378708675,-35.14443275366601],[149.14705222641018,-35.144548776439585],[149.149591184939,-35.13862909308309],[149.149612,-35.138406],[149.144875,-35.134429],[149.138825,-35.13479],[149.138986,-35.127983],[149.127163,-35.12572],[149.127186,-35.125622],[149.118076,-35.126527],[149.113387,-35.127539],[149.09454738577261,-35.138216729333564],[149.09330843140745,-35.13867867442853],[149.0923786451544,-35.14016391216548],[149.091082620419,-35.142234178141976],[148.961731,-35.218467],[148.976254,-35.238837],[148.962525,-35.243979],[148.979653,-35.25937],[149.002417,-35.261831],[149.007625,-35.272079],[149.023894,-35.276838],[149.033922,-35.265958]]],[[[150.5961937197773,-35.17129232763668],[150.593971,-35.185018],[150.572751,-35.193035],[150.553604,-35.208717],[150.539507,-35.216614],[150.530686,-35.231685],[150.53635270566042,-35.25458179148685],[150.55117908767375,-35.26421031771113],[150.56778394166292,-35.271123969454216],[150.58383320168156,-35.27444520528594],[150.61639691163012,-35.27217922123719],[150.63334144724487,-35.265791816246576],[150.63791567709697,-35.26974400555528],[150.6524586286991,-35.27970124018871],[150.66866330963563,-35.28663321527467],[150.68590825246176,-35.29027408189822],[150.70353209453816,-35.29048420879564],[150.72085894202002,-35.287255537367905],[150.73722429113377,-35.280711890736875],[150.7573101551213,-35.26786381628704],[150.77516767539598,-35.26179598728625],[150.80703598624854,-35.244604499027744],[150.8305097505931,-35.2206361607803],[150.84561985897454,-35.1914483257318],[150.84944952770863,-35.175856797906675],[150.84955629240272,-35.17414338924785],[150.85132457111789,-35.16777302900864],[150.85171534378281,-35.16189151440761],[150.86201552240138,-35.13039810342723],[150.8625725030615,-35.11159680087436],[150.85787445391327,-35.08852433969004],[150.85050043630793,-35.0706821720078],[150.84082179780663,-35.056740409642686],[150.830542,-35.076373],[150.81794,-35.084963],[150.799512,-35.09063],[150.793643,-35.076603],[150.773462,-35.079261],[150.773507,-35.065335],[150.785012,-35.030788],[150.77154029148033,-35.022392989699185],[150.75401793598186,-35.023477040839886],[150.72435218496452,-35.03411057804255],[150.67592305808907,-35.02897950969369],[150.67113,-35.037153],[150.677648,-35.042719],[150.674287,-35.061513],[150.676828,-35.069026],[150.688889,-35.072156],[150.694448,-35.092163],[150.695,-35.111113],[150.701604,-35.122862],[150.66135,-35.11782],[150.66134429654508,-35.11786019027876],[150.6608208880659,-35.12154846921874],[150.66034685931209,-35.124888786273594],[150.638248,-35.145859],[150.63164013926155,-35.14937259599113],[150.6254756468761,-35.14914626001073],[150.62085754718782,-35.14755371099814],[150.61515807884655,-35.148399897272746],[150.608059,-35.143609],[150.593969,-35.143836],[150.59411746439878,-35.14439340911616],[150.592868,-35.143937],[150.596246,-35.15218],[150.605105,-35.156175],[150.59781965466817,-35.1709044248754],[150.596386,-35.171087],[150.5961937197773,-35.17129232763668]]],[[[149.26716,-35.25952],[149.267703,-35.259439],[149.262261,-35.257395],[149.26716,-35.25952]]]]},"bbox":[148.961731,-35.29048420879564,150.8625725030615,-35.022392989699185]}]}