{"type":"FeatureCollection","features":[
{"properties":{"electorateShortName":"fisher","electorateName":"Fisher","area":1198.357598,"state":"QLD"},"type":"Feature","geometry":{"type":"Polygon","coordinates":[[[153.133218,-26.812357],[153.13325,-26.821047],[153.128855,-26.845645],[153.130523,-26.872422],[153.13865,-26.908253],[153.161384,-26.98512],[153.16250050029976,-26.98764781521326],[153.16378697096582,-26.9818851267843],[153.1640146980609,-26.96696127239431],[153.16586064788353,-26.960303543069383],[153.17505606203937,-26.9524524727663],[153.17716406203937,-26.950204472766302],[153.18424760125322,-26.941648393770315],[153.1872676012532,-26.937504393770315],[153.1986455280639,-26.916514911510916],[153.2022285280639,-26.907101911510914],[153.20585052878727,-26.895151201894556],[153.20830852878728,-26.884404201894558],[153.20971753706812,-26.877845610298913],[153.21081024247235,-26.86894443453167],[153.21508390284774,-26.865267039574697],[153.21638390284775,-26.863910039574694],[153.22670613816567,-26.850925570467687],[153.2344701319101,-26.836267283354726],[153.2394121527349,-26.820433098496753],[153.24136432752644,-26.80396087965616],[153.240260343804,-26.78741016366289],[153.23711373344932,-26.775147002025705],[153.23706111319416,-26.77455851803025],[153.2321020843334,-26.757649762683013],[153.2266917169089,-26.747292448233576],[153.22479714590253,-26.727146100775748],[153.22612541065143,-26.701770760409705],[153.22887406425383,-26.6888931091384],[153.22897744540836,-26.67050560528333],[153.2253415926636,-26.652480856727475],[153.21811827413754,-26.635571254273415],[153.20760900629273,-26.620482640186985],[153.1942524680069,-26.607844844860942],[153.17860618919678,-26.598185396373633],[153.1613232783501,-26.591907500360755],[153.15838317463837,-26.591481902023926],[153.15719540288524,-26.590490668502675],[153.14284688360092,-26.582421671848486],[153.12726868165248,-26.57710111391622],[153.11098197196478,-26.57470699608177],[153.098092214969,-26.57518686003068],[153.097805,-26.576994],[153.097864,-26.600281],[153.102043,-26.616525],[153.101272,-26.63903],[153.098687,-26.642594],[153.100861,-26.647053],[153.103337,-26.647726],[153.106091,-26.664574],[153.103458,-26.664915],[153.095541,-26.670001],[153.095918,-26.670937],[153.094747,-26.673119],[153.097869,-26.676802],[153.104203,-26.684726],[153.111164,-26.693671],[153.112194,-26.694884],[153.114495,-26.69656],[153.115195,-26.69781],[153.114395,-26.699597],[153.114695,-26.702188],[153.115483,-26.704978],[153.117646,-26.706421],[153.119902,-26.706739],[153.119606,-26.707975],[153.118081,-26.709009],[153.114785,-26.710588],[153.113295,-26.712283],[153.113254,-26.713975],[153.105437,-26.715636],[153.10316,-26.715184],[153.094007,-26.714174],[153.088497,-26.714286],[153.086479,-26.713328],[153.079217,-26.712515],[153.064635,-26.710989],[153.062313,-26.710971],[153.059735,-26.711293],[153.054121,-26.712887],[153.051656,-26.713754],[153.050112,-26.714654],[153.048143,-26.716442],[153.044328,-26.723091],[153.042548,-26.721399],[153.04069,-26.720324],[153.036947,-26.718764],[153.025585,-26.713578],[153.023555,-26.712427],[153.022055,-26.71115],[153.020952,-26.709712],[153.018552,-26.70492],[153.01694,-26.702519],[153.011125,-26.696976],[153.008972,-26.694595],[153.005067,-26.690788],[153.003925,-26.688739],[153.003437,-26.684264],[153.002534,-26.680511],[153.00108,-26.679915],[152.998826,-26.679535],[152.996944,-26.676669],[152.995502,-26.677735],[152.993744,-26.676948],[152.994047,-26.679445],[152.991096,-26.679882],[152.987564,-26.679396],[152.987419,-26.680271],[152.980912,-26.679397],[152.981079,-26.67839],[152.978425,-26.677981],[152.978077,-26.679882],[152.976352,-26.679645],[152.976207,-26.678043],[152.976918,-26.676799],[152.974108,-26.67614],[152.973948,-26.675401],[152.972181,-26.675544],[152.969798,-26.676388],[152.968247,-26.676566],[152.964474,-26.676027],[152.963878,-26.672285],[152.96339,-26.67141],[152.955914,-26.670421],[152.956018,-26.663143],[152.956549,-26.66253],[152.947903,-26.661252],[152.948098,-26.660025],[152.946593,-26.659819],[152.946268,-26.65856],[152.94286,-26.65751],[152.941833,-26.65658],[152.941586,-26.654936],[152.93862,-26.652326],[152.938038,-26.655657],[152.928273,-26.654374],[152.92788,-26.656913],[152.925221,-26.656582],[152.923894,-26.656989],[152.924254,-26.654666],[152.919102,-26.654016],[152.919524,-26.654762],[152.908083,-26.653329],[152.907705,-26.655756],[152.900672,-26.654989],[152.901114,-26.655912],[152.903884,-26.65833],[152.901798,-26.659932],[152.901872,-26.662695],[152.900028,-26.662995],[152.892145,-26.661521],[152.885818,-26.660536],[152.885722,-26.661027],[152.882948,-26.66323],[152.88027,-26.668016],[152.879151,-26.670565],[152.879169,-26.671926],[152.874787,-26.671335],[152.873796,-26.671464],[152.871319,-26.67091],[152.854471,-26.668668],[152.853319,-26.668604],[152.850038,-26.669829],[152.848825,-26.670931],[152.847775,-26.672601],[152.843754,-26.673934],[152.843954,-26.675196],[152.845007,-26.677339],[152.815748,-26.672783],[152.814341,-26.680421],[152.80647,-26.679267],[152.806392,-26.679699],[152.791759,-26.67758],[152.792272,-26.676041],[152.793463,-26.673994],[152.795078,-26.673049],[152.796203,-26.670854],[152.795865,-26.669638],[152.796306,-26.668764],[152.796162,-26.667172],[152.794342,-26.662623],[152.79405,-26.661277],[152.794709,-26.659832],[152.792733,-26.657792],[152.793575,-26.657211],[152.793841,-26.654645],[152.792881,-26.653507],[152.794331,-26.64532],[152.792582,-26.642732],[152.790469,-26.640661],[152.789508,-26.638543],[152.788099,-26.638201],[152.785548,-26.640467],[152.783717,-26.640876],[152.782555,-26.642552],[152.774483,-26.641476],[152.773432,-26.647486],[152.770636,-26.646158],[152.770331,-26.644774],[152.768843,-26.64367],[152.768709,-26.642669],[152.767555,-26.641288],[152.764733,-26.642495],[152.763883,-26.64209],[152.762832,-26.64037],[152.761185,-26.640795],[152.760679,-26.639942],[152.76184,-26.639079],[152.746419,-26.636899],[152.74463,-26.640878],[152.7432,-26.642248],[152.742099,-26.64408],[152.741264,-26.649272],[152.735229,-26.648465],[152.735815,-26.649219],[152.734179,-26.651711],[152.735031,-26.653031],[152.738007,-26.653097],[152.736795,-26.660514],[152.730289,-26.659675],[152.729913,-26.657967],[152.727989,-26.655727],[152.727157,-26.652028],[152.726204,-26.650366],[152.725059,-26.647573],[152.723847,-26.646239],[152.723204,-26.643861],[152.721776,-26.642486],[152.719461,-26.642083],[152.715949,-26.639302],[152.715043,-26.636912],[152.7154,-26.635074],[152.70841,-26.634198],[152.70742,-26.637231],[152.705415,-26.635211],[152.703443,-26.634106],[152.700627,-26.63338],[152.701352,-26.629574],[152.698938,-26.627919],[152.697869,-26.624206],[152.69685,-26.622601],[152.694764,-26.621818],[152.693473,-26.622007],[152.691677,-26.623417],[152.688452,-26.623952],[152.686694,-26.625041],[152.685323,-26.626435],[152.68414,-26.626648],[152.682285,-26.622328],[152.680916,-26.621882],[152.677676,-26.622288],[152.675076,-26.622387],[152.673706,-26.620792],[152.67328,-26.619305],[152.674094,-26.618487],[152.677055,-26.617753],[152.677075,-26.616383],[152.673469,-26.616628],[152.669669,-26.617554],[152.666144,-26.616193],[152.665685,-26.616254],[152.663594,-26.62894],[152.661035,-26.629229],[152.660009,-26.631168],[152.658868,-26.629415],[152.659698,-26.62691],[152.658131,-26.626358],[152.657007,-26.626813],[152.655127,-26.628438],[152.652407,-26.62959],[152.651723,-26.630501],[152.652399,-26.633258],[152.65184,-26.634501],[152.650766,-26.634953],[152.649169,-26.634835],[152.647953,-26.635944],[152.647351,-26.638953],[152.645513,-26.639041],[152.646142,-26.640583],[152.647732,-26.641317],[152.649445,-26.644077],[152.650579,-26.645196],[152.648157,-26.645207],[152.647001,-26.644222],[152.645568,-26.645738],[152.645395,-26.64676],[152.645868,-26.648618],[152.644307,-26.648683],[152.643618,-26.649243],[152.64466,-26.651716],[152.643403,-26.652745],[152.641704,-26.652018],[152.64027,-26.650523],[152.638137,-26.650772],[152.636752,-26.651938],[152.635057,-26.652769],[152.634644,-26.65427],[152.631376,-26.657639],[152.631694,-26.658849],[152.629273,-26.659245],[152.629102,-26.664398],[152.628494,-26.668084],[152.629984,-26.669592],[152.629777,-26.670271],[152.627725,-26.671667],[152.624837,-26.672761],[152.625484,-26.675271],[152.626117,-26.676112],[152.629192,-26.676848],[152.630815,-26.677696],[152.633862,-26.675769],[152.634817,-26.674708],[152.635602,-26.672174],[152.63551,-26.67078],[152.651254,-26.672871],[152.650939,-26.672121],[152.651938,-26.668823],[152.660514,-26.669988],[152.656133,-26.699085],[152.653963,-26.698789],[152.654441,-26.695585],[152.652418,-26.694156],[152.651443,-26.69294],[152.649181,-26.691822],[152.647838,-26.692874],[152.645466,-26.691707],[152.64294,-26.692174],[152.642022,-26.69183],[152.64099,-26.692427],[152.638491,-26.692911],[152.637242,-26.692562],[152.634418,-26.692705],[152.63256,-26.694224],[152.632506,-26.695285],[152.631253,-26.697653],[152.631167,-26.699584],[152.630375,-26.702976],[152.631669,-26.704512],[152.632544,-26.708518],[152.630316,-26.709111],[152.62854,-26.710215],[152.625009,-26.709833],[152.624684,-26.710576],[152.621348,-26.712442],[152.621582,-26.714736],[152.620302,-26.715128],[152.619653,-26.716384],[152.61882,-26.716721],[152.616396,-26.716645],[152.615982,-26.717416],[152.613556,-26.720062],[152.61296,-26.722407],[152.613904,-26.723791],[152.611587,-26.725894],[152.610999,-26.727379],[152.611242,-26.7287],[152.608725,-26.731661],[152.608201,-26.733147],[152.606164,-26.732559],[152.602293,-26.730177],[152.600116,-26.730905],[152.598906,-26.730609],[152.597941,-26.731404],[152.596963,-26.733574],[152.593861,-26.732792],[152.592654,-26.733202],[152.591333,-26.73199],[152.589686,-26.731666],[152.58682,-26.733463],[152.585256,-26.734459],[152.582291,-26.735813],[152.582419,-26.738602],[152.583307,-26.740432],[152.587697,-26.744875],[152.588384,-26.745125],[152.590822,-26.747213],[152.591865,-26.747105],[152.594316,-26.747926],[152.596139,-26.748142],[152.597898,-26.749183],[152.600099,-26.751798],[152.600071,-26.753095],[152.600724,-26.754961],[152.601656,-26.755735],[152.601551,-26.756669],[152.602456,-26.75788],[152.604294,-26.758252],[152.606011,-26.757735],[152.608868,-26.758054],[152.609566,-26.759414],[152.610961,-26.75858],[152.617242,-26.759476],[152.619055,-26.760195],[152.619462,-26.762054],[152.62375,-26.763301],[152.625228,-26.762264],[152.626884,-26.762372],[152.629558,-26.763547],[152.63249,-26.764392],[152.633571,-26.764001],[152.635349,-26.762204],[152.639082,-26.761777],[152.640285,-26.763385],[152.642297,-26.764513],[152.64131,-26.766523],[152.641224,-26.767506],[152.64351,-26.770407],[152.643677,-26.773105],[152.64433,-26.773747],[152.645682,-26.773659],[152.649099,-26.771732],[152.651089,-26.771404],[152.653191,-26.768669],[152.654263,-26.768198],[152.656563,-26.768428],[152.657413,-26.769134],[152.661478,-26.769161],[152.667303,-26.773009],[152.668453,-26.78198],[152.667786,-26.784668],[152.668654,-26.786125],[152.668978,-26.789814],[152.67175,-26.791226],[152.67221,-26.792399],[152.671717,-26.793647],[152.673686,-26.794511],[152.676034,-26.79606],[152.677919,-26.795809],[152.67906,-26.796863],[152.678789,-26.798208],[152.679196,-26.799965],[152.698897,-26.803125],[152.698144,-26.803476],[152.698264,-26.805614],[152.69566,-26.808039],[152.696596,-26.809244],[152.708969,-26.811278],[152.720856,-26.808614],[152.722099,-26.806871],[152.72291,-26.807321],[152.724344,-26.809539],[152.726487,-26.811532],[152.726236,-26.814252],[152.727314,-26.816107],[152.728916,-26.81669],[152.730687,-26.81619],[152.732814,-26.81502],[152.733653,-26.812893],[152.735026,-26.811321],[152.73481,-26.8095],[152.733537,-26.807556],[152.735942,-26.807644],[152.737375,-26.808244],[152.739007,-26.80804],[152.739875,-26.809803],[152.742114,-26.810161],[152.743214,-26.810682],[152.745284,-26.812416],[152.747151,-26.814709],[152.748722,-26.815866],[152.749585,-26.815718],[152.753116,-26.797351],[152.754618,-26.798794],[152.755687,-26.798998],[152.757191,-26.800362],[152.75865,-26.802854],[152.75921,-26.803064],[152.761087,-26.792358],[152.76347,-26.79225],[152.764597,-26.792822],[152.766923,-26.793307],[152.771034,-26.795933],[152.775882,-26.795713],[152.77879,-26.796229],[152.779476,-26.797172],[152.777257,-26.809402],[152.778646,-26.810267],[152.779735,-26.809955],[152.782842,-26.811004],[152.783624,-26.8122],[152.785254,-26.812434],[152.786196,-26.811295],[152.788493,-26.809821],[152.789411,-26.809675],[152.788671,-26.813024],[152.790096,-26.813278],[152.788822,-26.815774],[152.788593,-26.818121],[152.786652,-26.820462],[152.786812,-26.822272],[152.791247,-26.825183],[152.792019,-26.827076],[152.793304,-26.827326],[152.79646,-26.826482],[152.80099,-26.826329],[152.804961,-26.824177],[152.805515,-26.824981],[152.807111,-26.825078],[152.806765,-26.827006],[152.808014,-26.827837],[152.809338,-26.827795],[152.812677,-26.828735],[152.81237,-26.829869],[152.812741,-26.831158],[152.813907,-26.832153],[152.81437,-26.833503],[152.817173,-26.836011],[152.818201,-26.836155],[152.818533,-26.837477],[152.818255,-26.840217],[152.819635,-26.841982],[152.819934,-26.84372],[152.820625,-26.844146],[152.82347,-26.847825],[152.82449,-26.849442],[152.829116,-26.850283],[152.829161,-26.850698],[152.831665,-26.852981],[152.832278,-26.856175],[152.834219,-26.85563],[152.839012,-26.855369],[152.840819,-26.856419],[152.843842,-26.857557],[152.848006,-26.858126],[152.848536,-26.855107],[152.853137,-26.856227],[152.851633,-26.865288],[152.858227,-26.866127],[152.857393,-26.87128],[152.869478,-26.872874],[152.866791,-26.888918],[152.855462,-26.88739],[152.854239,-26.894604],[152.856474,-26.894895],[152.855298,-26.901884],[152.861144,-26.902743],[152.860431,-26.905848],[152.859462,-26.911304],[152.875446,-26.913522],[152.872496,-26.930514],[152.869554,-26.932449],[152.868243,-26.933611],[152.867807,-26.935851],[152.866141,-26.935171],[152.863578,-26.934846],[152.861199,-26.936303],[152.858011,-26.956217],[152.874005,-26.958341],[152.885509,-26.955952],[152.887786,-26.957269],[152.889509,-26.959661],[152.891155,-26.96075],[152.893123,-26.959496],[152.896174,-26.958799],[152.898425,-26.958032],[152.903713,-26.953895],[152.906046,-26.954238],[152.90845,-26.954162],[152.910415,-26.954436],[152.913284,-26.953976],[152.915334,-26.954592],[152.917262,-26.954706],[152.919727,-26.955513],[152.920336,-26.956272],[152.921029,-26.958764],[152.921826,-26.960407],[152.923906,-26.959266],[152.925484,-26.960547],[152.926528,-26.96039],[152.927018,-26.961421],[152.9281,-26.961959],[152.929376,-26.961825],[152.93223,-26.963173],[152.934707,-26.963173],[152.936946,-26.964261],[152.938563,-26.964011],[152.939982,-26.964894],[152.942575,-26.964933],[152.943881,-26.965352],[152.94556,-26.966523],[152.949418,-26.965733],[152.952154,-26.966244],[152.952382,-26.967565],[152.953335,-26.968382],[152.955789,-26.969049],[152.95582,-26.969608],[152.961411,-26.972568],[152.962577,-26.972944],[152.96316,-26.974838],[152.966643,-26.978793],[152.975006,-26.974382],[152.976659,-26.977715],[152.977163,-26.979612],[152.978108,-26.980272],[152.974071,-26.982365],[152.97557,-26.984687],[152.980331,-26.982221],[152.980781,-26.982253],[152.983747,-26.98435],[152.985178,-26.984685],[152.988957,-26.983902],[152.991177,-26.984384],[152.992407,-26.984122],[153.003063,-26.984837],[153.011598,-26.979062],[153.016799,-26.979152],[153.017939,-26.978328],[153.017371,-26.977143],[153.018065,-26.976441],[153.017651,-26.974701],[153.018083,-26.972788],[153.017666,-26.972354],[153.018454,-26.966399],[153.042842,-26.969481],[153.048396,-26.974032],[153.054369,-26.974575],[153.057866,-26.97576],[153.059111,-26.977123],[153.061109,-26.980445],[153.062843,-26.981785],[153.066317,-26.98369],[153.071917,-26.978807],[153.074407,-26.971339],[153.069566,-26.955194],[153.075888,-26.947959],[153.079277,-26.935736],[153.078445,-26.928909],[153.07295,-26.922915],[153.074282,-26.912258],[153.077112,-26.905598],[153.082274,-26.901935],[153.085733,-26.899881],[153.088121,-26.900232],[153.092055,-26.898968],[153.095146,-26.898336],[153.101327,-26.895737],[153.105261,-26.8937],[153.109405,-26.89089],[153.111513,-26.888642],[153.114533,-26.884498],[153.118116,-26.875085],[153.120574,-26.864338],[153.121698,-26.859069],[153.120082,-26.850499],[153.11952,-26.843826],[153.121628,-26.839822],[153.124859,-26.831463],[153.126826,-26.820997],[153.128161,-26.814745],[153.131111,-26.811865],[153.133218,-26.812357]]]},"bbox":[152.582291,-26.98764781521326,153.24136432752644,-26.57470699608177]}]}