{"type":"FeatureCollection","features":[
{"properties":{"electorateShortName":"fisher","electorateName":"Fisher","area":1198.357598,"state":"QLD"},"type":"Feature","geometry":{"type":"Polygon","coordinates":[[[153.133218,-26.812357],[153.136756,-26.68737],[153.106091,-26.664574],[153.105437,-26.715636],[153.025585,-26.713578],[153.002534,-26.680511],[152.908083,-26.653329],[152.845007,-26.677339],[152.794331,-26.64532],[152.665685,-26.616254],[152.58682,-26.733463],[152.602456,-26.75788],[152.667303,-26.773009],[152.679196,-26.799965],[152.749585,-26.815718],[152.779476,-26.797172],[152.857393,-26.87128],[152.858011,-26.956217],[152.903713,-26.953895],[153.003063,-26.984837],[153.066317,-26.98369],[153.077112,-26.905598],[153.109405,-26.89089],[153.133218,-26.812357]]]},"bbox":[152.58682,-26.984837,153.136756,-26.616254]}]}