{"type":"FeatureCollection","features":[
{"properties":{"electorateShortName":"franklin","electorateName":"Franklin","area":10009.231126,"state":"TAS"},"type":"Feature","geometry":{"type":"MultiPolygon","coordinates":[[[[145.940454,-43.150439],[145.933645,-43.156517],[145.925788,-43.157767],[145.921338,-43.163191],[145.921258,-43.172591],[145.929895,-43.177472],[145.927708,-43.185034],[145.933175,-43.190514],[145.929227,-43.193143],[145.919944,-43.189877],[145.915252,-43.194875],[145.918073,-43.198954],[145.928127,-43.204659],[145.928791,-43.211742],[145.938252,-43.223428],[145.945058,-43.225066],[145.946408,-43.230004],[145.96021,-43.23079],[145.965056,-43.228409],[145.975954,-43.234805],[145.972103,-43.241183],[145.971156,-43.258537],[145.966548,-43.265709],[145.973674,-43.269402],[145.970346,-43.276138],[145.953416,-43.281066],[145.963553,-43.285668],[145.96079,-43.295028],[145.97384,-43.305399],[145.981668,-43.304882],[145.984152,-43.31058],[145.979023,-43.315195],[145.983475,-43.322635],[146.00601,-43.320746],[146.004366,-43.329016],[146.010186,-43.335244],[146.025502,-43.337931],[146.028734,-43.342392],[146.039366,-43.336322],[146.049071,-43.337266],[146.059043,-43.326671],[146.051061,-43.324245],[146.051739,-43.311267],[146.061233,-43.307124],[146.053259,-43.300716],[146.058651,-43.295023],[146.065661,-43.297668],[146.058971,-43.30455],[146.071449,-43.315433],[146.070272,-43.322238],[146.084282,-43.340223],[146.084786,-43.32574],[146.087437,-43.325456],[146.093902,-43.339512],[146.111866,-43.348394],[146.120165,-43.346905],[146.130304,-43.349543],[146.136408,-43.345624],[146.141136,-43.322429],[146.15762,-43.311349],[146.151957,-43.307734],[146.15213,-43.302723],[146.168445,-43.291051],[146.176098,-43.298348],[146.176534,-43.304741],[146.172055,-43.31156],[146.171483,-43.319242],[146.181474,-43.320047],[146.189056,-43.315211],[146.197168,-43.317379],[146.198995,-43.322166],[146.208616,-43.330501],[146.2138,-43.329125],[146.219224,-43.321101],[146.228387,-43.325559],[146.222831,-43.332528],[146.223525,-43.345108],[146.227774,-43.355492],[146.223139,-43.363284],[146.212893,-43.364055],[146.225431,-43.375946],[146.224029,-43.38377],[146.216217,-43.382314],[146.20907,-43.375634],[146.210264,-43.363576],[146.188702,-43.363643],[146.182171,-43.360223],[146.166396,-43.361656],[146.160316,-43.367157],[146.165352,-43.370812],[146.167329,-43.379396],[146.174744,-43.378817],[146.17596,-43.383477],[146.164367,-43.38198],[146.159104,-43.385607],[146.150002,-43.3874],[146.147363,-43.377846],[146.14049,-43.3752],[146.134511,-43.380877],[146.128191,-43.378692],[146.13231,-43.373668],[146.128849,-43.364806],[146.130541,-43.355464],[146.123799,-43.352064],[146.108713,-43.35123],[146.106735,-43.348365],[146.09507,-43.351757],[146.086217,-43.347382],[146.075216,-43.349447],[146.068303,-43.344201],[146.063392,-43.347652],[146.069642,-43.353401],[146.07608,-43.355041],[146.091597,-43.36448],[146.086862,-43.371383],[146.079361,-43.370266],[146.073127,-43.35777],[146.068006,-43.353142],[146.061132,-43.352554],[146.045973,-43.346383],[146.022198,-43.34732],[146.012219,-43.344276],[146.00672,-43.339682],[145.992741,-43.335904],[145.986817,-43.329322],[145.981797,-43.333342],[145.975078,-43.349155],[145.984154,-43.348453],[145.992119,-43.351145],[145.991821,-43.362755],[145.999178,-43.367697],[145.998521,-43.374769],[145.994695,-43.377162],[145.998126,-43.384727],[145.993652,-43.394252],[145.986761,-43.394507],[145.983727,-43.388246],[145.989307,-43.380367],[145.990443,-43.37275],[145.987852,-43.361516],[145.981592,-43.357624],[145.974773,-43.361772],[145.970756,-43.369699],[145.962829,-43.368103],[145.961988,-43.363446],[145.953241,-43.359387],[145.94634,-43.371779],[145.935622,-43.369677],[145.930329,-43.379369],[145.921467,-43.381296],[145.924789,-43.38591],[145.938057,-43.39024],[145.948061,-43.38129],[145.964525,-43.382612],[145.968328,-43.384526],[145.976372,-43.395226],[145.977058,-43.405234],[145.992687,-43.405602],[145.996739,-43.40807],[145.996198,-43.420039],[146.002368,-43.427556],[145.999306,-43.431626],[146.008508,-43.444953],[146.013137,-43.455308],[146.005742,-43.463896],[146.012152,-43.465337],[146.014851,-43.459437],[146.024844,-43.460885],[146.032045,-43.468215],[146.02782,-43.479495],[146.027455,-43.488205],[146.035876,-43.494866],[146.035752,-43.502715],[146.040156,-43.50505],[146.041914,-43.513972],[146.036188,-43.520928],[146.040929,-43.530554],[146.039513,-43.53678],[146.033795,-43.539963],[146.038025,-43.547711],[146.032942,-43.556336],[146.039482,-43.564065],[146.044596,-43.553117],[146.053629,-43.551223],[146.069952,-43.556499],[146.075113,-43.549186],[146.075735,-43.543675],[146.085947,-43.540418],[146.09073,-43.542489],[146.094658,-43.552842],[146.104085,-43.556974],[146.109879,-43.557075],[146.11292,-43.551714],[146.107311,-43.544342],[146.110737,-43.541752],[146.107196,-43.531623],[146.108261,-43.526999],[146.121556,-43.526847],[146.123056,-43.521588],[146.136493,-43.518296],[146.147213,-43.522234],[146.142256,-43.504229],[146.148004,-43.501487],[146.156717,-43.501992],[146.156604,-43.510152],[146.161542,-43.516419],[146.173697,-43.510089],[146.177565,-43.511374],[146.182404,-43.526627],[146.191349,-43.535166],[146.19159,-43.538759],[146.209618,-43.534836],[146.212032,-43.52105],[146.209112,-43.514356],[146.209782,-43.506969],[146.21388,-43.502825],[146.214293,-43.495412],[146.211488,-43.488141],[146.216007,-43.485565],[146.224921,-43.491321],[146.250043,-43.489828],[146.26229,-43.492538],[146.272905,-43.49845],[146.276121,-43.503585],[146.270234,-43.514739],[146.26897,-43.526175],[146.28337,-43.53591],[146.288846,-43.541752],[146.295381,-43.54399],[146.317811,-43.536247],[146.3203,-43.527311],[146.338237,-43.51663],[146.358641,-43.515269],[146.367572,-43.520236],[146.368505,-43.530461],[146.37264,-43.535039],[146.391538,-43.530271],[146.400995,-43.535047],[146.405565,-43.539816],[146.411231,-43.5351],[146.423017,-43.534566],[146.444375,-43.537761],[146.452673,-43.534433],[146.459469,-43.542578],[146.469323,-43.542581],[146.471368,-43.536602],[146.480689,-43.536492],[146.48746,-43.539278],[146.497136,-43.535098],[146.50874,-43.524066],[146.518239,-43.524748],[146.518208,-43.530218],[146.531671,-43.531364],[146.542175,-43.523268],[146.587519,-43.538719],[146.583758,-43.534566],[146.565812,-43.522996],[146.563687,-43.518338],[146.552587,-43.512421],[146.55058,-43.501192],[146.556142,-43.496624],[146.548896,-43.492071],[146.550238,-43.479957],[146.548678,-43.475434],[146.553128,-43.468521],[146.563459,-43.466396],[146.57285,-43.480759],[146.578282,-43.485135],[146.574582,-43.495474],[146.575933,-43.515078],[146.579286,-43.521088],[146.575188,-43.524626],[146.587829,-43.535565],[146.597664,-43.541162],[146.59711,-43.546065],[146.604618,-43.550487],[146.59859,-43.557836],[146.61081,-43.568748],[146.617531,-43.562855],[146.628537,-43.565512],[146.644871,-43.582022],[146.657227,-43.584234],[146.658402,-43.587651],[146.652777,-43.596177],[146.656434,-43.604429],[146.662858,-43.606658],[146.670225,-43.594409],[146.686091,-43.596701],[146.690132,-43.603881],[146.692566,-43.614205],[146.697449,-43.617958],[146.705755,-43.629264],[146.711246,-43.626075],[146.718337,-43.629454],[146.725255,-43.627703],[146.733977,-43.61802],[146.740476,-43.618445],[146.746118,-43.60999],[146.753554,-43.608294],[146.761957,-43.611946],[146.770801,-43.607904],[146.785297,-43.604946],[146.785144,-43.60029],[146.8004,-43.601745],[146.807676,-43.606237],[146.817358,-43.60657],[146.831278,-43.615117],[146.83871,-43.630761],[146.825692,-43.639754],[146.838403,-43.638654],[146.844807,-43.633052],[146.863376,-43.632027],[146.869669,-43.634896],[146.874014,-43.62853],[146.873612,-43.623367],[146.884755,-43.620882],[146.886267,-43.615641],[146.894722,-43.615722],[146.92155,-43.599235],[146.916913,-43.59392],[146.91809,-43.586206],[146.923853,-43.580994],[146.91945,-43.575661],[146.900202,-43.577165],[146.891605,-43.57547],[146.889733,-43.565894],[146.895623,-43.561964],[146.887947,-43.549413],[146.895368,-43.541004],[146.890548,-43.535395],[146.896559,-43.526067],[146.905473,-43.526594],[146.911372,-43.531859],[146.905563,-43.54158],[146.92081,-43.541511],[146.918774,-43.535125],[146.941945,-43.531898],[146.952825,-43.532988],[146.956025,-43.528157],[146.952473,-43.515069],[146.959001,-43.50678],[146.977883,-43.494017],[146.976663,-43.487618],[146.964159,-43.497915],[146.953006,-43.510102],[146.944368,-43.510063],[146.943294,-43.501449],[146.928992,-43.49667],[146.936831,-43.489998],[146.936576,-43.485677],[146.942028,-43.478121],[146.960198,-43.476501],[146.964049,-43.471925],[146.972545,-43.468638],[146.979584,-43.470412],[146.982585,-43.475028],[146.978809,-43.485716],[146.983923,-43.487524],[146.995444,-43.480537],[147.000098,-43.470816],[146.995048,-43.468647],[146.996446,-43.461872],[146.986605,-43.460342],[146.983224,-43.454706],[146.966251,-43.454204],[146.96236,-43.448872],[146.948668,-43.453098],[146.938813,-43.449469],[146.937519,-43.441495],[146.930454,-43.440812],[146.920327,-43.417799],[146.923638,-43.415583],[146.939027,-43.432349],[146.947603,-43.43434],[146.944603,-43.439306],[146.950553,-43.44738],[146.961257,-43.445858],[146.962804,-43.437071],[146.973022,-43.431905],[146.98951,-43.440037],[146.990814,-43.435038],[147.003066,-43.433992],[147.009961,-43.437179],[147.013471,-43.443554],[147.021823,-43.436773],[147.026432,-43.435817],[147.022821,-43.42802],[147.012442,-43.42207],[147.021789,-43.411587],[147.016661,-43.403277],[147.029897,-43.397188],[147.028326,-43.391434],[147.032016,-43.386309],[147.038991,-43.385244],[147.046012,-43.380001],[147.051744,-43.370004],[147.052646,-43.357316],[147.059306,-43.353063],[147.039508,-43.345543],[147.034042,-43.345464],[147.019319,-43.333896],[147.013129,-43.34201],[147.002556,-43.339972],[146.990885,-43.340192],[146.990123,-43.335198],[146.980565,-43.336688],[146.97565,-43.329837],[146.976241,-43.325424],[146.987519,-43.327341],[146.993835,-43.33508],[147.002395,-43.334029],[147.003743,-43.32423],[147.011916,-43.315833],[147.023509,-43.316757],[147.045042,-43.312302],[147.053807,-43.316682],[147.053823,-43.321086],[147.059073,-43.329341],[147.06533,-43.332813],[147.069021,-43.32422],[147.067054,-43.318639],[147.075136,-43.312024],[147.080573,-43.292427],[147.088805,-43.29053],[147.098989,-43.291849],[147.097614,-43.280188],[147.089403,-43.278382],[147.089434,-43.274024],[147.076786,-43.271097],[147.068004,-43.263638],[147.064544,-43.249102],[147.053716,-43.247952],[147.02465,-43.231033],[147.024409,-43.227546],[147.006602,-43.220531],[147.0017,-43.214512],[146.99259,-43.211708],[146.996666,-43.207816],[146.98811,-43.203489],[146.979153,-43.206529],[146.971896,-43.204],[146.969649,-43.193369],[146.964153,-43.190302],[146.971284,-43.183781],[146.967056,-43.17744],[146.974454,-43.169317],[146.968911,-43.164057],[146.960482,-43.161562],[146.965989,-43.156267],[146.98069,-43.158917],[146.979442,-43.145625],[146.972463,-43.141764],[146.980045,-43.137198],[146.98152,-43.131712],[146.993008,-43.128655],[146.991347,-43.118735],[147.000821,-43.109595],[147.00113,-43.104617],[147.013887,-43.088216],[147.018166,-43.078634],[147.021456,-43.076977],[147.029687,-43.058653],[147.040256,-43.051854],[147.045089,-43.045565],[147.041852,-43.059455],[147.030351,-43.081345],[147.021804,-43.091959],[147.018802,-43.11225],[147.011641,-43.117863],[147.006651,-43.137977],[146.997206,-43.146956],[147.000024,-43.154641],[146.994789,-43.164474],[146.994548,-43.173192],[146.986475,-43.179729],[146.984409,-43.189432],[147.002453,-43.192902],[147.010348,-43.190295],[147.014364,-43.196459],[147.024714,-43.200027],[147.023954,-43.205776],[147.027771,-43.209647],[147.045571,-43.212945],[147.045153,-43.216886],[147.059436,-43.220129],[147.071317,-43.213881],[147.075733,-43.208888],[147.071807,-43.202332],[147.086478,-43.192828],[147.081194,-43.182871],[147.083558,-43.178693],[147.080082,-43.172213],[147.094724,-43.168892],[147.093042,-43.181487],[147.100957,-43.187503],[147.101107,-43.196037],[147.105195,-43.203741],[147.114156,-43.210685],[147.098298,-43.215113],[147.092446,-43.218564],[147.095352,-43.241306],[147.10287,-43.252026],[147.112445,-43.24659],[147.123118,-43.242831],[147.130066,-43.24792],[147.138896,-43.24802],[147.143531,-43.26105],[147.142274,-43.265607],[147.152061,-43.276272],[147.161462,-43.27767],[147.167749,-43.283386],[147.179348,-43.277498],[147.188996,-43.276249],[147.219485,-43.281036],[147.231796,-43.27618],[147.242502,-43.268117],[147.240448,-43.256604],[147.250334,-43.241812],[147.255603,-43.238085],[147.260974,-43.223517],[147.260375,-43.214434],[147.256055,-43.204152],[147.257229,-43.200086],[147.251821,-43.191752],[147.255438,-43.188368],[147.242579,-43.182027],[147.239457,-43.173482],[147.248407,-43.166291],[147.239482,-43.163267],[147.238584,-43.154448],[147.247936,-43.14061],[147.256247,-43.138576],[147.249847,-43.128192],[147.258162,-43.123406],[147.269388,-43.121944],[147.271491,-43.1148],[147.263032,-43.112038],[147.274287,-43.104451],[147.28529,-43.110991],[147.285887,-43.103521],[147.296693,-43.096637],[147.300248,-43.092332],[147.300493,-43.084758],[147.291748,-43.079853],[147.283199,-43.07879],[147.279037,-43.074919],[147.258087,-43.069488],[147.264634,-43.066175],[147.26333,-43.061523],[147.268573,-43.054358],[147.265389,-43.050638],[147.267323,-43.044117],[147.273501,-43.042362],[147.276434,-43.037381],[147.276143,-43.029805],[147.279916,-43.026768],[147.26928,-43.021282],[147.27884,-43.010499],[147.285343,-43.009769],[147.290526,-43.026287],[147.300673,-43.038985],[147.307592,-43.052331],[147.314093,-43.059496],[147.321945,-43.060816],[147.333442,-43.058639],[147.345149,-43.049127],[147.337413,-43.041247],[147.338569,-43.036045],[147.334158,-43.022512],[147.328829,-43.016841],[147.330434,-43.010675],[147.32415,-43.006165],[147.329306,-42.998336],[147.33042,-42.989362],[147.316069,-42.973681],[147.297007,-42.965192],[147.290667,-42.965969],[147.281954,-42.970898],[147.274267,-42.972343],[147.25591,-42.966822],[147.249082,-42.966519],[147.226879,-42.972963],[147.214393,-42.979999],[147.200266,-42.981645],[147.188085,-42.985903],[147.18111,-42.985523],[147.170752,-42.979051],[147.152285,-42.9771],[147.146155,-42.974447],[147.150221,-42.955809],[147.156037,-42.951208],[147.157079,-42.939867],[147.151538,-42.939133],[147.157296,-42.91969],[147.150368,-42.913351],[147.051271,-42.900384],[147.044641,-42.909126],[147.03231,-42.904188],[147.02279,-42.90777],[147.014395,-42.905951],[147.010492,-42.901107],[147.009243,-42.888143],[146.997633,-42.888193],[146.990529,-42.885838],[146.970537,-42.888752],[146.955489,-42.882079],[146.940581,-42.885867],[146.925991,-42.895278],[146.924256,-42.900464],[146.929874,-42.902895],[146.934246,-42.919805],[146.941963,-42.922682],[146.937466,-42.928528],[146.927093,-42.929463],[146.916581,-42.933688],[146.913518,-42.939638],[146.902512,-42.940025],[146.896016,-42.935256],[146.879704,-42.935433],[146.881542,-42.939641],[146.880302,-42.948977],[146.873892,-42.95463],[146.864057,-42.94311],[146.855266,-42.939115],[146.855642,-42.932497],[146.849379,-42.923912],[146.852186,-42.919317],[146.846215,-42.913785],[146.846451,-42.908202],[146.832819,-42.903141],[146.805489,-42.894637],[146.797936,-42.903674],[146.788492,-42.903855],[146.780537,-42.898608],[146.775655,-42.889593],[146.776179,-42.88424],[146.765581,-42.874138],[146.755394,-42.874395],[146.74953,-42.871447],[146.739431,-42.871195],[146.723042,-42.858121],[146.697394,-42.857529],[146.698446,-42.8513],[146.68526,-42.853269],[146.675126,-42.849611],[146.665308,-42.851992],[146.65657,-42.847634],[146.647289,-42.853658],[146.646037,-42.865036],[146.649061,-42.874087],[146.652731,-42.876296],[146.653597,-42.893372],[146.658159,-42.897366],[146.658083,-42.903404],[146.651855,-42.909752],[146.648406,-42.921704],[146.560453,-42.998515],[146.458808,-43.087277],[146.222191,-43.118804],[146.08907,-43.053903],[145.978141,-43.039171],[145.975258,-43.04819],[145.974613,-43.060139],[145.978476,-43.062303],[145.982004,-43.072402],[145.973915,-43.077692],[145.979475,-43.085492],[145.979982,-43.090356],[145.98856,-43.091251],[145.992701,-43.100646],[145.985445,-43.119252],[145.979595,-43.128207],[145.966528,-43.131295],[145.959117,-43.129663],[145.95639,-43.138684],[145.945505,-43.143615],[145.940454,-43.150439]]],[[[147.433271,-43.231656],[147.432876,-43.224725],[147.428187,-43.214558],[147.427952,-43.209084],[147.422123,-43.204702],[147.416309,-43.20584],[147.410771,-43.200547],[147.40854,-43.189011],[147.413644,-43.181276],[147.406362,-43.166813],[147.39302,-43.16387],[147.394852,-43.150428],[147.394215,-43.137436],[147.399474,-43.134942],[147.400789,-43.127283],[147.396123,-43.122563],[147.389599,-43.121063],[147.388773,-43.115006],[147.382801,-43.101464],[147.377776,-43.101688],[147.374408,-43.089272],[147.367326,-43.090537],[147.362585,-43.086779],[147.362833,-43.080493],[147.367631,-43.071824],[147.357352,-43.063662],[147.351972,-43.063679],[147.346239,-43.074943],[147.337107,-43.082832],[147.326107,-43.08662],[147.322583,-43.091699],[147.323228,-43.097551],[147.317133,-43.109427],[147.307756,-43.11201],[147.314736,-43.118934],[147.330082,-43.114881],[147.32263,-43.126485],[147.328409,-43.130998],[147.338377,-43.119425],[147.346104,-43.121827],[147.346431,-43.128595],[147.353227,-43.128061],[147.356919,-43.118081],[147.361847,-43.124045],[147.361258,-43.130629],[147.352396,-43.131134],[147.337218,-43.136556],[147.329781,-43.141548],[147.329223,-43.152275],[147.317359,-43.143502],[147.30963,-43.139885],[147.310204,-43.1343],[147.290289,-43.14288],[147.294363,-43.148849],[147.294041,-43.158566],[147.283081,-43.158449],[147.276007,-43.166545],[147.284142,-43.167236],[147.284937,-43.171503],[147.300954,-43.168462],[147.299489,-43.180866],[147.317643,-43.176972],[147.328801,-43.169773],[147.336476,-43.169435],[147.34289,-43.174594],[147.333544,-43.179898],[147.346782,-43.186081],[147.359091,-43.18445],[147.361713,-43.176301],[147.377895,-43.176779],[147.383971,-43.18236],[147.38646,-43.196517],[147.383276,-43.206911],[147.375729,-43.214859],[147.369773,-43.215293],[147.365993,-43.209101],[147.353043,-43.213347],[147.347527,-43.226285],[147.355732,-43.229079],[147.353676,-43.237702],[147.358071,-43.245821],[147.357883,-43.255799],[147.350701,-43.266627],[147.334419,-43.283915],[147.317638,-43.294773],[147.308365,-43.295024],[147.302942,-43.287132],[147.29785,-43.269028],[147.302201,-43.26428],[147.288694,-43.245468],[147.286104,-43.265938],[147.275325,-43.271917],[147.271597,-43.276041],[147.27108,-43.295519],[147.26344,-43.299021],[147.253233,-43.299418],[147.24678,-43.304327],[147.241484,-43.312626],[147.240417,-43.329166],[147.227398,-43.334226],[147.222336,-43.339846],[147.225693,-43.346731],[147.22496,-43.351946],[147.231553,-43.356247],[147.234483,-43.364057],[147.222871,-43.364423],[147.219162,-43.376424],[147.212788,-43.382357],[147.205246,-43.382749],[147.198643,-43.379384],[147.200449,-43.369425],[147.195609,-43.361267],[147.186952,-43.359381],[147.185766,-43.354944],[147.179097,-43.352555],[147.182006,-43.368403],[147.179811,-43.373259],[147.185944,-43.384685],[147.180723,-43.393626],[147.175365,-43.393951],[147.174277,-43.423514],[147.187383,-43.419108],[147.190574,-43.432056],[147.184617,-43.431562],[147.174268,-43.437809],[147.180376,-43.443265],[147.171415,-43.451725],[147.180114,-43.454773],[147.172855,-43.462027],[147.163777,-43.464994],[147.152522,-43.458297],[147.151283,-43.451991],[147.14381,-43.448813],[147.142144,-43.444367],[147.131375,-43.432735],[147.127517,-43.423061],[147.115239,-43.411234],[147.098988,-43.413428],[147.094343,-43.42087],[147.093898,-43.428398],[147.097909,-43.433023],[147.11461,-43.437294],[147.118124,-43.446354],[147.13565,-43.458103],[147.136766,-43.465363],[147.133449,-43.469122],[147.134681,-43.483938],[147.141167,-43.486595],[147.150034,-43.486624],[147.159387,-43.483352],[147.179044,-43.489814],[147.184148,-43.484629],[147.185737,-43.478512],[147.179048,-43.474453],[147.185785,-43.466005],[147.193018,-43.466551],[147.197606,-43.455414],[147.203519,-43.453198],[147.198981,-43.444958],[147.199051,-43.436016],[147.202173,-43.427277],[147.202009,-43.419163],[147.218432,-43.413676],[147.227259,-43.41257],[147.240774,-43.416234],[147.241973,-43.425713],[147.225905,-43.433909],[147.227859,-43.437669],[147.245864,-43.440396],[147.251576,-43.447627],[147.255796,-43.457721],[147.250786,-43.46571],[147.244207,-43.465013],[147.241424,-43.471096],[147.246808,-43.47556],[147.244523,-43.488487],[147.250158,-43.493282],[147.256249,-43.488794],[147.270726,-43.493299],[147.271773,-43.500564],[147.293506,-43.510874],[147.301558,-43.510403],[147.316268,-43.501151],[147.32337,-43.501338],[147.327404,-43.494492],[147.320956,-43.477366],[147.320875,-43.469109],[147.324988,-43.461471],[147.326964,-43.449733],[147.334513,-43.439123],[147.344451,-43.437623],[147.337912,-43.423253],[147.347098,-43.415869],[147.348567,-43.405234],[147.359998,-43.402049],[147.359279,-43.398393],[147.37053,-43.388985],[147.378941,-43.390294],[147.377689,-43.383105],[147.381457,-43.378401],[147.379637,-43.361319],[147.369201,-43.353676],[147.358513,-43.358655],[147.349725,-43.368222],[147.340004,-43.366916],[147.328296,-43.360183],[147.320304,-43.343992],[147.32377,-43.339626],[147.322436,-43.325456],[147.324436,-43.318823],[147.320347,-43.310506],[147.322286,-43.304035],[147.33161,-43.288628],[147.345626,-43.273404],[147.362154,-43.260594],[147.380261,-43.250602],[147.401028,-43.242805],[147.415942,-43.240573],[147.419148,-43.242948],[147.421222,-43.252656],[147.429092,-43.248728],[147.432907,-43.239528],[147.433271,-43.231656]]],[[[147.292566,-42.790883],[147.289859,-42.79526],[147.281926,-42.797003],[147.283331,-42.802795],[147.294137,-42.809418],[147.308148,-42.812345],[147.319935,-42.816675],[147.317373,-42.824903],[147.326579,-42.829533],[147.333777,-42.841081],[147.344275,-42.850832],[147.354622,-42.857453],[147.350539,-42.860591],[147.355186,-42.8655],[147.35094,-42.870474],[147.363062,-42.87863],[147.391682,-42.880684],[147.404691,-42.884291],[147.405042,-42.891345],[147.409727,-42.893759],[147.417327,-42.908852],[147.415796,-42.91375],[147.409231,-42.918964],[147.411677,-42.924257],[147.408057,-42.935199],[147.421401,-42.939748],[147.42807,-42.928226],[147.433419,-42.924363],[147.435069,-42.908677],[147.446437,-42.908197],[147.458487,-42.911718],[147.463481,-42.908729],[147.479007,-42.90631],[147.484269,-42.910388],[147.48415,-42.922385],[147.474517,-42.918455],[147.464751,-42.92345],[147.463899,-42.93121],[147.456313,-42.936679],[147.455889,-42.948558],[147.45235,-42.959576],[147.44606,-42.964527],[147.449326,-42.970179],[147.460461,-42.972956],[147.465332,-42.970171],[147.472935,-42.974281],[147.478482,-42.982108],[147.478607,-42.987963],[147.472423,-42.990478],[147.468829,-42.999289],[147.473392,-43.008779],[147.472811,-43.023309],[147.460727,-43.030829],[147.452226,-43.032634],[147.437424,-43.030303],[147.430092,-43.027571],[147.425901,-43.019626],[147.427736,-43.013002],[147.417537,-43.002823],[147.419681,-42.993559],[147.417869,-42.984372],[147.408549,-42.981767],[147.401378,-42.973607],[147.391862,-42.97595],[147.40407,-42.984539],[147.403844,-42.991555],[147.398289,-42.998425],[147.397036,-43.006683],[147.404861,-43.008148],[147.41271,-43.014469],[147.415475,-43.020382],[147.414661,-43.027422],[147.404125,-43.036945],[147.411354,-43.040714],[147.415567,-43.049686],[147.423026,-43.043283],[147.441208,-43.036948],[147.456651,-43.033598],[147.477069,-43.032643],[147.484182,-43.026933],[147.500455,-43.022061],[147.52137,-43.020832],[147.520418,-43.014391],[147.5288,-43.006036],[147.523747,-42.992724],[147.542082,-42.986836],[147.549738,-42.982085],[147.550008,-42.9682],[147.543862,-42.963144],[147.532072,-42.964859],[147.539201,-42.97491],[147.534675,-42.982368],[147.522774,-42.984624],[147.517772,-42.973772],[147.511046,-42.970106],[147.508791,-42.964536],[147.518198,-42.963502],[147.51331,-42.955415],[147.522858,-42.952288],[147.532867,-42.958348],[147.536652,-42.950663],[147.536449,-42.941586],[147.530507,-42.931312],[147.525226,-42.926031],[147.514715,-42.925034],[147.512554,-42.916173],[147.500855,-42.917294],[147.494968,-42.911283],[147.495267,-42.904666],[147.500809,-42.891742],[147.511077,-42.87607],[147.503627,-42.86429],[147.51553,-42.85494],[147.529161,-42.847302],[147.543218,-42.84231],[147.564561,-42.837869],[147.589138,-42.838209],[147.608012,-42.845857],[147.613383,-42.845985],[147.594934,-42.829823],[147.578578,-42.825114],[147.547155,-42.825146],[147.532302,-42.828035],[147.517861,-42.825842],[147.513089,-42.817116],[147.503569,-42.812528],[147.502556,-42.819075],[147.491197,-42.827953],[147.481186,-42.826779],[147.476307,-42.823063],[147.47466,-42.815752],[147.459344,-42.809132],[147.454512,-42.801141],[147.447396,-42.799339],[147.445642,-42.790176],[147.437463,-42.786244],[147.434128,-42.77554],[147.426405,-42.77521],[147.418517,-42.787745],[147.409174,-42.779656],[147.404646,-42.780066],[147.392172,-42.772515],[147.386872,-42.776617],[147.375254,-42.771226],[147.377841,-42.764918],[147.368526,-42.761214],[147.347579,-42.777447],[147.332586,-42.766641],[147.325339,-42.772059],[147.326189,-42.780478],[147.311656,-42.782187],[147.305827,-42.787789],[147.307333,-42.798078],[147.295125,-42.794347],[147.292566,-42.790883]]],[[[146.377614,-43.596448],[146.37484,-43.586771],[146.360885,-43.589764],[146.347539,-43.586699],[146.337733,-43.590831],[146.341257,-43.602818],[146.35934,-43.606963],[146.366658,-43.600358],[146.377614,-43.596448]]],[[[146.286411,-43.651435],[146.279212,-43.643718],[146.275064,-43.643188],[146.269149,-43.653577],[146.269212,-43.65862],[146.282512,-43.656066],[146.286411,-43.651435]]],[[[147.020234,-43.09089],[147.015679,-43.08994],[147.004578,-43.106443],[147.009813,-43.109457],[147.018579,-43.104439],[147.020234,-43.09089]]],[[[147.490874,-43.062006],[147.49038,-43.056911],[147.484844,-43.044846],[147.472132,-43.045822],[147.486585,-43.064681],[147.490874,-43.062006]]],[[[147.041418,-43.053224],[147.030661,-43.058595],[147.024388,-43.072152],[147.032955,-43.070883],[147.041418,-43.053224]]],[[[147.105802,-43.396574],[147.100228,-43.393779],[147.094049,-43.398601],[147.102843,-43.406761],[147.105802,-43.396574]]],[[[147.029678,-43.077514],[147.021176,-43.080216],[147.015789,-43.089825],[147.020375,-43.090719],[147.029678,-43.077514]]],[[[146.297123,-43.61968],[146.290209,-43.616477],[146.285371,-43.620976],[146.293686,-43.623242],[146.297123,-43.61968]]],[[[147.148379,-43.286293],[147.137975,-43.290256],[147.144375,-43.294334],[147.148379,-43.286293]]]]},"bbox":[145.915252,-43.65862,147.613383,-42.761214]}]}