{"type":"FeatureCollection","features":[
{"properties":{"electorateShortName":"franklin","electorateName":"Franklin","area":10009.231126,"state":"TAS"},"type":"Feature","geometry":{"type":"MultiPolygon","coordinates":[[[[145.978141,-43.039171],[145.979141,-43.040544],[145.979518,-43.042261],[145.979278,-43.043833],[145.978023,-43.04397],[145.976609,-43.045504],[145.976908,-43.046711],[145.975258,-43.04819],[145.975014,-43.049391],[145.976017,-43.050796],[145.976534,-43.054257],[145.974884,-43.055709],[145.97571,-43.058657],[145.974613,-43.060139],[145.974577,-43.061963],[145.976266,-43.060913],[145.978476,-43.062303],[145.978276,-43.063753],[145.980005,-43.065343],[145.980795,-43.067542],[145.980156,-43.069026],[145.981006,-43.070002],[145.98084,-43.07126],[145.982004,-43.072402],[145.980904,-43.073092],[145.978474,-43.073732],[145.978074,-43.075422],[145.975775,-43.075272],[145.974715,-43.076322],[145.972085,-43.076202],[145.971995,-43.076842],[145.973915,-43.077692],[145.974605,-43.079352],[145.977005,-43.082452],[145.977155,-43.084222],[145.979475,-43.085492],[145.979385,-43.088232],[145.979982,-43.090356],[145.981228,-43.090648],[145.982175,-43.089422],[145.983735,-43.089402],[145.984445,-43.088602],[145.986075,-43.089352],[145.984585,-43.090832],[145.984804,-43.092464],[145.985815,-43.092352],[145.986965,-43.091032],[145.98856,-43.091251],[145.990265,-43.093262],[145.989695,-43.095202],[145.9886,-43.095997],[145.989748,-43.098976],[145.992701,-43.100646],[145.992145,-43.101842],[145.992355,-43.104702],[145.991565,-43.105502],[145.990155,-43.105611],[145.989045,-43.106482],[145.988505,-43.107882],[145.986925,-43.110052],[145.987375,-43.112112],[145.986195,-43.113132],[145.986105,-43.114622],[145.983915,-43.116212],[145.983905,-43.117302],[145.985375,-43.118512],[145.985445,-43.119252],[145.983695,-43.121992],[145.982585,-43.125362],[145.980309,-43.126781],[145.979595,-43.128207],[145.980666,-43.131071],[145.982676,-43.133993],[145.982306,-43.135373],[145.980546,-43.135473],[145.977986,-43.134153],[145.978156,-43.132263],[145.977546,-43.131223],[145.974346,-43.130303],[145.972776,-43.130293],[145.969726,-43.131083],[145.966528,-43.131295],[145.964507,-43.130083],[145.964447,-43.128055],[145.963046,-43.127448],[145.960384,-43.128237],[145.959117,-43.129663],[145.958077,-43.133033],[145.955797,-43.135133],[145.956477,-43.137313],[145.95639,-43.138684],[145.955208,-43.139937],[145.952475,-43.139867],[145.950606,-43.140991],[145.948325,-43.141821],[145.945505,-43.143615],[145.94469,-43.144898],[145.944527,-43.146853],[145.942808,-43.148298],[145.942318,-43.149862],[145.940454,-43.150439],[145.93519,-43.151876],[145.933458,-43.155957],[145.926238,-43.156664],[145.920472,-43.161382],[145.919467,-43.171557],[145.921679,-43.174531],[145.928375,-43.177928],[145.92572,-43.183331],[145.927102,-43.189413],[145.924971,-43.190212],[145.918861,-43.188462],[145.913901,-43.191945],[145.9157437704074,-43.188327318258075],[145.913377,-43.190319],[145.912532,-43.189347],[145.911404,-43.189796],[145.910036,-43.194087],[145.913812,-43.201156],[145.920675,-43.204904],[145.916801,-43.20475],[145.913645,-43.208484],[145.91644,-43.215399],[145.913922,-43.217833],[145.919613,-43.215582],[145.920825,-43.222923],[145.924841,-43.224941],[145.922585,-43.227882],[145.928477,-43.238041],[145.926765,-43.242248],[145.928463,-43.24519],[145.926618,-43.245722],[145.92673,-43.24774],[145.917441,-43.247833],[145.914994,-43.249656],[145.911375,-43.247433],[145.90749,-43.248351],[145.897146,-43.264139],[145.888181,-43.262611],[145.884629,-43.258998],[145.885089,-43.260915],[145.883844,-43.26163],[145.880723,-43.259302],[145.875924,-43.260353],[145.871797,-43.258673],[145.87013,-43.260004],[145.871227,-43.261476],[145.869671,-43.265414],[145.873009,-43.268133],[145.876923,-43.267214],[145.875173,-43.269073],[145.876671,-43.271074],[145.87567,-43.273186],[145.869541,-43.271345],[145.86458735926394,-43.27252651215514],[145.864872,-43.277756],[145.869327,-43.281245],[145.871825,-43.286053],[145.880696,-43.289684],[145.887092,-43.2864],[145.888962,-43.282827],[145.891772,-43.284316],[145.897572,-43.281734],[145.899114,-43.275631],[145.904522,-43.271855],[145.903683,-43.267354],[145.901083,-43.26546],[145.923948,-43.267433],[145.926482,-43.272459],[145.922555,-43.276473],[145.92379,-43.277986],[145.92068,-43.280419],[145.922273,-43.283972],[145.920103,-43.285689],[145.920125,-43.291979],[145.920475,-43.295251],[145.926633,-43.300487],[145.923937,-43.300723],[145.922013,-43.299845],[145.922879,-43.301932],[145.922787,-43.303134],[145.91824,-43.301448],[145.917192,-43.302548],[145.908689,-43.298635],[145.902488,-43.29958],[145.901217,-43.301213],[145.899177,-43.3003],[145.894271,-43.304638],[145.895998,-43.311072],[145.894662,-43.311643],[145.896102,-43.313239],[145.894271,-43.313461],[145.893339,-43.314631],[145.890443,-43.311761],[145.878681,-43.3108],[145.874266,-43.313465],[145.875596,-43.31478],[145.872336,-43.317668],[145.873255,-43.319841],[145.872508,-43.321051],[145.870537,-43.322614],[145.863505,-43.319117],[145.863031,-43.317548],[145.860012,-43.318133],[145.85829256152866,-43.317194593433285],[145.8466971881455,-43.33120133725793],[145.83815391438802,-43.34725294247264],[145.83301147622322,-43.3646941834315],[145.83147978769537,-43.382813109633624],[145.83318218096926,-43.39716701954894],[145.8307550726017,-43.409417384506796],[145.8306340726017,-43.4106963845068],[145.83063387630952,-43.427647540379965],[145.83381218008648,-43.444298068016536],[145.8400562358876,-43.46005730190107],[145.8491445403156,-43.47436619452415],[145.86075469229485,-43.48671714819152],[145.87447483001816,-43.49667202168786],[145.8898182414487,-43.50387767302192],[145.90624063008013,-43.508078486885154],[145.9112451248592,-43.508388171115904],[145.92524845699953,-43.51098256028767],[145.92945343745012,-43.510964114887734],[145.9373228877467,-43.5223667198388],[145.93976788774668,-43.5252277198388],[145.94456043999156,-43.52981035682527],[145.94414926267294,-43.531985420223776],[145.9442259555285,-43.540210332219054],[145.94041505329167,-43.556256248084345],[145.93986233483938,-43.57447285460159],[145.94299085258933,-43.59242731442025],[145.94967231790517,-43.60938338330207],[145.95115631790514,-43.61225638330207],[145.9613949590615,-43.62786133080674],[145.9746321140978,-43.64101890983547],[145.9902985131815,-43.65116327275793],[146.00772041574237,-43.657858156663686],[146.02614858499007,-43.660815645045815],[146.04479050918076,-43.659908549780326],[146.04773150918078,-43.65945654978032],[146.0656305791779,-43.654782068635676],[146.08219578253585,-43.646546686528964],[146.08344572780138,-43.645561940259945],[146.0957232115977,-43.64661882181438],[146.09775708484077,-43.646404182980696],[146.10251637396752,-43.646960329030414],[146.10831037396753,-43.647061329030414],[146.1274961213069,-43.645333920437864],[146.14587479386486,-43.63956319808941],[146.16260442870782,-43.6300135300618],[146.1654752677127,-43.627944400581576],[146.16030805244034,-43.644999276840345],[146.15860249314096,-43.66273793477574],[146.1604254580394,-43.68046491186863],[146.1657054759023,-43.69748520355944],[146.17423553814217,-43.7131315116242],[146.18568121480402,-43.7267904062949],[146.19959376623947,-43.73792637641107],[146.21542773641102,-43.746102824691306],[146.2325623380627,-43.75099918498347],[146.25032579132977,-43.752423490393795],[146.2680216615663,-43.75031989954847],[146.2732076615663,-43.749173899548474],[146.27763904475395,-43.74772639939254],[146.28093893021372,-43.74744787869896],[146.2813050225869,-43.7523421756316],[146.28633725834482,-43.76994555848339],[146.28791525834484,-43.77389255848339],[146.29600278993908,-43.78949819046537],[146.30696926729684,-43.8032342849324],[146.3203964155454,-43.814576930424366],[146.33577210681167,-43.82309350455538],[146.35250989340628,-43.82845917476124],[146.36997137565643,-43.830469287811084],[146.38749055125092,-43.82904717553221],[146.40439921738388,-43.824247079028034],[146.42005245682765,-43.81625207985597],[146.42374045682763,-43.81388807985597],[146.43751777529488,-43.80302565981668],[146.4489259029368,-43.789696695229594],[146.4575313215043,-43.774407697730204],[146.46300701800217,-43.75773966181947],[146.46514491145228,-43.740325986594115],[146.4638637601422,-43.72282840605911],[146.4592122488772,-43.705911842690334],[146.4520201977829,-43.69152546425325],[146.4599996231574,-43.675560171796974],[146.4646857477595,-43.65811940991327],[146.46480219144328,-43.656228129273],[146.4743273933244,-43.66227889562649],[146.49028655807882,-43.66856206028135],[146.50714786971585,-43.67170359933376],[146.5242989647446,-43.671589419416456],[146.54111695541764,-43.66822366727758],[146.55699105156037,-43.66172857918047],[146.56112099523173,-43.65948688365237],[146.577148473869,-43.66167182468605],[146.58663402427536,-43.66115117491386],[146.59855010312157,-43.67334528604451],[146.60106288956788,-43.67506545257801],[146.6059248599099,-43.67957473935081],[146.6215396364323,-43.689032421341615],[146.6387416935022,-43.69514455902383],[146.64073716805203,-43.69542212590759],[146.6487838651775,-43.70335554525787],[146.66354845334635,-43.713063800266546],[146.67992535581615,-43.71970009023941],[146.69728326669446,-43.72300859580088],[146.7149530636342,-43.72286177884904],[146.72011618968247,-43.721870454948316],[146.73809751466234,-43.72073106817101],[146.75549156612146,-43.71603285318051],[146.76714230562598,-43.710197419304194],[146.7700252998554,-43.71306761819622],[146.78554632729848,-43.72317086615972],[146.8028067046706,-43.72988333852633],[146.82107557663883,-43.732920809399914],[146.8395793852319,-43.732154663296654],[146.8575346245682,-43.72761734110434],[146.85820481151436,-43.72737225605869],[146.8634190836422,-43.72832354431108],[146.8808447196963,-43.72808854733546],[146.89789838018362,-43.72449958098677],[146.9139406412297,-43.71769121290049],[146.92837000119675,-43.707918721590204],[146.9406454338774,-43.695548524826535],[146.94336550486193,-43.691464976884404],[146.9686720358212,-43.67591298732403],[146.98382913443254,-43.66420660467721],[146.9961661643841,-43.64955823531534],[146.99992405270615,-43.64245757820369],[147.01049602656335,-43.641432467612326],[147.02717936152706,-43.63644596697207],[147.02985136152705,-43.635355966972064],[147.04501173974256,-43.62741405756547],[147.05839459158625,-43.616745867972554],[147.06951596836447,-43.60373717967523],[147.0779737005079,-43.588858410920714],[147.0832361188868,-43.57331462343926],[147.0928789588204,-43.579473034610224],[147.10878983539618,-43.58578863689336],[147.12560871654887,-43.5889773768294],[147.14272712666659,-43.588923891781164],[147.15952575374055,-43.585630116737526],[147.16048110485298,-43.585243975656056],[147.1680998624313,-43.58415899252441],[147.17468977209046,-43.581809405228675],[147.18631892911193,-43.58195630630941],[147.20417584558487,-43.578526692407344],[147.21179754405716,-43.57537474520372],[147.21703017849222,-43.577747457734745],[147.21793778957334,-43.57797254864595],[147.22039598687036,-43.58208319665093],[147.23298548419743,-43.59571884553187],[147.2481041134869,-43.60648236780668],[147.26510900381223,-43.613916079421756],[147.2832770770828,-43.617703885777395],[147.30183579460655,-43.6176847226306],[147.31999600680507,-43.61385940483236],[147.336985509253,-43.60639059167871],[147.339687509253,-43.604852591678714],[147.35353144709447,-43.595144937996885],[147.3653153501445,-43.58301923043515],[147.36627713175938,-43.5815606604259],[147.37428856472744,-43.57722924821928],[147.3878891357824,-43.56595238006747],[147.39902461742355,-43.55223580844942],[147.40131690842685,-43.54830682792296],[147.409557098743,-43.53308438064541],[147.4147307299525,-43.51656599156925],[147.4154787299525,-43.51300799156925],[147.41739963235833,-43.495378654624474],[147.4169907932864,-43.490788207466586],[147.42569656365913,-43.47634196674383],[147.4300229572597,-43.46438218559811],[147.44315187311724,-43.45335717287863],[147.4538945004788,-43.44011340150153],[147.46194619054566,-43.42508104273831],[147.4670178761902,-43.40879977965335],[147.46759115690674,-43.403712530967226],[147.46866251451615,-43.400654050082494],[147.47119942408182,-43.38520521339489],[147.4717014240818,-43.378584213394895],[147.46982057576918,-43.35227760262543],[147.46749857576918,-43.34181660262543],[147.46519992776174,-43.334672415428344],[147.47568690307452,-43.32978852168636],[147.48942262183354,-43.31989495972424],[147.5010627704958,-43.30760433414023],[147.51019555719174,-43.293351448632656],[147.51649789263644,-43.27764052548766],[147.51717189263644,-43.275359525487666],[147.52004624257862,-43.26081675852082],[147.52117513400773,-43.25709889977182],[147.52290699951786,-43.23951868405257],[147.5225841251769,-43.23624811735736],[147.52312519964858,-43.226535179214984],[147.52273019964858,-43.21960417921498],[147.52019865533666,-43.20293615273917],[147.5158976059071,-43.190712268278276],[147.51563975310285,-43.18881436863253],[147.5104414906076,-43.17309116822338],[147.50889252451316,-43.170279650389354],[147.5078155641602,-43.16731138973397],[147.5000201556199,-43.15450662846156],[147.51784196403358,-43.15042627379726],[147.53508687246995,-43.14237189121459],[147.55025236979776,-43.13087112443288],[147.5626602026541,-43.11643832742135],[147.56494220265407,-43.11313232742135],[147.57398491706854,-43.09653968593162],[147.5751098928354,-43.09275091756002],[147.5870961728577,-43.082314275506654],[147.59822158291578,-43.0676703838677],[147.60072109580682,-43.06324185534905],[147.61142253439934,-43.0552298947203],[147.62416015202112,-43.042151175556064],[147.6263932252939,-43.038749874818926],[147.622473,-43.035702],[147.623048,-43.031207],[147.625636,-43.029553],[147.621605,-43.024339],[147.625371,-43.020668],[147.621702,-43.020033],[147.621674,-43.018082],[147.618985,-43.017572],[147.619071,-43.006636],[147.627209,-42.998402],[147.640734,-42.99356],[147.64363475124952,-42.994121630533385],[147.6436315340435,-42.97699264744074],[147.6402773768464,-42.95991180369131],[147.63888146830035,-42.956492736237465],[147.63803517949478,-42.951775996381166],[147.635266,-42.949305],[147.635678,-42.947163],[147.63701938942305,-42.94611455139273],[147.63654692211924,-42.94348128323642],[147.63262262335215,-42.93362530740214],[147.64708654097734,-42.92943601153125],[147.66328137572856,-42.9208859485898],[147.67741019442064,-42.90923465118182],[147.68715725294385,-42.897116337610065],[147.680151,-42.900145],[147.680271,-42.903623],[147.676705,-42.900568],[147.66907,-42.901896],[147.670495,-42.893653],[147.65954,-42.886605],[147.65446,-42.886363],[147.654034,-42.889014],[147.651796,-42.889333],[147.649472,-42.893135],[147.641854,-42.890014],[147.639225,-42.884018],[147.641898,-42.877776],[147.647514,-42.877892],[147.656127,-42.881995],[147.664073,-42.874254],[147.677242,-42.874522],[147.680187,-42.872751],[147.68049,-42.865496],[147.684198,-42.864377],[147.689412,-42.86497],[147.690153,-42.8679],[147.694483,-42.869757],[147.694151,-42.871904],[147.696331,-42.87383],[147.69865124084365,-42.87355982480259],[147.69907247346583,-42.87203605321574],[147.696807,-42.872561],[147.696408,-42.86983],[147.690925,-42.867563],[147.690394,-42.863754],[147.684131,-42.862707],[147.678922,-42.865118],[147.678615,-42.863663],[147.675905,-42.86787],[147.669951,-42.87031],[147.665589,-42.870002],[147.664271,-42.872478],[147.656678,-42.875986],[147.650223,-42.875656],[147.653331,-42.87877],[147.623473,-42.869473],[147.613679,-42.867771],[147.605973,-42.869225],[147.606937,-42.866578],[147.610119,-42.865916],[147.611417,-42.863562],[147.611358,-42.861272],[147.607553,-42.857922],[147.607277,-42.855797],[147.612708,-42.85697],[147.616382,-42.851417],[147.620752,-42.850623],[147.621242,-42.842508],[147.616443,-42.837203],[147.610658,-42.835125],[147.605553,-42.83061],[147.606509,-42.82899],[147.605434,-42.826281],[147.608012,-42.822883],[147.602004,-42.82267],[147.59673,-42.813354],[147.59605,-42.807738],[147.594514,-42.807066],[147.601229,-42.803164],[147.600984,-42.799885],[147.597702,-42.796115],[147.600729,-42.793048],[147.600761,-42.791008],[147.597024,-42.789461],[147.594183,-42.781572],[147.591226,-42.781911],[147.585385,-42.778262],[147.590557,-42.782438],[147.594213,-42.782241],[147.595193,-42.784521],[147.591179,-42.790096],[147.594124,-42.794443],[147.592235,-42.796776],[147.587838,-42.797638],[147.591849,-42.801087],[147.576237,-42.795628],[147.56514,-42.794264],[147.566814,-42.792284],[147.562457,-42.79261],[147.561441,-42.797088],[147.554843,-42.795936],[147.551738,-42.793318],[147.550376,-42.785365],[147.544703,-42.783838],[147.538792,-42.784798],[147.536892,-42.78228],[147.537008,-42.780405],[147.535689,-42.775617],[147.534354,-42.775256],[147.534344,-42.777544],[147.535132,-42.782019],[147.530835,-42.781071],[147.52922,-42.783489],[147.531749,-42.786257],[147.530285,-42.790592],[147.534868,-42.793056],[147.538009,-42.797313],[147.537607,-42.79997],[147.539722,-42.80117],[147.53521,-42.805304],[147.527827,-42.805182],[147.52517,-42.801765],[147.526344,-42.800215],[147.52348,-42.794664],[147.523961,-42.791338],[147.519664,-42.788457],[147.52073,-42.785269],[147.516618,-42.783326],[147.512057,-42.782992],[147.50666,-42.78644],[147.49915,-42.793952],[147.491535,-42.797517],[147.492129,-42.801264],[147.487271,-42.803107],[147.475962,-42.795778],[147.474413,-42.793003],[147.466344,-42.792329],[147.45288,-42.781296],[147.456874,-42.781351],[147.4642,-42.777135],[147.468398,-42.772457],[147.467807,-42.768893],[147.465417,-42.767555],[147.463741,-42.768362],[147.46535,-42.770042],[147.463602,-42.769959],[147.457837,-42.766314],[147.45677,-42.767907],[147.453999,-42.768082],[147.451559,-42.763518],[147.449855,-42.76382],[147.448034,-42.758574],[147.448925,-42.756088],[147.445873,-42.758313],[147.448728,-42.768297],[147.450491,-42.771267],[147.457497,-42.774329],[147.458346,-42.776662],[147.454908,-42.774489],[147.448442,-42.775934],[147.445872,-42.778053],[147.44746,-42.780712],[147.445127,-42.783309],[147.442755,-42.780595],[147.437814,-42.779689],[147.43648771840182,-42.77707596483164],[147.43642534468486,-42.776953076361906],[147.434962,-42.77407],[147.434128,-42.77554],[147.432733,-42.774317],[147.429417,-42.7741],[147.426405,-42.77521],[147.424976,-42.777662],[147.423272,-42.781277],[147.42204,-42.781598],[147.421058,-42.78288],[147.421083,-42.784332],[147.418517,-42.787745],[147.417765,-42.78832],[147.416276,-42.787314],[147.415752,-42.783863],[147.413515,-42.784171],[147.411514,-42.781039],[147.410225,-42.779732],[147.409174,-42.779656],[147.40703,-42.780653],[147.406473,-42.779363],[147.404646,-42.780066],[147.394667,-42.773917],[147.392172,-42.772515],[147.390416,-42.774323],[147.389857,-42.774097],[147.386872,-42.776617],[147.378367,-42.773398],[147.377404,-42.773612],[147.375254,-42.771226],[147.377388,-42.768083],[147.379486,-42.767725],[147.377702,-42.76589],[147.377841,-42.764918],[147.368526,-42.761214],[147.353606,-42.772261],[147.347579,-42.777447],[147.340541,-42.772859],[147.332586,-42.766641],[147.325339,-42.772059],[147.326189,-42.780478],[147.32036,-42.781821],[147.311656,-42.782187],[147.30921,-42.784801],[147.307156,-42.786043],[147.305827,-42.787789],[147.305431,-42.790762],[147.307333,-42.798078],[147.295125,-42.794347],[147.294606,-42.792972],[147.292566,-42.790883],[147.291152,-42.786337],[147.285786,-42.782488],[147.284152,-42.777749],[147.280564,-42.781811],[147.276674,-42.782361],[147.270837,-42.782239],[147.264187,-42.777529],[147.263192,-42.767843],[147.260522,-42.765294],[147.263097,-42.762893],[147.261518,-42.761183],[147.262962,-42.757121],[147.266683,-42.755655],[147.262702,-42.755316],[147.263649,-42.754279],[147.261626,-42.752108],[147.258602,-42.751396],[147.256084,-42.748636],[147.259375,-42.741303],[147.258712,-42.740696],[147.252229,-42.751215],[147.256918,-42.756956],[147.254474,-42.757489],[147.248284,-42.750291],[147.247779,-42.746509],[147.234957,-42.740915],[147.230667,-42.742828],[147.228639,-42.742157],[147.221951,-42.738273],[147.223421,-42.737187],[147.21484174345716,-42.73700719231217],[147.21093745882249,-42.74241092698529],[147.226904,-42.75042],[147.232714,-42.751939],[147.236205,-42.755378],[147.237291,-42.759464],[147.2425,-42.761343],[147.243646,-42.764331],[147.245992,-42.763623],[147.24885,-42.766305],[147.253504,-42.765787],[147.253576,-42.769487],[147.257971,-42.777546],[147.256151,-42.779329],[147.256845,-42.782797],[147.25533,-42.782036],[147.255294,-42.783906],[147.252945,-42.784333],[147.252818,-42.786751],[147.257847,-42.787008],[147.260379,-42.788751],[147.261365,-42.784841],[147.269359,-42.790785],[147.27421,-42.790395],[147.275905,-42.788611],[147.283207,-42.789994],[147.272244,-42.795783],[147.258954,-42.791834],[147.258977,-42.794041],[147.262881,-42.796559],[147.265856,-42.796527],[147.261704,-42.800429],[147.257206,-42.801509],[147.258218,-42.804845],[147.253629,-42.806203],[147.255221,-42.808892],[147.25806,-42.807309],[147.258563,-42.810037],[147.261219,-42.808677],[147.262345,-42.811369],[147.26156,-42.813049],[147.256684,-42.811689],[147.255959,-42.815145],[147.259923,-42.815753],[147.261793,-42.814377],[147.26133,-42.816881],[147.267989,-42.819205],[147.272325,-42.824434],[147.279306,-42.825996],[147.284107,-42.822254],[147.285105,-42.818882],[147.286407,-42.820134],[147.298018,-42.818736],[147.303901,-42.820475],[147.306722,-42.823546],[147.302201,-42.824963],[147.297753,-42.82384],[147.300871,-42.827619],[147.297467,-42.827397],[147.295007,-42.82923],[147.298083,-42.829486],[147.298577,-42.831148],[147.300866,-42.830117],[147.30189,-42.833834],[147.304928,-42.833567],[147.304882,-42.829232],[147.303159,-42.828096],[147.305266,-42.826403],[147.317326,-42.829185],[147.320635,-42.831513],[147.323192,-42.834012],[147.3236,-42.837943],[147.320693,-42.840192],[147.318169,-42.839777],[147.317858,-42.843384],[147.31507,-42.844567],[147.314872,-42.846832],[147.327849,-42.84461],[147.327334,-42.851485],[147.321904,-42.851323],[147.319663,-42.855131],[147.328561,-42.860055],[147.331053,-42.863709],[147.336789,-42.864589],[147.334547,-42.870582],[147.335236,-42.873862],[147.33915,-42.877294],[147.341196,-42.877063],[147.341468,-42.88224],[147.331528,-42.884938],[147.339448,-42.886795],[147.338118,-42.889192],[147.339013,-42.891165],[147.333872,-42.894352],[147.334586,-42.896029],[147.33322,-42.896172],[147.332239,-42.90022],[147.338421,-42.901613],[147.33722,-42.9039],[147.344773,-42.907936],[147.355722,-42.908636],[147.357432,-42.910078],[147.357374,-42.91369],[147.360963,-42.914127],[147.359828,-42.916047],[147.361953,-42.926069],[147.360866,-42.932783],[147.356,-42.941223],[147.357731,-42.943052],[147.355195,-42.947349],[147.35585,-42.951108],[147.344532,-42.954768],[147.340776,-42.961879],[147.341401,-42.966912],[147.339791,-42.967707],[147.340385,-42.96955],[147.338751,-42.969721],[147.338563,-42.974427],[147.32859524345332,-42.977383630077085],[147.32814105061755,-42.97717975044112],[147.32422,-42.974379],[147.32184759066962,-42.97900079819207],[147.32117660784124,-42.979329728271345],[147.317314,-42.977441],[147.315362,-42.974786],[147.316069,-42.973681],[147.315,-42.973858],[147.312832,-42.975026],[147.311552,-42.973979],[147.310058,-42.970899],[147.308197,-42.969464],[147.301212,-42.966258],[147.297007,-42.965192],[147.293734,-42.965235],[147.290667,-42.965969],[147.287991,-42.967311],[147.284757,-42.969479],[147.281954,-42.970898],[147.278846,-42.971789],[147.274267,-42.972343],[147.270326,-42.972062],[147.265396,-42.970682],[147.258775,-42.967843],[147.25591,-42.966822],[147.251634,-42.966165],[147.249082,-42.966519],[147.2452,-42.96796],[147.24049,-42.969384],[147.235022,-42.970244],[147.230059,-42.971554],[147.226879,-42.972963],[147.223682,-42.975028],[147.221522,-42.976867],[147.219041,-42.978468],[147.214393,-42.979999],[147.211895,-42.980292],[147.206681,-42.980378],[147.204014,-42.980738],[147.200266,-42.981645],[147.188085,-42.985903],[147.184996,-42.986264],[147.18111,-42.985523],[147.17895,-42.983964],[147.177377,-42.981472],[147.176214,-42.980996],[147.174666,-42.981715],[147.173271,-42.981631],[147.1721,-42.979773],[147.170752,-42.979051],[147.16822,-42.979306],[147.165844,-42.978686],[147.162864,-42.979117],[147.161088,-42.978576],[147.158882,-42.976264],[147.156928,-42.975964],[147.154173,-42.977069],[147.152285,-42.9771],[147.150002,-42.976118],[147.147883,-42.975696],[147.146155,-42.974447],[147.148946,-42.965206],[147.147586,-42.964977],[147.148904,-42.961376],[147.150221,-42.955809],[147.151813,-42.956013],[147.153232,-42.950873],[147.156037,-42.951208],[147.157648,-42.94402],[147.156115,-42.943811],[147.157079,-42.939867],[147.151538,-42.939133],[147.152392,-42.936054],[147.154783,-42.936394],[147.155552,-42.93357],[147.153163,-42.933227],[147.154355,-42.928829],[147.154789,-42.928897],[147.157296,-42.91969],[147.154141,-42.919237],[147.155644,-42.914131],[147.150368,-42.913351],[147.148391,-42.913332],[147.137452,-42.912022],[147.136695,-42.915097],[147.134471,-42.914813],[147.135475,-42.910406],[147.130653,-42.909812],[147.130465,-42.910616],[147.051271,-42.900384],[147.05045,-42.90146],[147.047761,-42.902393],[147.046529,-42.904274],[147.046352,-42.906237],[147.044641,-42.909126],[147.04107,-42.909471],[147.039546,-42.910016],[147.038691,-42.907683],[147.039691,-42.906167],[147.034665,-42.905036],[147.03231,-42.904188],[147.0316,-42.905401],[147.030126,-42.905913],[147.027286,-42.905214],[147.026246,-42.906902],[147.024971,-42.907585],[147.02279,-42.90777],[147.021491,-42.906714],[147.019521,-42.907137],[147.016511,-42.907048],[147.014395,-42.905951],[147.013661,-42.904258],[147.012551,-42.903686],[147.011237,-42.901507],[147.010492,-42.901107],[147.00637,-42.900927],[147.005861,-42.899742],[147.008303,-42.897991],[147.008501,-42.896996],[147.010272,-42.895699],[147.010932,-42.893784],[147.009577,-42.892344],[147.008953,-42.890786],[147.009243,-42.888143],[147.007106,-42.887603],[147.002059,-42.8875],[146.997633,-42.888193],[146.995602,-42.887189],[146.992234,-42.886581],[146.990529,-42.885838],[146.988218,-42.885856],[146.985899,-42.886572],[146.983372,-42.887764],[146.974455,-42.888168],[146.971985,-42.888771],[146.970537,-42.888752],[146.964664,-42.886391],[146.960394,-42.885052],[146.955489,-42.882079],[146.953261,-42.881965],[146.949907,-42.882729],[146.945908,-42.884236],[146.943667,-42.885356],[146.940581,-42.885867],[146.93649,-42.888941],[146.935786,-42.893195],[146.935082,-42.893406],[146.932426,-42.892221],[146.930471,-42.892489],[146.925991,-42.895278],[146.923933,-42.899136],[146.924256,-42.900464],[146.925704,-42.901276],[146.929874,-42.902895],[146.93103,-42.905021],[146.93139,-42.908209],[146.932763,-42.912469],[146.934207,-42.915122],[146.934004,-42.916157],[146.932692,-42.918075],[146.934246,-42.919805],[146.937439,-42.920558],[146.940388,-42.921726],[146.941963,-42.922682],[146.942451,-42.924028],[146.941274,-42.926634],[146.939234,-42.927894],[146.937466,-42.928528],[146.933857,-42.929156],[146.928274,-42.929157],[146.927093,-42.929463],[146.92261,-42.932166],[146.918341,-42.932456],[146.916581,-42.933688],[146.91459,-42.938247],[146.913518,-42.939638],[146.910314,-42.940239],[146.904139,-42.940288],[146.902512,-42.940025],[146.899649,-42.93837],[146.897936,-42.93641],[146.896016,-42.935256],[146.891409,-42.935913],[146.889413,-42.935929],[146.886527,-42.93485],[146.884024,-42.934339],[146.880562,-42.934367],[146.879704,-42.935433],[146.881542,-42.939641],[146.881791,-42.941824],[146.880771,-42.944656],[146.880302,-42.948977],[146.877549,-42.952878],[146.876531,-42.953647],[146.873892,-42.95463],[146.873137,-42.954224],[146.8712,-42.951849],[146.869397,-42.950141],[146.868753,-42.948722],[146.866456,-42.945112],[146.864057,-42.94311],[146.856915,-42.94103],[146.855814,-42.940394],[146.855266,-42.939115],[146.854921,-42.934455],[146.855642,-42.932497],[146.853636,-42.931779],[146.851772,-42.93007],[146.85098,-42.926886],[146.850091,-42.925813],[146.849379,-42.923912],[146.849488,-42.922764],[146.850524,-42.920942],[146.852186,-42.919317],[146.847745,-42.916182],[146.846215,-42.913785],[146.846622,-42.90935],[146.846451,-42.908202],[146.845063,-42.907088],[146.840241,-42.905564],[146.835991,-42.904838],[146.832819,-42.903141],[146.825565,-42.90163],[146.821636,-42.899229],[146.820163,-42.898686],[146.815038,-42.897782],[146.812399,-42.896193],[146.808999,-42.893715],[146.805489,-42.894637],[146.805108,-42.896523],[146.802053,-42.901322],[146.799802,-42.90329],[146.797936,-42.903674],[146.79253,-42.902678],[146.79033,-42.903705],[146.788492,-42.903855],[146.780537,-42.898608],[146.779163,-42.895908],[146.779109,-42.894116],[146.776686,-42.892342],[146.775795,-42.890877],[146.775655,-42.889593],[146.776179,-42.88424],[146.775538,-42.882843],[146.77324,-42.881042],[146.772285,-42.879464],[146.767419,-42.876654],[146.766444,-42.875855],[146.765581,-42.874138],[146.764017,-42.873761],[146.762528,-42.874208],[146.759415,-42.874503],[146.755394,-42.874395],[146.753976,-42.873073],[146.74953,-42.871447],[146.743252,-42.870159],[146.739431,-42.871195],[146.736855,-42.869491],[146.735845,-42.868395],[146.735455,-42.86702],[146.729359,-42.862742],[146.727528,-42.860667],[146.725642,-42.85932],[146.723042,-42.858121],[146.720855,-42.857539],[146.71836,-42.857371],[146.715478,-42.858656],[146.713944,-42.860732],[146.712391,-42.858446],[146.70998,-42.857449],[146.706705,-42.857148],[146.702759,-42.85807],[146.699398,-42.8583],[146.697394,-42.857529],[146.69725,-42.855764],[146.698432,-42.852885],[146.698446,-42.8513],[146.697251,-42.850365],[146.695973,-42.85028],[146.692658,-42.851748],[146.689551,-42.85255],[146.68526,-42.853269],[146.682878,-42.852042],[146.679738,-42.852592],[146.678176,-42.852164],[146.676629,-42.850269],[146.675126,-42.849611],[146.669472,-42.851045],[146.66724,-42.85207],[146.665308,-42.851992],[146.66305,-42.847708],[146.662079,-42.847187],[146.658222,-42.847716],[146.65657,-42.847634],[146.655771,-42.848605],[146.653408,-42.849052],[146.649315,-42.85094],[146.647289,-42.853658],[146.646704,-42.857245],[146.646309,-42.861196],[146.646666,-42.862575],[146.646037,-42.865036],[146.647252,-42.86799],[146.648424,-42.869821],[146.648322,-42.871978],[146.649061,-42.874087],[146.651031,-42.874764],[146.652731,-42.876296],[146.652682,-42.880613],[146.653366,-42.883339],[146.653025,-42.886535],[146.653654,-42.88995],[146.653597,-42.893372],[146.653882,-42.8939],[146.656645,-42.895768],[146.658159,-42.897366],[146.658622,-42.899772],[146.658079,-42.900648],[146.658083,-42.903404],[146.65675,-42.905548],[146.652923,-42.90776],[146.651855,-42.909752],[146.649377,-42.918524],[146.648472,-42.919913],[146.648406,-42.921704],[146.605495,-42.959204],[146.560453,-42.998515],[146.458808,-43.087277],[146.222191,-43.118804],[146.08907,-43.053903],[145.978141,-43.039171]],[[147.462194,-42.772592],[147.462785,-42.774286],[147.452361,-42.770337],[147.456248,-42.768874],[147.464798,-42.771497],[147.462194,-42.772592]],[[147.600376,-42.867539],[147.601727,-42.866136],[147.602736,-42.866934],[147.602058,-42.868576],[147.600376,-42.867539]]],[[[147.69036267886096,-42.89208669797742],[147.689496,-42.892246],[147.687582,-42.893741],[147.68888800073074,-42.89496453516162],[147.69036267886096,-42.89208669797742]]]]},"bbox":[145.83063387630952,-43.830469287811084,147.69907247346583,-42.73700719231217]}]}