{"type":"FeatureCollection","features":[
{"properties":{"electorateShortName":"goldstein","electorateName":"Goldstein","area":56.38,"state":"VIC"},"type":"Feature","geometry":{"type":"Polygon","coordinates":[[[145.061337,-37.93644],[145.059124,-37.921163],[145.050949,-37.920105],[145.053446,-37.905646],[145.043918,-37.90444],[145.044819,-37.889737],[144.992264,-37.883274],[144.98499,-37.891003],[144.975658,-37.882121],[144.969681,-37.864589],[144.963316,-37.855468],[144.935592,-37.842548],[144.918525,-37.839688],[144.917323,-37.847464],[144.912638,-37.849999],[144.907213,-37.849526],[144.905593,-37.851732],[144.9024795633551,-37.856042897542835],[144.903923,-37.861733],[144.911555,-37.862068],[144.915394,-37.865307],[144.902906,-37.872753],[144.89758465581426,-37.870206116412405],[144.895812458732,-37.882073238538396],[144.89402572904336,-37.89049758102195],[144.89357134721223,-37.90676528758479],[144.89387634721223,-37.91163028758479],[144.8959068289967,-37.925160254502956],[144.89576929432295,-37.93285115250136],[144.8984681493797,-37.949061905129845],[144.9040697100709,-37.96451165714153],[144.9075524009427,-37.9704464160345],[144.91175089421637,-37.98260104908271],[144.93339307951635,-38.01782334565693],[144.95069423320257,-38.04161482147201],[144.9768641647337,-38.0666707626178],[144.99246011477462,-38.076037550202024],[145.0096211413578,-38.08207655127312],[145.0171561413578,-38.083897551273125],[145.03334003759002,-38.08627933294922],[145.04968772493453,-38.08569239198532],[145.06565914163374,-38.08215611854726],[145.08072665639702,-38.07578733686883],[145.0943924992136,-38.06679644584951],[145.09744114061417,-38.06387600101269],[145.1050347164276,-38.05930757078073],[145.112848,-38.052151],[145.101611,-38.030262],[145.090609,-38.014952],[145.069208,-37.995219],[145.051691,-37.98682],[145.061337,-37.93644]]]},"bbox":[144.89357134721223,-38.08627933294922,145.112848,-37.839688]}]}