{"type":"FeatureCollection","features":[
{"properties":{"electorateShortName":"grayndler","electorateName":"Grayndler","area":34.21,"state":"NSW"},"type":"Feature","geometry":{"type":"Polygon","coordinates":[[[151.180834,-33.919165],[151.181554,-33.906851],[151.176072,-33.897513],[151.171947,-33.894771],[151.176844,-33.878278],[151.174978,-33.872667],[151.159139,-33.875223],[151.152122,-33.874781],[151.148417,-33.870338],[151.142072,-33.870421],[151.122424,-33.880907],[151.117504,-33.888516],[151.112628,-33.886648],[151.103286,-33.888345],[151.094926,-33.885735],[151.091508,-33.887654],[151.089427,-33.900708],[151.096731,-33.903619],[151.109992,-33.903214],[151.117138,-33.91335],[151.129659,-33.916254],[151.135657,-33.91307],[151.139958,-33.916275],[151.141048,-33.92279],[151.147737,-33.921187],[151.155241,-33.924108],[151.15663,-33.932195],[151.160519,-33.933998],[151.180834,-33.919165]]]},"bbox":[151.089427,-33.933998,151.181554,-33.870338]}]}