{"type":"FeatureCollection","features":[
{"properties":{"electorateShortName":"grayndler","electorateName":"Grayndler","area":34.21,"state":"NSW"},"type":"Feature","geometry":{"type":"MultiPolygon","coordinates":[[[[151.180834,-33.919165],[151.142072,-33.870421],[151.091508,-33.887654],[151.117138,-33.91335],[151.160519,-33.933998],[151.180834,-33.919165]]],[[[151.256967,-33.951596],[151.26570589269795,-33.95881963325957],[151.27255956697346,-33.94188906309921],[151.27581697740573,-33.92277952647273],[151.272591,-33.899507],[151.262396,-33.916745],[151.257621,-33.922461],[151.258558,-33.945658],[151.256967,-33.951596]]]]},"bbox":[151.091508,-33.95881963325957,151.27581697740573,-33.870421]}]}