{"type":"FeatureCollection","features":[
{"properties":{"electorateShortName":"greenway","electorateName":"Greenway","area":89.62,"state":"NSW"},"type":"Feature","geometry":{"type":"Polygon","coordinates":[[[150.958354,-33.765616],[150.937273,-33.719191],[150.931692,-33.7086],[150.927492,-33.696814],[150.933119,-33.693887],[150.928214,-33.687307],[150.935128,-33.668822],[150.930712,-33.665967],[150.932899,-33.659754],[150.926878,-33.654424],[150.927946,-33.649118],[150.936538,-33.649601],[150.935792,-33.641505],[150.927218,-33.641921],[150.927854,-33.636523],[150.923572,-33.629483],[150.931772,-33.630019],[150.936636,-33.623191],[150.935468,-33.618287],[150.925141,-33.616065],[150.923163,-33.619814],[150.904352,-33.611808],[150.874039,-33.656671],[150.85874,-33.646317],[150.851042,-33.650138],[150.853272,-33.663229],[150.856101,-33.666995],[150.860664,-33.679887],[150.87426,-33.704884],[150.876031,-33.712149],[150.881822,-33.722403],[150.890267,-33.732608],[150.898058,-33.738421],[150.906339,-33.765656],[150.904637,-33.76798],[150.922056,-33.774324],[150.935266,-33.774243],[150.942848,-33.768365],[150.958354,-33.765616]]]},"bbox":[150.851042,-33.774324,150.958354,-33.611808]}]}