{"type":"FeatureCollection","features":[
{"properties":{"electorateShortName":"hasluck","electorateName":"Hasluck","area":257.89,"state":"WA"},"type":"Feature","geometry":{"type":"Polygon","coordinates":[[[115.991929,-31.917633],[116.028346,-31.870538],[116.089158,-31.831994],[116.094234,-31.742279],[115.982838,-31.741886],[115.927113,-31.795677],[115.917501,-31.866518],[115.888988,-31.887452],[115.936916,-31.930089],[115.991929,-31.917633]]]},"bbox":[115.888988,-31.930089,116.094234,-31.741886]}]}