{"type":"FeatureCollection","features":[
{"properties":{"electorateShortName":"hawke","electorateName":"Hawke","area":1985.85,"state":"VIC"},"type":"Feature","geometry":{"type":"Polygon","coordinates":[[[144.870505,-37.515536],[144.711111,-37.48237],[144.638052,-37.499502],[144.671646,-37.567722],[144.459283,-37.546397],[144.450203,-37.45065],[144.379278,-37.438789],[144.342047,-37.420649],[144.263533,-37.446291],[144.173933,-37.436052],[144.161557,-37.488444],[144.198075,-37.551673],[144.132388,-37.575816],[144.170947,-37.654817],[144.154193,-37.726714],[144.222446,-37.810201],[144.420317,-37.820586],[144.454269,-37.867244],[144.571459,-37.8804],[144.604728,-37.794696],[144.624479,-37.682272],[144.756405,-37.693418],[144.840307,-37.720577],[144.866336,-37.677922],[144.811356,-37.590563],[144.870505,-37.515536]]]},"bbox":[144.132388,-37.8804,144.870505,-37.420649]}]}