{"type":"FeatureCollection","features":[
{"properties":{"electorateShortName":"hindmarsh","electorateName":"Hindmarsh","area":122.42,"state":"SA"},"type":"Feature","geometry":{"type":"MultiPolygon","coordinates":[[[[138.564539,-34.849757],[138.56627,-34.825305],[138.540331,-34.815441],[138.51616,-34.810835],[138.510594,-34.790777],[138.515749,-34.771573],[138.507004,-34.763389],[138.496325,-34.764612],[138.477997,-34.78294],[138.488394,-34.797054],[138.488512,-34.819798],[138.476742,-34.843713],[138.47606,-34.856766],[138.498198,-34.938993],[138.508578,-34.964393],[138.523044,-34.964975],[138.53778,-34.975938],[138.554992,-34.967237],[138.55194,-34.924615],[138.548111,-34.913281],[138.552095,-34.904467],[138.548261,-34.889165],[138.546715,-34.850583],[138.564539,-34.849757]]],[[[138.546309,-34.799042],[138.541282,-34.787312],[138.522502,-34.769668],[138.516103,-34.796182],[138.518591,-34.805594],[138.546309,-34.799042]]]]},"bbox":[138.47606,-34.975938,138.56627,-34.763389]}]}