{"type":"FeatureCollection","features":[
{"properties":{"electorateShortName":"hotham","electorateName":"Hotham","area":81.06,"state":"VIC"},"type":"Feature","geometry":{"type":"MultiPolygon","coordinates":[[[[145.195486,-37.923128],[145.049635,-37.881026],[145.044819,-37.889737],[145.061337,-37.93644],[145.194049,-37.966611],[145.195486,-37.923128]]],[[[144.963316,-37.855468],[144.95885363309367,-37.86289334607921],[144.95514067066082,-37.88164640725662],[144.9552940463679,-37.890486035894234],[144.95392327816805,-37.905414701180014],[144.95600203844543,-37.92369574469966],[144.96175501076962,-37.94117204596437],[144.966099718764,-37.94871113828011],[144.968921326103,-37.95694679549007],[144.9693888164185,-37.959567570841244],[144.97514977971295,-37.97492049416674],[144.98360082217235,-37.9889732815795],[144.99446138905978,-38.00125941358276],[145.021900893702,-38.01897241774806],[145.03756890442705,-38.02381125982423],[145.04598393005745,-38.025235140719275],[145.0732564540629,-38.041231896613525],[145.101611,-38.030262],[145.051691,-37.98682],[145.014133,-37.974622],[145.010226,-37.96121],[145.001293,-37.950703],[144.992151,-37.94002],[144.984792,-37.913367],[144.98499,-37.891003],[144.975658,-37.882121],[144.963316,-37.855468]]]]},"bbox":[144.95392327816805,-38.041231896613525,145.195486,-37.855468]}]}