{"type":"FeatureCollection","features":[
{"properties":{"electorateShortName":"hotham","electorateName":"Hotham","area":81.06,"state":"VIC"},"type":"Feature","geometry":{"type":"MultiPolygon","coordinates":[[[[145.195486,-37.923128],[145.176936,-37.920812],[145.179738,-37.905737],[145.152817,-37.902616],[145.147662,-37.896645],[145.141783,-37.894091],[145.118928,-37.891181],[145.111233,-37.88735],[145.096284,-37.884811],[145.090173,-37.882913],[145.088226,-37.892976],[145.085296,-37.892462],[145.080328,-37.887937],[145.072119,-37.884942],[145.062646,-37.884648],[145.053718,-37.883339],[145.049635,-37.881026],[145.044819,-37.889737],[145.046099,-37.893391],[145.043918,-37.90444],[145.053446,-37.905646],[145.050949,-37.920105],[145.059124,-37.921163],[145.056159,-37.935488],[145.061337,-37.93644],[145.087119,-37.939654],[145.093879,-37.941967],[145.099396,-37.947019],[145.10314,-37.956338],[145.191346,-37.967162],[145.194049,-37.966611],[145.188362,-37.961524],[145.1911,-37.959814],[145.192361,-37.93834],[145.195486,-37.923128]]],[[[144.963316,-37.855468],[144.95885363309367,-37.86289334607921],[144.95514067066082,-37.88164640725662],[144.9552940463679,-37.890486035894234],[144.95392327816805,-37.905414701180014],[144.95600203844543,-37.92369574469966],[144.96175501076962,-37.94117204596437],[144.966099718764,-37.94871113828011],[144.968921326103,-37.95694679549007],[144.9693888164185,-37.959567570841244],[144.97514977971295,-37.97492049416674],[144.98360082217235,-37.9889732815795],[144.99446138905978,-38.00125941358276],[145.00737093509346,-38.01137101948507],[145.021900893702,-38.01897241774806],[145.03756890442705,-38.02381125982423],[145.04598393005745,-38.025235140719275],[145.0557803276055,-38.03286944079846],[145.0732564540629,-38.041231896613525],[145.09211735328194,-38.045660456635105],[145.11070018890874,-38.0479671932031],[145.101611,-38.030262],[145.090609,-38.014952],[145.084145,-38.011152],[145.080235,-38.004839],[145.069208,-37.995219],[145.051691,-37.98682],[145.043007,-37.991002],[145.038298,-37.996416],[145.030763,-37.994595],[145.026986,-37.988055],[145.017945,-37.981804],[145.014133,-37.974622],[145.009382,-37.969598],[145.011424,-37.967527],[145.010226,-37.96121],[145.001293,-37.950703],[144.993044,-37.943982],[144.992151,-37.94002],[144.999006,-37.939988],[144.989863,-37.929098],[144.985526,-37.926238],[144.987407,-37.919984],[144.984792,-37.913367],[144.98564,-37.908431],[144.983395,-37.901134],[144.985871,-37.896385],[144.98499,-37.891003],[144.975658,-37.882121],[144.973113,-37.872488],[144.975607,-37.870261],[144.969681,-37.864589],[144.970308,-37.860787],[144.963316,-37.855468]]]]},"bbox":[144.95392327816805,-38.0479671932031,145.195486,-37.855468]}]}