{"type":"FeatureCollection","features":[
{"properties":{"electorateShortName":"hunter","electorateName":"Hunter","area":7252.97,"state":"NSW"},"type":"Feature","geometry":{"type":"MultiPolygon","coordinates":[[[[151.640251,-32.919863],[151.639099,-32.907005],[151.61948,-32.902353],[151.600846,-32.88926],[151.565617,-32.875075],[151.562861,-32.866781],[151.54584,-32.852006],[151.541085,-32.83967],[151.533302,-32.831153],[151.509157,-32.823056],[151.498267,-32.807257],[151.474282,-32.796368],[151.446311,-32.765872],[151.434447,-32.758971],[151.421343,-32.734594],[151.423423,-32.723477],[151.412011,-32.717728],[151.400589,-32.702881],[151.407184,-32.679147],[151.403078,-32.661303],[151.424383,-32.646217],[151.432792,-32.627337],[151.434772,-32.613621],[151.470816,-32.618177],[151.477057,-32.593755],[151.473945,-32.586517],[151.479718,-32.555213],[151.496068,-32.557305],[151.502072,-32.529277],[151.49508,-32.524045],[151.500727,-32.504188],[151.496538,-32.497268],[151.485127,-32.492409],[151.456798,-32.472384],[151.454025,-32.463714],[151.468152,-32.448745],[151.468051,-32.420665],[151.446149,-32.407075],[151.442703,-32.397726],[151.428382,-32.376962],[151.428128,-32.370042],[151.413338,-32.356242],[151.410765,-32.349036],[151.395901,-32.339514],[151.393668,-32.325601],[151.382997,-32.324113],[151.371487,-32.291598],[151.361307,-32.289213],[151.348607,-32.27612],[151.339229,-32.262123],[151.342958,-32.249068],[151.33714,-32.237322],[151.348127,-32.219063],[151.348728,-32.203724],[151.343422,-32.190988],[151.341902,-32.175586],[151.327214,-32.171672],[151.327894,-32.15462],[151.309698,-32.138984],[151.307236,-32.147613],[151.29484,-32.169154],[151.284939,-32.178413],[151.269863,-32.183694],[151.246256,-32.209568],[151.238403,-32.207745],[151.208815,-32.220166],[151.196823,-32.23366],[151.186215,-32.228198],[151.174018,-32.211807],[151.159242,-32.211122],[151.159927,-32.229238],[151.168242,-32.235435],[151.169039,-32.243566],[151.155948,-32.266688],[151.140776,-32.271259],[151.129091,-32.269651],[151.126307,-32.283977],[151.109563,-32.281652],[151.108309,-32.290881],[151.095871,-32.312058],[151.101452,-32.324328],[151.099023,-32.335295],[151.074064,-32.332273],[151.073495,-32.33586],[151.048094,-32.332335],[151.045525,-32.346769],[151.028602,-32.344626],[151.017862,-32.402065],[150.984204,-32.397603],[150.976696,-32.40783],[150.914908,-32.400567],[150.898029,-32.397086],[150.893218,-32.414368],[150.883068,-32.470205],[150.852744,-32.451088],[150.846795,-32.45871],[150.84305,-32.480091],[150.83349,-32.486456],[150.817495,-32.472639],[150.806089,-32.472022],[150.798642,-32.466028],[150.778138,-32.473783],[150.776458,-32.482391],[150.790282,-32.491199],[150.799883,-32.501657],[150.773575,-32.498261],[150.744565,-32.641325],[150.681978,-32.632525],[150.67129,-32.698479],[150.660799,-32.706861],[150.652217,-32.700667],[150.634164,-32.702287],[150.622867,-32.71335],[150.603086,-32.71812],[150.590285,-32.737799],[150.581546,-32.747072],[150.556609,-32.758462],[150.54106,-32.754256],[150.526978,-32.759688],[150.518173,-32.749337],[150.494135,-32.751937],[150.492341,-32.765301],[150.464503,-32.780318],[150.461168,-32.794695],[150.444698,-32.792363],[150.432361,-32.801027],[150.429555,-32.810938],[150.412753,-32.824092],[150.388886,-32.826471],[150.385959,-32.839508],[150.3738,-32.840027],[150.362598,-32.845913],[150.358919,-32.859595],[150.361758,-32.867377],[150.340685,-32.87098],[150.336322,-32.884549],[150.346616,-32.895492],[150.355203,-32.917654],[150.366455,-32.936634],[150.367779,-32.954011],[150.376637,-32.961748],[150.366606,-32.971648],[150.376302,-32.990227],[150.371672,-33.015457],[150.392913,-33.03412],[150.405019,-33.024502],[150.425313,-33.028713],[150.430974,-33.035636],[150.448336,-33.035378],[150.464395,-33.041239],[150.464638,-33.045876],[150.488448,-33.048124],[150.496685,-33.03574],[150.520464,-33.035048],[150.53359,-33.042216],[150.544665,-33.042484],[150.552392,-33.051218],[150.552877,-33.059622],[150.572197,-33.058909],[150.603766,-33.069697],[150.610687,-33.066137],[150.630238,-33.058586],[150.718059,-33.068653],[150.707381,-33.058849],[150.705568,-33.044748],[150.695166,-33.041928],[150.682095,-33.044743],[150.681888,-33.031523],[150.67242,-33.02681],[150.677184,-33.013276],[150.693956,-32.996069],[150.702842,-33.010244],[150.723449,-33.012633],[150.745841,-33.021913],[150.761057,-33.014783],[150.763832,-33.000322],[150.804787,-33.006045],[150.81839,-33.023162],[150.831585,-33.033358],[150.848965,-33.033835],[150.855141,-33.056316],[150.84836,-33.074533],[150.848251,-33.092812],[150.858132,-33.093936],[150.872455,-33.104345],[150.873389,-33.114236],[150.899991,-33.121177],[150.916385,-33.11161],[150.931398,-33.113125],[150.94198,-33.123217],[150.973962,-33.129606],[150.993615,-33.122566],[151.003802,-33.126027],[151.012796,-33.12184],[151.024394,-33.125715],[151.035356,-33.117464],[151.041789,-33.091328],[151.052491,-33.07994],[151.063019,-33.081342],[151.083942,-33.075248],[151.103972,-33.076969],[151.109066,-33.086038],[151.129802,-33.094739],[151.135527,-33.110401],[151.151993,-33.114222],[151.162,-33.123812],[151.202626,-33.13886],[151.207311,-33.13327],[151.225718,-33.117494],[151.25077,-33.099827],[151.260164,-33.100473],[151.266703,-33.058556],[151.281592,-33.058352],[151.296928,-33.054257],[151.305915,-33.043917],[151.315283,-33.048252],[151.333025,-33.069337],[151.35748,-33.083085],[151.363189,-33.093981],[151.37894,-33.099711],[151.383068,-33.139816],[151.397477,-33.165259],[151.398625,-33.185747],[151.418526,-33.19214],[151.438643,-33.195382],[151.455115,-33.202843],[151.464382,-33.193886],[151.490526,-33.186818],[151.51218,-33.194307],[151.51551,-33.18395],[151.527571,-33.180086],[151.5297,-33.169509],[151.526221,-33.157532],[151.532684,-33.140792],[151.555294,-33.126872],[151.572767,-33.122132],[151.572381,-33.10511],[151.575208,-33.090243],[151.589725,-33.081409],[151.601801,-33.088735],[151.613877,-33.090566],[151.6221,-33.081948],[151.621714,-33.065788],[151.63212,-33.051244],[151.633277,-33.041009],[151.622999,-33.029697],[151.618502,-33.013429],[151.628266,-33.00341],[151.624284,-32.991715],[151.630643,-32.981747],[151.615194,-32.966738],[151.614129,-32.955406],[151.621115,-32.945212],[151.624562,-32.931353],[151.630999,-32.930547],[151.640251,-32.919863]]],[[[151.622218,-33.195364],[151.6233845142669,-33.19642758653746],[151.63753137824406,-33.1846266022522],[151.64541271084414,-33.17446255252116],[151.6659416059321,-33.16397769395359],[151.67899134806572,-33.15269587748239],[151.6973944270846,-33.13125062924024],[151.70508168139204,-33.11679108472775],[151.71097515595685,-33.093541347326465],[151.72058523296107,-33.067794001726256],[151.7216132329611,-33.06229900172626],[151.72311468850822,-33.04819746050979],[151.7232436885082,-33.04345746050979],[151.71919254115147,-33.01548280931326],[151.707644,-33.021904],[151.681834,-33.039898],[151.668856,-33.051945],[151.657554,-33.073647],[151.665423,-33.090256],[151.652298,-33.102613],[151.646057,-33.11576],[151.64455,-33.137512],[151.629697,-33.155562],[151.636112,-33.161548],[151.635548,-33.17184],[151.628207,-33.185604],[151.622218,-33.195364]]],[[[151.561813,-33.262433],[151.56330892923822,-33.26837340665615],[151.59122420705776,-33.24371201065022],[151.60138587284283,-33.231577610998265],[151.61240105539068,-33.21026626560484],[151.61208,-33.202133],[151.599754,-33.210699],[151.573884,-33.233899],[151.565085,-33.247326],[151.561813,-33.262433]]]]},"bbox":[150.336322,-33.26837340665615,151.7232436885082,-32.138984]}]}