{"type":"FeatureCollection","features":[
{"properties":{"electorateShortName":"isaacs","electorateName":"Isaacs","area":158.32,"state":"VIC"},"type":"Feature","geometry":{"type":"Polygon","coordinates":[[[145.248989,-38.017011],[145.194049,-37.966611],[145.061337,-37.93644],[145.051691,-37.98682],[145.014133,-37.974622],[145.010226,-37.96121],[145.001293,-37.950703],[144.992151,-37.94002],[144.984792,-37.913367],[144.98499,-37.891003],[144.97337444438998,-37.91739823509888],[144.97231042645075,-37.92229742946316],[144.97081216122393,-37.92976727606882],[144.97063055256862,-37.93070378114044],[144.96986255256863,-37.93471378114043],[144.96969090397215,-37.93561360943402],[144.969317241338,-37.93760321135495],[144.9682559193133,-37.943331185115504],[144.96795532521674,-37.944945360838354],[144.96723805186045,-37.9488216690294],[144.96640892857306,-37.953184031165776],[144.96604106081963,-37.95511189425869],[144.965798842211,-37.95640615362255],[144.96336250514375,-37.9695550935008],[144.96169209126117,-37.98637680047509],[144.96319675119184,-38.00321414309681],[144.97540881995118,-38.03458011941984],[145.0253040517907,-38.07868715171914],[145.0327820678856,-38.093253877206436],[145.04220103754787,-38.10790946748507],[145.06852819502538,-38.130482059529484],[145.119429,-38.139808],[145.123873,-38.091401],[145.112848,-38.052151],[145.239583,-38.077677],[145.248989,-38.017011]]]},"bbox":[144.96169209126117,-38.139808,145.248989,-37.891003]}]}