{"type":"FeatureCollection","features":[
{"properties":{"electorateShortName":"isaacs","electorateName":"Isaacs","area":158.32,"state":"VIC"},"type":"Feature","geometry":{"type":"MultiPolygon","coordinates":[[[[145.248571,-38.018585],[145.248944,-38.017191],[145.248989,-38.017011],[145.249206,-38.016135],[145.249969,-38.012591],[145.251563,-38.00519],[145.25162,-38.004909],[145.251828,-38.003805],[145.251854,-38.003635],[145.251279,-38.003558],[145.251137,-38.003541],[145.249209,-38.003299],[145.246821,-38.003011],[145.24533,-38.002835],[145.243499,-38.002615],[145.240682,-38.002285],[145.240245,-38.002232],[145.236769,-38.00183],[145.234825,-38.001592],[145.232907,-38.001372],[145.231251,-38.001164],[145.229466,-38.00095],[145.227955,-38.000777],[145.227449,-38.000772],[145.227324,-38.00077],[145.226548,-38.000719],[145.226199,-38.000683],[145.22592,-38.000629],[145.225532,-38.000534],[145.222702,-37.999116],[145.219118,-37.997073],[145.217351,-37.994848],[145.215882,-37.992622],[145.214607,-37.990116],[145.214549,-37.989661],[145.214351,-37.987742],[145.21407,-37.984894],[145.212488,-37.983207],[145.211873,-37.982667],[145.211832,-37.982631],[145.211575,-37.982405],[145.211257,-37.982126],[145.211209,-37.982088],[145.210407,-37.981368],[145.210371,-37.981336],[145.208844,-37.979964],[145.207743,-37.978975],[145.20758,-37.978829],[145.207199,-37.978486],[145.206841,-37.978165],[145.206568,-37.977919],[145.206037,-37.977442],[145.204435,-37.975999],[145.20392,-37.975535],[145.203622,-37.975266],[145.203143,-37.974835],[145.202725,-37.974459],[145.202372,-37.974141],[145.201856,-37.973677],[145.201551,-37.973403],[145.200799,-37.972727],[145.199722,-37.971742],[145.199086,-37.971161],[145.19769,-37.969884],[145.19645,-37.968773],[145.19519,-37.967645],[145.195078,-37.967544],[145.194049,-37.966611],[145.193222,-37.966678],[145.192631,-37.966749],[145.191997,-37.966955],[145.191346,-37.967162],[145.191095,-37.967131],[145.189538,-37.966939],[145.189453,-37.966929],[145.188184,-37.966772],[145.1872,-37.96665],[145.187084,-37.966638],[145.186106,-37.966524],[145.18482,-37.966374],[145.184735,-37.966364],[145.183426,-37.966212],[145.18305,-37.966168],[145.182306,-37.966082],[145.182003,-37.966047],[145.181305,-37.965967],[145.180632,-37.965889],[145.179858,-37.965801],[145.179042,-37.965702],[145.178815,-37.965675],[145.178534,-37.96564],[145.178058,-37.965587],[145.177418,-37.965512],[145.1769,-37.965452],[145.17515,-37.96524],[145.174125,-37.965116],[145.17332,-37.965018],[145.172735,-37.964946],[145.171642,-37.964815],[145.170955,-37.964731],[145.170208,-37.964641],[145.169672,-37.964576],[145.168559,-37.964441],[145.167332,-37.964277],[145.167061,-37.964244],[145.166725,-37.964202],[145.165711,-37.964078],[145.164652,-37.963947],[145.163548,-37.963812],[145.16309,-37.963755],[145.162477,-37.96368],[145.161657,-37.963579],[145.160982,-37.963493],[145.159442,-37.963299],[145.15798,-37.963115],[145.157819,-37.963094],[145.156407,-37.962919],[145.154948,-37.962738],[145.153673,-37.96258],[145.150361,-37.962169],[145.148037,-37.96188],[145.147447,-37.961809],[145.147048,-37.961761],[145.146315,-37.961672],[145.146157,-37.961653],[145.145398,-37.961562],[145.142414,-37.961201],[145.141652,-37.961109],[145.141031,-37.961034],[145.139689,-37.960871],[145.138961,-37.960783],[145.138082,-37.960677],[145.137784,-37.960642],[145.136807,-37.960524],[145.136582,-37.960497],[145.13492,-37.960296],[145.133448,-37.960119],[145.131932,-37.959938],[145.130766,-37.959799],[145.130645,-37.959784],[145.122719,-37.958769],[145.118089,-37.958176],[145.113401,-37.957603],[145.112297,-37.957468],[145.103944,-37.956437],[145.10314,-37.956338],[145.102374,-37.954314],[145.101024,-37.950876],[145.100841,-37.950386],[145.100621,-37.949804],[145.100207,-37.948775],[145.10014,-37.948698],[145.100041,-37.948613],[145.099734,-37.947641],[145.099396,-37.947019],[145.099033,-37.946512],[145.098909,-37.946339],[145.098376,-37.945649],[145.098208,-37.945484],[145.097168,-37.94446],[145.096516,-37.94395],[145.095967,-37.94345],[145.094932,-37.942661],[145.094362,-37.9423],[145.093879,-37.941967],[145.092901,-37.941527],[145.091592,-37.940937],[145.091433,-37.94088],[145.089597,-37.940215],[145.088686,-37.939965],[145.088474,-37.939923],[145.087119,-37.939654],[145.083497,-37.939186],[145.079533,-37.938752],[145.078279,-37.938635],[145.076716,-37.938391],[145.07658,-37.938369],[145.076526,-37.938361],[145.075154,-37.938126],[145.073467,-37.937836],[145.073423,-37.937828],[145.072904,-37.937762],[145.071201,-37.937543],[145.071075,-37.93753],[145.07077,-37.937513],[145.069718,-37.937456],[145.068603,-37.937395],[145.068256,-37.937347],[145.066854,-37.937148],[145.065733,-37.936987],[145.064999,-37.936895],[145.064542,-37.936838],[145.061802,-37.936497],[145.061337,-37.93644],[145.061323,-37.936529],[145.060772,-37.939053],[145.060751,-37.939147],[145.0603,-37.941216],[145.060245,-37.941468],[145.06016,-37.941897],[145.059918,-37.943115],[145.059733,-37.944047],[145.059377,-37.94584],[145.059098,-37.947249],[145.059024,-37.947633],[145.058586,-37.949921],[145.058561,-37.950053],[145.058403,-37.950877],[145.058256,-37.951643],[145.058142,-37.952239],[145.058056,-37.9527],[145.057823,-37.953939],[145.057811,-37.954],[145.057558,-37.955376],[145.057489,-37.955752],[145.057428,-37.956081],[145.057185,-37.957404],[145.057122,-37.957745],[145.057075,-37.957994],[145.057071,-37.95802],[145.056738,-37.959791],[145.05658,-37.960637],[145.056453,-37.961321],[145.056087,-37.9633],[145.056016,-37.963685],[145.055696,-37.965412],[145.055267,-37.967672],[145.05515,-37.968287],[145.054996,-37.969099],[145.054892,-37.969644],[145.05482,-37.970021],[145.054788,-37.970192],[145.054682,-37.970747],[145.054634,-37.970997],[145.054516,-37.971615],[145.054446,-37.971981],[145.054355,-37.972463],[145.054338,-37.972556],[145.054222,-37.973192],[145.05419,-37.973372],[145.054168,-37.973488],[145.054032,-37.974251],[145.054024,-37.974298],[145.053844,-37.975301],[145.053812,-37.97548],[145.053587,-37.976742],[145.053553,-37.976932],[145.053478,-37.977349],[145.053445,-37.977533],[145.053385,-37.977868],[145.053279,-37.978464],[145.053229,-37.978742],[145.053035,-37.979825],[145.052635,-37.981916],[145.052548,-37.982367],[145.052472,-37.982771],[145.052213,-37.984121],[145.051915,-37.985674],[145.051897,-37.985771],[145.051691,-37.98682],[145.0487665052048,-37.98822836449026],[145.05116590052904,-37.98949392885949],[145.0502457720983,-37.99417943722795],[145.0492822868305,-37.99908572871325],[145.04928228683048,-37.999085728713254],[145.0483188015627,-38.00399202019855],[145.0473553162949,-38.00889831168384],[145.04735531629487,-38.00889831168386],[145.04639183102708,-38.01380460316915],[145.0454283457593,-38.01871089465444],[145.04542834575926,-38.018710894654454],[145.04446486049147,-38.02361718613974],[145.04446486049144,-38.02361718613975],[145.04350137522366,-38.02852347762504],[145.04350137522366,-38.02852347762505],[145.04253788995587,-38.03342976911034],[145.04253788995584,-38.033429769110356],[145.04157440468805,-38.03833606059565],[145.04061091942026,-38.04324235208094],[145.04061091942023,-38.04324235208095],[145.03964743415244,-38.048148643566236],[145.0396474341524,-38.04814864356625],[145.03868394888462,-38.05305493505154],[145.03772046361684,-38.05796122653684],[145.0377204636168,-38.05796122653685],[145.03675697834902,-38.062867518022145],[145.03596266694976,-38.06691233674968],[145.03386149416534,-38.06702920533808],[145.03353070146275,-38.06839289418773],[145.03507461226573,-38.07016408462936],[145.0337660072004,-38.071358440523184],[145.03523069218951,-38.07189179949662],[145.03598060384343,-38.0709564545578],[145.03729742028455,-38.0720359931502],[145.035540787162,-38.07252520584967],[145.03478940751862,-38.07359967345742],[145.03842044209355,-38.07382002641466],[145.0384152067824,-38.07236532432168],[145.03849003810032,-38.07224536869624],[145.04321827405494,-38.07240730321428],[145.04324582504512,-38.070949116159206],[145.04801878343423,-38.07100456884216],[145.0480745662931,-38.069647506236926],[145.05274815195233,-38.06961024788912],[145.05217131390157,-38.06806323201569],[145.04819434766296,-38.06927660383286],[145.05182388734485,-38.06662335606999],[145.05182294733586,-38.06644381147668],[145.05204554028913,-38.0659665232557],[145.0544900842994,-38.066973934541],[145.05561405311306,-38.06623170304469],[145.05563592153038,-38.06527198167397],[145.05617996943127,-38.06465111921076],[145.05687572230033,-38.0635644019803],[145.0575067846027,-38.06404245630407],[145.05860939140132,-38.066178842764366],[145.05871822192648,-38.0661126883747],[145.0618239981294,-38.06599955998221],[145.0608915911124,-38.065410876133804],[145.05966318905107,-38.06549863377106],[145.0596235197962,-38.064065996466745],[145.06014477832682,-38.06388461292233],[145.06159445196033,-38.061788691540706],[145.06187956054805,-38.06217189031286],[145.06473309968408,-38.06286222103706],[145.06277453708427,-38.06465793624922],[145.06290900275806,-38.06522652242306],[145.06297446144202,-38.06518938661608],[145.06708983288718,-38.064325919171885],[145.06604277455835,-38.06307057836973],[145.06597551156784,-38.0629063398418],[145.06607576792058,-38.06005266443803],[145.06475137608479,-38.05943300540453],[145.06157434685073,-38.06132407448608],[145.06151410039305,-38.06144719738042],[145.05941744540584,-38.06142866990813],[145.05730044779173,-38.06236294838469],[145.05684148388946,-38.06341888873434],[145.05574316056232,-38.06311242470694],[145.05359112191633,-38.062949030218356],[145.05230572409093,-38.06530345011984],[145.05212733095792,-38.06544205670252],[145.04822709044836,-38.06186187435927],[145.04618243434007,-38.06177855114821],[145.04456554795536,-38.0607673480875],[145.04424861471995,-38.05924320854561],[145.0445555707471,-38.05802426636428],[145.04358343401995,-38.05401708370532],[145.04409144946442,-38.05275685425538],[145.04282771072656,-38.04877317833673],[145.0439118846861,-38.04736259165661],[145.04157166088913,-38.04343102009103],[145.0444488647356,-38.04244072356434],[145.04579423659473,-38.04018701348644],[145.04612752591984,-38.03923019117114],[145.04754034496338,-38.038338079877974],[145.04929845525893,-38.036129710837244],[145.0499409056727,-38.03488355484687],[145.05156169035416,-38.03351113974615],[145.05387353935478,-38.0305603373113],[145.05523187152514,-38.02955474806461],[145.05776289823518,-38.02622862157836],[145.05854847199274,-38.025545451857205],[145.06161753673135,-38.02211364189735],[145.06176035397843,-38.02191813363732],[145.06414045444942,-38.019580996554026],[145.06583117203186,-38.01762205240341],[145.06621842706622,-38.017280297046284],[145.06729351772498,-38.017650868900255],[145.07416097864152,-38.019400561361955],[145.07620189043715,-38.01935356552012],[145.0809750069196,-38.02183005775331],[145.0917113228713,-38.025767956614615],[145.09324268774884,-38.034689177680676],[145.0954706085432,-38.03945572368606],[145.09728655313234,-38.04176994229592],[145.0950184892323,-38.04454712303913],[145.09400804307626,-38.0467342733267],[145.09100451104695,-38.05007026286378],[145.09027073612788,-38.052681030282784],[145.08607956032682,-38.05570382360231],[145.08665995255467,-38.05623939734772],[145.0879355394737,-38.05815560894195],[145.08806988182567,-38.058667796547496],[145.09142118554323,-38.05782206159377],[145.09147166519432,-38.05788073922648],[145.09176187629907,-38.057802950682934],[145.09239596135598,-38.05752445867517],[145.09623452220785,-38.056549907566676],[145.0962740720608,-38.05659349614881],[145.09697139415806,-38.05640658507118],[145.09748360161547,-38.056187709112606],[145.10104472729734,-38.05527947217114],[145.10107156904212,-38.05530756912284],[145.10224947263092,-38.05499184238769],[145.102618369003,-38.05483806758426],[145.1058516584266,-38.054010503939516],[145.1058641636641,-38.054022956131334],[145.10759747413564,-38.05355835744823],[145.10780050634236,-38.05347560963083],[145.11041851288698,-38.05280361034553],[145.11044888532285,-38.0518010018545],[145.1107700891429,-38.04810335465416],[145.112848,-38.052151],[145.113236,-38.052047],[145.113253,-38.052043],[145.113722,-38.051906],[145.114303,-38.051736],[145.114895,-38.051563],[145.115507,-38.051384],[145.115731,-38.051315],[145.115427,-38.050674],[145.115621,-38.050609],[145.117965,-38.04982],[145.119331,-38.04936],[145.119566,-38.049281],[145.121359,-38.048676],[145.122511,-38.048288],[145.12341,-38.047984],[145.123588,-38.047968],[145.123737,-38.047973],[145.123864,-38.047987],[145.124051,-38.04802],[145.124446,-38.048103],[145.124707,-38.048015],[145.125002,-38.047916],[145.127464,-38.047086],[145.129297,-38.046468],[145.129649,-38.046408],[145.129887,-38.046405],[145.130025,-38.046416],[145.130223,-38.046442],[145.130405,-38.046487],[145.130639,-38.046555],[145.131122,-38.046708],[145.131336,-38.046756],[145.131544,-38.046771],[145.131774,-38.046774],[145.132004,-38.046748],[145.132205,-38.046705],[145.132643,-38.046587],[145.133732,-38.046221],[145.133936,-38.046152],[145.134157,-38.046053],[145.134802,-38.045836],[145.135665,-38.045546],[145.13589,-38.04547],[145.136979,-38.045104],[145.13936,-38.044303],[145.139776,-38.044017],[145.141821,-38.043226],[145.143083,-38.046573],[145.143517,-38.047726],[145.143872,-38.048787],[145.144329,-38.050152],[145.144829,-38.051508],[145.145304,-38.052799],[145.145827,-38.054222],[145.146112,-38.054996],[145.146601,-38.056326],[145.146804,-38.056877],[145.146846,-38.056983],[145.147153,-38.057769],[145.147702,-38.059269],[145.148751,-38.062135],[145.148865,-38.062445],[145.14941,-38.063963],[145.149552,-38.064415],[145.149827,-38.065286],[145.15027,-38.067299],[145.154498,-38.067258],[145.154763,-38.067256],[145.155222,-38.067251],[145.156254,-38.067395],[145.157571,-38.067578],[145.166728,-38.068706],[145.167058,-38.068746],[145.168139,-38.068886],[145.181656,-38.070548],[145.194728,-38.072144],[145.202566,-38.073123],[145.203088,-38.073189],[145.212605,-38.074372],[145.221462,-38.075503],[145.227714,-38.076308],[145.231287,-38.076758],[145.235633,-38.077239],[145.239583,-38.077677],[145.240376,-38.073571],[145.240475,-38.073055],[145.240824,-38.071249],[145.240983,-38.070427],[145.241094,-38.069862],[145.241395,-38.068322],[145.24166,-38.066968],[145.241692,-38.066813],[145.241914,-38.065673],[145.24207,-38.064887],[145.242303,-38.063652],[145.242447,-38.062889],[145.242945,-38.060294],[145.243165,-38.05929],[145.243666,-38.056733],[145.243723,-38.056439],[145.243901,-38.055517],[145.244206,-38.053976],[145.244282,-38.053595],[145.244301,-38.053498],[145.244329,-38.053359],[145.245171,-38.04911],[145.245257,-38.048662],[145.245609,-38.046853],[145.245932,-38.04514],[145.246323,-38.04304],[145.246844,-38.040179],[145.247072,-38.038462],[145.247225,-38.03641],[145.246878,-38.036159],[145.246886,-38.035807],[145.246987,-38.03407],[145.246903,-38.032329],[145.24664,-38.02988],[145.246622,-38.029445],[145.246565,-38.028105],[145.246647,-38.026554],[145.246704,-38.02617],[145.246825,-38.02533],[145.247071,-38.024278],[145.247303,-38.023361],[145.247705,-38.021837],[145.248417,-38.019182],[145.248503,-38.018848],[145.248571,-38.018585]],[[145.0471166065124,-38.067604504379275],[145.04787739908076,-38.06920839255877],[145.043633465557,-38.07043759974813],[145.04701248390373,-38.067629003816656],[145.0471166065124,-38.067604504379275]],[[145.0418877183028,-38.06883483101915],[145.04227011023218,-38.06874485644736],[145.0430345397742,-38.070501237215694],[145.03905119476053,-38.07162675799457],[145.0418877183028,-38.06883483101915]]],[[[145.03134102529688,-38.090446812934466],[145.0327820678856,-38.093253877206436],[145.04187278104627,-38.107398711747855],[145.04185704493466,-38.107252848357405],[145.04094065406625,-38.104453084336384],[145.04072363622217,-38.10190898806938],[145.03973761883555,-38.0991213369667],[145.03960640405796,-38.096553492018685],[145.0385071089301,-38.0937841941891],[145.03852490375468,-38.09117229410304],[145.03720828967465,-38.08843363699187],[145.03755148359406,-38.085713354330395],[145.0356399516113,-38.083030152364366],[145.03735931587644,-38.079692461046164],[145.033619220274,-38.07884571326891],[145.0329030372778,-38.08249268396333],[145.03290303727778,-38.082492683963345],[145.03193955201,-38.087398975448636],[145.03193955201,-38.08739897544864],[145.03134102529688,-38.090446812934466]]],[[[145.0236050014125,-38.07564493873893],[145.02226982603483,-38.07600896976985],[145.02400860812466,-38.07754371872442],[145.02389977253253,-38.07604913214657],[145.02883642937957,-38.07668894078666],[145.02874285324287,-38.07479661133253],[145.0319467930885,-38.075091309506206],[145.03203979388314,-38.07471846218221],[145.03160176627065,-38.07355122517112],[145.02995367467489,-38.074005867865516],[145.03145926297216,-38.07128858521921],[145.03203272823117,-38.07115365221683],[145.03199652123647,-38.07001539120752],[145.0302095024004,-38.06829074723328],[145.0295314646504,-38.07143813917674],[145.02782519047094,-38.07194176078041],[145.02686878885075,-38.068760921171716],[145.02184804020317,-38.06750893354493],[145.02107468183084,-38.066769492999356],[145.01617928631225,-38.06524704101074],[145.01539172399237,-38.06469811541588],[145.0105342576072,-38.06308598051618],[145.00455738189768,-38.05951457025528],[144.99817527100635,-38.05422091047504],[144.99138792493324,-38.047205001175506],[144.98419534367846,-38.03846684235683],[144.97659752724175,-38.02800643401867],[144.97234154959642,-38.02152776538402],[144.96805984299633,-38.020155089346325],[144.9665117887515,-38.02061185807589],[144.9676798708668,-38.02412456823519],[144.9761719763687,-38.039184921340535],[144.98738719731486,-38.05234352729411],[145.0009116365419,-38.063114768406805],[145.01624617530214,-38.07110113256854],[145.01751006040988,-38.071475200657005],[145.01828937482574,-38.072495594880856],[145.02086123044688,-38.074765662388984],[145.0207852194182,-38.0738001248837],[145.02293413190426,-38.07329449841542],[145.0236050014125,-38.07564493873893]],[[145.02545281035563,-38.07518636128727],[145.02615347875803,-38.072537005036644],[145.0277606409546,-38.07215884922497],[145.02846916682677,-38.0743598398345],[145.02545281035563,-38.07518636128727]]],[[[145.03667536100153,-38.07496867773934],[145.0344375446339,-38.0746786149506],[145.0340849653697,-38.07647403071848],[145.03584014936197,-38.07677266008004],[145.03667536100153,-38.07496867773934]]],[[[145.05609967837006,-38.06701194182496],[145.05461587538568,-38.067554053325395],[145.05466388951524,-38.068295339723136],[145.0570409960332,-38.0682356832375],[145.05609967837006,-38.06701194182496]]],[[[145.06894866434294,-38.058701303827384],[145.06828984972003,-38.05871699058321],[145.0667967822503,-38.05984666034362],[145.0684947391691,-38.061587720174195],[145.06817542624896,-38.06363220231723],[145.0680160818769,-38.06391138653821],[145.07160210892152,-38.06307562501511],[145.07046728591476,-38.0624523936574],[145.06997828791847,-38.06229563830755],[145.06945562924113,-38.06165007423502],[145.07043022819715,-38.05916497298326],[145.07053959644108,-38.058777284859445],[145.06894866434294,-38.058701303827384]]],[[[145.07236005363376,-38.062464117497406],[145.07239016337252,-38.06280114628134],[145.0725273057499,-38.06273137168228],[145.07678006769694,-38.06170110233236],[145.07657456067773,-38.061404357219246],[145.07466519858232,-38.061007108297886],[145.0741276937405,-38.06042737396742],[145.0756685886451,-38.05742749708773],[145.07332955539866,-38.0575393031623],[145.07169617783927,-38.058384323470634],[145.0737798192145,-38.060392248294214],[145.07236005363376,-38.062464117497406]]],[[[145.08371347976757,-38.05798972775921],[145.08531691270642,-38.05765078032495],[145.08571370503876,-38.05574816969804],[145.08503676809732,-38.05533958731071],[145.0807223471595,-38.05576100015716],[145.08019838840787,-38.055298790970376],[145.07667878846954,-38.057213212277034],[145.0783062657748,-38.05912031406154],[145.07786387107777,-38.061055664119976],[145.0776729742272,-38.06139048773606],[145.08178637199822,-38.06037370321418],[145.08181708981235,-38.06041365642281],[145.08236251944447,-38.06015809668144],[145.08569624435833,-38.05932379461023],[145.08540784423022,-38.05840096539276],[145.0836816849908,-38.058820665776665],[145.08371347976757,-38.05798972775921]]]]},"bbox":[144.9665117887515,-38.107398711747855,145.251854,-37.93644]}]}