{"type":"FeatureCollection","features":[
{"properties":{"electorateShortName":"kennedy","electorateName":"Kennedy","area":567375.198104,"state":"QLD"},"type":"Feature","geometry":{"type":"Polygon","coordinates":[[[147.599399,-18.581784],[147.556966,-18.484249],[147.552284,-18.46091],[147.530668,-18.434918],[147.462564,-18.40471],[147.394812,-18.261489],[147.395379,-18.25616],[147.38289,-18.258163],[147.042177,-18.184452],[146.982749,-18.13448],[146.902188,-18.056428],[146.891387,-18.054431],[146.888343,-18.051306],[146.885598,-18.044],[146.874251,-18.033056],[146.881962,-18.026426],[146.881527,-18.022811],[146.879072,-18.020896],[146.867247,-18.023015],[146.849869,-18.010693],[146.843284,-17.993212],[146.796774,-17.921401],[146.744292,-17.86659],[146.680394,-17.769167],[146.682836,-17.760891],[146.720017,-17.67761],[146.718796,-17.66873],[146.684261,-17.581],[146.559654,-17.436346],[146.554272,-17.426026],[146.550247,-17.422262],[146.556766,-17.410687],[146.559024,-17.398152],[146.564996,-17.382002],[146.565643,-17.37462],[146.562503,-17.362272],[146.554704,-17.361494],[146.541906,-17.349403],[146.540039,-17.344946],[146.539398,-17.320749],[146.555628,-17.305027],[146.555317,-17.298277],[146.547908,-17.280507],[146.548919,-17.275298],[146.547044,-17.266265],[146.540315,-17.25959],[146.545086,-17.207861],[146.549576,-17.202184],[146.55106,-17.193141],[146.548166,-17.184111],[146.541976,-17.177607],[146.514307,-17.097194],[146.473433,-17.048456],[146.473531,-17.03524],[146.52679,-16.993898],[146.525833,-16.990034],[146.484389,-16.970815],[146.453464,-16.941245],[146.451607,-16.933333],[146.448296,-16.928222],[146.397194,-16.870217],[146.356127,-16.855323],[145.927408,-16.865119],[145.9243,-16.8659],[145.91949,-16.86409],[145.91561,-16.86477],[145.916329,-16.86749],[145.919066,-16.872751],[145.91678,-16.87528],[145.91326,-16.88262],[145.90903,-16.8877],[145.908641,-16.89199],[145.90633,-16.896629],[145.900811,-16.89595],[145.897871,-16.89493],[145.89658,-16.89748],[145.894085,-16.899403],[145.89142,-16.899],[145.889177,-16.900819],[145.88719,-16.90498],[145.884721,-16.906559],[145.872421,-16.906815],[145.867811,-16.90576],[145.86405,-16.9041],[145.86183,-16.90181],[145.861952,-16.89887],[145.864653,-16.89571],[145.862921,-16.89315],[145.863241,-16.890959],[145.858431,-16.88418],[145.853743,-16.87977],[145.8528,-16.873779],[145.84905,-16.87096],[145.84811,-16.87186],[145.84705,-16.87604],[145.839422,-16.87807],[145.837179,-16.88146],[145.83472,-16.88247],[145.83389,-16.88451],[145.82978,-16.88642],[145.82837,-16.88834],[145.825319,-16.889469],[145.82485,-16.89399],[145.823191,-16.897611],[145.820851,-16.900429],[145.811689,-16.90358],[145.81134,-16.90754],[145.810041,-16.90844],[145.80476,-16.90855],[145.799985,-16.91013],[145.797931,-16.909362],[145.794262,-16.909798],[145.792437,-16.911435],[145.790627,-16.916249],[145.790448,-16.918632],[145.786522,-16.9232],[145.783848,-16.92282],[145.781909,-16.930677],[145.780956,-16.936711],[145.781868,-16.941038],[145.7777,-16.941279],[145.775542,-16.942902],[145.773236,-16.947304],[145.774023,-16.952539],[145.773122,-16.955295],[145.770585,-16.958047],[145.769003,-16.958476],[145.767945,-16.960972],[145.769617,-16.96299],[145.772129,-16.970419],[145.776205,-16.974889],[145.77522,-16.978475],[145.771441,-16.985598],[145.77155,-16.987685],[145.768065,-16.987229],[145.762992,-16.990732],[145.761532,-16.988615],[145.759714,-16.990016],[145.756667,-16.988598],[145.75656,-16.991922],[145.752021,-16.993497],[145.749573,-16.996918],[145.746983,-16.998397],[145.743054,-16.997135],[145.74235,-16.998827],[145.7394,-16.999962],[145.738405,-17.001502],[145.733942,-17.003697],[145.727218,-17.003054],[145.726697,-17.002295],[145.727424,-16.99548],[145.716246,-16.994348],[145.715718,-16.999193],[145.706501,-16.998019],[145.704183,-17.020313],[145.702299,-17.022277],[145.699641,-17.022014],[145.69939,-17.024375],[145.696828,-17.024866],[145.694588,-17.028256],[145.689058,-17.031516],[145.693858,-17.037966],[145.694278,-17.042147],[145.693197,-17.04413],[145.689174,-17.045015],[145.682615,-17.043771],[145.677543,-17.042228],[145.667718,-17.03803],[145.66221,-17.033871],[145.659678,-17.029114],[145.657157,-17.027409],[145.651718,-17.025367],[145.639695,-17.021941],[145.636794,-17.020446],[145.634705,-17.018359],[145.631913,-17.012996],[145.632164,-17.00883],[145.63009,-17.006806],[145.630325,-17.004644],[145.63296,-17.003321],[145.633636,-16.998656],[145.634959,-16.996504],[145.637055,-16.996087],[145.637427,-16.993347],[145.639042,-16.990047],[145.639662,-16.985717],[145.645,-16.982524],[145.64664,-16.97969],[145.651351,-16.977446],[145.652118,-16.975129],[145.654125,-16.973687],[145.654346,-16.97151],[145.651204,-16.969518],[145.650386,-16.965567],[145.651228,-16.96278],[145.649867,-16.956861],[145.651016,-16.955107],[145.650506,-16.95316],[145.651812,-16.950114],[145.649878,-16.945298],[145.648688,-16.945057],[145.647381,-16.948489],[145.643011,-16.950794],[145.640187,-16.950095],[145.638993,-16.948579],[145.636768,-16.948674],[145.633634,-16.944612],[145.625547,-16.942058],[145.623155,-16.939597],[145.620326,-16.938932],[145.617419,-16.936715],[145.615125,-16.938464],[145.61247,-16.936743],[145.610496,-16.939431],[145.608257,-16.940221],[145.605671,-16.937959],[145.599857,-16.938328],[145.598732,-16.936154],[145.602319,-16.933003],[145.602229,-16.929923],[145.603251,-16.928558],[145.604564,-16.923791],[145.601498,-16.920388],[145.601007,-16.915689],[145.597957,-16.91592],[145.590385,-16.918127],[145.588861,-16.92021],[145.588514,-16.923259],[145.586074,-16.923916],[145.58406,-16.922995],[145.579302,-16.923891],[145.577817,-16.92297],[145.576987,-16.920449],[145.571642,-16.918161],[145.568803,-16.912942],[145.565116,-16.911696],[145.562218,-16.908702],[145.557163,-16.908849],[145.557226,-16.905252],[145.55596,-16.902111],[145.55245,-16.90014],[145.550822,-16.895536],[145.54863,-16.893032],[145.546523,-16.892147],[145.546041,-16.886872],[145.549733,-16.883156],[145.549757,-16.882124],[145.545733,-16.875314],[145.541824,-16.872382],[145.539687,-16.868542],[145.535091,-16.866216],[145.53271,-16.862302],[145.531463,-16.858379],[145.534652,-16.852828],[145.534937,-16.843855],[145.533525,-16.841013],[145.531484,-16.840427],[145.529504,-16.842516],[145.527651,-16.842481],[145.521129,-16.838627],[145.520962,-16.836172],[145.52216,-16.834314],[145.521657,-16.831905],[145.518852,-16.830322],[145.513289,-16.824793],[145.51273,-16.821286],[145.516313,-16.819552],[145.523296,-16.817986],[145.530897,-16.817476],[145.538535,-16.810279],[145.542155,-16.80954],[145.543518,-16.807827],[145.545522,-16.80279],[145.548797,-16.799484],[145.551601,-16.800348],[145.553731,-16.803244],[145.562627,-16.803349],[145.563193,-16.798287],[145.558039,-16.797825],[145.549226,-16.793583],[145.547171,-16.792137],[145.546627,-16.790241],[145.542988,-16.788771],[145.538804,-16.784268],[145.538531,-16.77787],[145.534199,-16.773391],[145.529247,-16.77185],[145.527754,-16.7687],[145.523494,-16.765277],[145.521859,-16.761526],[145.515469,-16.759268],[145.51275,-16.755372],[145.512008,-16.751712],[145.509422,-16.746031],[145.504554,-16.740805],[145.507387,-16.736617],[145.507368,-16.734814],[145.51197,-16.731464],[145.512712,-16.729315],[145.511418,-16.726588],[145.512057,-16.725389],[145.517015,-16.724924],[145.523966,-16.722379],[145.524426,-16.716138],[145.529256,-16.712125],[145.531505,-16.714327],[145.536105,-16.714009],[145.538548,-16.712499],[145.539628,-16.708839],[145.538708,-16.706799],[145.534268,-16.704609],[145.530328,-16.698589],[145.528338,-16.698579],[145.514688,-16.690109],[145.514118,-16.687959],[145.515088,-16.683899],[145.514298,-16.680499],[145.516218,-16.676109],[145.518087,-16.673271],[145.514915,-16.668655],[145.515213,-16.665971],[145.513726,-16.664672],[145.517098,-16.660252],[145.521143,-16.660733],[145.521782,-16.658965],[145.519366,-16.656604],[145.521295,-16.653642],[145.519969,-16.648798],[145.52377,-16.646429],[145.522573,-16.64184],[145.522594,-16.639073],[145.521094,-16.634058],[145.52397,-16.631716],[145.525863,-16.628591],[145.530364,-16.62586],[145.529851,-16.623422],[145.5255,-16.623648],[145.522682,-16.623083],[145.517124,-16.630199],[145.514721,-16.629752],[145.511677,-16.631535],[145.507417,-16.635071],[145.506108,-16.63721],[145.501768,-16.64059],[145.498808,-16.641854],[145.495184,-16.642006],[145.490709,-16.645035],[145.487434,-16.641718],[145.485829,-16.641639],[145.480432,-16.643256],[145.477716,-16.643141],[145.469578,-16.645764],[145.4697,-16.64898],[145.464512,-16.649076],[145.461532,-16.647695],[145.458781,-16.648852],[145.454905,-16.64438],[145.447162,-16.643543],[145.448252,-16.622296],[145.449238,-16.610711],[145.443778,-16.61016],[145.44001,-16.605809],[145.437825,-16.605865],[145.436511,-16.603283],[145.448551,-16.604473],[145.449096,-16.599373],[145.441821,-16.598647],[145.441456,-16.596066],[145.444388,-16.593741],[145.44479,-16.591057],[145.442535,-16.580154],[145.445288,-16.577872],[145.445747,-16.576004],[145.439402,-16.570169],[145.431909,-16.569465],[145.433212,-16.551974],[145.422114,-16.538252],[145.415524,-16.529616],[145.413384,-16.531298],[145.41029,-16.527633],[145.411476,-16.526703],[145.407734,-16.522275],[145.410655,-16.519978],[145.40414,-16.512267],[145.385373,-16.510364],[145.384297,-16.520191],[145.376753,-16.519428],[145.372174,-16.532986],[145.367488,-16.536626],[145.367202,-16.539691],[145.362946,-16.543259],[145.361992,-16.545762],[145.362838,-16.548652],[145.361087,-16.549589],[145.359317,-16.553093],[145.358178,-16.553181],[145.354645,-16.556411],[145.351918,-16.55534],[145.35152,-16.551646],[145.348558,-16.550955],[145.34561,-16.547474],[145.344185,-16.547759],[145.336388,-16.54665],[145.333684,-16.549044],[145.332144,-16.549221],[145.330061,-16.551621],[145.325812,-16.551808],[145.326643,-16.544405],[145.326303,-16.541844],[145.319777,-16.54086],[145.320078,-16.538146],[145.317782,-16.537057],[145.313255,-16.536168],[145.311056,-16.532015],[145.307132,-16.531165],[145.30473,-16.533352],[145.304891,-16.534887],[145.302715,-16.537525],[145.2982,-16.538075],[145.295721,-16.536768],[145.294995,-16.5342],[145.297229,-16.53291],[145.297179,-16.531086],[145.290164,-16.529806],[145.289848,-16.52783],[145.286612,-16.522879],[145.279171,-16.518068],[145.280564,-16.516449],[145.278582,-16.514245],[145.273891,-16.512565],[145.271806,-16.509523],[145.272397,-16.508047],[145.271946,-16.50428],[145.276088,-16.502921],[145.276421,-16.500649],[145.272003,-16.4994],[145.264758,-16.500013],[145.262548,-16.496397],[145.265361,-16.492375],[145.269456,-16.490122],[145.268716,-16.488657],[145.264998,-16.487985],[145.258444,-16.484579],[145.257888,-16.482204],[145.259525,-16.479028],[145.263578,-16.476876],[145.262719,-16.475114],[145.265755,-16.471866],[145.26844,-16.472765],[145.269741,-16.466548],[145.267663,-16.465786],[145.262155,-16.467799],[145.259424,-16.468249],[145.256948,-16.467452],[145.252271,-16.464301],[145.249585,-16.463915],[145.246081,-16.464695],[145.242937,-16.464331],[145.244221,-16.461594],[145.244289,-16.457474],[145.241934,-16.451004],[145.240154,-16.449394],[145.240401,-16.445595],[145.235852,-16.445923],[145.228567,-16.44208],[145.226667,-16.439151],[145.225556,-16.433546],[145.225614,-16.431078],[145.221738,-16.429097],[145.222256,-16.426879],[145.219138,-16.424119],[145.213243,-16.421405],[145.208789,-16.41999],[145.20852,-16.416927],[145.180861,-16.429352],[145.183842,-16.437281],[145.184082,-16.440111],[145.181502,-16.444291],[145.180802,-16.446781],[145.178573,-16.450511],[145.173423,-16.453451],[145.168583,-16.457501],[145.162063,-16.454471],[145.158493,-16.457371],[145.157843,-16.459671],[145.155743,-16.462041],[145.152123,-16.464801],[145.147893,-16.460571],[145.146373,-16.458091],[145.142653,-16.454531],[145.138403,-16.457521],[145.135013,-16.460801],[145.127714,-16.460652],[145.123074,-16.460122],[145.119074,-16.460682],[145.116564,-16.458832],[145.108955,-16.454575],[145.103592,-16.448439],[145.102108,-16.444826],[145.09929,-16.44035],[145.095652,-16.437393],[145.089299,-16.435768],[145.084394,-16.432983],[145.083465,-16.42999],[145.084043,-16.427073],[145.080609,-16.42087],[145.081033,-16.412819],[145.079913,-16.41045],[145.076548,-16.408494],[145.072204,-16.407453],[145.067247,-16.406953],[145.065661,-16.405469],[145.064602,-16.401548],[145.061377,-16.400595],[145.057361,-16.404475],[145.055156,-16.407798],[145.051189,-16.412028],[145.047609,-16.413561],[145.045538,-16.415909],[145.042885,-16.422902],[145.038681,-16.429218],[145.034356,-16.433883],[145.030785,-16.441692],[145.027635,-16.446972],[145.026925,-16.454772],[145.025165,-16.461212],[145.023055,-16.464032],[145.021645,-16.467312],[145.021765,-16.469912],[145.018085,-16.478142],[145.013231,-16.485832],[145.008582,-16.490715],[145.004738,-16.493495],[145.002675,-16.498167],[144.998642,-16.503586],[144.997043,-16.504834],[144.992587,-16.506246],[144.981097,-16.504872],[144.977878,-16.505454],[144.962837,-16.506073],[144.946996,-16.509532],[144.943836,-16.513142],[144.940316,-16.513592],[144.938676,-16.512762],[144.933703,-16.507778],[144.924863,-16.502031],[144.922605,-16.501419],[144.919874,-16.502043],[144.918413,-16.504637],[144.917262,-16.512932],[144.91921,-16.519412],[144.921072,-16.524147],[144.921437,-16.529392],[144.923187,-16.534712],[144.922707,-16.538662],[144.919607,-16.542752],[144.912977,-16.544422],[144.906187,-16.543282],[144.899977,-16.543612],[144.896107,-16.546202],[144.890237,-16.554332],[144.890117,-16.558402],[144.891277,-16.561462],[144.891067,-16.563502],[144.888567,-16.569712],[144.885517,-16.573212],[144.883286,-16.574731],[144.88025,-16.575418],[144.875682,-16.57532],[144.870387,-16.573677],[144.86274,-16.573444],[144.85986,-16.574492],[144.857168,-16.577694],[144.855482,-16.581266],[144.855235,-16.584339],[144.856494,-16.590607],[144.855452,-16.593519],[144.852231,-16.596459],[144.846753,-16.596967],[144.840217,-16.592233],[144.838228,-16.589598],[144.823633,-16.578679],[144.818029,-16.576262],[144.813575,-16.575548],[144.80874,-16.575549],[144.805165,-16.576947],[144.801632,-16.579216],[144.789574,-16.583857],[144.784677,-16.584625],[144.778789,-16.583844],[144.774034,-16.581538],[144.772425,-16.578291],[144.772207,-16.574084],[144.773165,-16.569326],[144.773542,-16.564255],[144.771075,-16.561716],[144.766556,-16.561976],[144.760905,-16.563761],[144.755559,-16.566676],[144.740045,-16.572819],[144.73537,-16.576662],[144.73114,-16.577801],[144.725055,-16.576662],[144.720603,-16.574313],[144.710978,-16.572138],[144.705298,-16.57187],[144.695269,-16.575643],[144.692719,-16.575853],[144.689521,-16.577232],[144.683357,-16.578655],[144.67674,-16.578885],[144.67202,-16.578269],[144.668191,-16.578533],[144.664553,-16.580748],[144.663349,-16.583708],[144.663136,-16.592523],[144.667182,-16.609384],[144.667113,-16.615124],[144.665142,-16.619921],[144.661709,-16.622651],[144.659145,-16.62375],[144.648916,-16.625992],[144.644732,-16.629226],[144.642995,-16.632179],[144.641442,-16.637493],[144.641069,-16.650612],[144.641265,-16.660662],[144.640453,-16.66619],[144.63779,-16.674893],[144.63368,-16.679623],[144.63121,-16.680413],[144.625764,-16.677633],[144.62186,-16.673833],[144.61625,-16.666463],[144.6154,-16.664093],[144.61429,-16.657423],[144.61442,-16.654483],[144.61361,-16.648713],[144.61374,-16.644763],[144.61282,-16.641143],[144.60965,-16.635843],[144.6057,-16.631633],[144.60465,-16.629023],[144.6028,-16.621793],[144.6021,-16.617253],[144.598328,-16.611844],[144.59347,-16.608603],[144.58949,-16.609093],[144.583361,-16.618343],[144.577021,-16.624203],[144.573151,-16.624073],[144.567059,-16.616756],[144.563181,-16.613423],[144.558551,-16.611833],[144.555101,-16.612003],[144.549401,-16.614063],[144.546001,-16.614053],[144.540511,-16.611883],[144.535131,-16.607233],[144.527651,-16.603263],[144.518171,-16.601423],[144.509034,-16.601921],[144.503459,-16.600685],[144.499853,-16.598129],[144.495941,-16.596423],[144.494209,-16.59452],[144.493251,-16.589391],[144.490028,-16.584413],[144.485681,-16.579163],[144.484401,-16.576373],[144.483341,-16.568973],[144.484411,-16.557303],[144.483301,-16.553823],[144.482155,-16.547492],[144.480704,-16.544051],[144.478221,-16.540833],[144.473431,-16.537353],[144.468981,-16.535603],[144.465941,-16.535023],[144.455991,-16.534993],[144.453182,-16.535433],[144.446662,-16.532663],[144.443842,-16.526813],[144.445051,-16.516763],[144.441921,-16.510423],[144.438411,-16.506873],[144.436082,-16.505543],[144.426152,-16.503673],[144.418762,-16.504803],[144.411342,-16.507564],[144.407642,-16.509494],[144.401412,-16.509264],[144.395782,-16.510934],[144.390972,-16.513294],[144.386052,-16.513724],[144.382192,-16.512244],[144.380682,-16.510654],[144.378722,-16.503524],[144.375352,-16.497644],[144.370682,-16.493444],[144.365982,-16.491674],[144.363672,-16.492054],[144.358752,-16.491244],[144.353952,-16.492244],[144.348562,-16.492564],[144.344002,-16.491754],[144.340032,-16.490154],[144.337692,-16.488004],[144.336422,-16.484834],[144.336442,-16.479524],[144.335752,-16.477264],[144.333312,-16.474494],[144.327002,-16.471014],[144.319402,-16.468944],[144.315852,-16.468884],[144.309102,-16.469694],[144.30421,-16.467136],[144.300605,-16.466083],[144.297243,-16.466868],[144.293584,-16.468873],[144.287653,-16.473214],[144.280163,-16.475114],[144.272903,-16.475424],[144.268693,-16.474614],[144.259673,-16.476604],[144.252403,-16.479624],[144.249703,-16.479954],[144.245853,-16.477454],[144.244823,-16.473374],[144.244613,-16.469084],[144.243453,-16.466144],[144.238443,-16.460694],[144.230743,-16.457154],[144.223133,-16.456224],[144.215491,-16.457437],[144.212229,-16.458761],[144.206583,-16.463744],[144.201883,-16.469794],[144.200573,-16.474084],[144.197974,-16.479044],[144.195743,-16.480844],[144.189874,-16.482264],[144.179444,-16.485844],[144.177094,-16.487304],[144.170324,-16.493154],[144.166044,-16.495954],[144.161824,-16.497514],[144.157004,-16.497924],[144.152344,-16.496794],[144.149084,-16.493834],[144.146534,-16.490095],[144.143034,-16.488275],[144.139404,-16.488705],[144.133234,-16.493135],[144.127314,-16.494745],[144.123914,-16.494505],[144.118654,-16.493235],[144.113874,-16.490955],[144.109984,-16.488265],[144.106744,-16.487975],[144.102184,-16.488405],[144.096334,-16.487815],[144.091574,-16.486545],[144.09015,-16.484834],[144.084614,-16.475515],[144.082734,-16.470685],[144.080994,-16.468865],[144.076128,-16.466586],[144.067434,-16.465185],[144.055175,-16.459969],[144.051788,-16.456119],[144.050031,-16.450342],[144.050784,-16.44577],[144.050595,-16.443285],[144.053325,-16.437995],[144.053574,-16.434265],[144.050925,-16.428375],[144.046625,-16.423495],[144.043385,-16.416365],[144.039014,-16.403345],[144.037994,-16.398825],[144.035325,-16.394855],[144.025327,-16.390762],[144.018755,-16.388445],[144.013965,-16.387625],[144.005795,-16.384306],[144.0012,-16.381905],[143.988558,-16.380365],[143.982997,-16.378641],[143.978822,-16.376579],[143.975846,-16.374039],[143.972954,-16.368448],[143.969573,-16.364772],[143.959973,-16.36447],[143.952238,-16.363914],[143.935562,-16.360989],[143.927804,-16.361917],[143.924628,-16.362765],[143.918503,-16.365878],[143.912628,-16.37249],[143.911229,-16.373087],[143.898977,-16.373672],[143.895899,-16.375984],[143.893791,-16.378822],[143.890782,-16.380395],[143.880251,-16.382078],[143.873638,-16.384281],[143.868108,-16.384666],[143.863158,-16.383468],[143.85273,-16.376133],[143.848046,-16.374189],[143.84376,-16.37675],[143.821238,-16.393865],[143.818963,-16.397673],[143.814045,-16.399689],[143.809288,-16.407055],[143.8084,-16.413342],[143.806204,-16.418628],[143.805418,-16.42265],[143.803781,-16.425431],[143.797302,-16.432087],[143.790125,-16.435116],[143.776981,-16.442632],[143.773674,-16.44617],[143.764924,-16.450141],[143.761685,-16.454782],[143.761185,-16.459695],[143.762181,-16.463446],[143.764562,-16.468858],[143.763494,-16.472143],[143.758062,-16.476513],[143.754508,-16.476786],[143.743809,-16.474259],[143.741489,-16.473361],[143.734497,-16.472755],[143.729853,-16.473486],[143.721764,-16.476997],[143.717648,-16.480867],[143.716948,-16.482677],[143.717658,-16.485267],[143.716228,-16.492503],[143.711583,-16.502877],[143.707227,-16.505111],[143.699487,-16.505289],[143.696762,-16.508998],[143.6971,-16.518841],[143.697954,-16.526638],[143.6961,-16.531783],[143.69212,-16.533869],[143.685139,-16.536307],[143.679665,-16.53479],[143.666566,-16.524],[143.664928,-16.52321],[143.654543,-16.521427],[143.645675,-16.519279],[143.639096,-16.518275],[143.633733,-16.518233],[143.623043,-16.512021],[143.616767,-16.51048],[143.611899,-16.511072],[143.605225,-16.510145],[143.599561,-16.513089],[143.597981,-16.517943],[143.594359,-16.523205],[143.588726,-16.526982],[143.582958,-16.528822],[143.57757,-16.528857],[143.573113,-16.529925],[143.571579,-16.531322],[143.567442,-16.532536],[143.564111,-16.531867],[143.558654,-16.532666],[143.550301,-16.532877],[143.545077,-16.529769],[143.539619,-16.528078],[143.533828,-16.528435],[143.528494,-16.53038],[143.526693,-16.530425],[143.519118,-16.527209],[143.516258,-16.52501],[143.514411,-16.521676],[143.514408,-16.516938],[143.515753,-16.513775],[143.514093,-16.511602],[143.510287,-16.509569],[143.505165,-16.509],[143.502288,-16.509219],[143.499646,-16.511054],[143.497459,-16.513673],[143.493388,-16.514393],[143.485809,-16.515038],[143.481601,-16.517518],[143.470721,-16.513108],[143.467801,-16.509598],[143.454025,-16.496914],[143.446937,-16.494458],[143.443075,-16.491237],[143.440503,-16.491593],[143.435665,-16.495634],[143.435082,-16.499557],[143.43623,-16.503365],[143.43523,-16.514768],[143.434015,-16.518774],[143.430933,-16.521964],[143.427448,-16.522078],[143.424769,-16.518606],[143.415621,-16.511328],[143.409479,-16.50575],[143.40521,-16.496473],[143.401854,-16.492442],[143.399391,-16.487716],[143.397145,-16.485405],[143.387894,-16.480696],[143.383238,-16.480051],[143.379969,-16.480373],[143.374577,-16.482392],[143.372654,-16.483731],[143.368131,-16.488791],[143.36432,-16.490763],[143.360862,-16.49095],[143.356643,-16.488701],[143.349897,-16.483118],[143.340886,-16.474561],[143.334811,-16.470738],[143.328352,-16.464269],[143.323097,-16.463067],[143.318075,-16.464285],[143.314331,-16.463691],[143.308299,-16.46193],[143.30513,-16.459214],[143.301056,-16.45714],[143.299269,-16.457503],[143.294083,-16.454959],[143.290349,-16.45201],[143.286311,-16.450867],[143.283116,-16.448642],[143.278282,-16.442443],[143.277087,-16.440132],[143.276113,-16.434174],[143.273545,-16.431552],[143.270436,-16.431021],[143.263587,-16.433261],[143.260515,-16.435638],[143.258629,-16.441427],[143.254276,-16.445177],[143.24789,-16.447183],[143.242385,-16.447352],[143.239299,-16.446936],[143.237015,-16.445323],[143.236865,-16.441853],[143.234332,-16.436611],[143.231984,-16.433222],[143.228525,-16.430259],[143.222005,-16.427463],[143.21539,-16.426851],[143.203266,-16.42826],[143.195479,-16.429505],[143.19109,-16.430765],[143.185023,-16.430228],[143.179842,-16.428055],[143.176213,-16.423698],[143.175102,-16.421027],[143.168538,-16.416708],[143.165098,-16.417119],[143.160505,-16.415321],[143.152505,-16.407597],[143.151552,-16.404437],[143.148111,-16.400609],[143.143643,-16.396934],[143.137635,-16.392749],[143.131044,-16.389],[143.12737,-16.388586],[143.121987,-16.386239],[143.111568,-16.385335],[143.104282,-16.382699],[143.09732,-16.379689],[143.08713,-16.374176],[143.07773,-16.366957],[143.064595,-16.360467],[143.062128,-16.355627],[143.062198,-16.352951],[143.060055,-16.345689],[143.057285,-16.334545],[143.055723,-16.329793],[143.055248,-16.323622],[143.054496,-16.321205],[143.049776,-16.317952],[143.042968,-16.315183],[143.039419,-16.312222],[143.030458,-16.307229],[143.02802,-16.306856],[143.023817,-16.308723],[143.02035,-16.308226],[143.015933,-16.305476],[143.014046,-16.303508],[143.013058,-16.299706],[143.009423,-16.291136],[143.009201,-16.284075],[143.00947,-16.276062],[143.007763,-16.270008],[143.005434,-16.267086],[143.003225,-16.265685],[143.000463,-16.262496],[142.997138,-16.256299],[142.990242,-16.247586],[142.985191,-16.244668],[142.982048,-16.241567],[142.979378,-16.237067],[142.979999,-16.234354],[142.976785,-16.229199],[142.972838,-16.225045],[142.969673,-16.222416],[142.954745,-16.214672],[142.933871,-16.206448],[142.930078,-16.206552],[142.923776,-16.204437],[142.912404,-16.198586],[142.905554,-16.196686],[142.902514,-16.196526],[142.897901,-16.195311],[142.889483,-16.191121],[142.882604,-16.188881],[142.85993,-16.180564],[142.857826,-16.180862],[142.851083,-16.179434],[142.846283,-16.176646],[142.843876,-16.174545],[142.83937,-16.169053],[142.833542,-16.161253],[142.828372,-16.155688],[142.826737,-16.152604],[142.824388,-16.146012],[142.820627,-16.138067],[142.815567,-16.134319],[142.809547,-16.132177],[142.801935,-16.134014],[142.799575,-16.134132],[142.797384,-16.132943],[142.790588,-16.131559],[142.784633,-16.131893],[142.782742,-16.133338],[142.776486,-16.135307],[142.772872,-16.135556],[142.762108,-16.127863],[142.759272,-16.125189],[142.757893,-16.12219],[142.757346,-16.118784],[142.750806,-16.114641],[142.745678,-16.110198],[142.744057,-16.110578],[142.736406,-16.105123],[142.730382,-16.098713],[142.726523,-16.092595],[142.721254,-16.085395],[142.718389,-16.083542],[142.716556,-16.084554],[142.713576,-16.082227],[142.710768,-16.075459],[142.711367,-16.073673],[142.709802,-16.071667],[142.699852,-16.068232],[142.694912,-16.06782],[142.688523,-16.070174],[142.682805,-16.070623],[142.66748,-16.067656],[142.663365,-16.066002],[142.659483,-16.062755],[142.656156,-16.061333],[142.653576,-16.058195],[142.647265,-16.052236],[142.643478,-16.045592],[142.642125,-16.042326],[142.640845,-16.035948],[142.639612,-16.032229],[142.636017,-16.025038],[142.634253,-16.02244],[142.629667,-16.020005],[142.626157,-16.02015],[142.623612,-16.019404],[142.623956,-16.013222],[142.467759,-15.962075],[142.380496,-15.963124],[142.368497,-15.90122],[142.235421,-16.005092],[142.09471,-16.005092],[141.925639,-15.866596],[141.904914,-15.903319],[141.854738,-15.88863],[141.74675,-15.895974],[141.615856,-15.867645],[141.532956,-15.881285],[141.516594,-15.842464],[141.415748,-15.837752],[141.41276,-15.85536],[141.41098,-15.86156],[141.40931,-15.87128],[141.40306,-15.88685],[141.39964,-15.89282],[141.39646,-15.90015],[141.395979,-15.904572],[141.397567,-15.909621],[141.390789,-15.912566],[141.386839,-15.911312],[141.380879,-15.911742],[141.373969,-15.915672],[141.373379,-15.916912],[141.377089,-15.923362],[141.385329,-15.936172],[141.388099,-15.943182],[141.389609,-15.946012],[141.390879,-15.950542],[141.392669,-15.951202],[141.393769,-15.956882],[141.395129,-15.960192],[141.394569,-15.961512],[141.394899,-15.965812],[141.397097,-15.97147],[141.396739,-15.973392],[141.398239,-15.977572],[141.399619,-15.984241],[141.402719,-15.995101],[141.403909,-15.996401],[141.404471,-16.0],[141.0,-16.0],[137.99166,-16.0],[138.00118,-16.544509],[138.001197,-18.646506],[137.996616,-18.868219],[137.995957,-18.998506],[137.996007,-19.102156],[137.996076,-19.293339],[137.996233,-19.602172],[137.996273,-19.685467],[137.996355,-19.852127],[137.996386,-19.923057],[137.996436,-20.006387],[137.996486,-20.089717],[137.996547,-20.173047],[137.996578,-20.224427],[137.996698,-20.423036],[137.996748,-20.506366],[137.996893,-20.745111],[137.997011,-20.939976],[137.997052,-21.006346],[137.997153,-21.173006],[137.997207,-21.19428],[137.997204,-21.256336],[137.997305,-21.422996],[137.997366,-21.506326],[137.997568,-21.839646],[137.997618,-21.922976],[137.997667,-22.001867],[137.997914,-22.418519],[137.997964,-22.498509],[137.998004,-22.579239],[137.99812,-22.767528],[137.99816,-22.831566],[137.998262,-22.999868],[137.998372,-23.416527],[137.998403,-23.499888],[137.998246,-23.520895],[138.426734,-23.552348],[138.464389,-23.555056],[138.592055,-23.46253],[138.642334,-23.51223],[138.668769,-23.540083],[138.711216,-23.584638],[138.736465,-23.611343],[138.825558,-23.545619],[138.870578,-23.512372],[138.921104,-23.476494],[138.899454,-23.448333],[139.076354,-23.306816],[139.122701,-23.352076],[139.174868,-23.309969],[139.338996,-23.473871],[139.295422,-23.509979],[139.475759,-23.520779],[139.463728,-23.671293],[139.497893,-23.672821],[139.635934,-23.679174],[139.638078,-23.679326],[139.806772,-23.689021],[139.892609,-23.693644],[139.890969,-23.69021],[139.89168,-23.685859],[139.889683,-23.683241],[139.888698,-23.680042],[139.888662,-23.676735],[139.881607,-23.673133],[139.877508,-23.671806],[139.876408,-23.669002],[139.875912,-23.664079],[139.876333,-23.661615],[139.874933,-23.655038],[139.872131,-23.649772],[139.865377,-23.644234],[139.866024,-23.642588],[139.864254,-23.639952],[139.8638,-23.63752],[139.865246,-23.634957],[139.86264,-23.631489],[139.862623,-23.629454],[139.889422,-23.613962],[139.936229,-23.577092],[139.939169,-23.550016],[139.929379,-23.549112],[139.936208,-23.485855],[140.039406,-23.495437],[140.064409,-23.497836],[140.149356,-23.504839],[140.154496,-23.505643],[140.355569,-23.525775],[140.341912,-23.418267],[140.384343,-23.375599],[140.413234,-23.34621],[140.460068,-23.312445],[140.572649,-23.231406],[140.59792,-23.210599],[140.621458,-23.192128],[140.624066,-23.189054],[140.625771,-23.188619],[140.649183,-23.169148],[140.662341,-23.157725],[140.667108,-23.158375],[140.719362,-23.188629],[140.759621,-23.223156],[140.79824,-23.193894],[140.829373,-23.170192],[140.82219,-23.161545],[140.946999,-23.067769],[140.940216,-23.060003],[140.924565,-23.044439],[140.979163,-22.999813],[141.046356,-22.947653],[141.021423,-22.921876],[140.985717,-22.911558],[140.98674,-22.899036],[141.00055,-22.90027],[141.122257,-22.804494],[141.11446,-22.774505],[141.120369,-22.752244],[141.122864,-22.749199],[141.117252,-22.702695],[141.104011,-22.691833],[141.102775,-22.690069],[141.094922,-22.641932],[141.091918,-22.637249],[141.089639,-22.628174],[141.090848,-22.618233],[141.098951,-22.618307],[141.133889,-22.621264],[141.135145,-22.621691],[141.145629,-22.633357],[141.198923,-22.597559],[141.130519,-22.521403],[141.07972,-22.465648],[141.154704,-22.406495],[141.245778,-22.335434],[141.253487,-22.321365],[141.228483,-22.297977],[141.18285,-22.249626],[141.198634,-22.055173],[141.294338,-22.061885],[141.293705,-22.054019],[141.290221,-22.045083],[141.291229,-22.042335],[141.291378,-22.032404],[141.292745,-22.030923],[141.288602,-22.026298],[141.290838,-22.023905],[141.284196,-22.009975],[141.284543,-21.988843],[141.288368,-21.983916],[141.290247,-21.978033],[141.304782,-21.949605],[141.481129,-21.964069],[141.48325,-21.947174],[141.50783,-21.750468],[141.583156,-21.755977],[141.580015,-21.793194],[141.609404,-21.79563],[141.738616,-21.806277],[141.740814,-21.79098],[141.939312,-21.806561],[142.048748,-21.815048],[142.053654,-21.779633],[142.057263,-21.75449],[142.065725,-21.693617],[142.069154,-21.610388],[142.064512,-21.608385],[142.06473,-21.604291],[142.06935,-21.60472],[142.070001,-21.586139],[142.069713,-21.585994],[142.07072,-21.563242],[142.071014,-21.563132],[142.071999,-21.540753],[142.161278,-21.542844],[142.163394,-21.542992],[142.231842,-21.550869],[142.228163,-21.596278],[142.270443,-21.600493],[142.335189,-21.607104],[142.334453,-21.61576],[142.332856,-21.620501],[142.33155,-21.636171],[142.332562,-21.636322],[142.378561,-21.638554],[142.491224,-21.644184],[142.49559,-21.598003],[142.495176,-21.597057],[142.590191,-21.604772],[142.630941,-21.608278],[142.656514,-21.610361],[142.651366,-21.667494],[142.718468,-21.614949],[142.693958,-21.587863],[142.75527,-21.540063],[142.815399,-21.493135],[142.862092,-21.54506],[142.940518,-21.483426],[142.942412,-21.481655],[142.953327,-21.493758],[142.967867,-21.481626],[143.000105,-21.454505],[143.001967,-21.455368],[143.008971,-21.449951],[143.007751,-21.448539],[143.036338,-21.426418],[143.085084,-21.38852],[143.128829,-21.354537],[143.136988,-21.348275],[143.18803,-21.308656],[143.236447,-21.312997],[143.23664,-21.31119],[143.35953,-21.322011],[143.349812,-21.412674],[143.339756,-21.506428],[143.331812,-21.576881],[143.330798,-21.587738],[143.329214,-21.608703],[143.329875,-21.611515],[143.357717,-21.614168],[143.358027,-21.616028],[143.448393,-21.624526],[143.450086,-21.622855],[143.498204,-21.627375],[143.530333,-21.63021],[143.610029,-21.637729],[143.649256,-21.641178],[143.642348,-21.705214],[143.630837,-21.797422],[143.647037,-21.799098],[143.651478,-21.798489],[143.653773,-21.799794],[143.709006,-21.805498],[143.781834,-21.81408],[143.782066,-21.811122],[143.880119,-21.817031],[143.929446,-21.819981],[143.934226,-21.822113],[144.001928,-21.82707],[144.044621,-21.830302],[144.038846,-21.894713],[144.05743,-21.898341],[144.068478,-21.897879],[144.092446,-21.898958],[144.111734,-21.90185],[144.111406,-21.906335],[144.184296,-21.913318],[144.186584,-21.90807],[144.188492,-21.908412],[144.187967,-21.913829],[144.185983,-21.913747],[144.183246,-21.95491],[144.180328,-21.989558],[144.241375,-21.995295],[144.241434,-21.994754],[144.263322,-21.996823],[144.270074,-22.032609],[144.26849,-22.047868],[144.417213,-22.061724],[144.413307,-22.098162],[144.413874,-22.098356],[144.402806,-22.113301],[144.397776,-22.157051],[144.501776,-22.165143],[144.500514,-22.185662],[144.536068,-22.188213],[144.554086,-22.189885],[144.637413,-22.195466],[144.665017,-22.197876],[144.717224,-22.2038],[144.723526,-22.202108],[144.737391,-22.210655],[144.742046,-22.163815],[144.744479,-22.151637],[144.746299,-22.148137],[144.752102,-22.094483],[144.753115,-22.094049],[144.796083,-22.098446],[144.800893,-22.045529],[144.8341,-22.048774],[144.943048,-22.059149],[144.946444,-22.027324],[144.950454,-21.990601],[144.954809,-21.947198],[144.956305,-21.930311],[145.082206,-21.942606],[145.08434,-21.910258],[145.074247,-21.899753],[145.075195,-21.891442],[145.152964,-21.898926],[145.157491,-21.856513],[145.163383,-21.803768],[145.163962,-21.803834],[145.166068,-21.784894],[145.243999,-21.792608],[145.258353,-21.829973],[145.262042,-21.828722],[145.269861,-21.82968],[145.300887,-21.833027],[145.323233,-21.835535],[145.325123,-21.835426],[145.354898,-21.839035],[145.370559,-21.840807],[145.386047,-21.842348],[145.418234,-21.846247],[145.426842,-21.76873],[145.434731,-21.692052],[145.51022,-21.699881],[145.529402,-21.701941],[145.532833,-21.658254],[145.678477,-21.668189],[145.676583,-21.688569],[145.673239,-21.716015],[145.67378,-21.718742],[145.661823,-21.724312],[145.64578,-21.797513],[145.640624,-21.893986],[145.630165,-21.892921],[145.627197,-21.926724],[145.668263,-21.932034],[145.664423,-21.998634],[145.661171,-22.041156],[145.770078,-22.04853],[145.76961,-22.06659],[145.880557,-22.080412],[145.880312,-22.08468],[145.967611,-22.095669],[146.002047,-22.100217],[146.031455,-22.104814],[146.039479,-22.02335],[146.06699,-22.026532],[146.072068,-21.997239],[146.171177,-22.005177],[146.201384,-22.007584],[146.211379,-21.908495],[146.118452,-21.900853],[146.126718,-21.813565],[146.069187,-21.808809],[146.076395,-21.714065],[146.078208,-21.689836],[146.084063,-21.609594],[146.085162,-21.598363],[146.093438,-21.509941],[146.132293,-21.514031],[146.150511,-21.500057],[146.346695,-21.518123],[146.340708,-21.570118],[146.395972,-21.66319],[146.446651,-21.668095],[146.483889,-21.680292],[146.487333,-21.649716],[146.488435,-21.646931],[146.490275,-21.619978],[146.492922,-21.588661],[146.490043,-21.58648],[146.492307,-21.566479],[146.656718,-21.582545],[146.651828,-21.592158],[146.649231,-21.599442],[146.650537,-21.603515],[146.651612,-21.609274],[146.669074,-21.614172],[146.692326,-21.620268],[146.702118,-21.624167],[146.703072,-21.625194],[146.717501,-21.625571],[146.728523,-21.631193],[146.740883,-21.632437],[146.756055,-21.636697],[146.759931,-21.63619],[146.782233,-21.638733],[146.833884,-21.643224],[146.836746,-21.636434],[146.834632,-21.632471],[146.835588,-21.630095],[146.834535,-21.624944],[146.834782,-21.613936],[146.832793,-21.605159],[146.833158,-21.599937],[146.834791,-21.595627],[146.838687,-21.587345],[146.838329,-21.584554],[146.834989,-21.579816],[146.834724,-21.574405],[146.845178,-21.563752],[146.847226,-21.56091],[146.850385,-21.55292],[146.849924,-21.551328],[146.851795,-21.545481],[146.855308,-21.54138],[146.858946,-21.535647],[146.863655,-21.531348],[146.866285,-21.530292],[146.866952,-21.528673],[146.870072,-21.526673],[146.868276,-21.520087],[146.867437,-21.514713],[146.865919,-21.512341],[146.866653,-21.509866],[146.869018,-21.508551],[146.870602,-21.504976],[146.872261,-21.504374],[146.873628,-21.500389],[146.875516,-21.497348],[146.879355,-21.493882],[146.879226,-21.492726],[146.882739,-21.489017],[146.886172,-21.486535],[146.8907,-21.481554],[146.896414,-21.476855],[146.895315,-21.475096],[146.899006,-21.473213],[146.900446,-21.471107],[146.905182,-21.468615],[146.908335,-21.463384],[146.908944,-21.45931],[146.910515,-21.457357],[146.911818,-21.453846],[146.911447,-21.449857],[146.91031,-21.446934],[146.909744,-21.441144],[146.904956,-21.436288],[146.901835,-21.436231],[146.898439,-21.434759],[146.896382,-21.428066],[146.895904,-21.424785],[146.891194,-21.421694],[146.88684,-21.417059],[146.884605,-21.412792],[146.882212,-21.4111],[146.877548,-21.400876],[146.876136,-21.400103],[146.873668,-21.393704],[146.875475,-21.392713],[146.87564,-21.382529],[146.882242,-21.37327],[146.878829,-21.370877],[146.880323,-21.365704],[146.882787,-21.36212],[146.887435,-21.360683],[146.889795,-21.35886],[146.895332,-21.357231],[146.897383,-21.355407],[146.899947,-21.354641],[146.904631,-21.350322],[146.905693,-21.345233],[146.90925,-21.340817],[146.910482,-21.338033],[146.910894,-21.334736],[146.913868,-21.331696],[146.914965,-21.328378],[146.917828,-21.325454],[146.921211,-21.325131],[146.924552,-21.32245],[146.928585,-21.32168],[146.931231,-21.31965],[146.934203,-21.315353],[146.938756,-21.311926],[146.943272,-21.306852],[146.946676,-21.30451],[146.956607,-21.30204],[146.959316,-21.300414],[146.963275,-21.294753],[146.964734,-21.289938],[146.966126,-21.278745],[146.965571,-21.27484],[146.962379,-21.267356],[146.959742,-21.262605],[146.960724,-21.257567],[146.960507,-21.252098],[146.957059,-21.246882],[146.949719,-21.239578],[146.947383,-21.238743],[146.937592,-21.239261],[146.93203,-21.238425],[146.926582,-21.232164],[146.923913,-21.230494],[146.915015,-21.226839],[146.907007,-21.224228],[146.89655,-21.223909],[146.890879,-21.221819],[146.885653,-21.217748],[146.879208,-21.210442],[146.873874,-21.203658],[146.866992,-21.193895],[146.865898,-21.188156],[146.868005,-21.183451],[146.872883,-21.17969],[146.882208,-21.173331],[146.882608,-21.170292],[146.874081,-21.161528],[146.872549,-21.157981],[146.87265,-21.153815],[146.872026,-21.150948],[146.864855,-21.141564],[146.862635,-21.137782],[146.861818,-21.133374],[146.862054,-21.123726],[146.86171,-21.11889],[146.859496,-21.114889],[146.853187,-21.108157],[146.849157,-21.102796],[146.848807,-21.100944],[146.852117,-21.094565],[146.852965,-21.088487],[146.854847,-21.084537],[146.854333,-21.081072],[146.855502,-21.077547],[146.853693,-21.0725],[146.854473,-21.069583],[146.85803,-21.067969],[146.861149,-21.064179],[146.861064,-21.058988],[146.862806,-21.052834],[146.86304,-21.047917],[146.859852,-21.040878],[146.859858,-21.034419],[146.860353,-21.03119],[146.863798,-21.025195],[146.869131,-21.020804],[146.875525,-21.013427],[146.877437,-21.011998],[146.882281,-21.005834],[146.883206,-21.002806],[146.88367,-20.997613],[146.879296,-20.992957],[146.877915,-20.990793],[146.875962,-20.984083],[146.876428,-20.978025],[146.873325,-20.969476],[146.869186,-20.960817],[146.866887,-20.955189],[146.865971,-20.949563],[146.865973,-20.946533],[146.863547,-20.938592],[146.861025,-20.933843],[146.856401,-20.92672],[146.853461,-20.919202],[146.853571,-20.914061],[146.854205,-20.912084],[146.857155,-20.908131],[146.863054,-20.902203],[146.863477,-20.899039],[146.862218,-20.895082],[146.865021,-20.889949],[146.865953,-20.885978],[146.863637,-20.881932],[146.856398,-20.871136],[146.856204,-20.867756],[146.861039,-20.860005],[146.86236,-20.854726],[146.862806,-20.847301],[146.861493,-20.843258],[146.85834,-20.836655],[146.858028,-20.830687],[146.852841,-20.819149],[146.851807,-20.812892],[146.853475,-20.808593],[146.856182,-20.803513],[146.859513,-20.798433],[146.861594,-20.79648],[146.865916,-20.796901],[146.868356,-20.799965],[146.87134,-20.801754],[146.876226,-20.801247],[146.888177,-20.791301],[146.891163,-20.790538],[146.901206,-20.790288],[146.904463,-20.789525],[146.909893,-20.78672],[146.911846,-20.784447],[146.913662,-20.780793],[146.915478,-20.774703],[146.916261,-20.764713],[146.91704,-20.761546],[146.92041,-20.757406],[146.927405,-20.755216],[146.933622,-20.754244],[146.939062,-20.754002],[146.943984,-20.752055],[146.960118,-20.74182],[146.962061,-20.73837],[146.962279,-20.729239],[146.964869,-20.721326],[146.965605,-20.714441],[146.96453,-20.702266],[146.962375,-20.695569],[146.960867,-20.68867],[146.961299,-20.684408],[146.964839,-20.676053],[146.966564,-20.675039],[146.972817,-20.674431],[146.975836,-20.67362],[146.980579,-20.671185],[146.982736,-20.669359],[146.985539,-20.664895],[146.985755,-20.658402],[146.983384,-20.653532],[146.979504,-20.64927],[146.976984,-20.644361],[146.973242,-20.634717],[146.972061,-20.629339],[146.972653,-20.62359],[146.976003,-20.619695],[146.979414,-20.618069],[146.987603,-20.615345],[147.002214,-20.609327],[147.011894,-20.606059],[147.016459,-20.606575],[147.020112,-20.608122],[147.021208,-20.609497],[147.021796,-20.61428],[147.023249,-20.618928],[147.026154,-20.622756],[147.030802,-20.62631],[147.036322,-20.629317],[147.042712,-20.630956],[147.048231,-20.630408],[147.052006,-20.627125],[147.058105,-20.625756],[147.062172,-20.627122],[147.065078,-20.630402],[147.068276,-20.636417],[147.068858,-20.638877],[147.073275,-20.648893],[147.075612,-20.651311],[147.08052,-20.653288],[147.08636,-20.652185],[147.092665,-20.647124],[147.097148,-20.642071],[147.101216,-20.638902],[147.105707,-20.636785],[147.11177,-20.635865],[147.11761,-20.636284],[147.124199,-20.637689],[147.133111,-20.641065],[147.14174,-20.646523],[147.142882,-20.648311],[147.148618,-20.651831],[147.151679,-20.652411],[147.156114,-20.651727],[147.159482,-20.6492],[147.16312,-20.643046],[147.164624,-20.63518],[147.166717,-20.630743],[147.171876,-20.622736],[147.176096,-20.618875],[147.178015,-20.618594],[147.178723,-20.606456],[147.181091,-20.60354],[147.18408,-20.602242],[147.186076,-20.603923],[147.191127,-20.601749],[147.19377,-20.599124],[147.195087,-20.594564],[147.198443,-20.591433],[147.203556,-20.590471],[147.209544,-20.587112],[147.211301,-20.584833],[147.213077,-20.579283],[147.214552,-20.57674],[147.216942,-20.575294],[147.219564,-20.575291],[147.222478,-20.576521],[147.227972,-20.581452],[147.234579,-20.584049],[147.238172,-20.58473],[147.241376,-20.584451],[147.244479,-20.581795],[147.251311,-20.572916],[147.257952,-20.567008],[147.264056,-20.559821],[147.267014,-20.557942],[147.274488,-20.557244],[147.27861,-20.554632],[147.279528,-20.55239],[147.279867,-20.543989],[147.283139,-20.536336],[147.284675,-20.527281],[147.284816,-20.524583],[147.288443,-20.517811],[147.291253,-20.514971],[147.299247,-20.508054],[147.301034,-20.503799],[147.300924,-20.497261],[147.291672,-20.480132],[147.290598,-20.476384],[147.290542,-20.472727],[147.29449,-20.456535],[147.295887,-20.451869],[147.297819,-20.447431],[147.300529,-20.44418],[147.303629,-20.441569],[147.30857,-20.43836],[147.319862,-20.433447],[147.326357,-20.431606],[147.330818,-20.430775],[147.335131,-20.429166],[147.338812,-20.426919],[147.34099,-20.42472],[147.34239,-20.421973],[147.345016,-20.413334],[147.347632,-20.400586],[147.347225,-20.3938],[147.343212,-20.389059],[147.339082,-20.385886],[147.331577,-20.382012],[147.327845,-20.378178],[147.323851,-20.375177],[147.320838,-20.371466],[147.314394,-20.360324],[147.310538,-20.349876],[147.306003,-20.333432],[147.300575,-20.321708],[147.29903,-20.314343],[147.29912,-20.31053],[147.300056,-20.305442],[147.304626,-20.295347],[147.308254,-20.286064],[147.310574,-20.274204],[147.311331,-20.2621],[147.31024,-20.243946],[147.309678,-20.227898],[147.308361,-20.215475],[147.306594,-20.207894],[147.303306,-20.198448],[147.301882,-20.192567],[147.300618,-20.182508],[147.294549,-20.16115],[147.29296,-20.157392],[147.288807,-20.15033],[147.279014,-20.134801],[147.274799,-20.125817],[147.274187,-20.121264],[147.275208,-20.114703],[147.280848,-20.097584],[147.28439,-20.089027],[147.292717,-20.075468],[147.294702,-20.069007],[147.293904,-20.064716],[147.285306,-20.046061],[147.282884,-20.042168],[147.277485,-20.035118],[147.272728,-20.027434],[147.269422,-20.021317],[147.262328,-20.009348],[147.260464,-20.005257],[147.257539,-19.997128],[147.256869,-19.988348],[147.255765,-19.979687],[147.254112,-19.969274],[147.252018,-19.962247],[147.243688,-19.949416],[147.241396,-19.947054],[147.234714,-19.944086],[147.2311,-19.941656],[147.229755,-19.939822],[147.223889,-19.928273],[147.220096,-19.920004],[147.219007,-19.913374],[147.223606,-19.905686],[147.226943,-19.897265],[147.229943,-19.879942],[147.231803,-19.874593],[147.235991,-19.864495],[147.237071,-19.859808],[147.235794,-19.844401],[147.233378,-19.8436],[147.233271,-19.83814],[147.230408,-19.81892],[147.228023,-19.81901],[147.216691,-19.817667],[147.214695,-19.836035],[147.211841,-19.835193],[147.198933,-19.823446],[147.185774,-19.813369],[147.169291,-19.800004],[147.157621,-19.791812],[147.148121,-19.783999],[147.076291,-19.725963],[147.0604,-19.712265],[147.050406,-19.704152],[147.045166,-19.70543],[147.039974,-19.707332],[147.032599,-19.711526],[147.026049,-19.713987],[147.020675,-19.714562],[147.024452,-19.678779],[147.025316,-19.669791],[147.029461,-19.632313],[147.025535,-19.627722],[147.019975,-19.625297],[147.018268,-19.625108],[147.019518,-19.610897],[147.009334,-19.603867],[147.008105,-19.600402],[147.003329,-19.596522],[147.006068,-19.591928],[147.009566,-19.590478],[147.011189,-19.588969],[147.012583,-19.584985],[147.015391,-19.582411],[147.021111,-19.578558],[147.022557,-19.572835],[147.024552,-19.570504],[147.028364,-19.558158],[147.030651,-19.552333],[147.032567,-19.53593],[147.03395,-19.534158],[147.031936,-19.532176],[147.030964,-19.525067],[147.030879,-19.520669],[147.027951,-19.518128],[147.028456,-19.516413],[147.024552,-19.504526],[147.021702,-19.502911],[147.018254,-19.49751],[147.012093,-19.49946],[147.010651,-19.491758],[147.012582,-19.474867],[147.026041,-19.47624],[147.026641,-19.470952],[147.036494,-19.471958],[147.037147,-19.466245],[147.035445,-19.466072],[147.03674,-19.454668],[147.040781,-19.452437],[147.043234,-19.429503],[147.042331,-19.426846],[147.038911,-19.426474],[147.039304,-19.422884],[147.032579,-19.422199],[147.033782,-19.410806],[147.023476,-19.396521],[147.019386,-19.393171],[147.016806,-19.392811],[147.003476,-19.393902],[146.996706,-19.392902],[146.990896,-19.390552],[146.976806,-19.388202],[146.961761,-19.389337],[146.957179,-19.388185],[146.954372,-19.389869],[146.955481,-19.393857],[146.949612,-19.396297],[146.951356,-19.400118],[146.94664,-19.402517],[146.948289,-19.406086],[146.952849,-19.409377],[146.952967,-19.412306],[146.951341,-19.413449],[146.950632,-19.416406],[146.951619,-19.421293],[146.951196,-19.424319],[146.943669,-19.428626],[146.942942,-19.430153],[146.934278,-19.429419],[146.932717,-19.432606],[146.930267,-19.430622],[146.932384,-19.425964],[146.936867,-19.421913],[146.915185,-19.400775],[146.917203,-19.381066],[146.91155,-19.380427],[146.908602,-19.379121],[146.883471,-19.360787],[146.874619,-19.356463],[146.873087,-19.370372],[146.86503,-19.369578],[146.865888,-19.361912],[146.854686,-19.360739],[146.85409,-19.366034],[146.842936,-19.364885],[146.845301,-19.368221],[146.844294,-19.369964],[146.840179,-19.370719],[146.837294,-19.370307],[146.837543,-19.359792],[146.838177,-19.35472],[146.836679,-19.351333],[146.834849,-19.343663],[146.831326,-19.336204],[146.827817,-19.338926],[146.828197,-19.340784],[146.825423,-19.343408],[146.805946,-19.34159],[146.804303,-19.357299],[146.749937,-19.346849],[146.743298,-19.336335],[146.741957,-19.330952],[146.728822,-19.329729],[146.728358,-19.334277],[146.729729,-19.340795],[146.733953,-19.356397],[146.733022,-19.363918],[146.734104,-19.373262],[146.736761,-19.378944],[146.737294,-19.381186],[146.736537,-19.383837],[146.73367,-19.387332],[146.730237,-19.39344],[146.731096,-19.396417],[146.732924,-19.399331],[146.733977,-19.405183],[146.737514,-19.410234],[146.733307,-19.411775],[146.733266,-19.413073],[146.703168,-19.410263],[146.704326,-19.408228],[146.703211,-19.40667],[146.703532,-19.403622],[146.702181,-19.401961],[146.701675,-19.394873],[146.700687,-19.392955],[146.700912,-19.390056],[146.702426,-19.38834],[146.701927,-19.385899],[146.702381,-19.378857],[146.704477,-19.37713],[146.70784,-19.370311],[146.710057,-19.372084],[146.714061,-19.367515],[146.714198,-19.361523],[146.715199,-19.357531],[146.713189,-19.352865],[146.712007,-19.344385],[146.712706,-19.342764],[146.709958,-19.33823],[146.707984,-19.337563],[146.704327,-19.333416],[146.704893,-19.326525],[146.702105,-19.321407],[146.702107,-19.319262],[146.69222,-19.317413],[146.687294,-19.318716],[146.673737,-19.318356],[146.662445,-19.31519],[146.653655,-19.315251],[146.650428,-19.315983],[146.642885,-19.319271],[146.639475,-19.320303],[146.630901,-19.321321],[146.625481,-19.321469],[146.619442,-19.322896],[146.612834,-19.321911],[146.596195,-19.315833],[146.592565,-19.321807],[146.59218,-19.324772],[146.589769,-19.327855],[146.589412,-19.330215],[146.591335,-19.333099],[146.588819,-19.334723],[146.587676,-19.337758],[146.588903,-19.3425],[146.588812,-19.34798],[146.590635,-19.34856],[146.592023,-19.351879],[146.589912,-19.354755],[146.592277,-19.359168],[146.591428,-19.361822],[146.589796,-19.363175],[146.589549,-19.369867],[146.588091,-19.374023],[146.587724,-19.379216],[146.586376,-19.381695],[146.583572,-19.383463],[146.583671,-19.386059],[146.58198,-19.397691],[146.582004,-19.402494],[146.574277,-19.404091],[146.570061,-19.406045],[146.564167,-19.406522],[146.565046,-19.403585],[146.563794,-19.400222],[146.558696,-19.401],[146.556551,-19.4031],[146.557459,-19.406341],[146.556905,-19.408848],[146.558367,-19.409581],[146.559126,-19.41283],[146.55581,-19.412872],[146.553709,-19.416314],[146.551109,-19.414654],[146.548806,-19.411172],[146.547689,-19.4118],[146.545331,-19.409241],[146.544769,-19.406159],[146.541349,-19.406348],[146.541182,-19.403633],[146.539071,-19.399036],[146.534114,-19.394323],[146.528837,-19.39458],[146.527529,-19.397825],[146.529035,-19.398998],[146.52939,-19.401803],[146.525146,-19.402107],[146.522135,-19.399763],[146.519934,-19.401628],[146.517751,-19.401992],[146.517258,-19.398149],[146.51607,-19.396157],[146.517573,-19.394888],[146.515846,-19.390694],[146.513991,-19.389227],[146.506077,-19.387815],[146.506128,-19.384082],[146.502855,-19.383749],[146.501635,-19.380502],[146.499148,-19.376551],[146.495224,-19.377072],[146.490738,-19.373604],[146.487039,-19.375701],[146.484612,-19.378189],[146.48192,-19.375631],[146.477911,-19.373812],[146.469852,-19.371804],[146.467521,-19.368833],[146.465262,-19.363001],[146.465274,-19.358367],[146.463109,-19.355454],[146.45918,-19.355153],[146.457591,-19.353686],[146.461046,-19.352466],[146.461886,-19.349572],[146.461751,-19.342374],[146.45985,-19.340825],[146.45733,-19.341764],[146.45403,-19.338269],[146.448856,-19.336258],[146.444654,-19.335735],[146.443877,-19.334294],[146.444332,-19.329656],[146.448835,-19.32786],[146.456039,-19.321896],[146.463372,-19.321361],[146.463137,-19.31853],[146.459617,-19.31903],[146.454978,-19.317717],[146.45391,-19.315487],[146.450546,-19.313203],[146.445855,-19.312818],[146.443812,-19.310167],[146.443883,-19.303486],[146.44565,-19.301218],[146.443015,-19.300189],[146.441204,-19.300972],[146.437007,-19.299428],[146.43085,-19.299177],[146.425521,-19.299903],[146.424403,-19.298368],[146.424174,-19.29396],[146.424971,-19.289508],[146.421954,-19.287534],[146.417452,-19.288357],[146.416305,-19.292445],[146.414269,-19.293061],[146.405615,-19.291569],[146.40483,-19.290851],[146.407734,-19.286032],[146.410433,-19.283394],[146.419205,-19.279342],[146.421933,-19.277731],[146.422267,-19.27605],[146.415778,-19.265409],[146.414843,-19.260672],[146.413146,-19.258392],[146.406109,-19.254477],[146.401361,-19.25253],[146.400447,-19.251468],[146.401965,-19.248763],[146.404533,-19.246031],[146.408619,-19.240344],[146.405443,-19.23912],[146.403646,-19.237463],[146.403588,-19.235251],[146.410007,-19.228233],[146.415164,-19.225696],[146.418878,-19.22306],[146.420854,-19.220668],[146.422576,-19.215815],[146.421477,-19.211233],[146.419749,-19.208674],[146.417133,-19.206672],[146.420443,-19.200935],[146.424733,-19.199505],[146.429013,-19.197355],[146.434903,-19.200175],[146.438423,-19.199725],[146.441843,-19.200915],[146.452033,-19.199955],[146.458493,-19.200425],[146.459643,-19.199435],[146.463063,-19.200615],[146.468773,-19.200005],[146.472493,-19.197115],[146.476773,-19.195415],[146.483072,-19.189195],[146.488502,-19.187765],[146.489452,-19.186505],[146.492212,-19.186245],[146.493742,-19.183895],[146.497172,-19.183005],[146.498892,-19.180115],[146.502974,-19.180047],[146.507867,-19.178106],[146.509078,-19.180052],[146.513882,-19.176641],[146.513014,-19.174312],[146.51477,-19.171164],[146.51622,-19.165272],[146.515442,-19.16164],[146.513374,-19.158771],[146.515188,-19.151441],[146.513467,-19.147848],[146.515219,-19.145791],[146.516133,-19.142499],[146.51914,-19.141503],[146.522627,-19.138839],[146.521984,-19.136316],[146.522356,-19.132825],[146.523589,-19.131359],[146.522709,-19.128106],[146.527455,-19.120987],[146.529036,-19.115571],[146.532182,-19.116906],[146.5335,-19.11458],[146.5289,-19.10995],[146.522112,-19.105397],[146.516929,-19.100097],[146.514364,-19.098853],[146.50974,-19.10001],[146.50723,-19.09824],[146.5049,-19.09778],[146.50304,-19.09885],[146.49961,-19.09859],[146.49367,-19.09582],[146.488,-19.09222],[146.48149,-19.0868],[146.476114,-19.080046],[146.47597,-19.07872],[146.469458,-19.074644],[146.462618,-19.074624],[146.456628,-19.075064],[146.454716,-19.074004],[146.44798,-19.06722],[146.44131,-19.05918],[146.43643,-19.05246],[146.42882,-19.04062],[146.42591,-19.03658],[146.422596,-19.03344],[146.4202,-19.02849],[146.417638,-19.024874],[146.411398,-19.018714],[146.405258,-19.007574],[146.402688,-19.007834],[146.40065,-19.00564],[146.4013,-19.00419],[146.396268,-18.998504],[146.383369,-18.998394],[146.38118,-18.99781],[146.37873,-18.99577],[146.37359,-18.98959],[146.36893,-18.98189],[146.364483,-18.970816],[146.36374,-18.96725],[146.358529,-18.964265],[146.35493,-18.960764],[146.34617,-18.95891],[146.34365,-18.95932],[146.3401,-18.95864],[146.33613,-18.95611],[146.33456,-18.954206],[146.332009,-18.948515],[146.331029,-18.939695],[146.328485,-18.936927],[146.327699,-18.934505],[146.322334,-18.927076],[146.321254,-18.923686],[146.317924,-18.920536],[146.316014,-18.917036],[146.312324,-18.916026],[146.309714,-18.913316],[146.304584,-18.906446],[146.29852,-18.90227],[146.29486,-18.89615],[146.28911,-18.890641],[146.286974,-18.886936],[146.285894,-18.883206],[146.284445,-18.881371],[146.28378,-18.87573],[146.281944,-18.869316],[146.27899,-18.8685],[146.276954,-18.864356],[146.274145,-18.862304],[146.27611,-18.85757],[146.27639,-18.85458],[146.275474,-18.842446],[146.275434,-18.824246],[146.276134,-18.818936],[146.276364,-18.813176],[146.277184,-18.809106],[146.276724,-18.80579],[146.279874,-18.794866],[146.281753,-18.786506],[146.281537,-18.782788],[146.282573,-18.780626],[146.285393,-18.768756],[146.28573,-18.76457],[146.28744,-18.76223],[146.289503,-18.750106],[146.28898,-18.74779],[146.292073,-18.737326],[146.292423,-18.735076],[146.301843,-18.705106],[146.311742,-18.682267],[146.319642,-18.666887],[146.321172,-18.662587],[146.323422,-18.658397],[146.327552,-18.651947],[146.337102,-18.634977],[146.338512,-18.630337],[146.338742,-18.626497],[146.3373,-18.62424],[146.33519,-18.62878],[146.33457,-18.63417],[146.33174,-18.64075],[146.32932,-18.64346],[146.3252,-18.64486],[146.319278,-18.645407],[146.319582,-18.641347],[146.322542,-18.639197],[146.325842,-18.633307],[146.327132,-18.629127],[146.328912,-18.627427],[146.337642,-18.612157],[146.338922,-18.606837],[146.3387,-18.60133],[146.337841,-18.600051],[146.338061,-18.593167],[146.339231,-18.587177],[146.342401,-18.577677],[146.342151,-18.572827],[146.3413,-18.56817],[146.339401,-18.564697],[146.33791,-18.56491],[146.33647,-18.56794],[146.333925,-18.566734],[146.33277,-18.56403],[146.335007,-18.561992],[146.339871,-18.560737],[146.344491,-18.560277],[146.345431,-18.559257],[146.34494,-18.55416],[146.34316,-18.55191],[146.34172,-18.54581],[146.33898,-18.5404],[146.33651,-18.53344],[146.33617,-18.53129],[146.338001,-18.52842],[146.34152,-18.52622],[146.33591,-18.501345],[146.388258,-18.501408],[146.396973,-18.501504],[146.484849,-18.498739],[146.573766,-18.49879],[146.634491,-18.498801],[146.736768,-18.498776],[146.851143,-18.498637],[146.943186,-18.498525],[147.001095,-18.498454],[147.001096,-18.581787],[147.281279,-18.582022],[147.599399,-18.581784]]]},"bbox":[137.99166,-23.693644,147.599399,-15.837752]}]}