{"type":"FeatureCollection","features":[
{"properties":{"electorateShortName":"kingsford-smith","electorateName":"Kingsford Smith","area":60.99,"state":"NSW"},"type":"Feature","geometry":{"type":"Polygon","coordinates":[[[151.231926,-34.016739],[151.229852,-34.018881],[151.230371,-34.021766],[151.228577,-34.024599],[151.230295,-34.026401],[151.225423,-34.034278],[151.220659,-34.039339],[151.215357,-34.040415],[151.21452,-34.04193],[151.20971,-34.040623],[151.207359,-34.041497],[151.2032,-34.040228],[151.201143,-34.03786],[151.200842,-34.040671],[151.198776,-34.041682],[151.194148,-34.036629],[151.185918,-34.034563],[151.175625,-34.036214],[151.16529,-34.040893],[151.158281,-34.048053],[151.154915,-34.055118],[151.158404,-34.058437],[151.155472,-34.063918],[151.158344,-34.066813],[151.156756,-34.069717],[151.162586,-34.072444],[151.169078,-34.074987],[151.171847,-34.082236],[151.171761,-34.086503],[151.1682317166567,-34.09082210163374],[151.18158552303797,-34.091024297759006],[151.19347733417163,-34.0981128293066],[151.20973518899672,-34.10396037299434],[151.2268108481101,-34.1065935225414],[151.24407501737528,-34.10591523773638],[151.26089145543736,-34.10195051560268],[151.2766404213072,-34.09484546917612],[151.2907415138529,-34.084861942759524],[151.3086955138529,-34.06936094275952],[151.32021044371677,-34.05739517840668],[151.32933089872398,-34.04351748310884],[151.3357463632707,-34.02820033778187],[151.33663858793304,-34.024052243897856],[151.33751016526293,-34.022050667501134],[151.34051192313683,-34.0184557498787],[151.3491123752982,-34.00247581224209],[151.35433225859077,-33.98509539214757],[151.35595934532972,-33.96702113495692],[151.35533921413318,-33.961517332185764],[151.35524794390932,-33.949458232230114],[151.3551026173248,-33.94874661879767],[151.35560911508838,-33.94518606981718],[151.35451848945135,-33.9271089288707],[151.352503184094,-33.91958838991764],[151.35268479198982,-33.91786550119337],[151.3505841248424,-33.89872654407895],[151.3502951248424,-33.897412544078946],[151.34457532875885,-33.88004952446494],[151.33546497065137,-33.864200490030385],[151.32333992648162,-33.850519341641615],[151.30870045239578,-33.83957053733049],[151.29886376921428,-33.834955452661085],[151.29687969386652,-33.833902165962776],[151.29594482670592,-33.83358597002425],[151.29215054511215,-33.831805803834925],[151.28711054196873,-33.830597989408986],[151.28629875496154,-33.83032342232027],[151.280955,-33.832769],[151.287848,-33.850202],[151.286273,-33.852492],[151.286331,-33.857691],[151.282829,-33.862556],[151.28462,-33.873529],[151.282691,-33.877446],[151.286014,-33.886101],[151.285919,-33.891886],[151.283835,-33.893925],[151.281274,-33.891017],[151.27494,-33.893234],[151.276311,-33.898964],[151.272591,-33.899507],[151.268554,-33.903922],[151.270355,-33.906403],[151.271398,-33.914235],[151.266727,-33.913663],[151.268249,-33.915175],[151.266978,-33.916334],[151.261601,-33.914791],[151.262396,-33.916745],[151.262269,-33.91674],[151.261331,-33.916602],[151.261236,-33.916585],[151.261245,-33.916547],[151.260749,-33.916471],[151.259092,-33.916218],[151.259135,-33.916019],[151.258486,-33.915898],[151.258401,-33.915885],[151.257943,-33.915805],[151.257868,-33.915785],[151.257791,-33.915772],[151.257297,-33.915706],[151.256867,-33.915636],[151.256349,-33.915565],[151.255485,-33.915446],[151.254064,-33.915236],[151.253144,-33.915099],[151.252415,-33.914982],[151.251772,-33.914877],[151.25163,-33.914854],[151.251471,-33.914829],[151.251231,-33.914793],[151.25033,-33.91466],[151.250267,-33.91465],[151.249333,-33.914522],[151.24822,-33.914288],[151.248132,-33.914269],[151.24784,-33.914205],[151.247733,-33.914145],[151.246787,-33.913611],[151.246407,-33.913569],[151.245879,-33.913523],[151.24511,-33.913439],[151.244985,-33.913434],[151.244697,-33.913488],[151.244351,-33.913514],[151.243912,-33.913448],[151.243777,-33.913428],[151.243102,-33.913328],[151.242587,-33.913251],[151.24204,-33.913163],[151.241495,-33.913086],[151.240824,-33.912993],[151.240523,-33.912951],[151.240232,-33.912909],[151.239812,-33.912846],[151.239561,-33.912808],[151.239402,-33.912782],[151.239244,-33.912734],[151.239095,-33.912709],[151.238932,-33.912678],[151.238533,-33.912606],[151.238348,-33.912569],[151.238163,-33.912528],[151.238041,-33.912498],[151.23792,-33.912466],[151.237658,-33.912392],[151.237196,-33.912268],[151.237075,-33.912234],[151.237015,-33.912216],[151.236956,-33.912197],[151.236839,-33.912156],[151.23678,-33.912134],[151.236723,-33.91211],[151.236661,-33.91208],[151.236613,-33.912055],[151.236526,-33.912005],[151.236466,-33.911951],[151.236425,-33.91191],[151.236354,-33.91182],[151.2363,-33.911723],[151.236253,-33.911624],[151.23621,-33.911525],[151.236169,-33.911424],[151.236073,-33.911227],[151.235996,-33.911115],[151.235946,-33.911043],[151.235792,-33.910874],[151.235706,-33.910796],[151.235617,-33.910718],[151.235488,-33.910602],[151.235365,-33.91048],[151.235289,-33.910396],[151.235185,-33.910263],[151.235102,-33.910144],[151.234857,-33.909751],[151.234672,-33.909411],[151.234517,-33.90912],[151.234441,-33.908975],[151.234161,-33.908458],[151.23411,-33.908373],[151.233897,-33.908074],[151.233861,-33.90803],[151.233747,-33.907902],[151.233625,-33.907778],[151.233449,-33.907625],[151.233197,-33.907452],[151.23279,-33.907209],[151.232736,-33.907176],[151.232254,-33.906918],[151.231988,-33.906774],[151.231715,-33.906618],[151.231515,-33.906503],[151.231359,-33.906411],[151.231141,-33.906284],[151.231002,-33.906214],[151.230253,-33.905893],[151.228984,-33.905399],[151.22833,-33.905141],[151.227389,-33.904739],[151.226769,-33.904469],[151.226598,-33.904396],[151.226168,-33.904173],[151.225838,-33.903923],[151.225298,-33.903468],[151.225079,-33.903281],[151.224676,-33.902941],[151.223869,-33.902271],[151.223324,-33.901815],[151.223071,-33.901627],[151.222841,-33.901398],[151.22255,-33.9013],[151.222556,-33.901362],[151.222573,-33.901463],[151.221965,-33.901443],[151.215031,-33.900896],[151.214879,-33.901498],[151.214683,-33.902283],[151.21429,-33.903845],[151.214258,-33.903975],[151.214211,-33.904108],[151.214122,-33.904257],[151.214077,-33.904508],[151.214043,-33.904649],[151.21393,-33.905119],[151.21377,-33.905574],[151.213667,-33.906085],[151.213659,-33.906142],[151.213638,-33.906288],[151.213587,-33.906645],[151.213554,-33.907004],[151.213443,-33.907573],[151.213432,-33.907628],[151.213409,-33.907749],[151.21326,-33.908681],[151.21324,-33.908822],[151.21318,-33.909261],[151.21317,-33.909323],[151.213144,-33.909715],[151.213103,-33.910356],[151.213048,-33.911102],[151.213001,-33.911641],[151.212955,-33.912213],[151.212943,-33.912302],[151.212885,-33.912713],[151.212817,-33.913136],[151.212694,-33.913749],[151.212565,-33.914284],[151.212475,-33.914586],[151.212382,-33.914903],[151.21218,-33.915626],[151.211991,-33.916371],[151.211869,-33.916836],[151.211864,-33.916877],[151.211759,-33.917332],[151.211565,-33.918284],[151.21152,-33.918615],[151.211423,-33.919057],[151.211368,-33.91934],[151.211284,-33.919806],[151.211255,-33.920013],[151.21124,-33.920207],[151.211221,-33.920438],[151.211227,-33.920739],[151.211269,-33.921103],[151.211374,-33.921457],[151.211528,-33.921822],[151.211757,-33.922199],[151.212035,-33.922566],[151.212279,-33.922829],[151.212536,-33.92302],[151.212781,-33.92321],[151.213157,-33.923465],[151.213674,-33.923827],[151.213972,-33.924057],[151.214268,-33.924332],[151.213114,-33.924109],[151.212878,-33.924058],[151.212667,-33.924008],[151.212448,-33.923936],[151.212237,-33.923865],[151.211846,-33.923709],[151.211746,-33.923665],[151.211668,-33.923634],[151.211621,-33.923621],[151.211511,-33.92359],[151.211369,-33.923552],[151.211199,-33.923511],[151.211162,-33.923502],[151.210998,-33.923475],[151.210763,-33.923451],[151.210398,-33.923392],[151.2097,-33.923297],[151.208775,-33.923171],[151.208751,-33.923168],[151.208703,-33.923161],[151.2081,-33.92307],[151.207745,-33.923016],[151.207033,-33.922914],[151.206908,-33.922896],[151.206322,-33.922831],[151.205466,-33.922715],[151.20458,-33.922595],[151.203993,-33.922515],[151.203683,-33.922473],[151.202671,-33.922334],[151.202104,-33.922243],[151.201694,-33.922175],[151.200762,-33.922057],[151.200372,-33.921995],[151.199873,-33.921928],[151.199316,-33.921855],[151.199042,-33.92181],[151.198657,-33.921759],[151.198415,-33.921723],[151.196909,-33.921499],[151.196603,-33.92145],[151.196508,-33.921437],[151.19637,-33.921418],[151.195907,-33.921354],[151.1943,-33.92114],[151.194204,-33.921127],[151.19348,-33.921024],[151.191759,-33.92078],[151.189889,-33.920511],[151.188858,-33.920363],[151.187856,-33.920221],[151.187447,-33.920163],[151.186537,-33.920048],[151.18545,-33.919909],[151.185401,-33.919903],[151.185293,-33.919897],[151.185246,-33.919896],[151.184911,-33.919867],[151.184784,-33.919856],[151.182005,-33.919457],[151.181962,-33.919447],[151.181525,-33.919671],[151.181385,-33.919764],[151.180834,-33.919165],[151.180595,-33.919332],[151.1804,-33.919485],[151.180263,-33.919606],[151.180155,-33.919707],[151.18004,-33.919821],[151.179828,-33.920053],[151.179764,-33.920131],[151.179737,-33.920165],[151.179664,-33.92024],[151.179622,-33.920316],[151.179349,-33.920188],[151.179039,-33.920542],[151.17817,-33.921577],[151.177424,-33.922363],[151.177357,-33.922417],[151.176679,-33.922901],[151.175727,-33.923356],[151.175147,-33.923645],[151.174526,-33.924308],[151.17424,-33.924966],[151.174112,-33.925259],[151.17392,-33.925718],[151.173813,-33.926293],[151.173778,-33.926337],[151.173675,-33.926459],[151.173594,-33.926541],[151.173418,-33.926575],[151.173013,-33.92665],[151.171668,-33.926891],[151.171025,-33.927009],[151.17044,-33.927116],[151.169234,-33.927328],[151.169103,-33.927363],[151.168956,-33.927409],[151.168787,-33.927473],[151.168633,-33.927538],[151.168346,-33.927691],[151.166476,-33.928821],[151.165931,-33.929162],[151.165377,-33.929517],[151.165195,-33.929642],[151.165099,-33.929719],[151.16475,-33.930077],[151.164664,-33.930169],[151.16406,-33.930814],[151.163682,-33.931227],[151.163704,-33.931252],[151.163664,-33.931276],[151.163626,-33.931301],[151.163607,-33.931314],[151.163571,-33.931342],[151.16353,-33.931368],[151.163411,-33.931434],[151.163377,-33.931454],[151.163326,-33.931486],[151.1633,-33.931508],[151.16327,-33.931538],[151.163227,-33.931577],[151.163181,-33.931657],[151.162846,-33.932277],[151.162689,-33.9326],[151.16256,-33.932846],[151.162475,-33.932964],[151.162423,-33.933023],[151.162265,-33.933209],[151.162138,-33.933379],[151.162084,-33.933515],[151.162069,-33.933737],[151.161682,-33.933792],[151.161315,-33.933853],[151.160906,-33.933933],[151.160519,-33.933998],[151.160456,-33.934009],[151.160477,-33.934079],[151.160556,-33.934336],[151.160683,-33.93483],[151.160768,-33.93523],[151.160865,-33.935772],[151.16095,-33.935963],[151.16095,-33.93615],[151.161005,-33.936493],[151.161219,-33.937339],[151.16122,-33.937984],[151.161105,-33.938522],[151.160983,-33.939099],[151.160919,-33.939507],[151.160792,-33.939857],[151.160705,-33.940222],[151.160594,-33.940696],[151.160499,-33.941172],[151.160304,-33.941694],[151.160298,-33.941777],[151.160278,-33.941894],[151.160249,-33.942012],[151.160223,-33.942138],[151.160174,-33.94231],[151.16014,-33.942483],[151.160115,-33.942565],[151.160098,-33.942664],[151.160059,-33.942847],[151.160005,-33.943078],[151.159984,-33.94313],[151.159903,-33.943429],[151.159878,-33.943605],[151.159828,-33.944192],[151.159881,-33.94455],[151.159989,-33.944801],[151.160201,-33.945037],[151.160456,-33.945264],[151.160649,-33.945406],[151.160699,-33.945446],[151.160699,-33.94549],[151.160672,-33.945517],[151.160651,-33.945534],[151.160544,-33.945596],[151.160389,-33.945639],[151.160262,-33.945682],[151.160297,-33.945715],[151.160142,-33.945766],[151.15995,-33.945825],[151.159611,-33.945935],[151.159147,-33.946063],[151.159051,-33.946092],[151.158897,-33.94609],[151.15873,-33.946038],[151.158592,-33.945981],[151.158425,-33.945918],[151.1583,-33.945898],[151.158324,-33.945995],[151.15834,-33.946066],[151.158339,-33.946116],[151.158324,-33.946129],[151.158298,-33.946149],[151.158227,-33.946174],[151.158095,-33.946172],[151.157994,-33.946179],[151.157932,-33.946228],[151.1578,-33.946243],[151.157727,-33.946343],[151.157603,-33.946468],[151.157429,-33.946575],[151.157193,-33.946723],[151.157116,-33.946782],[151.156998,-33.946873],[151.156713,-33.947047],[151.156471,-33.947213],[151.156304,-33.947336],[151.156133,-33.947448],[151.155916,-33.947598],[151.155684,-33.94774],[151.155521,-33.947846],[151.15539,-33.947921],[151.15535,-33.947984],[151.155272,-33.948065],[151.15518,-33.948083],[151.155033,-33.948182],[151.154939,-33.948257],[151.154699,-33.948406],[151.15442,-33.948593],[151.15418,-33.94878],[151.154001,-33.948905],[151.153767,-33.949118],[151.153604,-33.949262],[151.153417,-33.949431],[151.153276,-33.9496],[151.153329,-33.949633],[151.153303,-33.949741],[151.153232,-33.949854],[151.153084,-33.950005],[151.152966,-33.950149],[151.152935,-33.95027],[151.152932,-33.950408],[151.152834,-33.950471],[151.152818,-33.950572],[151.152712,-33.950664],[151.152684,-33.95069],[151.152597,-33.950765],[151.152471,-33.950867],[151.152416,-33.950914],[151.152369,-33.950956],[151.152346,-33.950978],[151.152326,-33.951002],[151.152309,-33.951026],[151.152279,-33.951077],[151.152266,-33.951104],[151.152232,-33.951179],[151.152213,-33.951229],[151.152205,-33.951254],[151.152193,-33.951317],[151.152221,-33.951369],[151.152241,-33.9514],[151.152234,-33.951425],[151.152166,-33.951536],[151.152164,-33.951552],[151.152162,-33.951559],[151.152155,-33.951604],[151.152145,-33.951647],[151.152139,-33.951668],[151.152125,-33.951711],[151.152109,-33.951752],[151.152091,-33.951788],[151.152071,-33.951822],[151.152046,-33.951861],[151.152031,-33.951882],[151.151999,-33.951924],[151.151963,-33.951966],[151.151943,-33.951988],[151.151902,-33.95203],[151.15188,-33.952049],[151.151866,-33.95206],[151.151824,-33.952089],[151.151784,-33.952122],[151.151758,-33.952147],[151.151747,-33.95216],[151.15174,-33.952172],[151.151733,-33.952185],[151.151721,-33.952213],[151.151714,-33.952226],[151.151633,-33.952336],[151.151527,-33.952433],[151.151413,-33.952526],[151.151308,-33.952623],[151.151227,-33.952733],[151.151219,-33.952749],[151.151206,-33.952783],[151.151198,-33.952799],[151.151188,-33.952814],[151.151176,-33.952825],[151.151163,-33.952834],[151.151134,-33.952852],[151.15111,-33.952873],[151.15109,-33.952899],[151.151081,-33.952912],[151.150973,-33.953037],[151.150801,-33.953223],[151.15078,-33.953244],[151.150739,-33.953288],[151.150718,-33.953309],[151.150664,-33.95336],[151.150645,-33.953377],[151.150609,-33.953405],[151.150577,-33.953428],[151.150544,-33.95345],[151.150523,-33.953462],[151.150503,-33.953475],[151.150492,-33.953481],[151.150478,-33.953487],[151.15047,-33.953489],[151.150448,-33.953498],[151.150429,-33.953503],[151.150415,-33.953503],[151.150413,-33.953512],[151.150412,-33.953523],[151.150409,-33.953534],[151.150369,-33.953733],[151.150171,-33.954804],[151.148214,-33.954445],[151.147845,-33.954366],[151.147729,-33.954345],[151.147595,-33.955013],[151.147433,-33.955821],[151.147223,-33.956867],[151.147204,-33.956935],[151.147148,-33.95705],[151.147074,-33.957163],[151.14695,-33.957375],[151.146824,-33.957587],[151.146613,-33.957949],[151.146505,-33.958137],[151.146015,-33.958904],[151.145546,-33.959638],[151.145513,-33.95969],[151.145224,-33.960163],[151.145182,-33.960246],[151.145148,-33.960331],[151.145122,-33.960418],[151.145104,-33.960507],[151.145077,-33.960781],[151.145052,-33.960943],[151.145026,-33.961116],[151.144858,-33.961388],[151.144046,-33.962516],[151.14392,-33.962691],[151.143515,-33.963253],[151.143353,-33.963484],[151.143302,-33.963569],[151.143178,-33.963849],[151.14291,-33.964453],[151.142642,-33.965101],[151.142957,-33.965151],[151.143249,-33.965194],[151.144738,-33.965414],[151.144807,-33.965562],[151.144717,-33.967166],[151.14458,-33.969544],[151.144152,-33.970737],[151.144091,-33.970846],[151.143512,-33.971869],[151.142928,-33.972682],[151.142887,-33.97277],[151.142849,-33.972854],[151.141604,-33.978233],[151.142372,-33.978352],[151.142876,-33.978421],[151.143137,-33.978456],[151.143331,-33.978483],[151.143035,-33.979939],[151.142865,-33.980771],[151.142631,-33.981922],[151.144207,-33.982143],[151.144435,-33.982172],[151.144339,-33.982646],[151.144294,-33.982864],[151.144252,-33.983079],[151.144208,-33.983289],[151.144164,-33.983515],[151.144143,-33.983622],[151.144099,-33.983835],[151.144026,-33.984199],[151.143986,-33.984397],[151.143922,-33.984742],[151.14389,-33.984922],[151.143823,-33.985272],[151.14544,-33.985507],[151.145706,-33.985552],[151.147383,-33.985807],[151.147958,-33.985829],[151.148231,-33.985846],[151.148339,-33.985829],[151.148345,-33.986019],[151.148352,-33.986145],[151.148355,-33.986186],[151.148363,-33.986268],[151.148373,-33.986349],[151.148394,-33.986405],[151.148421,-33.98649],[151.148442,-33.986569],[151.148451,-33.986608],[151.14846,-33.986648],[151.148467,-33.986688],[151.148479,-33.986747],[151.148493,-33.986808],[151.148503,-33.986869],[151.148505,-33.986928],[151.148494,-33.986983],[151.14847,-33.987027],[151.148436,-33.987069],[151.148356,-33.987149],[151.148321,-33.987191],[151.14827,-33.987262],[151.148246,-33.987298],[151.148228,-33.987335],[151.148216,-33.987372],[151.148215,-33.987418],[151.148227,-33.987466],[151.148245,-33.987515],[151.148264,-33.987563],[151.148278,-33.987612],[151.1483,-33.987713],[151.148317,-33.987814],[151.148323,-33.987865],[151.148326,-33.987977],[151.148318,-33.988089],[151.148287,-33.988314],[151.148277,-33.988427],[151.148266,-33.98864],[151.148263,-33.988747],[151.148262,-33.988854],[151.148266,-33.98896],[151.148271,-33.989014],[151.148285,-33.98912],[151.148291,-33.989174],[151.148294,-33.989227],[151.148294,-33.989303],[151.148293,-33.989329],[151.148291,-33.989354],[151.148281,-33.989404],[151.148266,-33.989455],[151.148231,-33.989555],[151.148218,-33.989605],[151.148204,-33.989719],[151.148203,-33.989834],[151.148211,-33.98995],[151.148224,-33.990066],[151.148239,-33.990182],[151.148251,-33.990258],[151.148266,-33.990334],[151.1483,-33.990486],[151.148316,-33.990562],[151.148349,-33.990754],[151.148384,-33.990946],[151.148406,-33.991041],[151.148428,-33.991112],[151.148479,-33.991252],[151.148501,-33.991322],[151.148517,-33.991394],[151.148523,-33.99145],[151.14853,-33.991534],[151.148544,-33.991664],[151.148562,-33.991794],[151.148574,-33.991858],[151.148592,-33.991944],[151.148612,-33.99203],[151.148636,-33.992116],[151.148664,-33.9922],[151.1487,-33.992281],[151.148729,-33.992334],[151.148796,-33.992435],[151.148831,-33.992485],[151.148863,-33.992537],[151.148907,-33.992618],[151.148947,-33.992701],[151.148985,-33.992785],[151.149027,-33.992867],[151.149073,-33.992947],[151.14911,-33.992996],[151.149191,-33.99309],[151.149227,-33.993138],[151.149254,-33.993188],[151.149262,-33.993213],[151.149269,-33.993239],[151.149275,-33.993264],[151.149285,-33.993315],[151.149294,-33.993379],[151.149299,-33.993444],[151.149301,-33.993509],[151.149305,-33.993574],[151.149312,-33.993639],[151.149325,-33.993723],[151.149333,-33.993765],[151.149351,-33.993848],[151.149364,-33.993876],[151.149378,-33.993903],[151.149391,-33.993931],[151.149418,-33.993985],[151.14943,-33.994007],[151.149456,-33.994049],[151.149467,-33.994071],[151.149474,-33.994093],[151.149478,-33.994114],[151.149481,-33.994136],[151.149481,-33.994159],[151.149478,-33.99418],[151.149472,-33.9942],[151.149455,-33.994222],[151.14943,-33.994242],[151.14937,-33.994277],[151.149308,-33.994318],[151.149273,-33.994339],[151.149239,-33.994361],[151.149206,-33.994384],[151.149176,-33.994409],[151.153421,-33.996893],[151.153728,-33.996983],[151.154814,-33.997304],[151.158591,-33.998422],[151.162119,-34.000028],[151.162206,-34.00002],[151.1623,-34.00003],[151.162398,-34.00005],[151.162496,-34.000074],[151.162592,-34.000095],[151.162703,-34.00011],[151.162817,-34.000124],[151.162929,-34.000141],[151.163036,-34.000165],[151.163135,-34.000201],[151.1632,-34.000238],[151.163262,-34.000281],[151.163378,-34.000377],[151.163438,-34.000423],[151.16365,-34.000578],[151.163757,-34.000655],[151.163865,-34.000731],[151.163887,-34.000746],[151.221147,-34.001613],[151.221139,-34.001608],[151.221105,-34.001584],[151.221092,-34.001559],[151.221107,-34.001535],[151.221145,-34.00151],[151.221196,-34.001485],[151.221252,-34.001462],[151.221302,-34.00144],[151.221349,-34.001421],[151.221399,-34.001404],[151.221498,-34.001372],[151.221547,-34.001353],[151.221587,-34.001334],[151.221663,-34.00129],[151.221703,-34.00127],[151.221744,-34.001254],[151.221789,-34.00124],[151.221836,-34.001228],[151.221884,-34.001218],[151.221931,-34.001214],[151.221975,-34.001217],[151.222019,-34.001232],[151.222059,-34.001256],[151.222138,-34.001316],[151.22218,-34.001342],[151.22222,-34.00136],[151.222345,-34.001408],[151.222385,-34.001426],[151.222424,-34.001449],[151.222463,-34.001479],[151.2225,-34.001506],[151.222535,-34.001526],[151.222581,-34.001525],[151.222612,-34.00151],[151.222639,-34.00149],[151.222659,-34.001465],[151.222671,-34.001433],[151.222682,-34.0014],[151.222695,-34.00137],[151.222715,-34.001349],[151.222744,-34.001357],[151.222791,-34.001389],[151.22285,-34.001434],[151.222911,-34.001484],[151.223016,-34.001561],[151.223064,-34.001599],[151.223113,-34.001635],[151.223165,-34.001667],[151.223219,-34.001691],[151.223257,-34.001703],[151.223296,-34.001714],[151.223336,-34.001722],[151.223381,-34.001726],[151.223453,-34.001779],[151.22352,-34.001731],[151.223588,-34.001674],[151.223718,-34.001657],[151.223855,-34.00177],[151.223864,-34.001887],[151.223888,-34.001979],[151.223961,-34.002017],[151.223953,-34.00206],[151.224067,-34.002053],[151.224113,-34.001998],[151.224179,-34.002039],[151.224137,-34.002118],[151.224191,-34.002187],[151.224242,-34.002215],[151.224293,-34.002213],[151.224347,-34.002312],[151.224402,-34.002325],[151.224475,-34.002378],[151.224526,-34.002382],[151.224669,-34.00247],[151.224704,-34.00252],[151.224786,-34.002527],[151.224903,-34.002563],[151.225021,-34.002589],[151.225141,-34.002656],[151.225218,-34.002709],[151.225305,-34.002744],[151.225348,-34.002828],[151.225399,-34.002875],[151.22548,-34.002876],[151.225576,-34.002871],[151.22569,-34.002894],[151.225777,-34.003003],[151.225794,-34.00302],[151.225853,-34.003075],[151.225896,-34.003083],[151.225917,-34.003089],[151.225957,-34.003104],[151.225974,-34.003113],[151.22602,-34.003143],[151.226037,-34.003151],[151.226056,-34.003158],[151.226076,-34.003163],[151.226097,-34.003167],[151.226118,-34.00317],[151.226139,-34.003171],[151.22622,-34.003178],[151.226284,-34.003259],[151.226364,-34.00329],[151.226385,-34.003352],[151.226499,-34.003344],[151.226766,-34.003412],[151.226872,-34.003411],[151.227014,-34.003443],[151.227108,-34.003518],[151.227188,-34.003577],[151.227351,-34.00368],[151.227395,-34.003697],[151.227601,-34.003803],[151.227757,-34.003874],[151.227779,-34.003977],[151.227871,-34.004023],[151.227948,-34.004097],[151.22808,-34.004144],[151.228154,-34.004104],[151.22823,-34.004195],[151.228309,-34.004223],[151.228426,-34.004305],[151.228369,-34.004373],[151.228203,-34.00434],[151.228218,-34.004487],[151.2284,-34.004628],[151.228583,-34.004754],[151.22868,-34.004956],[151.22854,-34.005023],[151.228557,-34.005131],[151.228628,-34.00524],[151.228756,-34.00535],[151.228734,-34.005481],[151.228853,-34.00559],[151.228914,-34.005738],[151.228985,-34.005901],[151.228974,-34.006016],[151.229037,-34.006094],[151.228978,-34.006247],[151.229003,-34.006379],[151.229101,-34.00655],[151.22921,-34.006667],[151.229328,-34.006769],[151.229466,-34.006802],[151.229573,-34.007003],[151.229735,-34.007229],[151.229851,-34.007431],[151.229911,-34.007656],[151.230058,-34.007727],[151.230158,-34.00783],[151.230011,-34.007926],[151.230115,-34.008098],[151.230092,-34.008285],[151.229981,-34.008414],[151.229909,-34.008584],[151.229771,-34.008647],[151.22966,-34.008776],[151.229511,-34.008896],[151.229478,-34.009059],[151.229358,-34.00922],[151.22952,-34.009402],[151.229636,-34.009501],[151.229661,-34.009664],[151.229785,-34.009837],[151.22987,-34.009977],[151.229768,-34.010171],[151.229629,-34.010275],[151.229813,-34.010408],[151.230036,-34.010501],[151.230259,-34.01061],[151.230403,-34.010734],[151.23041,-34.010889],[151.230534,-34.011037],[151.230747,-34.01113],[151.230954,-34.011084],[151.231105,-34.011239],[151.231122,-34.011254],[151.231144,-34.011275],[151.231162,-34.011298],[151.231169,-34.011336],[151.231164,-34.011354],[151.231155,-34.011372],[151.231143,-34.011389],[151.231129,-34.011402],[151.231217,-34.011501],[151.231272,-34.011553],[151.231367,-34.011583],[151.231455,-34.011663],[151.231269,-34.011679],[151.231329,-34.011806],[151.231315,-34.011909],[151.231251,-34.012038],[151.231187,-34.012154],[151.231208,-34.012215],[151.231065,-34.012334],[151.231013,-34.012399],[151.230862,-34.012374],[151.230832,-34.01248],[151.23072,-34.012507],[151.230728,-34.012619],[151.230763,-34.012696],[151.230762,-34.012718],[151.230763,-34.012741],[151.230766,-34.012763],[151.230772,-34.012785],[151.23078,-34.012806],[151.230791,-34.012826],[151.230805,-34.012844],[151.230852,-34.012896],[151.230903,-34.012962],[151.230939,-34.013005],[151.230984,-34.013056],[151.231033,-34.013108],[151.231069,-34.013145],[151.231105,-34.01318],[151.231107,-34.013287],[151.231172,-34.013386],[151.231108,-34.013535],[151.231145,-34.013643],[151.231233,-34.013723],[151.23123,-34.013873],[151.231278,-34.013934],[151.231206,-34.013965],[151.231172,-34.01404],[151.231125,-34.014282],[151.23114,-34.01436],[151.231165,-34.014428],[151.23117,-34.014514],[151.231128,-34.014621],[151.231221,-34.014671],[151.231207,-34.014754],[151.231303,-34.014793],[151.231298,-34.014876],[151.231326,-34.014925],[151.231339,-34.015047],[151.231376,-34.015152],[151.23142,-34.015218],[151.231523,-34.015367],[151.231495,-34.01544],[151.231702,-34.015538],[151.23186,-34.015669],[151.231908,-34.015955],[151.231936,-34.016219],[151.231926,-34.016739]]]},"bbox":[151.141604,-34.1065935225414,151.35595934532972,-33.83032342232027]}]}