{"type":"FeatureCollection","features":[
{"properties":{"electorateShortName":"kingston","electorateName":"Kingston","area":165.67,"state":"SA"},"type":"Feature","geometry":{"type":"Polygon","coordinates":[[[138.461979,-35.247361],[138.481677,-35.246305],[138.48149,-35.243694],[138.494274,-35.243023],[138.492298,-35.217749],[138.490361,-35.214287],[138.49008,-35.211919],[138.491008,-35.206586],[138.497854,-35.206051],[138.50236,-35.200599],[138.503825,-35.200534],[138.503368,-35.19464],[138.500347,-35.191223],[138.495826,-35.188171],[138.494959,-35.185227],[138.500642,-35.18457],[138.504568,-35.182107],[138.503579,-35.177793],[138.50819,-35.178406],[138.513392,-35.174976],[138.517818,-35.174183],[138.520645,-35.17265],[138.520022,-35.168865],[138.525184,-35.169385],[138.527819,-35.16806],[138.529969,-35.168304],[138.529714,-35.165238],[138.535072,-35.162897],[138.535265,-35.161345],[138.538839,-35.161144],[138.542929,-35.163404],[138.548137,-35.164058],[138.551209,-35.159298],[138.553573,-35.158904],[138.557026,-35.161358],[138.564179,-35.161855],[138.566039,-35.158471],[138.569786,-35.158877],[138.572425,-35.157445],[138.575643,-35.159567],[138.579769,-35.160161],[138.579705,-35.156046],[138.582688,-35.155535],[138.583559,-35.151886],[138.587409,-35.151972],[138.588495,-35.149058],[138.586053,-35.148148],[138.587602,-35.146005],[138.590359,-35.146246],[138.593333,-35.144755],[138.596335,-35.141939],[138.599345,-35.141485],[138.601392,-35.142323],[138.605755,-35.140694],[138.605034,-35.134235],[138.602783,-35.133541],[138.586717,-35.134327],[138.585624,-35.132359],[138.587234,-35.125284],[138.587581,-35.121279],[138.593269,-35.11581],[138.594487,-35.106827],[138.589267,-35.102779],[138.588047,-35.100608],[138.585573,-35.099818],[138.585352,-35.096859],[138.591666,-35.096493],[138.591477,-35.094115],[138.597718,-35.094158],[138.597513,-35.090831],[138.603828,-35.089634],[138.609779,-35.086361],[138.61281,-35.087601],[138.619261,-35.08613],[138.621092,-35.082948],[138.622192,-35.078614],[138.625232,-35.076779],[138.627653,-35.072774],[138.62805,-35.068859],[138.622366,-35.066405],[138.625424,-35.064487],[138.619279,-35.060528],[138.616552,-35.05747],[138.616316,-35.055235],[138.612048,-35.054319],[138.609921,-35.050006],[138.603656,-35.047631],[138.602394,-35.049089],[138.598983,-35.049336],[138.596759,-35.045825],[138.590406,-35.041171],[138.587329,-35.040326],[138.586311,-35.037955],[138.584219,-35.036883],[138.578688,-35.036755],[138.577089,-35.037805],[138.571113,-35.03791],[138.572133,-35.034911],[138.570275,-35.03399],[138.565573,-35.029569],[138.56362,-35.029647],[138.563779,-35.026143],[138.562959,-35.023294],[138.558603,-35.026764],[138.556152,-35.032047],[138.560509,-35.03675],[138.559571,-35.040102],[138.560842,-35.042727],[138.560694,-35.046526],[138.559418,-35.050245],[138.559648,-35.053713],[138.526006,-35.055518],[138.523039,-35.056402],[138.518507,-35.056451],[138.514107,-35.057202],[138.509175,-35.059772],[138.505955,-35.059432],[138.503686,-35.056544],[138.49531,-35.07427],[138.495739,-35.0803],[138.493568,-35.084609],[138.480986,-35.094714],[138.471761,-35.109727],[138.467413,-35.121535],[138.46975,-35.140369],[138.466484,-35.144105],[138.466468,-35.147484],[138.468618,-35.151098],[138.469941,-35.164377],[138.46573,-35.167048],[138.465391,-35.173377],[138.470605,-35.203313],[138.470875,-35.211576],[138.467525,-35.219357],[138.46993,-35.239157],[138.467737,-35.2447],[138.462222,-35.245368],[138.461979,-35.247361]]]},"bbox":[138.461979,-35.247361,138.62805,-35.023294]}]}