{"type":"FeatureCollection","features":[
{"properties":{"electorateShortName":"kooyong","electorateName":"Kooyong","area":59.18,"state":"VIC"},"type":"Feature","geometry":{"type":"MultiPolygon","coordinates":[[[[145.098207,-37.835978],[145.097228,-37.825946],[145.101491,-37.804363],[145.095655,-37.78011],[145.078794,-37.776966],[145.067113,-37.780935],[145.046303,-37.780698],[145.040197,-37.784222],[145.040426,-37.789768],[145.01537,-37.785737],[145.019378,-37.79286],[145.007696,-37.800819],[145.001945,-37.796659],[145.014379,-37.815533],[145.016119,-37.824462],[145.006442,-37.831576],[145.002439,-37.853092],[145.038261,-37.873739],[145.04286,-37.849819],[145.049326,-37.845144],[145.082237,-37.84886],[145.085044,-37.834456],[145.098207,-37.835978]]],[[[144.915394,-37.865307],[144.91372876176567,-37.87949093424256],[144.91959843125505,-37.89660805166391],[144.92877361758852,-37.91220499638002],[144.94088340680298,-37.925651249907006],[144.95543825135732,-37.936403237106155],[144.971849760468,-37.94402630062689],[144.98789182137276,-37.94784070891426],[144.9943877401065,-37.952321040354754],[145.001293,-37.950703],[144.992151,-37.94002],[144.985526,-37.926238],[144.984792,-37.913367],[144.98499,-37.891003],[144.975658,-37.882121],[144.969681,-37.864589],[144.963316,-37.855468],[144.935592,-37.842548],[144.918525,-37.839688],[144.917323,-37.847464],[144.912638,-37.849999],[144.911555,-37.862068],[144.915394,-37.865307]]]]},"bbox":[144.911555,-37.952321040354754,145.101491,-37.776966]}]}