{"type":"FeatureCollection","features":[
{"properties":{"electorateShortName":"lalor","electorateName":"Lalor","area":179.71,"state":"VIC"},"type":"Feature","geometry":{"type":"Polygon","coordinates":[[[144.74049,-37.941279],[144.742765,-37.928815],[144.728302,-37.927084],[144.713538,-37.914868],[144.716861,-37.896125],[144.709259,-37.885086],[144.715036,-37.879026],[144.73691,-37.873462],[144.731155,-37.863285],[144.711856,-37.85275],[144.702685,-37.834554],[144.708523,-37.806788],[144.604728,-37.794696],[144.588763,-37.79313],[144.578186,-37.799399],[144.578362,-37.81499],[144.603814,-37.82756],[144.603592,-37.832743],[144.582499,-37.850883],[144.5946,-37.859447],[144.574023,-37.866713],[144.571459,-37.8804],[144.59073,-37.882222],[144.588514,-37.89696],[144.609414,-37.919003],[144.620742,-37.915839],[144.628103,-37.929967],[144.657505,-37.919951],[144.667696,-37.925606],[144.663091,-37.93543],[144.670527,-37.972087],[144.687889,-37.974337],[144.701897,-37.971466],[144.723354,-37.951443],[144.74049,-37.941279]]]},"bbox":[144.571459,-37.974337,144.742765,-37.79313]}]}