{"type":"FeatureCollection","features":[
{"properties":{"electorateShortName":"lilley","electorateName":"Lilley","area":140.734819,"state":"QLD"},"type":"Feature","geometry":{"type":"Polygon","coordinates":[[[153.153136,-27.397989],[153.146237,-27.387932],[153.152805,-27.384572],[153.160439,-27.377929],[153.157067,-27.374526],[153.156138,-27.363349],[153.15022,-27.360859],[153.138618,-27.361152],[153.122436,-27.352404],[153.109327,-27.349004],[153.093608,-27.338916],[153.082602,-27.333821],[153.087822,-27.329247],[153.083676,-27.322248],[153.073538,-27.318831],[153.068126,-27.311149],[153.065041,-27.301931],[153.064933,-27.285593],[153.069523,-27.276801],[153.049898,-27.278044],[153.047422,-27.283838],[153.048373,-27.293732],[153.042375,-27.302863],[153.049167,-27.317382],[153.051177,-27.329583],[153.04653,-27.330501],[153.038857,-27.338967],[153.040426,-27.342409],[153.035283,-27.346783],[153.035136,-27.350982],[153.027858,-27.357873],[153.026437,-27.365258],[153.008877,-27.362769],[152.999425,-27.357035],[152.997816,-27.3682],[152.986275,-27.375665],[152.983895,-27.384699],[152.975216,-27.392025],[152.976999,-27.400782],[152.980207,-27.407575],[152.992407,-27.412612],[152.99082,-27.407275],[153.033503,-27.412687],[153.050679,-27.404299],[153.059643,-27.410424],[153.066392,-27.411192],[153.074746,-27.406965],[153.079627,-27.427242],[153.083152,-27.433196],[153.095832,-27.436421],[153.099932,-27.445258],[153.108127,-27.442165],[153.122633,-27.429539],[153.135068,-27.423184],[153.144016,-27.415491],[153.153136,-27.397989]]]},"bbox":[152.975216,-27.445258,153.160439,-27.276801]}]}