{"type":"FeatureCollection","features":[
{"properties":{"electorateShortName":"lilley","electorateName":"Lilley","area":140.734819,"state":"QLD"},"type":"Feature","geometry":{"type":"MultiPolygon","coordinates":[[[[153.153136,-27.397989],[153.160637,-27.381531],[153.21227044185483,-27.293471625659528],[153.2054500874259,-27.288060766963884],[153.1910418221021,-27.28039284771058],[153.1851238221021,-27.277902847710582],[153.1590947328015,-27.27081718694348],[153.15179053358082,-27.24030369984603],[153.14334864418373,-27.225325041914143],[153.1322123403417,-27.212225101961174],[153.11878806372238,-27.20148198847947],[153.115318,-27.201629],[153.116354,-27.209257],[153.108013,-27.261472],[153.103742,-27.263441],[153.069523,-27.276801],[153.026437,-27.365258],[152.999425,-27.357035],[152.976999,-27.400782],[152.992407,-27.412612],[153.074746,-27.406965],[153.099932,-27.445258],[153.153136,-27.397989]]],[[[153.103543,-27.193977],[153.08710099796892,-27.188534279275796],[153.0699946916346,-27.1868022360807],[153.033037,-27.190912],[153.089077,-27.204795],[153.103543,-27.193977]]],[[[153.003899,-27.47611],[153.003037,-27.476914],[153.006586,-27.473604],[153.003899,-27.47611]]]]},"bbox":[152.976999,-27.476914,153.21227044185483,-27.1868022360807]}]}