{"type":"FeatureCollection","features":[
{"properties":{"electorateShortName":"lilley","electorateName":"Lilley","area":140.734819,"state":"QLD"},"type":"Feature","geometry":{"type":"MultiPolygon","coordinates":[[[[153.153136,-27.397989],[153.154117,-27.390805],[153.160637,-27.381531],[153.166192,-27.365349],[153.21227044185483,-27.293471625659528],[153.2054500874259,-27.288060766963884],[153.1910418221021,-27.28039284771058],[153.1851238221021,-27.277902847710582],[153.16690860308503,-27.272419808873725],[153.1622030632871,-27.272039578186448],[153.1590947328015,-27.27081718694348],[153.15722990490605,-27.25661439969673],[153.15179053358082,-27.24030369984603],[153.14334864418373,-27.225325041914143],[153.1322123403417,-27.212225101961174],[153.11878806372238,-27.20148198847947],[153.11595511884227,-27.19999422971854],[153.115318,-27.201629],[153.116836,-27.204158],[153.116354,-27.209257],[153.118992,-27.212129],[153.11658,-27.216193],[153.115243,-27.225224],[153.117923,-27.233565],[153.115863,-27.234065],[153.11238,-27.242754],[153.109762,-27.252997],[153.110582,-27.25501],[153.108013,-27.261472],[153.103742,-27.263441],[153.100518,-27.258755],[153.0931,-27.25594],[153.084115,-27.258294],[153.078845,-27.263038],[153.069523,-27.276801],[153.066609,-27.276941],[153.065458,-27.277274],[153.058885,-27.278048],[153.049898,-27.278044],[153.047422,-27.283838],[153.047304,-27.289793],[153.048373,-27.293732],[153.047644,-27.29563],[153.045371,-27.297744],[153.043859,-27.301243],[153.042375,-27.302863],[153.042399,-27.304068],[153.043978,-27.30453],[153.044578,-27.307199],[153.049167,-27.317382],[153.050111,-27.319804],[153.051442,-27.324293],[153.0515,-27.327341],[153.051177,-27.329583],[153.04653,-27.330501],[153.04517,-27.332847],[153.043133,-27.334198],[153.043078,-27.335018],[153.039982,-27.337136],[153.038857,-27.338967],[153.039759,-27.341686],[153.040426,-27.342409],[153.039333,-27.343882],[153.039225,-27.344878],[153.036532,-27.346484],[153.035283,-27.346783],[153.035001,-27.348613],[153.035136,-27.350982],[153.034596,-27.352048],[153.033331,-27.35215],[153.032528,-27.353009],[153.030845,-27.35381],[153.029851,-27.35323],[153.027237,-27.353668],[153.026474,-27.357667],[153.027858,-27.357873],[153.026437,-27.365258],[153.017223,-27.363871],[153.014835,-27.363947],[153.008877,-27.362769],[153.006559,-27.361668],[153.003926,-27.359996],[153.000811,-27.358731],[152.999425,-27.357035],[152.998619,-27.358424],[152.996867,-27.359664],[152.9979,-27.360817],[152.998796,-27.362578],[152.997947,-27.364201],[152.998574,-27.365624],[152.997816,-27.3682],[152.997309,-27.368064],[152.995923,-27.369655],[152.994665,-27.370131],[152.99383,-27.371819],[152.991584,-27.373352],[152.989665,-27.373532],[152.988356,-27.374897],[152.986275,-27.375665],[152.986372,-27.37688],[152.984739,-27.378965],[152.981208,-27.378462],[152.981459,-27.380547],[152.983149,-27.382138],[152.983895,-27.384699],[152.983087,-27.385975],[152.981416,-27.387067],[152.980595,-27.388146],[152.976473,-27.389925],[152.975216,-27.392025],[152.978079,-27.394595],[152.976999,-27.400782],[152.97881,-27.402065],[152.977648,-27.404358],[152.979644,-27.404755],[152.980541,-27.40561],[152.979715,-27.406555],[152.980207,-27.407575],[152.982473,-27.408794],[152.984035,-27.410228],[152.986085,-27.410064],[152.988243,-27.411105],[152.988947,-27.413034],[152.989985,-27.41407],[152.99101,-27.414144],[152.992407,-27.412612],[152.991215,-27.409972],[152.99082,-27.407275],[152.992162,-27.406946],[152.996484,-27.407466],[152.99838,-27.407158],[153.000322,-27.408103],[153.014299,-27.41014],[153.033503,-27.412687],[153.035194,-27.414216],[153.04084,-27.410014],[153.042519,-27.407922],[153.046976,-27.407033],[153.049031,-27.406307],[153.049112,-27.405312],[153.050679,-27.404299],[153.052748,-27.406462],[153.055835,-27.408746],[153.059643,-27.410424],[153.066392,-27.411192],[153.068903,-27.409988],[153.074025,-27.407075],[153.074746,-27.406965],[153.076762,-27.409407],[153.077208,-27.410441],[153.077068,-27.413351],[153.076545,-27.415735],[153.076892,-27.417365],[153.077699,-27.418586],[153.079482,-27.420314],[153.080242,-27.421825],[153.080297,-27.423338],[153.079627,-27.427242],[153.080087,-27.428693],[153.081537,-27.430535],[153.083152,-27.433196],[153.084193,-27.433995],[153.086619,-27.434816],[153.089338,-27.435046],[153.092832,-27.434891],[153.095055,-27.435685],[153.095832,-27.436421],[153.09974,-27.443105],[153.099932,-27.445258],[153.108127,-27.442165],[153.113685,-27.437984],[153.117358,-27.433636],[153.122633,-27.429539],[153.129227,-27.42611],[153.135068,-27.423184],[153.140625,-27.419421],[153.144016,-27.415491],[153.146466,-27.410976],[153.148538,-27.406628],[153.14948,-27.403618],[153.153136,-27.397989]]],[[[153.103543,-27.193977],[153.103565760133,-27.193487792868552],[153.08710099796892,-27.188534279275796],[153.0699946916346,-27.1868022360807],[153.06159108340708,-27.187042022453166],[153.0437970834071,-27.18825102245317],[153.0327606103577,-27.190156924153495],[153.033037,-27.190912],[153.038025,-27.196934],[153.048153,-27.194122],[153.070957,-27.201068],[153.08057,-27.202029],[153.084249,-27.205257],[153.091377,-27.20613],[153.089077,-27.204795],[153.103204,-27.199627],[153.104748,-27.197568],[153.103543,-27.193977]]],[[[153.003899,-27.47611],[153.003037,-27.476914],[153.006586,-27.473604],[153.003899,-27.47611]]]]},"bbox":[152.975216,-27.476914,153.21227044185483,-27.1868022360807]}]}