{"type":"FeatureCollection","features":[
{"properties":{"electorateShortName":"lindsay","electorateName":"Lindsay","area":325.19,"state":"NSW"},"type":"Feature","geometry":{"type":"Polygon","coordinates":[[[150.812394,-33.677614],[150.782148,-33.637517],[150.708442,-33.61346],[150.657889,-33.677031],[150.64244,-33.778703],[150.588042,-33.844933],[150.612793,-33.861847],[150.672337,-33.842403],[150.767908,-33.875728],[150.765151,-33.783428],[150.803381,-33.776811],[150.765994,-33.705777],[150.812394,-33.677614]]]},"bbox":[150.588042,-33.875728,150.812394,-33.61346]}]}