{"type":"FeatureCollection","features":[
{"properties":{"electorateShortName":"lindsay","electorateName":"Lindsay","area":325.19,"state":"NSW"},"type":"Feature","geometry":{"type":"Polygon","coordinates":[[[150.812394,-33.677614],[150.796438,-33.660184],[150.791687,-33.649208],[150.782148,-33.637517],[150.721427,-33.617971],[150.708442,-33.61346],[150.69952,-33.612281],[150.694364,-33.620099],[150.681494,-33.625074],[150.677209,-33.630807],[150.666241,-33.654087],[150.667144,-33.666432],[150.660753,-33.669754],[150.657889,-33.677031],[150.659825,-33.692884],[150.657963,-33.713722],[150.653335,-33.719559],[150.660017,-33.732803],[150.674195,-33.734573],[150.681102,-33.732141],[150.685291,-33.741316],[150.679686,-33.749593],[150.659894,-33.76473],[150.652891,-33.768092],[150.64244,-33.778703],[150.633116,-33.795627],[150.619689,-33.814068],[150.609144,-33.822584],[150.599826,-33.826015],[150.591258,-33.834996],[150.588042,-33.844933],[150.591947,-33.85464],[150.597329,-33.857296],[150.609078,-33.857099],[150.612793,-33.861847],[150.628615,-33.861895],[150.634846,-33.855101],[150.64115,-33.85362],[150.656267,-33.846744],[150.672337,-33.842403],[150.67834,-33.843112],[150.688377,-33.848169],[150.697679,-33.860238],[150.698269,-33.864047],[150.709284,-33.864782],[150.718105,-33.869001],[150.767908,-33.875728],[150.775955,-33.870768],[150.769596,-33.866758],[150.771061,-33.861625],[150.768358,-33.856717],[150.768791,-33.836438],[150.766245,-33.828873],[150.764587,-33.812699],[150.770333,-33.808894],[150.764682,-33.80533],[150.763756,-33.796769],[150.758555,-33.792497],[150.765151,-33.783428],[150.781632,-33.785783],[150.801251,-33.790162],[150.811485,-33.791122],[150.808085,-33.781308],[150.803381,-33.776811],[150.802833,-33.772919],[150.795689,-33.764249],[150.788978,-33.751299],[150.788571,-33.746318],[150.783785,-33.740777],[150.774411,-33.736179],[150.761788,-33.735201],[150.75963,-33.730076],[150.763955,-33.725692],[150.762459,-33.721631],[150.767748,-33.713497],[150.765994,-33.705777],[150.789749,-33.689908],[150.795086,-33.684965],[150.799339,-33.675604],[150.805005,-33.674842],[150.812394,-33.677614]]]},"bbox":[150.588042,-33.875728,150.812394,-33.612281]}]}