{"type":"FeatureCollection","features":[
{"properties":{"electorateShortName":"longman","electorateName":"Longman","area":1236.825099,"state":"QLD"},"type":"Feature","geometry":{"type":"Polygon","coordinates":[[[153.034908,-27.163521],[153.063807,-27.113975],[153.133021,-27.085939],[153.197319,-27.096589],[153.202672,-27.063265],[153.161384,-26.98512],[153.13865,-26.908253],[153.133218,-26.812357],[153.109405,-26.89089],[153.077112,-26.905598],[153.066317,-26.98369],[153.003063,-26.984837],[152.903713,-26.953895],[152.858011,-26.956217],[152.857393,-26.87128],[152.779476,-26.797172],[152.749585,-26.815718],[152.679196,-26.799965],[152.670009,-26.854815],[152.688433,-26.8969],[152.663073,-26.948173],[152.702502,-27.030798],[152.686287,-27.083222],[152.733514,-27.107431],[152.828929,-27.115855],[152.844535,-27.182806],[152.945766,-27.197649],[153.018277,-27.249316],[152.97767,-27.152091],[153.034908,-27.163521]]]},"bbox":[152.663073,-27.249316,153.202672,-26.797172]}]}