{"type":"FeatureCollection","features":[
{"properties":{"electorateShortName":"longman","electorateName":"Longman","area":1236.825099,"state":"QLD"},"type":"Feature","geometry":{"type":"MultiPolygon","coordinates":[[[[153.034908,-27.163521],[153.029344,-27.180823],[153.033037,-27.190912],[153.038025,-27.196934],[153.048153,-27.194122],[153.089077,-27.204795],[153.103204,-27.199627],[153.103543,-27.193977],[153.114858,-27.191774],[153.115318,-27.201629],[153.116354,-27.209257],[153.11696306447334,-27.209920090662422],[153.12533723845698,-27.19511030896604],[153.13023943029418,-27.182212145200943],[153.14758440733746,-27.187739702074975],[153.1640999290375,-27.189655259188942],[153.17406792903748,-27.189884259188943],[153.19006579333097,-27.18882331362577],[153.21124979333098,-27.185504313625774],[153.22889687894084,-27.180867333880048],[153.24524607001746,-27.172766397957272],[153.2596253921777,-27.161534465536857],[153.28661367116607,-27.12563672985334],[153.29334577077137,-27.109618479411527],[153.29687436325662,-27.092605115623456],[153.29630192991542,-27.06629776544105],[153.29105940712566,-27.042812586289035],[153.28710040712568,-27.032090586289037],[153.27876351603328,-27.015201696037852],[153.25979440595916,-26.985170711391472],[153.24604804432403,-26.95404822797071],[153.22577820006364,-26.88551290120186],[153.219897962873,-26.859587617729726],[153.21935280484183,-26.850836001063165],[153.22184692311163,-26.836876883611552],[153.2232173898052,-26.812025586826906],[153.22151604102635,-26.79493701289016],[153.21659983746,-26.778482685515485],[153.2086477737971,-26.763261692434856],[153.19794937775137,-26.749828216752537],[153.1848941686071,-26.738671359620806],[153.16995747516125,-26.730197332492914],[153.15157612941601,-26.724222667317754],[153.1349400245443,-26.722062628350372],[153.134576,-26.729017],[153.137298,-26.757962],[153.136998,-26.773419],[153.141755,-26.787971],[153.148634,-26.791311],[153.150094,-26.803007],[153.142358,-26.803289],[153.133218,-26.812357],[153.128161,-26.814745],[153.11952,-26.843826],[153.121698,-26.859069],[153.114533,-26.884498],[153.109405,-26.89089],[153.077112,-26.905598],[153.07295,-26.922915],[153.079277,-26.935736],[153.075888,-26.947959],[153.069566,-26.955194],[153.074407,-26.971339],[153.066317,-26.98369],[153.057866,-26.97576],[153.042842,-26.969481],[153.018454,-26.966399],[153.017939,-26.978328],[153.003063,-26.984837],[152.985178,-26.984685],[152.975006,-26.974382],[152.966643,-26.978793],[152.953335,-26.968382],[152.927018,-26.961421],[152.917262,-26.954706],[152.903713,-26.953895],[152.891155,-26.96075],[152.885509,-26.955952],[152.874005,-26.958341],[152.858011,-26.956217],[152.861199,-26.936303],[152.872496,-26.930514],[152.875446,-26.913522],[152.859462,-26.911304],[152.855298,-26.901884],[152.855462,-26.88739],[152.866791,-26.888918],[152.869478,-26.872874],[152.857393,-26.87128],[152.848006,-26.858126],[152.832278,-26.856175],[152.82449,-26.849442],[152.812677,-26.828735],[152.792019,-26.827076],[152.788671,-26.813024],[152.777257,-26.809402],[152.779476,-26.797172],[152.761087,-26.792358],[152.753116,-26.797351],[152.749585,-26.815718],[152.739007,-26.80804],[152.732814,-26.81502],[152.720856,-26.808614],[152.708969,-26.811278],[152.698897,-26.803125],[152.679196,-26.799965],[152.679024,-26.816434],[152.671966,-26.818928],[152.678469,-26.830364],[152.667209,-26.836027],[152.670009,-26.854815],[152.686637,-26.877573],[152.688433,-26.8969],[152.667396,-26.896242],[152.666678,-26.906261],[152.682187,-26.915165],[152.669575,-26.928163],[152.670042,-26.937133],[152.663073,-26.948173],[152.667724,-26.959074],[152.686968,-26.981351],[152.683276,-26.992162],[152.692763,-27.012456],[152.700802,-27.018279],[152.702502,-27.030798],[152.681869,-27.057197],[152.686287,-27.083222],[152.676139,-27.089025],[152.707961,-27.096277],[152.733514,-27.107431],[152.765361,-27.110854],[152.766858,-27.102155],[152.780251,-27.104155],[152.783596,-27.08641],[152.801032,-27.097452],[152.805747,-27.088768],[152.81431,-27.089853],[152.807294,-27.108099],[152.82021,-27.110088],[152.828929,-27.115855],[152.828644,-27.130746],[152.8511,-27.139664],[152.84832,-27.154466],[152.857632,-27.154433],[152.855088,-27.169994],[152.847117,-27.166639],[152.844535,-27.182806],[152.863477,-27.182449],[152.862381,-27.189422],[152.886556,-27.193335],[152.887349,-27.189182],[152.945766,-27.197649],[152.944639,-27.204148],[152.962625,-27.204719],[152.976753,-27.233465],[152.975573,-27.243397],[152.992007,-27.245721],[152.992652,-27.240485],[153.009433,-27.242859],[153.018277,-27.249316],[153.007286,-27.238928],[152.99163,-27.211176],[152.978741,-27.161834],[152.97767,-27.152091],[152.994728,-27.14954],[153.032094,-27.153008],[153.034908,-27.163521]]],[[[153.073538,-27.318831],[153.08367328615506,-27.311149047451384],[153.09413244191575,-27.297751027942258],[153.10188607880485,-27.2826254872582],[153.10665764961107,-27.266311904634065],[153.103742,-27.263441],[153.0931,-27.25594],[153.084115,-27.258294],[153.069523,-27.276801],[153.064933,-27.285593],[153.065041,-27.301931],[153.073538,-27.318831]]]]},"bbox":[152.663073,-27.318831,153.29687436325662,-26.722062628350372]}]}