{"type":"FeatureCollection","features":[
{"properties":{"electorateShortName":"lyons","electorateName":"Lyons","area":35721.830094,"state":"TAS"},"type":"Feature","geometry":{"type":"MultiPolygon","coordinates":[[[[146.3944336595687,-41.22749326641407],[146.381086,-41.219102],[146.37099,-41.204153],[146.365113,-41.177668],[146.368877,-41.172243],[146.3956892713691,-41.16492129589323],[146.37951029078593,-41.15730873381588],[146.36214568583367,-41.15304481438136],[146.3442808450032,-41.152297836339606],[146.344781,-41.160767],[146.366804,-41.165248],[146.362145,-41.175757],[146.36683,-41.192633],[146.353743,-41.207427],[146.364183,-41.208433],[146.36526,-41.218316],[146.38141,-41.231938],[146.3944336595687,-41.22749326641407]]],[[[147.43648771840182,-42.77707596483164],[147.437463,-42.786244],[147.459344,-42.809132],[147.47466,-42.815752],[147.481186,-42.826779],[147.491197,-42.827953],[147.502556,-42.819075],[147.513089,-42.817116],[147.517861,-42.825842],[147.532302,-42.828035],[147.547155,-42.825146],[147.578578,-42.825114],[147.594934,-42.829823],[147.589138,-42.838209],[147.564561,-42.837869],[147.529161,-42.847302],[147.503627,-42.86429],[147.511077,-42.87607],[147.500809,-42.891742],[147.51476852455752,-42.893940183857666],[147.52721506858322,-42.91995539165591],[147.54630909545574,-42.93893569614302],[147.54229420453007,-42.960233575221764],[147.550008,-42.9682],[147.549738,-42.982085],[147.5306897461232,-42.990494445095536],[147.5289877827377,-43.01686426767713],[147.53278612843837,-43.04190051528439],[147.5327268790027,-43.06846676044894],[147.5350053444232,-43.08554350200119],[147.5497095900312,-43.11941885557883],[147.56046891477513,-43.13399006033757],[147.5806550976706,-43.15006748058487],[147.58842151990353,-43.17760750398694],[147.59687808931608,-43.19225606313465],[147.6168378011804,-43.21213569924596],[147.64310556355056,-43.2526902652257],[147.6559207690346,-43.265008746293496],[147.6761896847046,-43.27886849902056],[147.7111885864051,-43.289556321219],[147.7360855865482,-43.31311844033485],[147.75212342258158,-43.32150930493399],[147.78113871627912,-43.33039907875498],[147.79896821432519,-43.33233678441565],[147.81682792267296,-43.33070077661171],[147.83400864398155,-43.325556020143345],[147.84982814304144,-43.317106809926024],[147.86981797600805,-43.29808756027749],[147.90309866141394,-43.29235940989925],[147.9317048280252,-43.30648151995625],[147.94509617474696,-43.318681468982874],[147.96065941221892,-43.327952529475915],[147.9777640046686,-43.333919089657904],[147.99571696919742,-43.33633941771434],[148.0137909515915,-43.33511545542157],[148.0353873404855,-43.329594110459894],[148.06253996588276,-43.31484292899108],[148.0760526003238,-43.30191544413903],[148.08660194649272,-43.28647450992037],[148.09584354463342,-43.26203777657294],[148.10144038284741,-43.22532897152465],[148.09870233587318,-43.20096620656003],[148.11837112308592,-43.186474786595824],[148.13737684901886,-43.158281852237614],[148.14456710093077,-43.12504994823849],[148.13891566195392,-43.09152204339111],[148.11999397544423,-43.060469559770794],[148.09271785401262,-43.04004230891052],[148.06169446206337,-43.03153853495197],[148.07895713501674,-43.006492555045675],[148.08584352005633,-42.98963282274055],[148.08919478329668,-42.97173193150554],[148.08558622777772,-42.93884460178582],[148.08882522333332,-42.917137634346545],[148.08741350810476,-42.89848300968866],[148.0821756247569,-42.88052326194412],[148.0668262814162,-42.855563930668865],[148.06148864193764,-42.824244348398985],[148.0731137393506,-42.81591291102486],[148.11103459855553,-42.81010489317085],[148.14403980816874,-42.79503312015551],[148.15687952076902,-42.78431299185271],[148.17081025229942,-42.76646496208883],[148.17944243682996,-42.75003895222831],[148.20352788018857,-42.73634763340782],[148.22762240845736,-42.71698120392858],[148.24906376269956,-42.689814359017035],[148.25866793978614,-42.656564864033236],[148.25501474380678,-42.62214941265854],[148.23864438283368,-42.59165711173193],[148.22239969545174,-42.57588741177061],[148.2144319689136,-42.56004910988543],[148.18396161132986,-42.52155190128513],[148.15528358057847,-42.50215528616899],[148.13121128401758,-42.49536784724373],[148.11904892152276,-42.48591278354791],[148.09886980739142,-42.47634305296423],[148.10205901490124,-42.453650665282105],[148.10085155406486,-42.43580572883701],[148.09399146465594,-42.40937783124258],[148.10531372762924,-42.393751190568295],[148.1124465849064,-42.37749304875427],[148.11624910529886,-42.360151028489994],[148.11657331685765,-42.34239998020977],[148.10738594988575,-42.30245895267705],[148.1160264757185,-42.2800496699366],[148.1177840746718,-42.265819782636676],[148.1301005236139,-42.2556628961537],[148.14746101020918,-42.23109004587485],[148.16077050796466,-42.233549198323345],[148.1626693491706,-42.25443319212759],[148.1525023245619,-42.27324131838585],[148.14743383481664,-42.29125988670381],[148.1462020793933,-42.30993717695438],[148.14887127903964,-42.3379217966826],[148.1624872273474,-42.36879046030891],[148.17903534722902,-42.38734433837118],[148.19915108861872,-42.40227874816115],[148.22454034276865,-42.41428878205043],[148.24314403851633,-42.41797269031207],[148.2587352605946,-42.43255244414704],[148.27457465624414,-42.44270773235199],[148.2921793409539,-42.449347868595915],[148.310779889301,-42.4521826409425],[148.32956335092499,-42.451088153624944],[148.34770878110905,-42.446112241999614],[148.36442312075994,-42.43747238186742],[148.37948923641483,-42.42502676303652],[148.40341404399118,-42.410737866445395],[148.4159449875782,-42.39809056789693],[148.42574110980055,-42.38322400483884],[148.4324190573047,-42.36671995306702],[148.43571750081045,-42.349224268507825],[148.43550736175476,-42.3314216128258],[148.43179686354586,-42.31400866043981],[148.42473120975498,-42.29766683544187],[148.41458690183998,-42.28303564530981],[148.4270894555138,-42.26328409735433],[148.433717115784,-42.24600158741196],[148.44501258661867,-42.204396905004465],[148.44673675441447,-42.17575696586444],[148.44422702098151,-42.158061560432806],[148.4374427739931,-42.13982672240277],[148.43948667538896,-42.10556500091294],[148.4285174195018,-42.072974896410436],[148.4163557341281,-42.05421399167315],[148.3962007242536,-42.029195562820604],[148.3856554234915,-42.00960017632049],[148.3930083188928,-41.99570933329815],[148.39932457598215,-41.96664622555238],[148.41027792468975,-41.94139198412595],[148.4130770616728,-41.9076059078603],[148.40342495963887,-41.87136854321056],[148.4012761310601,-41.84950640901536],[148.38710638395668,-41.81835361597359],[148.37455070234168,-41.80433866879688],[148.388970104614,-41.77996188339164],[148.39363985607545,-41.76239390002515],[148.3945211968796,-41.73660467451424],[148.39173970710675,-41.719382001359165],[148.3846613176376,-41.70133947843157],[148.3847647186484,-41.691969869219896],[148.40001503327164,-41.66507117241337],[148.40688643910573,-41.64592964160384],[148.4106283854525,-41.61632046011398],[148.40923925727,-41.59106058889677],[148.40371748182775,-41.552579403462815],[148.3900594379862,-41.52227084320677],[148.36986808472253,-41.500610993604774],[148.3594880774467,-41.47155033197261],[148.379763438481,-41.44716179431448],[148.38770078331066,-41.431929654941726],[148.40323052626772,-41.42234914097156],[148.42570479358372,-41.39714950720954],[148.4373109862152,-41.36544129808743],[148.4384603421585,-41.348522075356975],[148.43543282968295,-41.32861553878408],[148.4469411998039,-41.30036333645738],[148.4490572279775,-41.27919475475678],[148.44759913201884,-41.26009064587091],[148.442130198931,-41.24172808093491],[148.43289828145032,-41.22493925370435],[148.42244836565797,-41.2129291367551],[148.4120628787118,-41.195109899987116],[148.39974091222658,-41.18179662169622],[148.3748681185482,-41.16669740621706],[148.37379475670187,-41.1524885308164],[148.36753784908746,-41.12873003051003],[148.37963384591674,-41.10204822011237],[148.38671415778555,-41.07707721195263],[148.4122531551911,-41.060000824020214],[148.43188455241247,-41.03185645279534],[148.43955511252324,-40.99841007935825],[148.43862666349992,-40.97963622809574],[148.4275271229202,-40.948177192435345],[148.41780960805247,-40.93453100015701],[148.40587094717716,-40.92160675683542],[148.3847836181457,-40.907555634194445],[148.37188834153767,-40.88498839082784],[148.35022658365517,-40.86619240155894],[148.33977040971587,-40.84702679753576],[148.31499684261377,-40.82413205477157],[148.2964036339384,-40.815232941425435],[148.27831402652728,-40.81033045381642],[148.2596012853818,-40.80928088253906],[148.2410769157384,-40.81212974377835],[148.21436781565367,-40.82079813099819],[148.18868226735609,-40.833307460253515],[148.210738,-40.845054],[148.22366,-40.846938],[148.219764,-40.856243],[148.221953,-40.869566],[148.232645,-40.882357],[148.261912,-40.892453],[148.257859,-40.90417],[148.251467,-40.902796],[148.213499,-40.922157],[148.217268,-40.933036],[148.212412,-40.937587],[148.124181,-40.925468],[148.116759,-40.923553],[148.112013,-40.942224],[148.090397,-40.935621],[148.082908,-40.952519],[148.078008,-40.981413],[148.080475,-40.988431],[148.07845,-41.01529],[148.071229,-41.038518],[148.082096,-41.060249],[148.07138,-41.067486],[148.062331,-41.087321],[148.068311,-41.095743],[148.062763,-41.104883],[148.06522,-41.112936],[148.08246,-41.124759],[148.082295,-41.132139],[148.005136,-41.153403],[147.934817,-41.16847],[147.889529,-41.164957],[147.858678,-41.27658],[147.840706,-41.332997],[147.835459,-41.366796],[147.827566,-41.37165],[147.590413,-41.380709],[147.608713,-41.397738],[147.606351,-41.407449],[147.619255,-41.409226],[147.615828,-41.426402],[147.628729,-41.428175],[147.627361,-41.451475],[147.643613,-41.464363],[147.647934,-41.478488],[147.578908,-41.513592],[147.571934,-41.506031],[147.56215,-41.511211],[147.53993,-41.507451],[147.525885,-41.514713],[147.526153,-41.520515],[147.506536,-41.530441],[147.498728,-41.522016],[147.486359,-41.528639],[147.476144,-41.518051],[147.460395,-41.522064],[147.428113,-41.538732],[147.432005,-41.543015],[147.406452,-41.556178],[147.400819,-41.549793],[147.387993,-41.556073],[147.367865,-41.536326],[147.346759,-41.512041],[147.312785,-41.529397],[147.302824,-41.520428],[147.285846,-41.529689],[147.278146,-41.521684],[147.261082,-41.530936],[147.248515,-41.528177],[147.233123,-41.512407],[147.221105,-41.495251],[147.198025,-41.51016],[147.188033,-41.508309],[147.169363,-41.492893],[147.153974,-41.50105],[147.147726,-41.495126],[147.136352,-41.501281],[147.126007,-41.490514],[147.140091,-41.48302],[147.120682,-41.470839],[147.115043,-41.473286],[147.100022,-41.462866],[147.098511,-41.456097],[147.076192,-41.446506],[147.065524,-41.458888],[147.031841,-41.437337],[147.029765,-41.427888],[147.007986,-41.445219],[146.994,-41.443436],[146.996138,-41.43181],[146.972002,-41.429042],[146.934304,-41.408496],[146.92671,-41.388419],[146.910166,-41.377818],[146.89999,-41.386532],[146.872828,-41.39122],[146.825424,-41.383748],[146.802887,-41.37434],[146.798571,-41.380382],[146.770949,-41.375503],[146.697505,-41.35525],[146.703586,-41.33269],[146.654646,-41.328772],[146.619945,-41.324477],[146.617472,-41.3379],[146.589574,-41.334794],[146.583073,-41.353196],[146.589922,-41.361746],[146.557269,-41.357945],[146.54558,-41.367394],[146.528035,-41.365072],[146.494373,-41.37673],[146.484519,-41.375631],[146.479025,-41.360698],[146.459497,-41.344207],[146.46206,-41.336042],[146.459757,-41.319725],[146.447,-41.315195],[146.444449,-41.297836],[146.398708,-41.288963],[146.358921,-41.284202],[146.357527,-41.272633],[146.370102,-41.266802],[146.349472,-41.242148],[146.323461,-41.254969],[146.321033,-41.271849],[146.265684,-41.265593],[146.251022,-41.272052],[146.248055,-41.277936],[146.216538,-41.275955],[146.203298,-41.287246],[146.205314,-41.310799],[146.185555,-41.320484],[146.176291,-41.341565],[146.153993,-41.357323],[146.128718,-41.368729],[146.11467,-41.37119],[146.112479,-41.385429],[146.102339,-41.402284],[146.092996,-41.406962],[146.090306,-41.429678],[146.092537,-41.443355],[146.082866,-41.456594],[145.954065,-41.451806],[145.852831,-41.465863],[145.853526,-41.582863],[145.951331,-41.684662],[145.964646,-41.725521],[146.036418,-41.930915],[146.050484,-41.974556],[146.014916,-42.005321],[146.023422,-42.039447],[145.999753,-42.0669],[146.075328,-42.21047],[146.09069,-42.283916],[146.10695,-42.305306],[146.102667,-42.326899],[146.096186,-42.341178],[146.099125,-42.369677],[146.110305,-42.375474],[146.11245,-42.388647],[146.099548,-42.402409],[146.105573,-42.407766],[146.118229,-42.404357],[146.133106,-42.4136],[146.124075,-42.431623],[146.12571,-42.436789],[146.108732,-42.445467],[146.109093,-42.450845],[146.093617,-42.467809],[146.080732,-42.477066],[146.08183,-42.487353],[146.089743,-42.489986],[146.073511,-42.511211],[146.053361,-42.528553],[146.029295,-42.538241],[146.032682,-42.547628],[146.016433,-42.566126],[146.018229,-42.572246],[146.00694,-42.580351],[145.99276,-42.59866],[145.979887,-42.627636],[145.963868,-42.635821],[145.967088,-42.648574],[145.954701,-42.665621],[145.934281,-42.669417],[145.928044,-42.682029],[145.909128,-42.681768],[145.902245,-42.693196],[145.887098,-42.699675],[145.869925,-42.690263],[145.866864,-42.698597],[145.873548,-42.713155],[145.858025,-42.713874],[145.844064,-42.719136],[145.842663,-42.72503],[145.854263,-42.742966],[145.947531,-42.902228],[145.933796,-42.907494],[145.94052,-42.930574],[145.961426,-42.950561],[145.977021,-42.96246],[145.992963,-42.978703],[145.991437,-43.004516],[145.978159,-43.017499],[145.978141,-43.039171],[146.08907,-43.053903],[146.222191,-43.118804],[146.458808,-43.087277],[146.648406,-42.921704],[146.658083,-42.903404],[146.653597,-42.893372],[146.652731,-42.876296],[146.646037,-42.865036],[146.647289,-42.853658],[146.65657,-42.847634],[146.675126,-42.849611],[146.697394,-42.857529],[146.723042,-42.858121],[146.739431,-42.871195],[146.765581,-42.874138],[146.776179,-42.88424],[146.780537,-42.898608],[146.797936,-42.903674],[146.805489,-42.894637],[146.846451,-42.908202],[146.855266,-42.939115],[146.873892,-42.95463],[146.880302,-42.948977],[146.879704,-42.935433],[146.896016,-42.935256],[146.913518,-42.939638],[146.916581,-42.933688],[146.937466,-42.928528],[146.925991,-42.895278],[146.940581,-42.885867],[146.955489,-42.882079],[146.970537,-42.888752],[146.990529,-42.885838],[147.009243,-42.888143],[147.010492,-42.901107],[147.02279,-42.90777],[147.03231,-42.904188],[147.044641,-42.909126],[147.051271,-42.900384],[147.150368,-42.913351],[147.150353,-42.858481],[147.146491,-42.849228],[147.135393,-42.847832],[147.153641,-42.834332],[147.173858,-42.829746],[147.178795,-42.814609],[147.200835,-42.806465],[147.201103,-42.78666],[147.212892,-42.766963],[147.226904,-42.75042],[147.253576,-42.769487],[147.256845,-42.782797],[147.269359,-42.790785],[147.257206,-42.801509],[147.255959,-42.815145],[147.279306,-42.825996],[147.298018,-42.818736],[147.305266,-42.826403],[147.317326,-42.829185],[147.327849,-42.84461],[147.319663,-42.855131],[147.336789,-42.864589],[147.341196,-42.877063],[147.35094,-42.870474],[147.354622,-42.857453],[147.333777,-42.841081],[147.326579,-42.829533],[147.317373,-42.824903],[147.319935,-42.816675],[147.294137,-42.809418],[147.281926,-42.797003],[147.292566,-42.790883],[147.311656,-42.782187],[147.326189,-42.780478],[147.332586,-42.766641],[147.347579,-42.777447],[147.368526,-42.761214],[147.375254,-42.771226],[147.392172,-42.772515],[147.418517,-42.787745],[147.426405,-42.77521],[147.434128,-42.77554],[147.43642534468486,-42.776953076361906],[147.43648771840182,-42.77707596483164]]],[[[147.01779653416304,-41.336670014815894],[147.029767,-41.345468],[147.04546,-41.345922],[147.05180035439034,-41.33826465810747],[147.01779653416304,-41.336670014815894]]],[[[147.07363509267196,-41.34717411505471],[147.068964,-41.354366],[147.075306,-41.36844],[147.073927,-41.383968],[147.079496,-41.391281],[147.095428,-41.399337],[147.112822,-41.396209],[147.093944,-41.385783],[147.092769,-41.377886],[147.079766,-41.366831],[147.07363509267196,-41.34717411505471]]]]},"bbox":[145.842663,-43.33633941771434,148.4490572279775,-40.80928088253906]}]}