{"type":"FeatureCollection","features":[
{"properties":{"electorateShortName":"lyons","electorateName":"Lyons","area":35721.830094,"state":"TAS"},"type":"Feature","geometry":{"type":"MultiPolygon","coordinates":[[[[146.3944336595687,-41.22749326641407],[146.38571,-41.22329],[146.381086,-41.219102],[146.37099,-41.204153],[146.366085,-41.203738],[146.362334,-41.200687],[146.369695,-41.193808],[146.365113,-41.177668],[146.368877,-41.172243],[146.38349,-41.16912],[146.391576,-41.172903],[146.403629629942,-41.17081829583491],[146.3956892713691,-41.16492129589323],[146.37951029078593,-41.15730873381588],[146.36214568583367,-41.15304481438136],[146.3442808450032,-41.152297836339606],[146.3266209013126,-41.15509728323799],[146.340848,-41.162526],[146.344781,-41.160767],[146.351228,-41.162018],[146.353478,-41.158392],[146.359045,-41.16446],[146.366804,-41.165248],[146.362145,-41.175757],[146.363631,-41.179515],[146.363386,-41.187624],[146.36683,-41.192633],[146.353743,-41.207427],[146.351518,-41.211783],[146.364183,-41.208433],[146.367069,-41.21309],[146.36526,-41.218316],[146.372892,-41.22271],[146.370231,-41.224105],[146.38141,-41.231938],[146.384725,-41.228853],[146.389181,-41.229807],[146.3944336595687,-41.22749326641407]]],[[[147.43648771840182,-42.77707596483164],[147.435201,-42.781257],[147.437463,-42.786244],[147.445642,-42.790176],[147.444224,-42.793254],[147.447744,-42.795039],[147.447396,-42.799339],[147.454512,-42.801141],[147.458381,-42.805116],[147.459344,-42.809132],[147.465769,-42.811945],[147.475704,-42.812641],[147.48385,-42.810748],[147.489816,-42.815033],[147.477549,-42.812896],[147.47466,-42.815752],[147.476307,-42.823063],[147.481186,-42.826779],[147.488402,-42.828832],[147.491197,-42.827953],[147.502556,-42.819075],[147.503569,-42.812528],[147.509601,-42.813839],[147.513089,-42.817116],[147.51442,-42.821704],[147.517861,-42.825842],[147.522242,-42.827978],[147.532302,-42.828035],[147.547155,-42.825146],[147.578578,-42.825114],[147.594934,-42.829823],[147.613383,-42.845985],[147.608012,-42.845857],[147.589138,-42.838209],[147.564561,-42.837869],[147.543218,-42.84231],[147.529161,-42.847302],[147.51553,-42.85494],[147.503627,-42.86429],[147.503042,-42.866884],[147.510455,-42.872717],[147.511077,-42.87607],[147.500809,-42.891742],[147.51476852455752,-42.893940183857666],[147.51832208861546,-42.904514067633436],[147.52721506858322,-42.91995539165591],[147.53897595327143,-42.93334199584159],[147.54630909545574,-42.93893569614302],[147.54527814679022,-42.95078360565981],[147.5457607200014,-42.9547973445194],[147.54229420453007,-42.960233575221764],[147.543862,-42.963144],[147.550008,-42.9682],[147.54885,-42.975916],[147.549738,-42.982085],[147.554055,-42.985713],[147.542082,-42.986836],[147.5306897461232,-42.990494445095536],[147.52907378273767,-43.00592826767713],[147.5289877827377,-43.01686426767713],[147.53061965552723,-43.03464730076483],[147.53278612843837,-43.04190051528439],[147.5323945205151,-43.05049164862504],[147.5327268790027,-43.06846676044894],[147.5350053444232,-43.08554350200119],[147.54049593983854,-43.10187322547404],[147.5497095900312,-43.11941885557883],[147.56046891477513,-43.13399006033757],[147.57392800215848,-43.14611177819738],[147.5806550976706,-43.15006748058487],[147.58285511579044,-43.16163537211347],[147.58842151990353,-43.17760750398694],[147.59687808931608,-43.19225606313465],[147.60792613606364,-43.205063659099444],[147.6168378011804,-43.21213569924596],[147.62119201642327,-43.219654825725655],[147.63031224347378,-43.231989752107175],[147.63296141258994,-43.238093324837244],[147.64310556355056,-43.2526902652257],[147.6559207690346,-43.265008746293496],[147.66172176903459,-43.269573746293496],[147.6761896847046,-43.27886849902056],[147.69216133080573,-43.28524184452448],[147.70898629555663,-43.28844827608268],[147.7111885864051,-43.289556321219],[147.72205105504204,-43.30168818579884],[147.7360855865482,-43.31311844033485],[147.75212342258158,-43.32150930493399],[147.78113871627912,-43.33039907875498],[147.79896821432519,-43.33233678441565],[147.81682792267296,-43.33070077661171],[147.83400864398155,-43.325556020143345],[147.84982814304144,-43.317106809926024],[147.86365823788856,-43.305688658572926],[147.86981797600805,-43.29808756027749],[147.88857516292427,-43.29650155250492],[147.90309866141394,-43.29235940989925],[147.90770931637317,-43.29543290071142],[147.92497084686144,-43.30234705299809],[147.92923535535257,-43.30309667882659],[147.9317048280252,-43.30648151995625],[147.94509617474696,-43.318681468982874],[147.96065941221892,-43.327952529475915],[147.9777640046686,-43.333919089657904],[147.99571696919742,-43.33633941771434],[148.0137909515915,-43.33511545542157],[148.0353873404855,-43.329594110459894],[148.0466474405753,-43.324698830445925],[148.06253996588276,-43.31484292899108],[148.0760526003238,-43.30191544413903],[148.08660194649272,-43.28647450992037],[148.09373254463344,-43.26918677657294],[148.09584354463342,-43.26203777657294],[148.09927541125842,-43.24328811341632],[148.10144038284741,-43.22532897152465],[148.10043418635686,-43.207636394381055],[148.09870233587318,-43.20096620656003],[148.10522840155957,-43.19737931688368],[148.11837112308592,-43.186474786595824],[148.12921744592694,-43.17328398712243],[148.13737684901886,-43.158281852237614],[148.14255555364775,-43.142008532714996],[148.14456710093077,-43.12504994823849],[148.14333906525445,-43.10801669140674],[148.13891566195392,-43.09152204339111],[148.13024715534277,-43.074174892791774],[148.11999397544423,-43.060469559770794],[148.10733154852528,-43.048953188998276],[148.09271785401262,-43.04004230891052],[148.0766814455143,-43.03405921157524],[148.06169446206337,-43.03153853495197],[148.07063611261603,-43.02009202721257],[148.07895713501674,-43.006492555045675],[148.08584352005633,-42.98963282274055],[148.08919478329668,-42.97173193150554],[148.08887369966308,-42.95352287393481],[148.08558622777772,-42.93884460178582],[148.08882522333332,-42.917137634346545],[148.08741350810476,-42.89848300968866],[148.0821756247569,-42.88052326194412],[148.07333789379754,-42.86403440290224],[148.0668262814162,-42.855563930668865],[148.06590556014123,-42.84105962157882],[148.06148864193764,-42.824244348398985],[148.0731137393506,-42.81591291102486],[148.09347344891992,-42.81347289219709],[148.11103459855553,-42.81010489317085],[148.12943811389232,-42.803192157766894],[148.14403980816874,-42.79503312015551],[148.15687952076902,-42.78431299185271],[148.1675137595069,-42.77140205319776],[148.17081025229942,-42.76646496208883],[148.17944243682996,-42.75003895222831],[148.18830512750492,-42.74646623624634],[148.20352788018857,-42.73634763340782],[148.21231001854994,-42.72815742149766],[148.22762240845736,-42.71698120392858],[148.23966123259095,-42.704438125212754],[148.24906376269956,-42.689814359017035],[148.25547913105586,-42.673655610332695],[148.25866793978614,-42.656564864033236],[148.2585111943156,-42.63917988370399],[148.25501474380678,-42.62214941265854],[148.24830906289043,-42.606108965232146],[148.23864438283368,-42.59165711173193],[148.22594073577818,-42.57839940596537],[148.22239969545174,-42.57588741177061],[148.2144319689136,-42.56004910988543],[148.1972723688914,-42.53767180702539],[148.18396161132986,-42.52155190128513],[148.17056408390647,-42.51046159722219],[148.15528358057847,-42.50215528616899],[148.13869074058465,-42.49694316124644],[148.13121128401758,-42.49536784724373],[148.11904892152276,-42.48591278354791],[148.10434112754965,-42.47806381750665],[148.09886980739142,-42.47634305296423],[148.10205901490124,-42.453650665282105],[148.10085155406486,-42.43580572883701],[148.09756218132355,-42.42002087614326],[148.09399146465594,-42.40937783124258],[148.10531372762924,-42.393751190568295],[148.1124465849064,-42.37749304875427],[148.11624910529886,-42.360151028489994],[148.11657331685765,-42.34239998020977],[148.113406603157,-42.32493067133622],[148.10827563900025,-42.31022151315052],[148.10738594988575,-42.30245895267705],[148.1107865800922,-42.296266148177075],[148.1160264757185,-42.2800496699366],[148.1177840746718,-42.265819782636676],[148.1301005236139,-42.2556628961537],[148.14171229948963,-42.24113032689318],[148.14746101020918,-42.23109004587485],[148.16230749092375,-42.21475678288032],[148.16077050796466,-42.233549198323345],[148.1626693491706,-42.25443319212759],[148.1525023245619,-42.27324131838585],[148.14743383481664,-42.29125988670381],[148.1462020793933,-42.30993717695438],[148.14663107939333,-42.32112617695438],[148.14887127903964,-42.3379217966826],[148.1542198566401,-42.35399985795137],[148.1624872273474,-42.36879046030891],[148.17338034722903,-42.38176933837118],[148.17903534722902,-42.38734433837118],[148.19915108861872,-42.40227874816115],[148.20891808861873,-42.40760174816115],[148.22454034276865,-42.41428878205043],[148.24314403851633,-42.41797269031207],[148.2587352605946,-42.43255244414704],[148.27457465624414,-42.44270773235199],[148.2921793409539,-42.449347868595915],[148.310779889301,-42.4521826409425],[148.32956335092499,-42.451088153624944],[148.34770878110905,-42.446112241999614],[148.36442312075994,-42.43747238186742],[148.37948923641483,-42.42502676303652],[148.38551442892046,-42.42256127551591],[148.40341404399118,-42.410737866445395],[148.4159449875782,-42.39809056789693],[148.42574110980055,-42.38322400483884],[148.4324190573047,-42.36671995306702],[148.43571750081045,-42.349224268507825],[148.43550736175476,-42.3314216128258],[148.43179686354586,-42.31400866043981],[148.42473120975498,-42.29766683544187],[148.41458690183998,-42.28303564530981],[148.4270894555138,-42.26328409735433],[148.433717115784,-42.24600158741196],[148.43537466755072,-42.23574117324981],[148.4403968973587,-42.22361755336389],[148.44501258661867,-42.204396905004465],[148.44673675441447,-42.17575696586444],[148.44422702098151,-42.158061560432806],[148.4374427739931,-42.13982672240277],[148.4401143162549,-42.122826616695285],[148.43948667538896,-42.10556500091294],[148.43557299060816,-42.08874119682735],[148.4285174195018,-42.072974896410436],[148.4191207109116,-42.05961577298517],[148.4163557341281,-42.05421399167315],[148.40576101185238,-42.040684037649605],[148.40228294421524,-42.03751640487216],[148.3962007242536,-42.029195562820604],[148.38972161787456,-42.01601423790091],[148.3856554234915,-42.00960017632049],[148.3930083188928,-41.99570933329815],[148.39801926377424,-41.97922564282911],[148.39932457598215,-41.96664622555238],[148.40417027483554,-41.95728615070983],[148.41027792468975,-41.94139198412595],[148.41328270423128,-41.92463193585499],[148.4130770616728,-41.9076059078603],[148.40966835769567,-41.89092332246911],[148.40717824490164,-41.88488312758975],[148.40342495963887,-41.87136854321056],[148.4036737744435,-41.86652892966657],[148.4012761310601,-41.84950640901536],[148.39568568150864,-41.833250278573985],[148.38710638395668,-41.81835361597359],[148.37455070234168,-41.80433866879688],[148.38086539826026,-41.79623315725685],[148.388970104614,-41.77996188339164],[148.39363985607545,-41.76239390002515],[148.39468414948902,-41.744245895464225],[148.3945211968796,-41.73660467451424],[148.39173970710675,-41.719382001359165],[148.3846613176376,-41.70133947843157],[148.3847647186484,-41.691969869219896],[148.39242557366424,-41.68076188258644],[148.40001503327164,-41.66507117241337],[148.40134425327804,-41.66000415314569],[148.40688643910573,-41.64592964160384],[148.41002128615514,-41.628418594080905],[148.4106283854525,-41.61632046011398],[148.40923925727,-41.59106058889677],[148.40630197866287,-41.57489187684818],[148.40648213338213,-41.56983482439246],[148.40371748182775,-41.552579403462815],[148.39767025370412,-41.53618355393627],[148.3900594379862,-41.52227084320677],[148.37972209036738,-41.50919191721833],[148.36986808472253,-41.500610993604774],[148.3641746493852,-41.48275137974016],[148.3594880774467,-41.47155033197261],[148.36175011382693,-41.46657530796182],[148.3681431027365,-41.46138993656857],[148.379763438481,-41.44716179431448],[148.38770078331066,-41.431929654941726],[148.40323052626772,-41.42234914097156],[148.4156600213202,-41.41081273036739],[148.42570479358372,-41.39714950720954],[148.43300821505505,-41.381844568408646],[148.4373109862152,-41.36544129808743],[148.4384603421585,-41.348522075356975],[148.43641547633356,-41.33168759762093],[148.43543282968295,-41.32861553878408],[148.44210333400906,-41.31589476347174],[148.4469411998039,-41.30036333645738],[148.4490572279775,-41.27919475475678],[148.44759913201884,-41.26009064587091],[148.442130198931,-41.24172808093491],[148.43289828145032,-41.22493925370435],[148.42244836565797,-41.2129291367551],[148.4120628787118,-41.195109899987116],[148.39974091222658,-41.18179662169622],[148.38499948176346,-41.171224750300205],[148.3748681185482,-41.16669740621706],[148.37379475670187,-41.1524885308164],[148.37045219456957,-41.135878424900994],[148.36753784908746,-41.12873003051003],[148.36973209314428,-41.12502534601066],[148.37568173202496,-41.10864428104163],[148.37963384591674,-41.10204822011237],[148.38565423821555,-41.08488507530544],[148.38671415778555,-41.07707721195263],[148.39878587718445,-41.070758662056434],[148.4122531551911,-41.060000824020214],[148.42342260781294,-41.046872915418646],[148.43188455241247,-41.03185645279534],[148.43732861462317,-41.015502222676844],[148.43955511252324,-40.99841007935825],[148.43862666349992,-40.97963622809574],[148.43454721878913,-40.96338794234759],[148.4275271229202,-40.948177192435345],[148.41780960805247,-40.93453100015701],[148.40587094717716,-40.92160675683542],[148.3920894479138,-40.91114565108627],[148.3847836181457,-40.907555634194445],[148.38170858937238,-40.89992008157114],[148.37188834153767,-40.88498839082784],[148.35931132730263,-40.87229148691705],[148.35022658365517,-40.86619240155894],[148.3485099358237,-40.86154016933199],[148.33977040971587,-40.84702679753576],[148.3284658559194,-40.834408384761275],[148.31499684261377,-40.82413205477157],[148.2964036339384,-40.815232941425435],[148.27831402652728,-40.81033045381642],[148.2596012853818,-40.80928088253906],[148.2410769157384,-40.81212974377835],[148.22827736144785,-40.81583485543634],[148.21436781565367,-40.82079813099819],[148.20734116028075,-40.82470112140017],[148.18868226735609,-40.833307460253515],[148.197595,-40.839431],[148.210738,-40.845054],[148.22366,-40.846938],[148.219764,-40.856243],[148.221953,-40.869566],[148.226812,-40.876383],[148.230909,-40.878162],[148.232645,-40.882357],[148.237229,-40.885975],[148.243583,-40.888219],[148.248281,-40.886879],[148.261912,-40.892453],[148.26381,-40.898863],[148.259002,-40.900375],[148.257859,-40.90417],[148.251467,-40.902796],[148.248085,-40.905759],[148.239649,-40.908572],[148.237293,-40.911026],[148.228859,-40.913641],[148.225053,-40.919702],[148.220847,-40.921091],[148.216053,-40.919532],[148.213499,-40.922157],[148.213674,-40.926146],[148.216429,-40.928287],[148.217268,-40.933036],[148.212412,-40.937587],[148.186348,-40.931127],[148.185517,-40.933766],[148.124181,-40.925468],[148.116759,-40.923553],[148.112013,-40.942224],[148.102748,-40.940256],[148.098643,-40.937617],[148.090397,-40.935621],[148.08689,-40.939136],[148.085861,-40.949061],[148.082908,-40.952519],[148.085713,-40.960642],[148.081228,-40.963331],[148.081868,-40.969555],[148.079414,-40.970344],[148.078008,-40.981413],[148.080578,-40.982976],[148.080475,-40.988431],[148.074218,-40.995412],[148.078675,-40.998295],[148.081539,-41.005637],[148.079195,-41.006968],[148.07845,-41.01529],[148.074402,-41.014808],[148.076208,-41.021736],[148.074096,-41.023333],[148.071229,-41.038518],[148.07394,-41.042203],[148.073732,-41.048472],[148.080537,-41.052399],[148.082096,-41.060249],[148.077009,-41.065071],[148.07138,-41.067486],[148.071025,-41.073431],[148.062331,-41.087321],[148.064263,-41.088446],[148.068311,-41.095743],[148.062763,-41.104883],[148.06482,-41.106407],[148.06522,-41.112936],[148.074253,-41.121922],[148.08246,-41.124759],[148.07922,-41.128815],[148.082295,-41.132139],[148.005136,-41.153403],[147.954886,-41.163747],[147.934817,-41.16847],[147.889529,-41.164957],[147.883447,-41.186369],[147.858678,-41.27658],[147.840706,-41.332997],[147.835459,-41.366796],[147.833771,-41.372416],[147.827566,-41.37165],[147.643153,-41.378701],[147.590413,-41.380709],[147.601776,-41.393133],[147.608713,-41.397738],[147.606351,-41.407449],[147.619255,-41.409226],[147.615828,-41.426402],[147.628729,-41.428175],[147.627361,-41.451475],[147.63402,-41.45917],[147.637627,-41.457382],[147.643613,-41.464363],[147.641394,-41.46546],[147.64593,-41.470742],[147.639867,-41.473806],[147.647934,-41.478488],[147.578908,-41.513592],[147.571934,-41.506031],[147.56215,-41.511211],[147.53993,-41.507451],[147.525885,-41.514713],[147.526153,-41.520515],[147.506536,-41.530441],[147.498728,-41.522016],[147.486359,-41.528639],[147.478382,-41.521705],[147.476144,-41.518051],[147.468755,-41.521809],[147.460395,-41.522064],[147.428113,-41.538732],[147.432005,-41.543015],[147.406452,-41.556178],[147.400819,-41.549793],[147.387993,-41.556073],[147.367865,-41.536326],[147.363225,-41.530527],[147.346759,-41.512041],[147.336644,-41.517826],[147.312785,-41.529397],[147.302824,-41.520428],[147.285846,-41.529689],[147.278146,-41.521684],[147.261082,-41.530936],[147.255272,-41.524463],[147.248515,-41.528177],[147.233123,-41.512407],[147.236197,-41.510826],[147.230098,-41.50602],[147.227085,-41.499246],[147.221105,-41.495251],[147.207173,-41.505146],[147.198025,-41.51016],[147.193715,-41.50536],[147.188033,-41.508309],[147.179382,-41.499945],[147.17414,-41.502013],[147.172366,-41.49666],[147.169363,-41.492893],[147.153974,-41.50105],[147.147726,-41.495126],[147.136352,-41.501281],[147.126007,-41.490514],[147.140091,-41.48302],[147.133646,-41.476367],[147.127932,-41.47375],[147.124112,-41.474354],[147.120682,-41.470839],[147.115043,-41.473286],[147.103342,-41.465878],[147.100022,-41.462866],[147.098511,-41.456097],[147.087908,-41.451183],[147.085876,-41.446709],[147.080208,-41.444664],[147.076192,-41.446506],[147.074512,-41.451912],[147.069305,-41.453979],[147.065524,-41.458888],[147.031841,-41.437337],[147.03191,-41.430362],[147.029765,-41.427888],[147.007986,-41.445219],[146.994,-41.443436],[146.996138,-41.43181],[146.972002,-41.429042],[146.966042,-41.424887],[146.949981,-41.417848],[146.934304,-41.408496],[146.9378,-41.405165],[146.931334,-41.399374],[146.926355,-41.391001],[146.92671,-41.388419],[146.918376,-41.38507],[146.910166,-41.377818],[146.89999,-41.386532],[146.893931,-41.387997],[146.872828,-41.39122],[146.825424,-41.383748],[146.818956,-41.382437],[146.819578,-41.379539],[146.809632,-41.378312],[146.809429,-41.375166],[146.802887,-41.37434],[146.798571,-41.380382],[146.783378,-41.378208],[146.770949,-41.375503],[146.697505,-41.35525],[146.703586,-41.33269],[146.654646,-41.328772],[146.619945,-41.324477],[146.617472,-41.3379],[146.589574,-41.334794],[146.586998,-41.347593],[146.580859,-41.346875],[146.583073,-41.353196],[146.589915,-41.356439],[146.589922,-41.361746],[146.557269,-41.357945],[146.557625,-41.356137],[146.548216,-41.355006],[146.54558,-41.367394],[146.528035,-41.365072],[146.510988,-41.37164],[146.494373,-41.37673],[146.484519,-41.375631],[146.480116,-41.368685],[146.479025,-41.360698],[146.472019,-41.355307],[146.46856,-41.354709],[146.464065,-41.34925],[146.460211,-41.347269],[146.459497,-41.344207],[146.46206,-41.336042],[146.461459,-41.325483],[146.459757,-41.319725],[146.453547,-41.318639],[146.447,-41.315195],[146.448011,-41.309263],[146.443565,-41.300333],[146.444449,-41.297836],[146.41424,-41.293029],[146.407979,-41.293125],[146.400508,-41.295266],[146.398708,-41.288963],[146.390164,-41.287854],[146.38899,-41.293602],[146.383722,-41.292936],[146.38418,-41.28694],[146.358921,-41.284202],[146.358279,-41.279709],[146.362314,-41.277834],[146.357527,-41.272633],[146.370102,-41.266802],[146.361354,-41.257165],[146.362813,-41.256351],[146.349472,-41.242148],[146.323461,-41.254969],[146.32034,-41.258932],[146.322816,-41.265269],[146.319267,-41.268055],[146.321033,-41.271849],[146.308656,-41.270359],[146.281762,-41.267869],[146.265684,-41.265593],[146.261376,-41.269261],[146.25603,-41.268602],[146.251022,-41.272052],[146.248055,-41.277936],[146.232486,-41.2777],[146.230802,-41.273703],[146.226703,-41.271646],[146.216538,-41.275955],[146.20778,-41.282715],[146.206439,-41.288115],[146.203298,-41.287246],[146.201961,-41.294663],[146.196917,-41.295633],[146.194183,-41.302788],[146.203097,-41.303968],[146.205314,-41.310799],[146.199331,-41.310623],[146.196503,-41.312567],[146.200302,-41.316092],[146.192861,-41.317704],[146.18505,-41.315978],[146.185555,-41.320484],[146.180359,-41.332834],[146.175481,-41.337573],[146.176291,-41.341565],[146.166828,-41.343582],[146.167161,-41.346229],[146.153993,-41.357323],[146.148413,-41.358076],[146.143265,-41.362914],[146.135696,-41.362233],[146.128718,-41.368729],[146.123187,-41.36793],[146.119133,-41.371675],[146.11467,-41.37119],[146.114737,-41.378579],[146.117901,-41.379398],[146.117264,-41.384437],[146.112479,-41.385429],[146.104264,-41.395873],[146.105217,-41.39836],[146.102339,-41.402284],[146.095633,-41.403852],[146.092996,-41.406962],[146.094219,-41.410866],[146.092994,-41.415681],[146.087975,-41.42187],[146.084909,-41.42764],[146.090306,-41.429678],[146.092537,-41.443355],[146.087203,-41.458146],[146.082866,-41.456594],[145.954065,-41.451806],[145.852831,-41.465863],[145.852023,-41.510296],[145.852912,-41.518264],[145.853526,-41.582863],[145.903259,-41.634851],[145.951331,-41.684662],[145.964646,-41.725521],[146.014045,-41.866885],[146.036418,-41.930915],[146.050484,-41.974556],[146.014916,-42.005321],[146.023422,-42.039447],[145.999753,-42.0669],[146.075328,-42.21047],[146.09069,-42.283916],[146.088634,-42.287766],[146.089817,-42.29065],[146.09617,-42.293608],[146.100604,-42.299679],[146.104253,-42.301373],[146.10695,-42.305306],[146.102667,-42.326899],[146.099859,-42.329125],[146.096186,-42.341178],[146.098938,-42.354029],[146.097117,-42.358517],[146.099125,-42.369677],[146.106001,-42.371604],[146.110305,-42.375474],[146.109634,-42.379447],[146.114878,-42.380292],[146.11083,-42.38463],[146.11245,-42.388647],[146.1059,-42.391786],[146.10645,-42.397938],[146.099548,-42.402409],[146.105573,-42.407766],[146.108991,-42.405944],[146.114012,-42.406756],[146.118229,-42.404357],[146.129849,-42.407313],[146.133106,-42.4136],[146.129915,-42.417921],[146.134305,-42.424539],[146.128348,-42.425265],[146.124075,-42.431623],[146.12571,-42.436789],[146.119684,-42.441087],[146.117615,-42.439902],[146.108732,-42.445467],[146.109093,-42.450845],[146.104433,-42.457699],[146.09998,-42.458382],[146.093617,-42.467809],[146.089095,-42.469918],[146.088266,-42.472855],[146.080732,-42.477066],[146.075373,-42.477746],[146.077488,-42.483506],[146.083683,-42.481284],[146.087734,-42.48415],[146.08183,-42.487353],[146.089743,-42.489986],[146.086527,-42.496032],[146.082062,-42.498683],[146.081515,-42.502654],[146.073442,-42.503596],[146.071937,-42.508686],[146.073511,-42.511211],[146.066942,-42.515233],[146.067131,-42.517105],[146.059467,-42.520712],[146.053361,-42.528553],[146.042004,-42.530639],[146.036103,-42.533152],[146.029295,-42.538241],[146.028936,-42.542049],[146.032682,-42.547628],[146.030356,-42.549073],[146.029757,-42.554138],[146.023001,-42.556275],[146.026166,-42.559931],[146.018965,-42.561791],[146.016433,-42.566126],[146.018229,-42.572246],[146.014295,-42.573051],[146.013576,-42.576745],[146.00694,-42.580351],[146.001261,-42.579748],[146.000577,-42.589827],[145.995856,-42.591912],[145.99276,-42.59866],[145.996678,-42.601022],[145.995532,-42.608562],[145.98845,-42.612069],[145.987543,-42.617435],[145.983849,-42.620564],[145.984821,-42.626306],[145.979887,-42.627636],[145.974902,-42.624573],[145.971429,-42.624975],[145.972019,-42.633094],[145.963868,-42.635821],[145.960544,-42.643339],[145.962528,-42.647124],[145.967088,-42.648574],[145.964176,-42.653995],[145.965081,-42.659027],[145.960266,-42.65821],[145.954701,-42.665621],[145.940405,-42.669274],[145.934281,-42.669417],[145.931373,-42.673751],[145.928044,-42.682029],[145.9237,-42.682294],[145.918335,-42.679586],[145.916493,-42.681716],[145.909128,-42.681768],[145.904812,-42.687295],[145.902245,-42.693196],[145.895422,-42.697086],[145.887098,-42.699675],[145.881375,-42.697873],[145.869925,-42.690263],[145.866864,-42.698597],[145.867758,-42.702434],[145.871925,-42.704624],[145.870736,-42.707249],[145.873548,-42.713155],[145.871603,-42.716095],[145.858025,-42.713874],[145.849332,-42.716434],[145.844064,-42.719136],[145.841327,-42.716321],[145.832634,-42.717249],[145.842663,-42.72503],[145.849554,-42.733218],[145.851991,-42.741661],[145.854263,-42.742966],[145.947531,-42.902228],[145.949251,-42.906292],[145.944369,-42.907233],[145.939426,-42.903732],[145.935737,-42.903805],[145.933796,-42.907494],[145.935446,-42.911745],[145.93481,-42.917641],[145.939764,-42.922399],[145.94052,-42.930574],[145.944998,-42.932874],[145.951378,-42.938445],[145.961426,-42.950561],[145.969483,-42.954991],[145.972848,-42.960254],[145.977021,-42.96246],[145.980669,-42.968912],[145.988974,-42.978725],[145.992963,-42.978703],[145.992105,-42.988963],[145.993015,-42.99217],[145.989863,-42.996503],[145.991437,-43.004516],[145.988436,-43.009364],[145.978159,-43.017499],[145.979878,-43.026822],[145.975785,-43.031552],[145.974812,-43.036237],[145.978141,-43.039171],[146.08907,-43.053903],[146.222191,-43.118804],[146.458808,-43.087277],[146.560453,-42.998515],[146.648406,-42.921704],[146.651855,-42.909752],[146.658083,-42.903404],[146.658159,-42.897366],[146.653597,-42.893372],[146.652731,-42.876296],[146.649061,-42.874087],[146.646037,-42.865036],[146.647289,-42.853658],[146.649315,-42.85094],[146.65657,-42.847634],[146.662079,-42.847187],[146.665308,-42.851992],[146.675126,-42.849611],[146.678176,-42.852164],[146.68526,-42.853269],[146.698446,-42.8513],[146.697394,-42.857529],[146.706705,-42.857148],[146.715478,-42.858656],[146.723042,-42.858121],[146.735455,-42.86702],[146.739431,-42.871195],[146.743252,-42.870159],[146.74953,-42.871447],[146.755394,-42.874395],[146.765581,-42.874138],[146.772285,-42.879464],[146.776179,-42.88424],[146.775655,-42.889593],[146.780537,-42.898608],[146.788492,-42.903855],[146.79253,-42.902678],[146.797936,-42.903674],[146.802053,-42.901322],[146.805489,-42.894637],[146.808999,-42.893715],[146.815038,-42.897782],[146.820163,-42.898686],[146.825565,-42.90163],[146.832819,-42.903141],[146.846451,-42.908202],[146.846215,-42.913785],[146.852186,-42.919317],[146.849379,-42.923912],[146.851772,-42.93007],[146.855642,-42.932497],[146.855266,-42.939115],[146.856915,-42.94103],[146.864057,-42.94311],[146.873892,-42.95463],[146.880302,-42.948977],[146.881542,-42.939641],[146.879704,-42.935433],[146.884024,-42.934339],[146.889413,-42.935929],[146.896016,-42.935256],[146.902512,-42.940025],[146.913518,-42.939638],[146.916581,-42.933688],[146.927093,-42.929463],[146.937466,-42.928528],[146.941274,-42.926634],[146.941963,-42.922682],[146.934246,-42.919805],[146.934207,-42.915122],[146.929874,-42.902895],[146.924256,-42.900464],[146.925991,-42.895278],[146.930471,-42.892489],[146.935786,-42.893195],[146.93649,-42.888941],[146.940581,-42.885867],[146.949907,-42.882729],[146.955489,-42.882079],[146.960394,-42.885052],[146.970537,-42.888752],[146.983372,-42.887764],[146.990529,-42.885838],[146.997633,-42.888193],[147.009243,-42.888143],[147.010272,-42.895699],[147.005861,-42.899742],[147.010492,-42.901107],[147.014395,-42.905951],[147.02279,-42.90777],[147.03231,-42.904188],[147.039691,-42.906167],[147.039546,-42.910016],[147.044641,-42.909126],[147.047761,-42.902393],[147.051271,-42.900384],[147.130465,-42.910616],[147.150368,-42.913351],[147.150668,-42.875041],[147.150353,-42.858481],[147.151047,-42.855773],[147.145094,-42.854765],[147.146491,-42.849228],[147.135393,-42.847832],[147.142437,-42.841558],[147.147274,-42.842099],[147.148338,-42.837198],[147.153641,-42.834332],[147.161877,-42.835438],[147.163036,-42.831005],[147.173858,-42.829746],[147.180042,-42.822379],[147.17664,-42.817864],[147.178795,-42.814609],[147.185749,-42.811807],[147.193922,-42.813491],[147.19243,-42.809062],[147.195803,-42.805735],[147.200835,-42.806465],[147.197835,-42.797599],[147.200564,-42.79795],[147.202286,-42.791276],[147.201103,-42.78666],[147.203754,-42.780044],[147.206708,-42.777105],[147.212892,-42.766963],[147.222971,-42.758555],[147.226904,-42.75042],[147.232714,-42.751939],[147.236205,-42.755378],[147.237291,-42.759464],[147.2425,-42.761343],[147.253576,-42.769487],[147.257971,-42.777546],[147.256845,-42.782797],[147.261365,-42.784841],[147.269359,-42.790785],[147.275905,-42.788611],[147.283207,-42.789994],[147.272244,-42.795783],[147.258954,-42.791834],[147.262881,-42.796559],[147.261704,-42.800429],[147.257206,-42.801509],[147.261219,-42.808677],[147.256684,-42.811689],[147.255959,-42.815145],[147.267989,-42.819205],[147.272325,-42.824434],[147.279306,-42.825996],[147.286407,-42.820134],[147.298018,-42.818736],[147.303901,-42.820475],[147.306722,-42.823546],[147.300871,-42.827619],[147.30189,-42.833834],[147.304928,-42.833567],[147.305266,-42.826403],[147.317326,-42.829185],[147.323192,-42.834012],[147.3236,-42.837943],[147.314872,-42.846832],[147.327849,-42.84461],[147.327334,-42.851485],[147.321904,-42.851323],[147.319663,-42.855131],[147.328561,-42.860055],[147.331053,-42.863709],[147.336789,-42.864589],[147.334547,-42.870582],[147.335236,-42.873862],[147.341196,-42.877063],[147.34139948620773,-42.88093597094665],[147.35236074739362,-42.87562736759798],[147.35094,-42.870474],[147.355186,-42.8655],[147.350539,-42.860591],[147.354622,-42.857453],[147.355057,-42.850012],[147.350314,-42.853127],[147.344275,-42.850832],[147.343282,-42.848302],[147.337797,-42.845038],[147.34175,-42.839646],[147.333777,-42.841081],[147.326579,-42.829533],[147.317373,-42.824903],[147.319935,-42.816675],[147.312217,-42.81561],[147.308148,-42.812345],[147.294137,-42.809418],[147.291076,-42.806196],[147.283331,-42.802795],[147.281926,-42.797003],[147.289859,-42.79526],[147.292566,-42.790883],[147.295125,-42.794347],[147.307333,-42.798078],[147.305827,-42.787789],[147.311656,-42.782187],[147.32036,-42.781821],[147.326189,-42.780478],[147.325339,-42.772059],[147.332586,-42.766641],[147.347579,-42.777447],[147.353606,-42.772261],[147.368526,-42.761214],[147.377841,-42.764918],[147.375254,-42.771226],[147.386872,-42.776617],[147.392172,-42.772515],[147.404646,-42.780066],[147.409174,-42.779656],[147.416276,-42.787314],[147.418517,-42.787745],[147.426405,-42.77521],[147.434128,-42.77554],[147.43642534468486,-42.776953076361906],[147.43648771840182,-42.77707596483164]]],[[[147.01779653416304,-41.336670014815894],[147.029767,-41.345468],[147.03342783326843,-41.35117550510017],[147.036248,-41.347026],[147.04546,-41.345922],[147.047075,-41.343472],[147.054851,-41.340856],[147.05180035439034,-41.33826465810747],[147.03446584006937,-41.33578719283346],[147.01779653416304,-41.336670014815894]]],[[[147.07363509267196,-41.34717411505471],[147.068964,-41.354366],[147.075306,-41.36844],[147.073927,-41.383968],[147.079496,-41.391281],[147.085218,-41.393481],[147.089518,-41.39742],[147.095428,-41.399337],[147.111975,-41.401055],[147.11728,-41.406206],[147.123053,-41.409566],[147.123206,-41.413667],[147.116076,-41.419482],[147.116178,-41.423062],[147.127813,-41.437589],[147.129956,-41.433558],[147.12702,-41.432141],[147.118043,-41.420156],[147.120166,-41.417792],[147.126142,-41.415741],[147.127861,-41.410952],[147.117228,-41.403048],[147.112822,-41.396209],[147.093944,-41.385783],[147.092769,-41.377886],[147.079766,-41.366831],[147.07528,-41.354539],[147.07363509267196,-41.34717411505471]],[[147.079222,-41.372835],[147.086818,-41.376896],[147.087867,-41.380017],[147.084907,-41.384717],[147.079081,-41.376971],[147.079222,-41.372835]]],[[[147.53250396894057,-42.983381966902925],[147.534675,-42.982368],[147.539201,-42.97491],[147.53595632810436,-42.972111352055634],[147.53250396894057,-42.983381966902925]]]]},"bbox":[145.832634,-43.33633941771434,148.4490572279775,-40.80928088253906]}]}