{"type":"FeatureCollection","features":[
{"properties":{"electorateShortName":"macarthur","electorateName":"Macarthur","area":306.87,"state":"NSW"},"type":"Feature","geometry":{"type":"Polygon","coordinates":[[[150.922732,-34.130009],[150.926025,-34.117511],[150.933527,-34.109405],[150.936595,-34.095129],[150.92531,-34.093351],[150.936889,-34.075705],[150.934371,-34.05897],[150.940791,-34.040033],[150.886657,-34.032115],[150.886481,-34.024934],[150.874568,-34.02154],[150.867895,-34.014347],[150.859494,-34.015632],[150.828677,-34.010694],[150.856868,-33.98557],[150.856473,-33.97473],[150.849889,-33.977316],[150.841261,-33.956162],[150.84199,-33.950144],[150.822564,-33.951998],[150.811413,-33.973526],[150.799098,-33.982218],[150.763999,-34.015696],[150.745626,-34.036846],[150.78093,-34.059678],[150.766419,-34.078065],[150.742134,-34.080727],[150.736991,-34.112839],[150.752606,-34.117205],[150.755903,-34.124778],[150.750125,-34.132286],[150.756249,-34.141331],[150.74978,-34.1521],[150.752063,-34.163864],[150.840897,-34.176524],[150.855005,-34.184149],[150.859526,-34.181048],[150.879458,-34.186888],[150.899355,-34.189613],[150.903908,-34.185063],[150.907085,-34.164498],[150.914114,-34.159257],[150.922732,-34.130009]]]},"bbox":[150.736991,-34.189613,150.940791,-33.950144]}]}