{"type":"FeatureCollection","features":[
{"properties":{"electorateShortName":"mackellar","electorateName":"Mackellar","area":221.56,"state":"NSW"},"type":"Feature","geometry":{"type":"Polygon","coordinates":[[[151.299538,-33.767132],[151.301813,-33.760136],[151.298077,-33.751803],[151.313268,-33.738645],[151.306896,-33.738127],[151.30169,-33.731295],[151.300238,-33.717914],[151.304206,-33.708358],[151.310706,-33.697815],[151.308895,-33.689026],[151.316259,-33.675843],[151.319113,-33.667793],[151.326096,-33.662427],[151.323354,-33.656311],[151.329688,-33.643848],[151.331914,-33.636464],[151.34014,-33.633376],[151.343021,-33.624508],[151.339057,-33.617308],[151.33358,-33.616319],[151.332616,-33.60826],[151.336072,-33.604632],[151.326997,-33.599985],[151.326445,-33.588515],[151.330518,-33.582194],[151.3352,-33.5822],[151.328127,-33.578163],[151.322677,-33.579818],[151.310802,-33.579452],[151.302304,-33.573509],[151.284798,-33.572214],[151.282942,-33.577835],[151.272277,-33.586237],[151.260747,-33.590032],[151.25021,-33.587935],[151.254334,-33.603694],[151.241199,-33.600433],[151.231648,-33.603577],[151.226685,-33.598772],[151.215461,-33.612847],[151.205049,-33.615435],[151.196143,-33.622227],[151.187736,-33.62162],[151.183573,-33.6254],[151.175919,-33.627211],[151.165104,-33.639403],[151.164108,-33.656222],[151.161505,-33.659605],[151.168875,-33.667781],[151.16723,-33.672301],[151.171846,-33.677542],[151.165852,-33.686067],[151.176324,-33.697875],[151.188405,-33.698545],[151.191417,-33.702699],[151.187746,-33.720649],[151.187522,-33.728208],[151.182553,-33.732406],[151.18035,-33.740095],[151.188384,-33.743645],[151.193976,-33.750466],[151.190988,-33.757003],[151.198416,-33.761605],[151.199426,-33.76791],[151.203599,-33.773133],[151.212466,-33.778566],[151.213645,-33.782764],[151.222669,-33.785059],[151.230948,-33.784291],[151.232252,-33.77787],[151.2383,-33.778678],[151.232842,-33.764364],[151.234471,-33.752223],[151.245268,-33.751763],[151.274556,-33.755306],[151.28055,-33.759726],[151.279336,-33.765735],[151.299538,-33.767132]]]},"bbox":[151.161505,-33.785059,151.343021,-33.572214]}]}