{"type":"FeatureCollection","features":[
{"properties":{"electorateShortName":"macnamara","electorateName":"Macnamara","area":38.39,"state":"VIC"},"type":"Feature","geometry":{"type":"Polygon","coordinates":[[[145.049635,-37.881026],[145.038261,-37.873739],[145.002439,-37.853092],[144.968252,-37.819224],[144.906529,-37.821593],[144.898362,-37.841204],[144.963316,-37.855468],[144.98499,-37.891003],[145.044819,-37.889737],[145.049635,-37.881026]]]},"bbox":[144.898362,-37.891003,145.049635,-37.819224]}]}