{"type":"FeatureCollection","features":[
{"properties":{"electorateShortName":"macnamara","electorateName":"Macnamara","area":38.39,"state":"VIC"},"type":"Feature","geometry":{"type":"Polygon","coordinates":[[[145.049635,-37.881026],[145.046522,-37.876974],[145.038261,-37.873739],[145.032582,-37.868437],[145.015137,-37.86084],[145.001366,-37.859004],[145.002439,-37.853092],[144.980643,-37.850219],[144.975538,-37.836218],[144.9718,-37.83228],[144.971351,-37.826502],[144.968252,-37.819224],[144.960623,-37.820754],[144.955268,-37.823346],[144.946915,-37.823273],[144.927737,-37.819284],[144.918002,-37.819113],[144.906529,-37.821593],[144.898884,-37.828876],[144.897147,-37.83263],[144.898362,-37.841204],[144.897148,-37.842552],[144.899459,-37.848829],[144.905593,-37.851732],[144.895504,-37.848029],[144.902042,-37.854318],[144.903923,-37.861733],[144.911555,-37.862068],[144.915394,-37.865307],[144.908045,-37.8707],[144.902906,-37.872753],[144.89215,-37.867605],[144.88505,-37.86828],[144.882677,-37.865786],[144.878621,-37.868083],[144.874646,-37.861723],[144.868582,-37.858712],[144.861666,-37.859841],[144.856185,-37.863435],[144.850369,-37.863944],[144.840214,-37.871507],[144.826561,-37.870863],[144.819567,-37.872528],[144.81517778137348,-37.875538354052935],[144.81970518884734,-37.88494306788326],[144.83030051495965,-37.90009062202999],[144.85296076257288,-37.921336129746095],[144.8684136809365,-37.93073322160132],[144.88543341170663,-37.93685096512321],[144.9013308105189,-37.939152495474346],[144.90694876909714,-37.93949048877703],[144.91360962135113,-37.9473130141355],[144.92294162135113,-37.9561950141355],[144.93769179693314,-37.967572445516105],[144.95446828373483,-37.97566955087003],[144.9725523571276,-37.98013944058284],[144.9737608669342,-37.980302910814665],[144.9791848669342,-37.981000910814664],[144.99616814861608,-37.98156902296726],[145.0129554996511,-37.978934738751065],[145.014133,-37.974622],[145.009382,-37.969598],[145.011424,-37.967527],[145.010226,-37.96121],[145.001293,-37.950703],[144.993044,-37.943982],[144.992151,-37.94002],[144.999006,-37.939988],[144.989863,-37.929098],[144.985526,-37.926238],[144.987407,-37.919984],[144.984792,-37.913367],[144.98564,-37.908431],[144.983395,-37.901134],[144.985871,-37.896385],[144.98499,-37.891003],[144.990672,-37.891737],[144.992264,-37.883274],[145.044819,-37.889737],[145.049635,-37.881026]]]},"bbox":[144.81517778137348,-37.98156902296726,145.049635,-37.819113]}]}