{"type":"FeatureCollection","features":[
{"properties":{"electorateShortName":"makin","electorateName":"Makin","area":162.4,"state":"SA"},"type":"Feature","geometry":{"type":"Polygon","coordinates":[[[138.78019,-34.767026],[138.769023,-34.756775],[138.77136,-34.745874],[138.755644,-34.744861],[138.730819,-34.736815],[138.722305,-34.746266],[138.720128,-34.755396],[138.705383,-34.752998],[138.680179,-34.755628],[138.647038,-34.791796],[138.607409,-34.767724],[138.596544,-34.769509],[138.592468,-34.779667],[138.575302,-34.788011],[138.550536,-34.786046],[138.543501,-34.774809],[138.546464,-34.765141],[138.541428,-34.752951],[138.532559,-34.744324],[138.529693,-34.73491],[138.525137,-34.737409],[138.493619,-34.718986],[138.486376784486,-34.722930272446334],[138.47512795954262,-34.736917317599804],[138.46687845212085,-34.75285843180271],[138.4619563822992,-34.77011956512015],[138.4607345207482,-34.785749959487276],[138.45999951019272,-34.7888455355299],[138.45766172405175,-34.805465552556605],[138.45845046540242,-34.822230638213725],[138.46233830452664,-34.83855776034083],[138.46919003571827,-34.853879117646436],[138.47606,-34.856766],[138.476742,-34.843713],[138.488512,-34.819798],[138.490256,-34.810966],[138.485446,-34.790504],[138.477997,-34.78294],[138.496325,-34.764612],[138.507004,-34.763389],[138.515749,-34.771573],[138.510594,-34.790777],[138.512092,-34.807273],[138.51616,-34.810835],[138.540331,-34.815441],[138.545732,-34.81061],[138.558473,-34.825161],[138.56627,-34.825305],[138.563365,-34.832749],[138.564539,-34.849757],[138.63534,-34.846848],[138.705386,-34.842973],[138.729803,-34.837421],[138.747028,-34.840674],[138.753844,-34.823008],[138.750851,-34.806979],[138.761808,-34.793197],[138.758651,-34.785649],[138.768021,-34.780351],[138.78019,-34.767026]],[[138.529523,-34.774156],[138.541282,-34.787312],[138.546309,-34.799042],[138.518591,-34.805594],[138.516103,-34.796182],[138.522502,-34.769668],[138.529523,-34.774156]]]},"bbox":[138.45766172405175,-34.856766,138.78019,-34.718986]}]}