{"type":"FeatureCollection","features":[
{"properties":{"electorateShortName":"maranoa","electorateName":"Maranoa","area":729896.590691,"state":"QLD"},"type":"Feature","geometry":{"type":"Polygon","coordinates":[[[152.487617,-28.253908],[152.48764,-28.253379],[152.487704,-28.2526],[152.486992,-28.247982],[152.492287,-28.243468],[152.482353,-28.229506],[152.458952,-28.226581],[152.473234,-28.20436],[152.470858,-28.194963],[152.455831,-28.195629],[152.442049,-28.176017],[152.446688,-28.166427],[152.435536,-28.156308],[152.432048,-28.142626],[152.434044,-28.131009],[152.426143,-28.1291],[152.411431,-28.112637],[152.409408,-28.095775],[152.418451,-28.088486],[152.41631,-28.069754],[152.389954,-28.059093],[152.395034,-28.04899],[152.388469,-28.03629],[152.390311,-28.030865],[152.374893,-28.012336],[152.378003,-27.990558],[152.38776,-27.971873],[152.382276,-27.965632],[152.343058,-27.961016],[152.327654,-27.96661],[152.308386,-27.962841],[152.298687,-27.956378],[152.276931,-27.969723],[152.256571,-27.960783],[152.254436,-27.956114],[152.2149,-27.945139],[152.216011,-27.938764],[152.203453,-27.927042],[152.188454,-27.924176],[152.184809,-27.912513],[152.175651,-27.904488],[152.171109,-27.887217],[152.152404,-27.872686],[152.148272,-27.862854],[152.133075,-27.858233],[152.073749,-27.849809],[152.071888,-27.860228],[152.0472,-27.857231],[152.041512,-27.850364],[152.023957,-27.844847],[152.013697,-27.834761],[151.99902,-27.840218],[151.983865,-27.83585],[151.977704,-27.850626],[151.965443,-27.845122],[151.941678,-27.849462],[151.909055,-27.845068],[151.894547,-27.848601],[151.8662,-27.832223],[151.83248,-27.842653],[151.826588,-27.832157],[151.808255,-27.829619],[151.800902,-27.822269],[151.794322,-27.827462],[151.760196,-27.822867],[151.728385,-27.826953],[151.711682,-27.842889],[151.693594,-27.84985],[151.682587,-27.845047],[151.65957,-27.858542],[151.656679,-27.875715],[151.641337,-27.878845],[151.652166,-27.887388],[151.623829,-27.906668],[151.602142,-27.907245],[151.573479,-27.903493],[151.579891,-27.859109],[151.568591,-27.851829],[151.557337,-27.851469],[151.524262,-27.836289],[151.519448,-27.825519],[151.510663,-27.825269],[151.473438,-27.796217],[151.461527,-27.790559],[151.45715,-27.800613],[151.447526,-27.794679],[151.433397,-27.791676],[151.416556,-27.778568],[151.416915,-27.76606],[151.404509,-27.750379],[151.405193,-27.742525],[151.396916,-27.737027],[151.384569,-27.735852],[151.379611,-27.719969],[151.361344,-27.709305],[151.362768,-27.694373],[151.350404,-27.670446],[151.333396,-27.669564],[151.323111,-27.641956],[151.327465,-27.629251],[151.319461,-27.621376],[151.320833,-27.61365],[151.310429,-27.603411],[151.296947,-27.601269],[151.286558,-27.578436],[151.274526,-27.566073],[151.259747,-27.540566],[151.26605,-27.530075],[151.230082,-27.509202],[151.225648,-27.502573],[151.226657,-27.491927],[151.221848,-27.486475],[151.204617,-27.493607],[151.201819,-27.510589],[151.08169,-27.493381],[151.077486,-27.481163],[151.076586,-27.451121],[151.087625,-27.376222],[151.112741,-27.377044],[151.165789,-27.383608],[151.177774,-27.381609],[151.197416,-27.384022],[151.192732,-27.398747],[151.308622,-27.413824],[151.311716,-27.33623],[151.317652,-27.33141],[151.33763,-27.207551],[151.450784,-27.278638],[151.456788,-27.242104],[151.453694,-27.241573],[151.460382,-27.202634],[151.450389,-27.201142],[151.458041,-27.145909],[151.467223,-27.147086],[151.469702,-27.136181],[151.464934,-27.110822],[151.483027,-27.113216],[151.481231,-27.124368],[151.49677,-27.121952],[151.525483,-27.125519],[151.539668,-27.121763],[151.546229,-27.115295],[151.556053,-27.12312],[151.568505,-27.124785],[151.570905,-27.110659],[151.576371,-27.09983],[151.576154,-27.087776],[151.58118,-27.055961],[151.59674,-27.058012],[151.600858,-27.030506],[151.623086,-27.03013],[151.627521,-27.002613],[151.638287,-26.996773],[151.664422,-26.99004],[151.6711,-26.98201],[151.681396,-26.981195],[151.69397,-26.969204],[151.716607,-26.968889],[151.738988,-26.973327],[151.753744,-26.973725],[151.758822,-26.983484],[151.772878,-26.989885],[151.768303,-27.017921],[151.779856,-27.025672],[151.762304,-27.05084],[151.761824,-27.074402],[151.765761,-27.083216],[151.773565,-27.082272],[151.792247,-27.108284],[151.792632,-27.132693],[151.802774,-27.146034],[151.813489,-27.154896],[151.852695,-27.168106],[151.861711,-27.180245],[151.861845,-27.190536],[151.873394,-27.19531],[151.881714,-27.223721],[151.891728,-27.228763],[151.905626,-27.24582],[151.913407,-27.246853],[151.922472,-27.255063],[151.9353,-27.24695],[151.94389,-27.247857],[151.958045,-27.240978],[151.951814,-27.271393],[151.945354,-27.269866],[151.932792,-27.276023],[151.915407,-27.316282],[151.917937,-27.321033],[151.944931,-27.320815],[151.947302,-27.330942],[151.945522,-27.350946],[151.948019,-27.356596],[151.962482,-27.367044],[151.974317,-27.363424],[151.977724,-27.355883],[151.989037,-27.355141],[151.992904,-27.334223],[152.000068,-27.33299],[152.001932,-27.319024],[152.022039,-27.312416],[152.028276,-27.300951],[152.036431,-27.297562],[152.050034,-27.311839],[152.062329,-27.32839],[152.070788,-27.345018],[152.068669,-27.358184],[152.079533,-27.381094],[152.073671,-27.384886],[152.070838,-27.402759],[152.083408,-27.404658],[152.093985,-27.401106],[152.099625,-27.411863],[152.11874,-27.416387],[152.117929,-27.420963],[152.136975,-27.423638],[152.147967,-27.437285],[152.156303,-27.438489],[152.164533,-27.425698],[152.177275,-27.420898],[152.179524,-27.407605],[152.196014,-27.406138],[152.197391,-27.399978],[152.191723,-27.386849],[152.198344,-27.377657],[152.19148,-27.365797],[152.195973,-27.340833],[152.201485,-27.322022],[152.1901,-27.320353],[152.192367,-27.311241],[152.206186,-27.292046],[152.199343,-27.28847],[152.194461,-27.275415],[152.182785,-27.273575],[152.170448,-27.286666],[152.162347,-27.282286],[152.151987,-27.269404],[152.158259,-27.259283],[152.182029,-27.252194],[152.190906,-27.242078],[152.218414,-27.232553],[152.232916,-27.222364],[152.236149,-27.203708],[152.220465,-27.201307],[152.215077,-27.208955],[152.179789,-27.205384],[152.174034,-27.211087],[152.158854,-27.206431],[152.161754,-27.189325],[152.185497,-27.176236],[152.188492,-27.169149],[152.134036,-27.141624],[152.141842,-27.126549],[152.174357,-27.097601],[152.191318,-27.072344],[152.214305,-27.075087],[152.214332,-27.069944],[152.227387,-27.060991],[152.194896,-27.056745],[152.199179,-27.027755],[152.219005,-27.026119],[152.220958,-27.022207],[152.198108,-27.008236],[152.186586,-27.006662],[152.188751,-26.993928],[152.182664,-26.97723],[152.168667,-26.977794],[152.150392,-26.966065],[152.138717,-26.96477],[152.125438,-26.954225],[152.128066,-26.944418],[152.143012,-26.924869],[152.143715,-26.911229],[152.14987,-26.904617],[152.138715,-26.894653],[152.146979,-26.879117],[152.170568,-26.867411],[152.172641,-26.875258],[152.184226,-26.871014],[152.181029,-26.846573],[152.187702,-26.837936],[152.190081,-26.823612],[152.174117,-26.821439],[152.176386,-26.809059],[152.170741,-26.796468],[152.176618,-26.779782],[152.155782,-26.76882],[152.155643,-26.754269],[152.163898,-26.742123],[152.150971,-26.740517],[152.152989,-26.727605],[152.134298,-26.730599],[152.112249,-26.706196],[152.088977,-26.699799],[152.076002,-26.685856],[152.073393,-26.66841],[152.081061,-26.657986],[152.098647,-26.653751],[152.126748,-26.637973],[152.12831,-26.62712],[152.13585,-26.614219],[152.130321,-26.600406],[152.137788,-26.596578],[152.137204,-26.582683],[152.130947,-26.574919],[152.135963,-26.566372],[152.126421,-26.531617],[152.125717,-26.50656],[152.136728,-26.493722],[152.135867,-26.480062],[152.149888,-26.482675],[152.167652,-26.475419],[152.173777,-26.438091],[152.16719,-26.416696],[152.159427,-26.415523],[152.148731,-26.401357],[152.140217,-26.401569],[152.121249,-26.392641],[152.120144,-26.378695],[152.096439,-26.373543],[152.088317,-26.365849],[152.072527,-26.359419],[152.066278,-26.381612],[152.011798,-26.375274],[152.011059,-26.385124],[152.024788,-26.388057],[152.026143,-26.395239],[152.036555,-26.39955],[152.017899,-26.419201],[151.995889,-26.432648],[151.981949,-26.429183],[151.972949,-26.431256],[151.963203,-26.422662],[151.922648,-26.417634],[151.902167,-26.402367],[151.891556,-26.390819],[151.87052,-26.390943],[151.855269,-26.40113],[151.829004,-26.400354],[151.824243,-26.392736],[151.830478,-26.381047],[151.785529,-26.375273],[151.783287,-26.390141],[151.766939,-26.388021],[151.768169,-26.380314],[151.719493,-26.374012],[151.717181,-26.389136],[151.699503,-26.39734],[151.689134,-26.395779],[151.678422,-26.403054],[151.671495,-26.394187],[151.537849,-26.376519],[151.529666,-26.382224],[151.507509,-26.375876],[151.484065,-26.382817],[151.483858,-26.393493],[151.441376,-26.422229],[151.429954,-26.426842],[151.427375,-26.433828],[151.390164,-26.383228],[151.377236,-26.394571],[151.365461,-26.400957],[151.333441,-26.405346],[151.319517,-26.399944],[151.306596,-26.403988],[151.284892,-26.393278],[151.200782,-26.449264],[151.200421,-26.460622],[151.207727,-26.469191],[151.207725,-26.478767],[151.076653,-26.462794],[151.114728,-26.379598],[151.133333,-26.272512],[151.135653,-26.263126],[151.065901,-26.254601],[151.016714,-26.256222],[151.013243,-26.191929],[151.02286,-26.19499],[151.073262,-26.172779],[151.076422,-26.161856],[151.099823,-26.160292],[151.098696,-26.149895],[151.115863,-26.140878],[151.125689,-26.151452],[151.13928,-26.159197],[151.150042,-26.159662],[151.161997,-26.149537],[151.156537,-26.133744],[151.159527,-26.120812],[151.149868,-26.105434],[151.134437,-26.105301],[151.126275,-26.114524],[151.115413,-26.118721],[151.111163,-26.112685],[151.097814,-26.110762],[151.073864,-26.095345],[151.067346,-26.0854],[151.054264,-26.088892],[151.040198,-26.087752],[151.015886,-26.07722],[151.009113,-26.068061],[151.003024,-26.04327],[150.993893,-26.031208],[150.983982,-26.007806],[150.96216,-26.013861],[150.949807,-26.010038],[150.933085,-26.013221],[150.920428,-26.005017],[150.905964,-26.008324],[150.903927,-26.019397],[150.849566,-26.056405],[150.789811,-26.048923],[150.780915,-26.028494],[150.78598,-26.018657],[150.775761,-26.012212],[150.773554,-25.998309],[150.763333,-25.98145],[150.72529,-25.980871],[150.714149,-25.984854],[150.701622,-25.974081],[150.672548,-25.969765],[150.674705,-25.963125],[150.669187,-25.942882],[150.679619,-25.92866],[150.684773,-25.914505],[150.684554,-25.90198],[150.678524,-25.891504],[150.680602,-25.882853],[150.693544,-25.871996],[150.699243,-25.85574],[150.697017,-25.850809],[150.67117,-25.821439],[150.659397,-25.814732],[150.65064,-25.804629],[150.657653,-25.800906],[150.644419,-25.785264],[150.650464,-25.774524],[150.660423,-25.773318],[150.666477,-25.763333],[150.663702,-25.757407],[150.664613,-25.733239],[150.649808,-25.726643],[150.643073,-25.715981],[150.646661,-25.705599],[150.663587,-25.68464],[150.655598,-25.672033],[150.654161,-25.659782],[150.591014,-25.652642],[150.58512,-25.643812],[150.57042,-25.638485],[150.552945,-25.641724],[150.537597,-25.641505],[150.524548,-25.644978],[150.50416,-25.63594],[150.495408,-25.628432],[150.484028,-25.60619],[150.446097,-25.598841],[150.436743,-25.606392],[150.442553,-25.621755],[150.436464,-25.661415],[150.426595,-25.665307],[150.418493,-25.67516],[150.422019,-25.694231],[150.434148,-25.733632],[150.42959,-25.737068],[150.426022,-25.773976],[150.417908,-25.789101],[150.404484,-25.790466],[150.386739,-25.80581],[150.388757,-25.814523],[150.361141,-25.818391],[150.341134,-25.814928],[150.336669,-25.790407],[150.295095,-25.780245],[150.28193,-25.778848],[150.279111,-25.796265],[150.257854,-25.788433],[150.236742,-25.788791],[150.174418,-25.780444],[150.180601,-25.795146],[150.18076,-25.805691],[150.159005,-25.819161],[150.141622,-25.822944],[150.114818,-25.810922],[150.104469,-25.795509],[150.09695,-25.794654],[150.085198,-25.812072],[150.055946,-25.81313],[150.051829,-25.837825],[150.044503,-25.833933],[150.030907,-25.836421],[150.021739,-25.865207],[150.013432,-25.857475],[149.990059,-25.847095],[149.961425,-25.850654],[149.95037,-25.839685],[149.931975,-25.839416],[149.927651,-25.832033],[149.906387,-25.817171],[149.882488,-25.829441],[149.850809,-25.837479],[149.838505,-25.837059],[149.823579,-25.828294],[149.822804,-25.849289],[149.813292,-25.852539],[149.797982,-25.848834],[149.787085,-25.857877],[149.770882,-25.852357],[149.766316,-25.859459],[149.783034,-25.890701],[149.77134,-25.90605],[149.767274,-25.904813],[149.736105,-25.849599],[149.692287,-25.869086],[149.681889,-25.872281],[149.649194,-25.894488],[149.584433,-25.886328],[149.575487,-25.944165],[149.476835,-25.933506],[149.483531,-25.891873],[149.401643,-25.882506],[149.398148,-25.876256],[149.382728,-25.888896],[149.365015,-25.898102],[149.363258,-25.904752],[149.342262,-25.920837],[149.327807,-25.92525],[149.3028,-25.966084],[149.22596,-25.957228],[149.168422,-25.949034],[149.138019,-25.945806],[149.124564,-25.951124],[149.085523,-25.941109],[149.079935,-25.924558],[149.091086,-25.906677],[149.093618,-25.895215],[149.110591,-25.876186],[149.104513,-25.866319],[149.084498,-25.853487],[149.075631,-25.842944],[149.068032,-25.842485],[149.05461,-25.82896],[149.043739,-25.8218],[149.025279,-25.798982],[149.031609,-25.77551],[149.02135,-25.770085],[149.012135,-25.776826],[148.977436,-25.787133],[148.961161,-25.789761],[148.94469,-25.770998],[148.911223,-25.767597],[148.90072,-25.760089],[148.924079,-25.740139],[148.92186,-25.725384],[148.928704,-25.708197],[148.942382,-25.685517],[148.949467,-25.692864],[148.957567,-25.693105],[148.973513,-25.713302],[148.996296,-25.697735],[149.008598,-25.695076],[149.016196,-25.682242],[149.031884,-25.672849],[149.040483,-25.675832],[149.053383,-25.665666],[149.059655,-25.652623],[149.049901,-25.648835],[149.050497,-25.638531],[149.060299,-25.632182],[149.059057,-25.62579],[149.047453,-25.623382],[149.038265,-25.631533],[149.027865,-25.620187],[149.019693,-25.604013],[148.994982,-25.601044],[148.983717,-25.588673],[149.024318,-25.559799],[148.972217,-25.499426],[148.938047,-25.458588],[148.919056,-25.467506],[148.907111,-25.467278],[148.90043,-25.472469],[148.876847,-25.469783],[148.872855,-25.461246],[148.863728,-25.46478],[148.833436,-25.459963],[148.814899,-25.452006],[148.810919,-25.441037],[148.79808,-25.445424],[148.791201,-25.439115],[148.775942,-25.434953],[148.761774,-25.417387],[148.744135,-25.413272],[148.725886,-25.400862],[148.724895,-25.390365],[148.718974,-25.386964],[148.726672,-25.342565],[148.733186,-25.337751],[148.747048,-25.318666],[148.759154,-25.310734],[148.74525,-25.279734],[148.727484,-25.287947],[148.708365,-25.277527],[148.699852,-25.284574],[148.682278,-25.283279],[148.679855,-25.295357],[148.666599,-25.310976],[148.653065,-25.298329],[148.643114,-25.284136],[148.600075,-25.272868],[148.592818,-25.26283],[148.566588,-25.24953],[148.554345,-25.254106],[148.538315,-25.24569],[148.518532,-25.243475],[148.502911,-25.246491],[148.476272,-25.245362],[148.466017,-25.247246],[148.453218,-25.254457],[148.420843,-25.250882],[148.409583,-25.259148],[148.400128,-25.246001],[148.380386,-25.241719],[148.376371,-25.234822],[148.352036,-25.229107],[148.34773,-25.220138],[148.337082,-25.217801],[148.326226,-25.210295],[148.305572,-25.212303],[148.306379,-25.204066],[148.292904,-25.181889],[148.294549,-25.1661],[148.27605,-25.153144],[148.261051,-25.135671],[148.236228,-25.114301],[148.234682,-25.100669],[148.213308,-25.08643],[148.210095,-25.080258],[148.199152,-25.082006],[148.181264,-25.07952],[148.175078,-25.084523],[148.160584,-25.084169],[148.150139,-25.061389],[148.145176,-25.061298],[148.134456,-25.043304],[148.121614,-25.042014],[148.116388,-25.02281],[148.098979,-25.018357],[148.085083,-25.002144],[148.075886,-24.976045],[148.077734,-24.966632],[148.073043,-24.956188],[148.075298,-24.943078],[148.066023,-24.935653],[148.057673,-24.915533],[148.044644,-24.909362],[148.029651,-24.911364],[148.013503,-24.898707],[147.995082,-24.899475],[147.973222,-24.881534],[147.962701,-24.878915],[147.952765,-24.881346],[147.939056,-24.859309],[147.915622,-24.842755],[147.912877,-24.836464],[147.915253,-24.822824],[147.903776,-24.816302],[147.900084,-24.807224],[147.889132,-24.798736],[147.852788,-24.781262],[147.848125,-24.766079],[147.828371,-24.749721],[147.821369,-24.735648],[147.784249,-24.734415],[147.775095,-24.739011],[147.762347,-24.729086],[147.733282,-24.731673],[147.712052,-24.751736],[147.69005,-24.763101],[147.681902,-24.772074],[147.66884,-24.769896],[147.648828,-24.771342],[147.644387,-24.774714],[147.642127,-24.797774],[147.634397,-24.803417],[147.611467,-24.807107],[147.587065,-24.828069],[147.576793,-24.833525],[147.566163,-24.829848],[147.558219,-24.818967],[147.543749,-24.81937],[147.520939,-24.829447],[147.505664,-24.825257],[147.505086,-24.841111],[147.49628,-24.849419],[147.485925,-24.875806],[147.476435,-24.878219],[147.419719,-24.88137],[147.395858,-24.876538],[147.380706,-24.871307],[147.369188,-24.877165],[147.349652,-24.876141],[147.341116,-24.871829],[147.322085,-24.87119],[147.308683,-24.882558],[147.297574,-24.883012],[147.290593,-24.894532],[147.136624,-24.882882],[147.138836,-24.848994],[147.089424,-24.846467],[147.091547,-24.814128],[147.001883,-24.809328],[146.903382,-24.805192],[146.889122,-24.778912],[146.880282,-24.773406],[146.882273,-24.762487],[146.893944,-24.758234],[146.900543,-24.745328],[146.909466,-24.74383],[146.920875,-24.716637],[146.933092,-24.706992],[146.942012,-24.704363],[146.934754,-24.677537],[146.912528,-24.658513],[146.908935,-24.647888],[146.899302,-24.646346],[146.893173,-24.636972],[146.894756,-24.628826],[146.890277,-24.615411],[146.884384,-24.612304],[146.883106,-24.600802],[146.868483,-24.593368],[146.856982,-24.593744],[146.848677,-24.608736],[146.833941,-24.624339],[146.819052,-24.626023],[146.813623,-24.636531],[146.807024,-24.637142],[146.800113,-24.620586],[146.787417,-24.62629],[146.779787,-24.636176],[146.774156,-24.662766],[146.75791,-24.663359],[146.750486,-24.652368],[146.740507,-24.65034],[146.737139,-24.642757],[146.737509,-24.627758],[146.721442,-24.626028],[146.713536,-24.618884],[146.699274,-24.615734],[146.682499,-24.605848],[146.682175,-24.600126],[146.666809,-24.590814],[146.680792,-24.578937],[146.679623,-24.572827],[146.667476,-24.562208],[146.664048,-24.54805],[146.645882,-24.523343],[146.648209,-24.518063],[146.639924,-24.500211],[146.626085,-24.49376],[146.620081,-24.467147],[146.611238,-24.458387],[146.596051,-24.453012],[146.589662,-24.443562],[146.589085,-24.432009],[146.573966,-24.416709],[146.581126,-24.411553],[146.595864,-24.417187],[146.61781,-24.411821],[146.627134,-24.403218],[146.63847,-24.405101],[146.641718,-24.39916],[146.663448,-24.401214],[146.669372,-24.390463],[146.679657,-24.388242],[146.681967,-24.380232],[146.690512,-24.374888],[146.712721,-24.377528],[146.721926,-24.384701],[146.721313,-24.39688],[146.729701,-24.418552],[146.74717,-24.406922],[146.759519,-24.403674],[146.778052,-24.404992],[146.790866,-24.409955],[146.805026,-24.405198],[146.812185,-24.394305],[146.814357,-24.376709],[146.847672,-24.368715],[146.853612,-24.372299],[146.864237,-24.368793],[146.865341,-24.360267],[146.874662,-24.347985],[146.873699,-24.337689],[146.88475,-24.330746],[146.899735,-24.328556],[146.913001,-24.31269],[146.923093,-24.29469],[146.935123,-24.290589],[146.926852,-24.278986],[146.928097,-24.253624],[146.936993,-24.243344],[146.943701,-24.229177],[146.940287,-24.219268],[146.953418,-24.206858],[146.949734,-24.18836],[146.957122,-24.16999],[146.973663,-24.160118],[146.989859,-24.161312],[147.028548,-24.140537],[147.037304,-24.132195],[147.037413,-24.125697],[147.05046,-24.118549],[147.073689,-24.117696],[147.089536,-24.104416],[147.110288,-24.093341],[147.121788,-24.094461],[147.141514,-24.085622],[147.15635,-24.09253],[147.165563,-24.092446],[147.183316,-24.085741],[147.18275,-24.073443],[147.174172,-24.060048],[147.176102,-24.050369],[147.18663,-24.036053],[147.179174,-24.019096],[147.183679,-24.006618],[147.173364,-23.978058],[147.163928,-23.975614],[147.168985,-23.955351],[147.180954,-23.941598],[147.203283,-23.93982],[147.215018,-23.924264],[147.234311,-23.912074],[147.241147,-23.9032],[147.233507,-23.881347],[147.238932,-23.862297],[147.236497,-23.847964],[147.22769,-23.832112],[147.237201,-23.810399],[147.230148,-23.797974],[147.229553,-23.787489],[147.199777,-23.773309],[147.200177,-23.754928],[147.195132,-23.745572],[147.200708,-23.727129],[147.193689,-23.718214],[147.197611,-23.708672],[147.195719,-23.6845],[147.20953,-23.675934],[147.20057,-23.654615],[147.211324,-23.636607],[147.203296,-23.631319],[147.198288,-23.612572],[147.199904,-23.606229],[147.218235,-23.59567],[147.220467,-23.588366],[147.212164,-23.576067],[147.21837,-23.57016],[147.221399,-23.550461],[147.2344,-23.551871],[147.250363,-23.542932],[147.255698,-23.543867],[147.274621,-23.535167],[147.283772,-23.524784],[147.278297,-23.513459],[147.282114,-23.500569],[147.280316,-23.484984],[147.273294,-23.469267],[147.260362,-23.469494],[147.251142,-23.45896],[147.250642,-23.447251],[147.259839,-23.43807],[147.264544,-23.413066],[147.265016,-23.384165],[147.275442,-23.366037],[147.282898,-23.36259],[147.286615,-23.351236],[147.161732,-23.339787],[147.158239,-23.326392],[147.074733,-23.307149],[147.079057,-23.279834],[146.976317,-23.263559],[146.939911,-23.260153],[146.932611,-23.315527],[146.854617,-23.304626],[146.855179,-23.292957],[146.863481,-23.280875],[146.87495,-23.275315],[146.8777,-23.255205],[146.88446,-23.224925],[146.87147,-23.210385],[146.87424,-23.198635],[146.8698,-23.184525],[146.86293,-23.173925],[146.84666,-23.163575],[146.84104,-23.163815],[146.815011,-23.155065],[146.798861,-23.143125],[146.789791,-23.129925],[146.784621,-23.113225],[146.785341,-23.103735],[146.778111,-23.092115],[146.78625,-23.076065],[146.78169,-23.055065],[146.78765,-23.047155],[146.78604,-23.033826],[146.7727,-23.017586],[146.75474,-22.990256],[146.74496,-22.986556],[146.73491,-22.975516],[146.713521,-22.966096],[146.697041,-22.964685],[146.694941,-22.957006],[146.664201,-22.924106],[146.669181,-22.918326],[146.661821,-22.906146],[146.641811,-22.883376],[146.624072,-22.887046],[146.609782,-22.881316],[146.594432,-22.887576],[146.577053,-22.889976],[146.560753,-22.880536],[146.553413,-22.868696],[146.546013,-22.838656],[146.525953,-22.812137],[146.524223,-22.800287],[146.529443,-22.793157],[146.539913,-22.789057],[146.547815,-22.77856],[146.548767,-22.768926],[146.40076,-22.756239],[146.408313,-22.690146],[146.423746,-22.547344],[146.439324,-22.548865],[146.451774,-22.499313],[146.436728,-22.487078],[146.428595,-22.487942],[146.413661,-22.503222],[146.387628,-22.519329],[146.372382,-22.519444],[146.347122,-22.500006],[146.335271,-22.495551],[146.311092,-22.493311],[146.289756,-22.497751],[146.269482,-22.507225],[146.283188,-22.463379],[146.113263,-22.446842],[146.108921,-22.445663],[146.122071,-22.347422],[146.052132,-22.338502],[146.070664,-22.226622],[146.064585,-22.185761],[146.074055,-22.123377],[146.06606,-22.116209],[146.031455,-22.104814],[146.002047,-22.100217],[145.880312,-22.08468],[145.880557,-22.080412],[145.76961,-22.06659],[145.770078,-22.04853],[145.661171,-22.041156],[145.664423,-21.998634],[145.668263,-21.932034],[145.627197,-21.926724],[145.630165,-21.892921],[145.640624,-21.893986],[145.64578,-21.797513],[145.661823,-21.724312],[145.673239,-21.716015],[145.678477,-21.668189],[145.532833,-21.658254],[145.529402,-21.701941],[145.434731,-21.692052],[145.426842,-21.76873],[145.418234,-21.846247],[145.262042,-21.828722],[145.258353,-21.829973],[145.243999,-21.792608],[145.166068,-21.784894],[145.163383,-21.803768],[145.152964,-21.898926],[145.075195,-21.891442],[145.074247,-21.899753],[145.08434,-21.910258],[145.082206,-21.942606],[144.956305,-21.930311],[144.943048,-22.059149],[144.800893,-22.045529],[144.796083,-22.098446],[144.752102,-22.094483],[144.746299,-22.148137],[144.742046,-22.163815],[144.737391,-22.210655],[144.723526,-22.202108],[144.717224,-22.2038],[144.637413,-22.195466],[144.554086,-22.189885],[144.500514,-22.185662],[144.501776,-22.165143],[144.397776,-22.157051],[144.402806,-22.113301],[144.413307,-22.098162],[144.417213,-22.061724],[144.26849,-22.047868],[144.270074,-22.032609],[144.263322,-21.996823],[144.180328,-21.989558],[144.185983,-21.913747],[144.111406,-21.906335],[144.111734,-21.90185],[144.092446,-21.898958],[144.05743,-21.898341],[144.038846,-21.894713],[144.044621,-21.830302],[143.934226,-21.822113],[143.929446,-21.819981],[143.782066,-21.811122],[143.781834,-21.81408],[143.709006,-21.805498],[143.630837,-21.797422],[143.642348,-21.705214],[143.649256,-21.641178],[143.450086,-21.622855],[143.448393,-21.624526],[143.358027,-21.616028],[143.329875,-21.611515],[143.331812,-21.576881],[143.339756,-21.506428],[143.35953,-21.322011],[143.23664,-21.31119],[143.236447,-21.312997],[143.18803,-21.308656],[143.000105,-21.454505],[142.953327,-21.493758],[142.942412,-21.481655],[142.862092,-21.54506],[142.815399,-21.493135],[142.693958,-21.587863],[142.718468,-21.614949],[142.651366,-21.667494],[142.656514,-21.610361],[142.495176,-21.597057],[142.491224,-21.644184],[142.33155,-21.636171],[142.335189,-21.607104],[142.228163,-21.596278],[142.231842,-21.550869],[142.161278,-21.542844],[142.071999,-21.540753],[142.065725,-21.693617],[142.048748,-21.815048],[141.939312,-21.806561],[141.740814,-21.79098],[141.738616,-21.806277],[141.580015,-21.793194],[141.583156,-21.755977],[141.50783,-21.750468],[141.481129,-21.964069],[141.304782,-21.949605],[141.284543,-21.988843],[141.284196,-22.009975],[141.290838,-22.023905],[141.290221,-22.045083],[141.294338,-22.061885],[141.198634,-22.055173],[141.18285,-22.249626],[141.228483,-22.297977],[141.253487,-22.321365],[141.245778,-22.335434],[141.154704,-22.406495],[141.07972,-22.465648],[141.130519,-22.521403],[141.198923,-22.597559],[141.145629,-22.633357],[141.133889,-22.621264],[141.090848,-22.618233],[141.089639,-22.628174],[141.094922,-22.641932],[141.102775,-22.690069],[141.117252,-22.702695],[141.122864,-22.749199],[141.11446,-22.774505],[141.122257,-22.804494],[141.00055,-22.90027],[140.98674,-22.899036],[140.985717,-22.911558],[141.021423,-22.921876],[141.046356,-22.947653],[140.979163,-22.999813],[140.924565,-23.044439],[140.946999,-23.067769],[140.82219,-23.161545],[140.829373,-23.170192],[140.759621,-23.223156],[140.719362,-23.188629],[140.667108,-23.158375],[140.662341,-23.157725],[140.621458,-23.192128],[140.572649,-23.231406],[140.413234,-23.34621],[140.341912,-23.418267],[140.355569,-23.525775],[140.154496,-23.505643],[140.064409,-23.497836],[139.936208,-23.485855],[139.929379,-23.549112],[139.939169,-23.550016],[139.936229,-23.577092],[139.889422,-23.613962],[139.862623,-23.629454],[139.865377,-23.644234],[139.874933,-23.655038],[139.877508,-23.671806],[139.888662,-23.676735],[139.892609,-23.693644],[139.806772,-23.689021],[139.635934,-23.679174],[139.463728,-23.671293],[139.475759,-23.520779],[139.295422,-23.509979],[139.338996,-23.473871],[139.174868,-23.309969],[139.122701,-23.352076],[139.076354,-23.306816],[138.899454,-23.448333],[138.921104,-23.476494],[138.870578,-23.512372],[138.736465,-23.611343],[138.642334,-23.51223],[138.592055,-23.46253],[138.464389,-23.555056],[138.426734,-23.552348],[137.998246,-23.520895],[137.998423,-23.583187],[137.998486,-23.833178],[137.998507,-23.916508],[137.998569,-24.166498],[137.9986,-24.249828],[137.998745,-24.833129],[137.998776,-24.916459],[137.99894,-25.583107],[137.998971,-25.666437],[137.999033,-25.916427],[137.999054,-25.996867],[138.165712,-25.996835],[138.332371,-25.996804],[138.48863,-25.996773],[138.69781,-25.996743],[138.947799,-25.996713],[139.237398,-25.996652],[139.408747,-25.996619],[139.575405,-25.996587],[139.742062,-25.996555],[139.87258,-25.996524],[140.355301,-25.996521],[140.605287,-25.99646],[140.771946,-25.996409],[140.999394,-25.996376],[140.999425,-26.172187],[140.999435,-26.317537],[140.999446,-26.498488],[140.999439,-26.734048],[140.997943,-26.761622],[140.997507,-26.909189],[140.996764,-27.285229],[140.996906,-27.605864],[140.996891,-27.668511],[140.995702,-28.069183],[140.999071,-28.538648],[140.99931,-28.822833],[140.999475,-28.999095],[142.200593,-28.998988],[142.363938,-28.997796],[142.602575,-28.999048],[144.41535,-28.99909],[148.958309,-28.999065],[148.964244,-28.991446],[148.967276,-28.991009],[148.971078,-28.985324],[148.976321,-28.976413],[148.981264,-28.975594],[148.986892,-28.974319],[149.00021,-28.969508],[149.011386,-28.958464],[149.008501,-28.958294],[149.009223,-28.956919],[149.012349,-28.955576],[149.017476,-28.956769],[149.027847,-28.954529],[149.03988,-28.942418],[149.038946,-28.939036],[149.04293,-28.939231],[149.045294,-28.934515],[149.05486,-28.912071],[149.055979,-28.900787],[149.060261,-28.894842],[149.059047,-28.891861],[149.055347,-28.886921],[149.063634,-28.878167],[149.080061,-28.858362],[149.080762,-28.841801],[149.087224,-28.838087],[149.093157,-28.8338],[149.097078,-28.83168],[149.102764,-28.833372],[149.103225,-28.838124],[149.111044,-28.830785],[149.112444,-28.829575],[149.11929,-28.829415],[149.122057,-28.831754],[149.128043,-28.831633],[149.131061,-28.829568],[149.138908,-28.827812],[149.139782,-28.81588],[149.136601,-28.812462],[149.143915,-28.806094],[149.160386,-28.810739],[149.166714,-28.80868],[149.175863,-28.802663],[149.179183,-28.802996],[149.184118,-28.790145],[149.186766,-28.786496],[149.19479,-28.771068],[149.207476,-28.769488],[149.210306,-28.768246],[149.214126,-28.763662],[149.219257,-28.763117],[149.222678,-28.764188],[149.22631,-28.761075],[149.230523,-28.751208],[149.240167,-28.746722],[149.262342,-28.734297],[149.2654,-28.735795],[149.263561,-28.73975],[149.266365,-28.742825],[149.271506,-28.736729],[149.271335,-28.733949],[149.282999,-28.733084],[149.285317,-28.731863],[149.290852,-28.718805],[149.293455,-28.712012],[149.297081,-28.709947],[149.302526,-28.709137],[149.315941,-28.710296],[149.322967,-28.707777],[149.328585,-28.704504],[149.329862,-28.698194],[149.34011,-28.695374],[149.346685,-28.696672],[149.345837,-28.694456],[149.361973,-28.685113],[149.366881,-28.692283],[149.375848,-28.692621],[149.385521,-28.694777],[149.387389,-28.695803],[149.391305,-28.69188],[149.394167,-28.685725],[149.393867,-28.677292],[149.40203,-28.6761],[149.41568,-28.662762],[149.423022,-28.655209],[149.422895,-28.653758],[149.418298,-28.653653],[149.428059,-28.644319],[149.430569,-28.642874],[149.429017,-28.632224],[149.428298,-28.629225],[149.430292,-28.626226],[149.44033,-28.618923],[149.439051,-28.615778],[149.444329,-28.608957],[149.451812,-28.604093],[149.453705,-28.599216],[149.452554,-28.594867],[149.455768,-28.592989],[149.458763,-28.594066],[149.461616,-28.591554],[149.469835,-28.594279],[149.480842,-28.589813],[149.490205,-28.584502],[149.492418,-28.580934],[149.49629,-28.578458],[149.502704,-28.580399],[149.502977,-28.574351],[149.509787,-28.577127],[149.512177,-28.576094],[149.513949,-28.581674],[149.51545,-28.579331],[149.518255,-28.579025],[149.527039,-28.577434],[149.526179,-28.575365],[149.528925,-28.57422],[149.535797,-28.574444],[149.538465,-28.574767],[149.542158,-28.575023],[149.543553,-28.576703],[149.552587,-28.580137],[149.553629,-28.577364],[149.561804,-28.573937],[149.565088,-28.572527],[149.567052,-28.573655],[149.572477,-28.571742],[149.576706,-28.572146],[149.577481,-28.573425],[149.580467,-28.572525],[149.587938,-28.572815],[149.598314,-28.57928],[149.605955,-28.587647],[149.603449,-28.589065],[149.606681,-28.593788],[149.610493,-28.597399],[149.618393,-28.598606],[149.627408,-28.596006],[149.630956,-28.595231],[149.634597,-28.59544],[149.639043,-28.598016],[149.642282,-28.599207],[149.645013,-28.607322],[149.648339,-28.610667],[149.657292,-28.611391],[149.660712,-28.609311],[149.664264,-28.612387],[149.668235,-28.619248],[149.670612,-28.623461],[149.674008,-28.624156],[149.671799,-28.629213],[149.666654,-28.631859],[149.6724,-28.630267],[149.672426,-28.633442],[149.676387,-28.6312],[149.678571,-28.632655],[149.680878,-28.633888],[149.687835,-28.629185],[149.689807,-28.628191],[149.69126,-28.633651],[149.703104,-28.633712],[149.704946,-28.629499],[149.704575,-28.627868],[149.703544,-28.625403],[149.705352,-28.622772],[149.705552,-28.622034],[149.705886,-28.617819],[149.708538,-28.613359],[149.721169,-28.609183],[149.729563,-28.610853],[149.727256,-28.61189],[149.736923,-28.61578],[149.738771,-28.61457],[149.741585,-28.613086],[149.741846,-28.615396],[149.746135,-28.611953],[149.750307,-28.612112],[149.751087,-28.610788],[149.753291,-28.61067],[149.754943,-28.609441],[149.760026,-28.615048],[149.764905,-28.612704],[149.767492,-28.611029],[149.772386,-28.614164],[149.771108,-28.610386],[149.78613,-28.613557],[149.786738,-28.61125],[149.800623,-28.60791],[149.811439,-28.605773],[149.814927,-28.608284],[149.826584,-28.606895],[149.82942,-28.606234],[149.850807,-28.60556],[149.854586,-28.604269],[149.8623,-28.602199],[149.867097,-28.604141],[149.875866,-28.607824],[149.878212,-28.609409],[149.887122,-28.615574],[149.893975,-28.615919],[149.899141,-28.621909],[149.899112,-28.619651],[149.902947,-28.615503],[149.905541,-28.61331],[149.90907,-28.612367],[149.921042,-28.610298],[149.925285,-28.608948],[149.937246,-28.614581],[149.962199,-28.612062],[149.964376,-28.608113],[149.97158,-28.607665],[149.977001,-28.610814],[149.982085,-28.605201],[149.987038,-28.604601],[149.984973,-28.602472],[149.994482,-28.59392],[149.998877,-28.591224],[150.005732,-28.586995],[150.014944,-28.585641],[150.013196,-28.583245],[150.0313,-28.580975],[150.031022,-28.5837],[150.034356,-28.583532],[150.03628,-28.585802],[150.040147,-28.583074],[150.04051,-28.586101],[150.043652,-28.582032],[150.045836,-28.582399],[150.04874,-28.589196],[150.057296,-28.579955],[150.059394,-28.578451],[150.067904,-28.577774],[150.070506,-28.57715],[150.073281,-28.576562],[150.075092,-28.58023],[150.081605,-28.577473],[150.085176,-28.575843],[150.090443,-28.575497],[150.093634,-28.574009],[150.091932,-28.564239],[150.105191,-28.56535],[150.105653,-28.567746],[150.111804,-28.568144],[150.112885,-28.563041],[150.116974,-28.561657],[150.121475,-28.559734],[150.124418,-28.56116],[150.128017,-28.562401],[150.130734,-28.562688],[150.13142,-28.565256],[150.131617,-28.563496],[150.136794,-28.560141],[150.136876,-28.564214],[150.141293,-28.559879],[150.143682,-28.557528],[150.147836,-28.552713],[150.15228,-28.55021],[150.154104,-28.551015],[150.15409,-28.557155],[150.155057,-28.554804],[150.166572,-28.551051],[150.169233,-28.550587],[150.167777,-28.555527],[150.169758,-28.557208],[150.17693,-28.558982],[150.184067,-28.558642],[150.17789,-28.563474],[150.181958,-28.569393],[150.189802,-28.567468],[150.20116,-28.568803],[150.207564,-28.572675],[150.212287,-28.574181],[150.212298,-28.569405],[150.213149,-28.567549],[150.219983,-28.566728],[150.233491,-28.561074],[150.228929,-28.558576],[150.230399,-28.555713],[150.238197,-28.557261],[150.23525,-28.556234],[150.236053,-28.55381],[150.243227,-28.552357],[150.253124,-28.547008],[150.269541,-28.539786],[150.272201,-28.539275],[150.281714,-28.542888],[150.289648,-28.537157],[150.295979,-28.53967],[150.300536,-28.548467],[150.309109,-28.550592],[150.320591,-28.557182],[150.327556,-28.571045],[150.342672,-28.575283],[150.3513,-28.575348],[150.349343,-28.581921],[150.352542,-28.587759],[150.356447,-28.589807],[150.363344,-28.589484],[150.369675,-28.598511],[150.363767,-28.60751],[150.36978,-28.611735],[150.368789,-28.614149],[150.37595,-28.622436],[150.385375,-28.631512],[150.397551,-28.628636],[150.401823,-28.627281],[150.413973,-28.633892],[150.416337,-28.635887],[150.415222,-28.650834],[150.429277,-28.651122],[150.437649,-28.661581],[150.445551,-28.665141],[150.460085,-28.668912],[150.470803,-28.662883],[150.47278,-28.660118],[150.481727,-28.663777],[150.487084,-28.657421],[150.51481,-28.661759],[150.525002,-28.654311],[150.537428,-28.657106],[150.5392,-28.660519],[150.538095,-28.662076],[150.532246,-28.662046],[150.525682,-28.665566],[150.527008,-28.668879],[150.535145,-28.67203],[150.544079,-28.671524],[150.550566,-28.670145],[150.55276,-28.663446],[150.548167,-28.658494],[150.551448,-28.653964],[150.554094,-28.653064],[150.556657,-28.654512],[150.561392,-28.661817],[150.565543,-28.661888],[150.569369,-28.659057],[150.580641,-28.655465],[150.600217,-28.665111],[150.606229,-28.67063],[150.617553,-28.673514],[150.625827,-28.668979],[150.626986,-28.672528],[150.632541,-28.676572],[150.641159,-28.665133],[150.67647,-28.652265],[150.681695,-28.661351],[150.692406,-28.653411],[150.708625,-28.651951],[150.710529,-28.644643],[150.728255,-28.63449],[150.752343,-28.633464],[150.766042,-28.637605],[150.774015,-28.644323],[150.78135,-28.644149],[150.795757,-28.655236],[150.804297,-28.653216],[150.819025,-28.659833],[150.819279,-28.666631],[150.829882,-28.666992],[150.848417,-28.673119],[150.852071,-28.677101],[150.874008,-28.693797],[150.884394,-28.690452],[150.88524,-28.695367],[150.899648,-28.686977],[150.906384,-28.687706],[150.914506,-28.697514],[150.924063,-28.698455],[150.930908,-28.705519],[150.932122,-28.722079],[150.937708,-28.725427],[150.938189,-28.730938],[150.945211,-28.728717],[150.954483,-28.736417],[150.960805,-28.735102],[150.970383,-28.731625],[150.983459,-28.735621],[151.01065,-28.740805],[151.025092,-28.753374],[151.028963,-28.770497],[151.019308,-28.772049],[151.025092,-28.778819],[151.026445,-28.786365],[151.024763,-28.793127],[151.03369,-28.793926],[151.041903,-28.799153],[151.042095,-28.815027],[151.037641,-28.819087],[151.041416,-28.830521],[151.042867,-28.834358],[151.044323,-28.840488],[151.052146,-28.843864],[151.053343,-28.845522],[151.052376,-28.84864],[151.059889,-28.845935],[151.067935,-28.844546],[151.083206,-28.83438],[151.088303,-28.834434],[151.096845,-28.838109],[151.102759,-28.836369],[151.115599,-28.850394],[151.124959,-28.851409],[151.132965,-28.860242],[151.13933,-28.861746],[151.151498,-28.865058],[151.161334,-28.865471],[151.174018,-28.879974],[151.185065,-28.878682],[151.200196,-28.884349],[151.208752,-28.90147],[151.228042,-28.908491],[151.231203,-28.907885],[151.234722,-28.904656],[151.238465,-28.908929],[151.240756,-28.919872],[151.243908,-28.924297],[151.258674,-28.932145],[151.265194,-28.933147],[151.274808,-28.938926],[151.281591,-28.948893],[151.28234,-28.95408],[151.2804,-28.961006],[151.272148,-28.973172],[151.282556,-28.980593],[151.280705,-28.983689],[151.276414,-28.986967],[151.283956,-29.005871],[151.281856,-29.019131],[151.271058,-29.030275],[151.284865,-29.037356],[151.288861,-29.050251],[151.284284,-29.065537],[151.275509,-29.077791],[151.279467,-29.089451],[151.27782,-29.093728],[151.279649,-29.100769],[151.281721,-29.104393],[151.289685,-29.111253],[151.302964,-29.11603],[151.315471,-29.134499],[151.31611,-29.138309],[151.309922,-29.144221],[151.308844,-29.147526],[151.312035,-29.161519],[151.33931,-29.177266],[151.347385,-29.176966],[151.36005,-29.172819],[151.376561,-29.176842],[151.393784,-29.177893],[151.401753,-29.171049],[151.410638,-29.152566],[151.428307,-29.147477],[151.433762,-29.139534],[151.451744,-29.126859],[151.457638,-29.11712],[151.463025,-29.098943],[151.486066,-29.088818],[151.491416,-29.077597],[151.502292,-29.070805],[151.502501,-29.066099],[151.497123,-29.062902],[151.49149,-29.056244],[151.497117,-29.042233],[151.495335,-29.034907],[151.49823,-29.019909],[151.499686,-29.01741],[151.52467,-28.98876],[151.536094,-28.980619],[151.544681,-28.96119],[151.545566,-28.952998],[151.566806,-28.941731],[151.575134,-28.943469],[151.588361,-28.931922],[151.609616,-28.923279],[151.616835,-28.926122],[151.651449,-28.917029],[151.666316,-28.905359],[151.674758,-28.907595],[151.688425,-28.886915],[151.695537,-28.884391],[151.711267,-28.871335],[151.713612,-28.87537],[151.726628,-28.866876],[151.73386,-28.871578],[151.733761,-28.878384],[151.736957,-28.895653],[151.740854,-28.897458],[151.740065,-28.902194],[151.746341,-28.913842],[151.745287,-28.917661],[151.743471,-28.918646],[151.759359,-28.926435],[151.762362,-28.934138],[151.772735,-28.938251],[151.770227,-28.955846],[151.77828,-28.958047],[151.806394,-28.944636],[151.810124,-28.947946],[151.815,-28.950786],[151.813804,-28.959374],[151.825579,-28.963333],[151.834235,-28.957209],[151.839557,-28.942665],[151.834783,-28.932275],[151.837909,-28.916547],[151.849363,-28.90785],[151.865074,-28.909722],[151.868312,-28.913884],[151.871322,-28.914457],[151.878015,-28.915003],[151.881636,-28.911884],[151.89576,-28.913727],[151.91338,-28.920595],[151.91674,-28.925127],[151.916048,-28.929307],[151.922386,-28.928444],[151.927347,-28.925411],[151.951819,-28.919221],[151.968198,-28.916567],[151.974055,-28.90911],[151.981843,-28.908926],[151.997593,-28.895483],[152.000928,-28.899316],[152.012501,-28.900925],[152.016715,-28.892531],[152.024022,-28.886755],[152.028386,-28.876781],[152.031466,-28.874253],[152.030867,-28.869488],[152.038126,-28.864696],[152.02953,-28.854572],[152.025956,-28.858253],[152.015536,-28.852027],[152.023168,-28.831587],[152.03273,-28.829004],[152.037291,-28.819231],[152.035462,-28.807127],[152.034743,-28.79071],[152.036326,-28.756992],[152.041636,-28.746317],[152.043845,-28.746091],[152.047714,-28.740329],[152.046331,-28.7342],[152.042726,-28.731623],[152.053866,-28.72543],[152.071199,-28.714861],[152.076049,-28.708175],[152.064588,-28.690609],[152.061969,-28.67915],[152.052567,-28.68194],[152.044526,-28.672894],[152.03915,-28.664448],[152.031519,-28.66616],[152.013854,-28.665753],[152.011418,-28.661752],[152.00203,-28.650129],[152.001794,-28.63993],[151.990804,-28.6244],[151.993912,-28.611297],[151.989095,-28.603842],[151.99178,-28.594703],[151.985979,-28.581498],[151.976436,-28.573009],[151.96081,-28.566574],[151.9547,-28.551613],[151.953867,-28.539913],[151.958747,-28.527218],[151.955645,-28.518904],[151.964826,-28.514516],[151.978447,-28.503184],[151.982893,-28.503395],[151.98586,-28.509833],[151.984428,-28.51651],[151.988951,-28.525613],[151.992074,-28.524695],[151.999553,-28.52717],[152.016864,-28.525281],[152.018973,-28.51781],[152.035945,-28.507253],[152.045672,-28.494966],[152.05964,-28.490651],[152.067033,-28.48559],[152.0702,-28.468003],[152.07472,-28.467722],[152.087658,-28.46943],[152.094093,-28.469047],[152.096187,-28.46589],[152.111504,-28.463862],[152.121134,-28.462669],[152.127902,-28.453683],[152.135179,-28.452083],[152.142038,-28.442236],[152.146635,-28.439131],[152.156671,-28.434382],[152.160504,-28.433123],[152.164947,-28.432626],[152.174712,-28.434786],[152.184519,-28.438872],[152.190266,-28.433948],[152.204648,-28.438247],[152.207305,-28.44541],[152.217189,-28.449236],[152.222021,-28.441954],[152.237884,-28.423436],[152.239263,-28.417583],[152.252211,-28.410416],[152.252482,-28.407427],[152.260698,-28.400421],[152.267606,-28.390047],[152.27708,-28.392961],[152.288432,-28.393151],[152.290697,-28.382471],[152.300134,-28.374301],[152.302128,-28.372673],[152.309659,-28.363168],[152.326859,-28.366609],[152.341582,-28.36786],[152.355946,-28.361197],[152.364758,-28.366106],[152.37739,-28.365822],[152.38616,-28.368554],[152.400126,-28.347594],[152.409321,-28.341797],[152.417218,-28.330099],[152.409517,-28.315734],[152.412754,-28.301853],[152.414625,-28.298037],[152.417165,-28.296784],[152.424119,-28.299424],[152.428042,-28.297727],[152.444831,-28.298822],[152.442877,-28.290442],[152.448252,-28.281026],[152.457726,-28.272539],[152.461456,-28.269626],[152.459753,-28.266174],[152.461791,-28.260594],[152.471174,-28.257003],[152.48237,-28.257887],[152.487617,-28.253908]]]},"bbox":[137.998246,-29.177893,152.492287,-21.308656]}]}