{"type":"FeatureCollection","features":[
{"properties":{"electorateShortName":"maribyrnong","electorateName":"Maribyrnong","area":69.92,"state":"VIC"},"type":"Feature","geometry":{"type":"Polygon","coordinates":[[[144.916493,-37.798214],[144.936253,-37.801719],[144.937486,-37.777214],[144.934249,-37.745237],[144.917459,-37.714288],[144.915281,-37.694428],[144.905434,-37.681206],[144.886588,-37.680508],[144.882268,-37.689121],[144.866336,-37.677922],[144.867854,-37.703665],[144.849571,-37.726335],[144.840307,-37.720577],[144.830334,-37.726644],[144.839456,-37.747046],[144.846761,-37.747919],[144.852653,-37.773229],[144.871243,-37.772768],[144.87299,-37.761669],[144.884296,-37.760988],[144.895969,-37.772814],[144.902889,-37.790758],[144.916493,-37.798214]]]},"bbox":[144.830334,-37.801719,144.937486,-37.677922]}]}