{"type":"FeatureCollection","features":[
{"properties":{"electorateShortName":"mayo","electorateName":"Mayo","area":9135.12,"state":"SA"},"type":"Feature","geometry":{"type":"MultiPolygon","coordinates":[[[[138.461979,-35.247361],[138.467737,-35.2447],[138.46993,-35.239157],[138.467525,-35.219357],[138.470875,-35.211576],[138.470605,-35.203313],[138.465391,-35.173377],[138.46573,-35.167048],[138.469941,-35.164377],[138.468618,-35.151098],[138.466484,-35.144105],[138.46975,-35.140369],[138.467413,-35.121535],[138.471761,-35.109727],[138.480986,-35.094714],[138.493568,-35.084609],[138.48705137728783,-35.08555709960292],[138.48003519846705,-35.088235875589746],[138.46773454790767,-35.096122801744464],[138.45436839736377,-35.10233478689773],[138.44081844285466,-35.11322314386816],[138.43967224803413,-35.114540923080185],[138.42965467675745,-35.12329683476661],[138.41926826241726,-35.13653498582742],[138.41152753133827,-35.15147511061664],[138.4067030519321,-35.16759499414023],[138.4056833121342,-35.17740565306538],[138.39434299535952,-35.18798616630532],[138.38393117766728,-35.20254429073749],[138.38260664964247,-35.20549718261227],[138.37349226860348,-35.21480366083423],[138.3633781052496,-35.230774556426276],[138.3560864035899,-35.249582590812],[138.3532413527234,-35.267368336153744],[138.35267222535776,-35.28577748824463],[138.33596038925728,-35.29181271026457],[138.3257913892573,-35.29637771026457],[138.31270867058885,-35.30361168457802],[138.30176697652004,-35.312305172951454],[138.2973574409678,-35.314294413662466],[138.28459982530464,-35.322932477801935],[138.2735024477784,-35.333619906001765],[138.2624844477784,-35.346219906001764],[138.25216818910135,-35.36068037535755],[138.24483507198906,-35.377058269151235],[138.22672961254352,-35.40444913657723],[138.21450338339136,-35.41299606525942],[138.198943501867,-35.42134558806367],[138.18448374270386,-35.42497126306783],[138.17533929569373,-35.42919613565331],[138.16684188896207,-35.42837592422887],[138.145099803065,-35.431632069555334],[138.12450810107924,-35.43924805464039],[138.1092900434251,-35.4490791360438],[138.0963493173529,-35.461758925042396],[138.08321238624248,-35.47562351876059],[138.07170235895794,-35.484699718535126],[138.06077978616864,-35.49489167298462],[138.05169362040027,-35.50675000859583],[138.04601662040028,-35.51559300859583],[138.03771253583164,-35.53222721544474],[138.03451266453007,-35.53469051971267],[138.02065958035652,-35.551115941270936],[138.011512166279,-35.567207660492166],[138.0058501916164,-35.58483039168573],[138.00391314993647,-35.603238718098815],[138.00584382056002,-35.621947801374795],[138.00648401127697,-35.63542372933275],[137.99587911276322,-35.63267697170871],[137.97511197817212,-35.62981998136552],[137.96528047674008,-35.62979579324346],[137.9593952992874,-35.62816321530236],[137.93718538612245,-35.6262757498785],[137.92058292284543,-35.628058817996525],[137.90191984625253,-35.6269967822933],[137.8852462119407,-35.62950572306651],[137.86933317345213,-35.635080673382696],[137.86302517345214,-35.637979673382695],[137.8465103932399,-35.64783030855079],[137.83847963782577,-35.65534016521587],[137.82356822735807,-35.64499657332254],[137.8060986233256,-35.63769868749902],[137.78748886726953,-35.634216851477824],[137.77576486726952,-35.633281851477825],[137.75691059202816,-35.63376066293315],[137.73222763471446,-35.63972047148457],[137.7336614377499,-35.630186664421416],[137.73298346781056,-35.613200700420485],[137.72912356851475,-35.59664522417527],[137.7226943697293,-35.58217945985133],[137.72390288355487,-35.573027742982106],[137.72378679547535,-35.55712911123574],[137.7208749049193,-35.541498984517176],[137.71525808443005,-35.526625138496705],[137.7071116203907,-35.51297174728778],[137.69455674279106,-35.49890689777814],[137.6815393262931,-35.488492621841964],[137.66682448439477,-35.48065784657627],[137.65091708200558,-35.475671382419705],[137.64049096316572,-35.473179861244674],[137.62404187629176,-35.471219497577856],[137.6075121290077,-35.47230712776281],[137.59797571958808,-35.47474243159358],[137.58830782136457,-35.47415335298403],[137.57068959362806,-35.47658367619246],[137.55702852704096,-35.481339586212016],[137.5370965847809,-35.48535629992855],[137.52195368569076,-35.49174599810607],[137.51839296201175,-35.494089919439006],[137.50273019312354,-35.490534967385514],[137.48727829043924,-35.489843900849756],[137.46590525184266,-35.49311577265778],[137.44826098758668,-35.49889937707594],[137.44016903166042,-35.502243533777964],[137.42171613104813,-35.49851230688494],[137.40503417047213,-35.49845736241032],[137.39607549101274,-35.4992614710576],[137.38890440383864,-35.497122735522666],[137.36512519345877,-35.49506354204535],[137.34922619345878,-35.491015542045346],[137.33488609275707,-35.488577411302266],[137.32034051905967,-35.4884812059546],[137.30680951905967,-35.4894882059546],[137.28426412782534,-35.49411710738952],[137.28036112782533,-35.49545710738952],[137.26125405959948,-35.504658833405166],[137.25367158696946,-35.51085338613952],[137.23731861070448,-35.51340234105539],[137.21342272181954,-35.5180384119531],[137.19635198537216,-35.52518439316891],[137.1836586204087,-35.53143667375658],[137.1689647840175,-35.53264087371953],[137.152215700271,-35.537375007769796],[137.14613504237823,-35.54006412667493],[137.1300225191903,-35.54045741049684],[137.11250492908334,-35.54445535268779],[137.09613062763003,-35.5518534441196],[137.08155226114116,-35.562356811933476],[137.0760309520135,-35.56574070354921],[137.0685020226318,-35.57216387567573],[137.04955788615268,-35.57727379299798],[137.03371886468358,-35.579164708376474],[137.0161996569643,-35.58042142270934],[137.0082027828047,-35.5826095029603],[137.00091500038693,-35.581883851772126],[136.9849590026275,-35.58278865065688],[136.96651599298858,-35.58296716422624],[136.96218691804958,-35.58391239597912],[136.94681531951528,-35.58430103624674],[136.93144935097354,-35.58682608836911],[136.92347034285044,-35.58750766668998],[136.90542700022834,-35.592621537290526],[136.8888227811444,-35.59648702423017],[136.87158173748642,-35.59661550342796],[136.8613021647035,-35.59835447004604],[136.84346720432725,-35.602351302150744],[136.84050351810376,-35.60227840328138],[136.82375944669795,-35.60505400045837],[136.8210710600739,-35.60604490572208],[136.80937537757134,-35.60699590386261],[136.79750561662237,-35.61002437481321],[136.78248762991328,-35.610220688364954],[136.76575333580143,-35.61201318079402],[136.7496453613169,-35.61688994063376],[136.73472698766815,-35.62468043203071],[136.7266341984246,-35.63072672084451],[136.71109338238907,-35.63075731502112],[136.69341849000878,-35.63439179495245],[136.67682388374993,-35.64147912929908],[136.66197664888873,-35.651734414863206],[136.65872545757233,-35.65457699163115],[136.64711278276724,-35.654265736290974],[136.63137043892752,-35.65641825935224],[136.61588158129237,-35.65522191466162],[136.60376658129235,-35.655334914661616],[136.5895382559335,-35.65660128069048],[136.57886510949464,-35.65926604155025],[136.55938495827644,-35.6633401065916],[136.54127644861916,-35.671595781938684],[136.52542505154005,-35.68362938107136],[136.52017305154007,-35.68862238107136],[136.50887206184996,-35.70164502203157],[136.5053176774577,-35.70781193931583],[136.49685126015402,-35.71919162677488],[136.48947187657316,-35.73441316200335],[136.48507114676303,-35.75074668623677],[136.48316738370642,-35.7740114573961],[136.47639367950413,-35.79679780828339],[136.46702483132495,-35.807906135466425],[136.4584568458277,-35.822234342556335],[136.45154915520862,-35.83814860486601],[136.44570115131458,-35.85444287960943],[136.4430810861677,-35.87155538373901],[136.44378590299965,-35.888852949238014],[136.44465392328962,-35.892504576314856],[136.44402443264013,-35.90631305154561],[136.44673811988926,-35.92393077722034],[136.4528708139788,-35.940668113317834],[136.46218194040654,-35.955868484401535],[136.4743062405159,-35.96893560739378],[136.48876809993243,-35.97935688268295],[136.49787213252844,-35.98348856752037],[136.5037845315118,-35.995820960052626],[136.5149200914934,-36.01113746406004],[136.52901397580894,-36.02378493084248],[136.5483687262059,-36.03749536479019],[136.57032897831425,-36.047288734672186],[136.58743413090178,-36.05109756851462],[136.60495313435518,-36.05151944323836],[136.60632992485,-36.05498854924932],[136.6048454411173,-36.058742622944],[136.60168579023215,-36.07626702591744],[136.60203827008536,-36.09407050454507],[136.60588908226157,-36.11145611177851],[136.61308748025573,-36.12774325884634],[136.62597067069814,-36.145320358043755],[136.6402859033171,-36.15861917385943],[136.65713392639705,-36.16851505711121],[136.67572062732506,-36.17454157647545],[136.695169942864,-36.17641467874211],[136.71626560412025,-36.17429802065706],[136.7335913838476,-36.16861017472488],[136.749414996256,-36.15954664754966],[136.76308682494562,-36.147479529634005],[136.76962808668142,-36.13877956215493],[136.7873276976996,-36.13481507309061],[136.80619517780704,-36.128066297603404],[136.81209775032627,-36.12872519536008],[136.82935226172683,-36.127956900743584],[136.84614228619847,-36.123906775000904],[136.85901958679412,-36.118018067817125],[136.87308544513343,-36.12550282116805],[136.88898392295064,-36.13048411780663],[136.91299920023317,-36.13354254304076],[136.93120189704584,-36.13218735503896],[136.94875679952028,-36.12718734455033],[136.95913418102748,-36.12366309831799],[136.9752134635115,-36.11586882222588],[136.9866096181049,-36.11414839218489],[136.99536745542937,-36.11107504862336],[136.99802169921185,-36.11119268973742],[137.0157854961686,-36.115566417820176],[137.02977004838996,-36.117429389754285],[137.05311434362056,-36.11737801647518],[137.0694001284556,-36.11475644746285],[137.07384782643587,-36.113167382728065],[137.09016834721353,-36.11507779682019],[137.11251796647667,-36.122077966367335],[137.13077894988433,-36.1239848431063],[137.149046927075,-36.12214617422017],[137.1665616351451,-36.11663848004459],[137.18768789433116,-36.11144844899893],[137.19389689433115,-36.10915244899893],[137.20976572344478,-36.101440518802264],[137.22382506342282,-36.09078084881779],[137.23553459542293,-36.07758310411902],[137.23828375383823,-36.075254130406464],[137.25144571667093,-36.08013818410912],[137.26823959596416,-36.08368672269534],[137.2766785460029,-36.084331351858616],[137.29377160240608,-36.084602477619185],[137.29858475425786,-36.08375458255323],[137.3102583652114,-36.08678917018434],[137.32693241862006,-36.0879307041302],[137.33208937303263,-36.08998600507472],[137.33818659131714,-36.098412792749556],[137.35105216593507,-36.11037303891679],[137.36599593749241,-36.11960635848631],[137.38022853948414,-36.12493051499278],[137.39044740409165,-36.13193978417409],[137.39278427842524,-36.13493804681825],[137.4079565218811,-36.14787983888066],[137.42347271497437,-36.15690033702594],[137.44047028124209,-36.1626626608516],[137.4582732597169,-36.16493765366982],[137.47617365971578,-36.16363484333169],[137.49477442424458,-36.15856357830628],[137.52044039252968,-36.147416634645445],[137.53065375365904,-36.14147683800526],[137.5357724650424,-36.14007892349111],[137.5509784223669,-36.13264028301566],[137.56452249009808,-36.12248583868961],[137.57571422855747,-36.11174404111757],[137.59117745968925,-36.10914550171182],[137.60283811003143,-36.10808934073926],[137.61853316642154,-36.10371852670737],[137.63318307661973,-36.0965897861752],[137.65876984338541,-36.079644654796894],[137.67103129654106,-36.067796759406164],[137.68233967191117,-36.051214182699994],[137.69163856588662,-36.03924639285602],[137.69964978159857,-36.02440920737149],[137.70872314911446,-35.99610747406223],[137.71043811489307,-35.97756278446857],[137.709218703474,-35.96701405588239],[137.737553130691,-35.96601220312677],[137.75620292528706,-35.96156367619141],[137.77348723239933,-35.95326566691098],[137.78670417909694,-35.94298608173905],[137.79240074862494,-35.94341133782614],[137.8064820940712,-35.94282253658894],[137.82484934816569,-35.94579047532577],[137.83218605496577,-35.950127347749216],[137.8495982273556,-35.95712331237322],[137.86808263913014,-35.96035654445645],[137.8817977006397,-35.960354163302604],[137.89843041429702,-35.95912057454078],[137.91454990926815,-35.954839127738964],[137.91827605443467,-35.95457316560532],[137.92739336157018,-35.961753605243466],[137.94337820560952,-35.96982903035567],[137.9606455168702,-35.9745795768013],[137.96504227192486,-35.97510701694078],[137.97285326402786,-35.979731024065515],[137.98282326402787,-35.984287024065516],[138.00033966355286,-35.99020356645304],[138.01869545915943,-35.99241591674021],[138.02564977751186,-35.99253450826347],[138.03532797301713,-35.994106152748955],[138.05326695472527,-35.993409420018565],[138.07071076166972,-35.9891660604406],[138.0869653187676,-35.98154491388816],[138.1024033187676,-35.972325913888156],[138.11835165152448,-35.96020580053969],[138.12675851811886,-35.95018258551112],[138.13311759130286,-35.94608370472243],[138.14576319969902,-35.935757508023926],[138.1522792807793,-35.934471604316286],[138.16792222892457,-35.928178926286314],[138.18610120836286,-35.91742580665856],[138.1972143212714,-35.907605330376995],[138.20920580817383,-35.89222815735992],[138.21779395889467,-35.876504456938086],[138.2230973817034,-35.859391164026704],[138.22490590975366,-35.84156645325624],[138.22314787373847,-35.823736691700674],[138.21789294203967,-35.806608446589166],[138.21536481729316,-35.80194847956317],[138.21554749420028,-35.79670026233886],[138.212745389155,-35.77938367963063],[138.20663741358857,-35.7629395784434],[138.2010404455079,-35.753828364370726],[138.2363772642074,-35.75098255894751],[138.25305397181342,-35.74710471963845],[138.27584368685498,-35.739297868115415],[138.2874419247547,-35.7342360892906],[138.29691140903307,-35.729286365236774],[138.30623010844434,-35.728439841665576],[138.3468308561953,-35.729694980646215],[138.36502213722346,-35.7322530085853],[138.38787412113655,-35.730189654656776],[138.40690126165572,-35.73052173925584],[138.42405616192158,-35.72947568816849],[138.44069942059014,-35.72518770881918],[138.44877099479476,-35.72192416314433],[138.4615402591273,-35.722571018744695],[138.46802297900328,-35.72403353094939],[138.48450835527856,-35.72463024333985],[138.50338630077917,-35.73094526261869],[138.5219769984483,-35.732967185050825],[138.54058423148646,-35.731103562554104],[138.5584046677309,-35.72543485351199],[138.5746689434853,-35.71620579373692],[138.5966755550144,-35.700487917213856],[138.60645984730226,-35.69991268756631],[138.62323548583547,-35.69560287239586],[138.63887489720034,-35.6881593942331],[138.65279885059056,-35.677857934288646],[138.66449164995063,-35.6650800237347],[138.67171192606017,-35.65325937676193],[138.67927131656307,-35.64265930833619],[138.683614628742,-35.63991430607767],[138.69724400320962,-35.629345523275695],[138.69978103675652,-35.626448703599536],[138.71254255686375,-35.62360534845484],[138.72872192067254,-35.616455960578556],[138.7405616297135,-35.60812903015675],[138.74603159988726,-35.60920533206339],[138.80340942147376,-35.62668857561106],[138.84644958203774,-35.6428468787643],[138.8634672616591,-35.64739445829636],[138.87978657918703,-35.64862229947013],[138.89410152402434,-35.64840126033319],[138.91041970330159,-35.65181663514956],[138.92502686343585,-35.65230913239575],[138.94041743322452,-35.65210723682082],[138.95811898896721,-35.648517438484774],[138.97004265018484,-35.64400805444868],[138.9840961230075,-35.636009287030916],[138.99821713111945,-35.63010868988057],[139.00955346975704,-35.62334503933359],[138.951116,-35.591402],[138.890027,-35.563084],[138.886927,-35.558906],[138.891839,-35.557762],[138.901461,-35.557531],[138.904379,-35.554983],[138.910302,-35.556952],[138.916443,-35.561185],[138.920034,-35.561916],[138.923923,-35.559218],[138.929045,-35.561577],[138.933283,-35.561753],[138.936299,-35.555432],[138.942471,-35.556075],[138.948072,-35.553075],[138.954785,-35.551081],[138.962049,-35.546816],[138.966169,-35.541798],[138.96684,-35.529378],[138.981025,-35.518259],[138.986404,-35.520118],[138.99168,-35.515891],[139.001369,-35.513158],[139.006917,-35.512766],[139.011125,-35.514701],[139.017492,-35.514921],[139.021523,-35.512237],[139.029754,-35.514046],[139.03377,-35.51312],[139.04138,-35.50508],[139.046729,-35.500949],[139.144709,-35.471704],[139.150775,-35.374659],[139.158312,-35.253485],[139.155585,-35.252645],[139.107617,-35.232366],[139.090615,-35.218926],[139.086072,-35.216629],[139.066437,-35.214865],[139.066687,-35.165936],[139.038078,-35.146122],[139.036648,-35.140621],[139.033507,-35.142218],[139.027421,-35.13878],[139.030116,-35.130569],[139.033144,-35.129527],[139.036897,-35.120811],[139.040733,-35.117723],[139.04403,-35.111613],[139.040392,-35.100833],[139.041688,-35.096559],[139.037744,-35.096167],[139.039187,-35.089417],[139.037974,-35.084355],[139.034996,-35.082553],[139.035971,-35.077692],[139.031967,-35.073983],[139.034394,-35.068826],[139.031458,-35.066845],[139.029078,-35.060404],[139.031539,-35.051758],[139.02951,-35.048611],[139.032892,-35.042781],[139.032989,-35.037172],[139.031084,-35.033321],[139.033429,-35.027363],[139.036571,-35.024544],[139.037553,-35.013434],[139.034882,-35.011701],[139.031236,-35.001844],[139.034902,-34.999073],[139.036738,-34.995275],[139.035151,-34.990886],[139.036917,-34.984096],[139.041161,-34.976666],[139.036452,-34.973526],[139.035769,-34.968764],[139.030257,-34.966607],[139.027696,-34.963022],[139.028227,-34.956885],[139.026035,-34.954714],[139.019372,-34.952625],[139.020385,-34.948833],[139.034957,-34.928687],[138.975208,-34.8949],[138.977665,-34.89163],[138.980761,-34.882973],[138.977132,-34.87837],[138.989425,-34.879003],[138.993324,-34.873558],[138.998926,-34.872736],[139.003827,-34.866909],[139.009075,-34.863681],[139.00191,-34.850872],[139.00569,-34.846932],[139.006916,-34.841273],[139.002976,-34.838525],[139.001475,-34.834427],[139.003422,-34.831229],[139.010199,-34.832343],[139.01913,-34.829347],[139.020842,-34.825779],[139.025074,-34.823358],[139.030687,-34.825193],[139.037326,-34.823293],[139.043574,-34.817193],[139.041774,-34.815338],[139.032714,-34.81089],[139.026911,-34.809829],[139.017542,-34.804627],[139.011238,-34.804146],[139.004581,-34.79914],[139.00478,-34.794065],[138.988073,-34.781386],[138.991086,-34.772277],[138.989422,-34.76976],[138.976951,-34.771425],[138.972456,-34.773414],[138.967229,-34.772406],[138.957392,-34.772915],[138.95183,-34.774582],[138.948101,-34.773129],[138.949522,-34.769128],[138.948565,-34.765403],[138.941905,-34.763468],[138.940667,-34.760821],[138.934342,-34.759466],[138.928028,-34.755628],[138.92924,-34.752708],[138.924226,-34.750444],[138.91959,-34.745022],[138.926849,-34.743768],[138.926642,-34.73471],[138.917461,-34.734708],[138.917484,-34.725582],[138.910074,-34.711241],[138.909409,-34.708276],[138.903451,-34.708054],[138.903769,-34.704757],[138.898079,-34.704891],[138.896334,-34.707484],[138.887929,-34.700579],[138.86752,-34.701508],[138.863426,-34.704268],[138.859883,-34.702896],[138.861939,-34.694908],[138.858655,-34.691888],[138.85492,-34.69173],[138.851313,-34.68522],[138.847693,-34.684426],[138.847549,-34.680538],[138.843385,-34.68518],[138.839953,-34.700378],[138.835862,-34.704693],[138.832696,-34.712674],[138.833565,-34.716121],[138.828067,-34.717044],[138.827957,-34.721072],[138.824931,-34.727412],[138.819551,-34.728794],[138.815938,-34.735785],[138.811986,-34.738485],[138.811628,-34.742121],[138.814577,-34.763399],[138.810323,-34.775393],[138.799363,-34.77051],[138.795804,-34.771098],[138.787461,-34.767852],[138.78019,-34.767026],[138.77473,-34.769065],[138.772941,-34.773503],[138.768021,-34.780351],[138.763526,-34.778569],[138.754659,-34.783292],[138.758651,-34.785649],[138.761808,-34.793197],[138.758361,-34.801018],[138.750851,-34.806979],[138.749021,-34.814462],[138.753518,-34.81748],[138.753844,-34.823008],[138.746168,-34.836968],[138.747028,-34.840674],[138.744939,-34.849576],[138.747715,-34.855599],[138.75147,-34.858028],[138.756521,-34.865551],[138.748727,-34.865334],[138.7413,-34.860218],[138.729629,-34.858998],[138.722694,-34.859199],[138.723826,-34.864323],[138.71897,-34.870125],[138.719788,-34.873976],[138.712763,-34.874338],[138.713249,-34.881587],[138.706968,-34.881873],[138.7079,-34.894075],[138.705582,-34.900971],[138.700188,-34.900547],[138.690752,-34.895272],[138.691256,-34.903457],[138.69521,-34.903277],[138.695756,-34.910464],[138.692195,-34.909266],[138.689858,-34.912253],[138.697848,-34.921228],[138.697784,-34.92672],[138.700998,-34.928249],[138.697579,-34.931909],[138.693491,-34.929239],[138.68467,-34.930912],[138.685227,-34.9381],[138.675456,-34.938728],[138.671866,-34.942077],[138.672408,-34.951125],[138.676619,-34.955863],[138.677365,-34.961927],[138.685944,-34.974632],[138.685236,-34.976197],[138.675338,-34.974486],[138.665171,-34.981662],[138.671219,-34.989486],[138.675241,-34.990667],[138.677605,-34.999002],[138.680021,-35.000422],[138.677069,-35.007325],[138.681316,-35.007596],[138.675584,-35.015608],[138.67171,-35.025805],[138.667823,-35.023967],[138.65484,-35.022615],[138.650947,-35.019676],[138.648654,-35.015738],[138.620448,-35.017094],[138.619434,-35.02321],[138.623691,-35.024847],[138.625461,-35.03062],[138.62057,-35.03234],[138.609845,-35.032867],[138.603896,-35.036037],[138.596186,-35.037534],[138.595895,-35.033368],[138.591033,-35.034502],[138.586311,-35.037955],[138.596759,-35.045825],[138.598983,-35.049336],[138.603656,-35.047631],[138.609921,-35.050006],[138.612048,-35.054319],[138.616316,-35.055235],[138.619279,-35.060528],[138.625424,-35.064487],[138.62805,-35.068859],[138.627653,-35.072774],[138.622192,-35.078614],[138.619261,-35.08613],[138.61281,-35.087601],[138.609779,-35.086361],[138.603828,-35.089634],[138.597513,-35.090831],[138.597718,-35.094158],[138.591666,-35.096493],[138.585352,-35.096859],[138.585573,-35.099818],[138.594487,-35.106827],[138.593269,-35.11581],[138.587581,-35.121279],[138.585624,-35.132359],[138.586717,-35.134327],[138.602783,-35.133541],[138.605034,-35.134235],[138.605755,-35.140694],[138.601392,-35.142323],[138.596335,-35.141939],[138.590359,-35.146246],[138.587409,-35.151972],[138.583559,-35.151886],[138.579705,-35.156046],[138.579769,-35.160161],[138.572425,-35.157445],[138.566039,-35.158471],[138.564179,-35.161855],[138.557026,-35.161358],[138.551209,-35.159298],[138.548137,-35.164058],[138.542929,-35.163404],[138.538839,-35.161144],[138.529714,-35.165238],[138.529969,-35.168304],[138.520022,-35.168865],[138.520645,-35.17265],[138.513392,-35.174976],[138.50819,-35.178406],[138.503579,-35.177793],[138.504568,-35.182107],[138.500642,-35.18457],[138.494959,-35.185227],[138.495826,-35.188171],[138.503368,-35.19464],[138.50236,-35.200599],[138.497854,-35.206051],[138.491008,-35.206586],[138.49008,-35.211919],[138.492298,-35.217749],[138.494274,-35.243023],[138.48149,-35.243694],[138.481677,-35.246305],[138.461979,-35.247361]]],[[[138.511424,-35.00605],[138.50906989947413,-34.99176179282023],[138.50082755170635,-35.00980220142105],[138.4967368779303,-35.02920990677917],[138.49699654986853,-35.04904233501412],[138.50042732553862,-35.06344028265305],[138.503686,-35.056544],[138.508463,-35.044067],[138.515333,-35.03834],[138.517614,-35.03213],[138.511424,-35.00605]]]]},"bbox":[136.4430810861677,-36.17641467874211,139.158312,-34.680538]}]}