{"type":"FeatureCollection","features":[
{"properties":{"electorateShortName":"mcewen","electorateName":"McEwen","area":2288,"state":"VIC"},"type":"Feature","geometry":{"type":"Polygon","coordinates":[[[145.332594,-37.5396],[145.333806,-37.532612],[145.328504,-37.529133],[145.320573,-37.528166],[145.309085,-37.519754],[145.313831,-37.51556],[145.297063,-37.513695],[145.292841,-37.50688],[145.294389,-37.498582],[145.276305,-37.496489],[145.275483,-37.500986],[145.264213,-37.50177],[145.262443,-37.511901],[145.253858,-37.507272],[145.25671,-37.491981],[145.239319,-37.487739],[145.241036,-37.477723],[145.222272,-37.472599],[145.224764,-37.458158],[145.234138,-37.446846],[145.234841,-37.437998],[145.26562,-37.419354],[145.265812,-37.37325],[145.258313,-37.37161],[145.25651,-37.367967],[145.271372,-37.368061],[145.270067,-37.347207],[145.279329,-37.337825],[145.276928,-37.332648],[145.270298,-37.327258],[145.261968,-37.329589],[145.261936,-37.317378],[145.251861,-37.304952],[145.227443,-37.305096],[145.227314,-37.294262],[145.195382,-37.29412],[145.125267,-37.293897],[145.120911,-37.27641],[145.125056,-37.269033],[145.116645,-37.266895],[145.117602,-37.263218],[145.056073,-37.263703],[145.055739,-37.281711],[145.053278,-37.3029],[145.047175,-37.317961],[145.031903,-37.324859],[145.030432,-37.329578],[145.018451,-37.328319],[145.005685,-37.330014],[144.991754,-37.337475],[144.982258,-37.338082],[144.981662,-37.341211],[144.932311,-37.335427],[144.923922,-37.336998],[144.917897,-37.347999],[144.892158,-37.345186],[144.887474,-37.337233],[144.878085,-37.337166],[144.87415,-37.330729],[144.86629,-37.329096],[144.864746,-37.324394],[144.849218,-37.322316],[144.855794,-37.285474],[144.845674,-37.290099],[144.825211,-37.284065],[144.822288,-37.271993],[144.829043,-37.235668],[144.825675,-37.231408],[144.816677,-37.230191],[144.82007,-37.219205],[144.812352,-37.213926],[144.802629,-37.214751],[144.785721,-37.21308],[144.76957,-37.215122],[144.769623,-37.220669],[144.731378,-37.220546],[144.729458,-37.218127],[144.703932,-37.212984],[144.691325,-37.220226],[144.689948,-37.22887],[144.671683,-37.213235],[144.659956,-37.208274],[144.648905,-37.217707],[144.647049,-37.221896],[144.637439,-37.222746],[144.625818,-37.230053],[144.623462,-37.236731],[144.617372,-37.240913],[144.608059,-37.241057],[144.602527,-37.243912],[144.594923,-37.242743],[144.590931,-37.253573],[144.597332,-37.255465],[144.591429,-37.26607],[144.583938,-37.262406],[144.579827,-37.275313],[144.569456,-37.273566],[144.564596,-37.299494],[144.562193,-37.298048],[144.543993,-37.295816],[144.54363,-37.297913],[144.494115,-37.292216],[144.491109,-37.299802],[144.501005,-37.307087],[144.492835,-37.31651],[144.485855,-37.318181],[144.486745,-37.323049],[144.480389,-37.33282],[144.466342,-37.335679],[144.46057,-37.338599],[144.455827,-37.364842],[144.446929,-37.367592],[144.444728,-37.379436],[144.446388,-37.386072],[144.415258,-37.382483],[144.417469,-37.389909],[144.413816,-37.397089],[144.381967,-37.393327],[144.377801,-37.415917],[144.382586,-37.423725],[144.379278,-37.438789],[144.416934,-37.446628],[144.418548,-37.453607],[144.426795,-37.458827],[144.432614,-37.451117],[144.450203,-37.45065],[144.456447,-37.440561],[144.461744,-37.436069],[144.465224,-37.429068],[144.471553,-37.431109],[144.469667,-37.43912],[144.459315,-37.497101],[144.469781,-37.507463],[144.468257,-37.524001],[144.463147,-37.533249],[144.464696,-37.537089],[144.458033,-37.54227],[144.459283,-37.546397],[144.483959,-37.54946],[144.483698,-37.550821],[144.556225,-37.5589],[144.561176,-37.552417],[144.626752,-37.560014],[144.626207,-37.562907],[144.671646,-37.567722],[144.664481,-37.559131],[144.656093,-37.55288],[144.648957,-37.543795],[144.632409,-37.530122],[144.638052,-37.499502],[144.645029,-37.495044],[144.656522,-37.500055],[144.660016,-37.498402],[144.678858,-37.49953],[144.691676,-37.486694],[144.711111,-37.48237],[144.718993,-37.48708],[144.722621,-37.483753],[144.740515,-37.489306],[144.751939,-37.497018],[144.766274,-37.502849],[144.773118,-37.502919],[144.870505,-37.515536],[144.86685,-37.508123],[144.875106,-37.502161],[144.877928,-37.505422],[144.890031,-37.503921],[144.950008,-37.511274],[144.945469,-37.540114],[144.954796,-37.543793],[144.953095,-37.547966],[144.960751,-37.556547],[144.997781,-37.561328],[145.015648,-37.562617],[145.040838,-37.57105],[145.060039,-37.572823],[145.058499,-37.581752],[145.064176,-37.582372],[145.063331,-37.591461],[145.053663,-37.591868],[145.050592,-37.610468],[145.11624,-37.617721],[145.119108,-37.627837],[145.109698,-37.63203],[145.107783,-37.640092],[145.103443,-37.644078],[145.106636,-37.647779],[145.101885,-37.654534],[145.103321,-37.661361],[145.094583,-37.663033],[145.087309,-37.667709],[145.084739,-37.679155],[145.097849,-37.682047],[145.112379,-37.682328],[145.118736,-37.679377],[145.133462,-37.684717],[145.142941,-37.686773],[145.178531,-37.691171],[145.191744,-37.68951],[145.198403,-37.682533],[145.20003,-37.666638],[145.208477,-37.661949],[145.21044,-37.656809],[145.220142,-37.658008],[145.22489,-37.663426],[145.236509,-37.665432],[145.243286,-37.66262],[145.251424,-37.664959],[145.251001,-37.658746],[145.244358,-37.656471],[145.247144,-37.649905],[145.241449,-37.642907],[145.254889,-37.624944],[145.254247,-37.618685],[145.262798,-37.62001],[145.268016,-37.602639],[145.280382,-37.594855],[145.28566,-37.583968],[145.303642,-37.585308],[145.312806,-37.583968],[145.314515,-37.574969],[145.309753,-37.574396],[145.310101,-37.562992],[145.330839,-37.54943],[145.332594,-37.5396]]]},"bbox":[144.377801,-37.691171,145.333806,-37.208274]}]}