{"type":"FeatureCollection","features":[
{"properties":{"electorateShortName":"mcpherson","electorateName":"McPherson","area":229.41645,"state":"QLD"},"type":"Feature","geometry":{"type":"Polygon","coordinates":[[[153.296863,-28.234233],[153.304239,-28.239667],[153.311776,-28.237482],[153.316685,-28.238717],[153.324189,-28.236483],[153.330213,-28.237064],[153.33958,-28.250311],[153.346223,-28.248172],[153.356812,-28.249619],[153.369669,-28.245229],[153.389527,-28.234935],[153.390412,-28.228892],[153.40661,-28.210415],[153.4356,-28.187207],[153.457134,-28.18054],[153.468504,-28.162512],[153.476931,-28.15702],[153.482617,-28.158431],[153.485949,-28.157028],[153.534643,-28.17763],[153.552171,-28.164408],[153.523277,-28.166121],[153.500411,-28.147743],[153.488613,-28.131105],[153.473484,-28.120061],[153.447581,-28.076061],[153.424535,-28.072587],[153.406935,-28.047412],[153.408801,-28.03519],[153.395781,-28.030988],[153.37936,-28.035274],[153.368455,-28.046136],[153.355703,-28.0495],[153.353015,-28.087664],[153.363423,-28.086206],[153.370122,-28.106398],[153.360592,-28.125727],[153.365224,-28.132919],[153.358489,-28.157291],[153.319658,-28.187666],[153.317285,-28.207015],[153.294263,-28.230486],[153.296863,-28.234233]]]},"bbox":[153.294263,-28.250311,153.552171,-28.030988]}]}