{"type":"FeatureCollection","features":[
{"properties":{"electorateShortName":"melbourne","electorateName":"Melbourne","area":39.37,"state":"VIC"},"type":"Feature","geometry":{"type":"MultiPolygon","coordinates":[[[[145.002439,-37.853092],[145.001945,-37.796659],[144.985148,-37.793867],[144.937486,-37.777214],[144.916493,-37.798214],[144.906529,-37.821593],[144.968252,-37.819224],[145.002439,-37.853092]]],[[[144.840214,-37.871507],[144.85407068393883,-37.894723876352096],[144.88666338093853,-37.90937316392844],[144.9044848545918,-37.911569782947325],[144.91433187855296,-37.910807990196844],[144.93821980229345,-37.929593254619185],[144.95331158532335,-37.93596859925139],[144.9693090401089,-37.939502488692966],[144.97429761317784,-37.94013575569345],[144.97796254747257,-37.94060880476138],[144.98255170570073,-37.94120888264611],[144.9903514277964,-37.94227658722348],[144.992151,-37.94002],[144.984792,-37.913367],[144.98499,-37.891003],[144.975658,-37.882121],[144.963316,-37.855468],[144.935592,-37.842548],[144.917323,-37.847464],[144.912638,-37.849999],[144.907213,-37.849526],[144.898362,-37.841204],[144.905593,-37.851732],[144.895504,-37.848029],[144.902042,-37.854318],[144.903923,-37.861733],[144.911555,-37.862068],[144.915394,-37.865307],[144.902906,-37.872753],[144.89215,-37.867605],[144.878621,-37.868083],[144.868582,-37.858712],[144.850369,-37.863944],[144.840214,-37.871507]]]]},"bbox":[144.840214,-37.94227658722348,145.002439,-37.777214]}]}