{"type":"FeatureCollection","features":[
{"properties":{"electorateShortName":"melbourne","electorateName":"Melbourne","area":39.37,"state":"VIC"},"type":"Feature","geometry":{"type":"Polygon","coordinates":[[[145.002439,-37.853092],[145.006442,-37.831576],[145.012916,-37.830504],[145.024618,-37.834499],[145.028323,-37.831014],[145.021331,-37.825189],[145.016119,-37.824462],[145.014379,-37.815533],[145.009529,-37.810475],[145.007636,-37.803307],[145.001945,-37.796659],[144.985148,-37.793867],[144.96839,-37.79226],[144.958758,-37.789879],[144.960234,-37.778044],[144.938769,-37.775448],[144.937486,-37.777214],[144.939636,-37.785582],[144.9363,-37.791511],[144.936253,-37.801719],[144.916493,-37.798214],[144.909609,-37.801807],[144.906437,-37.80885],[144.906529,-37.821593],[144.918002,-37.819113],[144.927737,-37.819284],[144.946915,-37.823273],[144.955268,-37.823346],[144.968252,-37.819224],[144.9718,-37.83228],[144.975538,-37.836218],[144.980643,-37.850219],[145.002439,-37.853092]]]},"bbox":[144.906437,-37.853092,145.028323,-37.775448]}]}