{"type":"FeatureCollection","features":[
{"properties":{"electorateShortName":"melbourne","electorateName":"Melbourne","area":39.37,"state":"VIC"},"type":"Feature","geometry":{"type":"MultiPolygon","coordinates":[[[[145.002439,-37.853092],[145.003186,-37.848103],[145.006442,-37.831576],[145.007681,-37.831878],[145.009545,-37.833544],[145.010469,-37.832875],[145.010685,-37.831695],[145.012916,-37.830504],[145.01437,-37.830941],[145.016654,-37.832219],[145.019175,-37.831623],[145.022171,-37.832683],[145.022911,-37.834173],[145.024618,-37.834499],[145.027071,-37.832737],[145.028323,-37.831014],[145.026774,-37.829943],[145.023203,-37.828094],[145.022002,-37.825559],[145.021331,-37.825189],[145.018347,-37.826216],[145.016119,-37.824462],[145.01573,-37.821551],[145.014544,-37.81749],[145.014379,-37.815533],[145.015695,-37.811296],[145.015645,-37.810549],[145.009529,-37.810475],[145.008964,-37.807996],[145.007304,-37.807213],[145.000791,-37.807219],[144.999371,-37.805656],[145.000318,-37.804233],[145.001618,-37.80425],[145.004423,-37.805347],[145.007589,-37.804087],[145.007636,-37.803307],[145.002708,-37.79967],[145.00002,-37.798293],[144.999501,-37.797004],[145.001419,-37.797183],[145.001945,-37.796659],[145.001225,-37.795297],[144.998039,-37.795606],[144.993748,-37.795295],[144.989537,-37.794347],[144.985148,-37.793867],[144.97574,-37.792913],[144.96839,-37.79226],[144.967118,-37.793083],[144.964659,-37.792993],[144.963313,-37.792249],[144.960192,-37.791209],[144.958758,-37.789879],[144.960234,-37.778044],[144.938769,-37.775448],[144.937486,-37.777214],[144.939628,-37.781674],[144.939636,-37.785582],[144.938976,-37.78741],[144.937146,-37.789705],[144.9363,-37.791511],[144.935689,-37.79507],[144.936382,-37.798693],[144.935823,-37.800008],[144.936253,-37.801719],[144.934198,-37.801411],[144.929651,-37.800186],[144.916493,-37.798214],[144.916217,-37.799086],[144.914805,-37.800236],[144.912421,-37.799578],[144.910983,-37.800102],[144.909609,-37.801807],[144.908225,-37.804605],[144.906437,-37.80885],[144.905465,-37.81349],[144.905452,-37.815291],[144.906493,-37.819157],[144.906529,-37.821593],[144.911246,-37.820278],[144.918002,-37.819113],[144.927737,-37.819284],[144.936016,-37.820792],[144.944836,-37.822884],[144.946915,-37.823273],[144.952204,-37.82373],[144.955268,-37.823346],[144.960623,-37.820754],[144.964423,-37.819769],[144.968252,-37.819224],[144.970934,-37.82507],[144.971351,-37.826502],[144.971396,-37.831072],[144.9718,-37.83228],[144.974199,-37.834279],[144.975538,-37.836218],[144.980643,-37.850219],[144.993371,-37.85185],[145.002439,-37.853092]]],[[[144.840214,-37.871507],[144.83168761496876,-37.8711048179184],[144.84059685135705,-37.8828543399733],[144.85407068393883,-37.894723876352096],[144.8696326816941,-37.903682351900656],[144.88666338093853,-37.90937316392844],[144.9044848545918,-37.911569782947325],[144.91433187855296,-37.910807990196844],[144.92453378228024,-37.92058771241453],[144.93821980229345,-37.929593254619185],[144.95331158532335,-37.93596859925139],[144.9693090401089,-37.939502488692966],[144.97429761317784,-37.94013575569345],[144.97796254747257,-37.94060880476138],[144.98255170570073,-37.94120888264611],[144.9903514277964,-37.94227658722348],[144.99267906457666,-37.94236288001428],[144.992151,-37.94002],[144.999121,-37.941672],[144.999006,-37.939988],[144.989863,-37.929098],[144.985526,-37.926238],[144.987407,-37.919984],[144.984792,-37.913367],[144.98564,-37.908431],[144.9837,-37.905999],[144.983395,-37.901134],[144.985871,-37.896385],[144.98499,-37.891003],[144.975658,-37.882121],[144.975741,-37.879136],[144.973113,-37.872488],[144.975607,-37.870261],[144.969681,-37.864589],[144.971138,-37.863254],[144.970308,-37.860787],[144.963316,-37.855468],[144.935592,-37.842548],[144.931891,-37.843299],[144.929856,-37.847323],[144.93073,-37.84231],[144.927165,-37.841327],[144.926912,-37.840035],[144.918525,-37.839688],[144.913404,-37.841967],[144.917323,-37.847464],[144.912638,-37.849999],[144.9063,-37.841694],[144.90648,-37.839376],[144.902971,-37.839465],[144.907213,-37.849526],[144.899165,-37.840396],[144.898362,-37.841204],[144.897148,-37.842552],[144.897444,-37.844135],[144.899459,-37.848829],[144.905593,-37.851732],[144.899379,-37.849657],[144.897981,-37.84764],[144.895504,-37.848029],[144.902042,-37.854318],[144.903923,-37.861733],[144.911555,-37.862068],[144.915394,-37.865307],[144.908045,-37.8707],[144.902906,-37.872753],[144.89215,-37.867605],[144.88505,-37.86828],[144.882677,-37.865786],[144.878621,-37.868083],[144.874437,-37.863592],[144.874646,-37.861723],[144.868582,-37.858712],[144.861666,-37.859841],[144.856185,-37.863435],[144.850369,-37.863944],[144.840214,-37.871507]]]]},"bbox":[144.83168761496876,-37.94236288001428,145.028323,-37.775448]}]}