{"type":"FeatureCollection","features":[
{"properties":{"electorateShortName":"moncrieff","electorateName":"Moncrieff","area":99.922918,"state":"QLD"},"type":"Feature","geometry":{"type":"Polygon","coordinates":[[[153.447581,-28.076061],[153.45439,-28.089031],[153.500411,-28.147743],[153.53315543181859,-28.103936017828293],[153.5369316606096,-28.08685263790306],[153.53733129734127,-28.06936143828627],[153.53433923960466,-28.05212341740066],[153.52580969945868,-28.021209356441],[153.52090066395593,-27.99064434515095],[153.5236722689559,-27.93064522214396],[153.52134899912687,-27.91325572329411],[153.51569621513406,-27.896647343298525],[153.50692871736268,-27.88145118471234],[153.48148790311882,-27.85752968452596],[153.43093565265247,-27.84389576494368],[153.433728,-27.933812],[153.344164,-27.9768],[153.355703,-28.0495],[153.395781,-28.030988],[153.447581,-28.076061]]]},"bbox":[153.344164,-28.147743,153.53733129734127,-27.84389576494368]}]}