{"type":"FeatureCollection","features":[
{"properties":{"electorateShortName":"moore","electorateName":"Moore","area":102.34,"state":"WA"},"type":"Feature","geometry":{"type":"Polygon","coordinates":[[[115.800666,-31.882382],[115.800987,-31.858072],[115.795193,-31.841429],[115.784171,-31.82341],[115.820852,-31.820103],[115.819625,-31.805375],[115.808556,-31.783339],[115.796116,-31.776717],[115.799087,-31.770411],[115.787774,-31.751885],[115.792254,-31.742984],[115.768635,-31.717476],[115.718774,-31.730834],[115.708009,-31.716012],[115.704884,-31.701943],[115.690458,-31.674504],[115.6829528549721,-31.648727655333794],[115.66146165868442,-31.661441669494923],[115.64908849952263,-31.673878482065216],[115.63936312590373,-31.688479388972798],[115.63265506525434,-31.704689610960035],[115.62921919851652,-31.721893220880958],[115.62918607563557,-31.739436546604036],[115.63685495797498,-31.771005267495948],[115.63867265451128,-31.782775204052083],[115.63900796532606,-31.79000752887389],[115.63751441139487,-31.807351925425337],[115.63938797494349,-31.82465939649157],[115.6510893049595,-31.86363769333641],[115.66067645308576,-31.87899534527343],[115.66264820573936,-31.881071687001736],[115.66410805250456,-31.893599786788922],[115.67066313859794,-31.91231931678921],[115.68115930539722,-31.92914847124347],[115.69864561014256,-31.946102848693357],[115.7156176477184,-31.95631740427064],[115.73441314023482,-31.962571736064096],[115.75434808646243,-31.966516338290287],[115.755236,-31.902835],[115.751811,-31.873396],[115.771078,-31.873997],[115.787165,-31.882488],[115.800677,-31.882535],[115.800666,-31.882382]]]},"bbox":[115.62918607563557,-31.966516338290287,115.820852,-31.648727655333794]}]}