{"type":"FeatureCollection","features":[
{"properties":{"electorateShortName":"new-england","electorateName":"New England","area":75236.55,"state":"NSW"},"type":"Feature","geometry":{"type":"Polygon","coordinates":[[[152.428078,-30.418897],[152.387531,-30.383159],[152.389916,-30.374706],[152.38192,-30.362628],[152.364574,-30.360976],[152.35178,-30.355359],[152.354768,-30.34037],[152.345622,-30.33295],[152.342286,-30.313618],[152.348253,-30.290701],[152.337677,-30.26243],[152.337896,-30.251819],[152.346551,-30.24216],[152.34513,-30.227531],[152.315421,-30.208575],[152.310012,-30.195352],[152.312588,-30.183776],[152.303203,-30.179112],[152.309928,-30.168312],[152.304407,-30.159898],[152.309672,-30.147907],[152.303507,-30.1385],[152.297236,-30.115096],[152.287509,-30.109716],[152.280721,-30.087436],[152.291227,-30.085056],[152.298392,-30.071752],[152.293161,-30.060241],[152.296979,-30.038795],[152.313319,-30.030123],[152.316419,-30.000565],[152.309674,-29.996191],[152.308005,-29.980175],[152.292028,-29.976949],[152.275042,-29.960416],[152.26983,-29.932062],[152.279945,-29.929209],[152.277896,-29.918786],[152.285582,-29.907048],[152.280753,-29.895718],[152.284955,-29.884581],[152.28171,-29.85646],[152.267689,-29.847868],[152.251091,-29.864976],[152.240422,-29.863228],[152.216357,-29.871362],[152.209077,-29.866124],[152.197742,-29.875924],[152.168757,-29.869874],[152.170423,-29.841246],[152.177321,-29.82989],[152.17596,-29.817476],[152.192641,-29.791943],[152.202949,-29.786103],[152.205433,-29.771754],[152.217284,-29.760508],[152.230372,-29.754887],[152.246677,-29.756398],[152.264365,-29.750938],[152.255628,-29.732701],[152.265797,-29.725395],[152.261801,-29.701512],[152.276473,-29.68154],[152.280708,-29.665904],[152.295227,-29.66876],[152.312214,-29.663098],[152.336123,-29.640777],[152.354492,-29.545471],[152.389782,-29.52199],[152.40543,-29.516645],[152.412456,-29.50688],[152.388785,-29.445316],[152.397171,-29.431767],[152.404317,-29.432778],[152.410052,-29.400771],[152.429492,-29.391941],[152.451081,-29.358053],[152.331517,-29.341837],[152.331189,-29.32889],[152.310687,-29.32254],[152.298279,-29.307447],[152.314656,-29.298519],[152.306473,-29.283097],[152.320994,-29.277583],[152.32318,-29.269926],[152.33886,-29.261859],[152.351323,-29.249123],[152.394086,-29.24125],[152.412805,-29.230414],[152.405201,-29.212154],[152.424963,-29.178626],[152.414465,-29.165374],[152.41689,-29.153095],[152.444231,-29.144175],[152.455006,-29.089027],[152.421006,-29.084096],[152.43111,-29.071963],[152.430571,-29.064585],[152.441565,-29.052136],[152.443897,-29.039755],[152.424203,-29.036863],[152.454072,-29.024549],[152.46464,-29.008025],[152.46552,-28.99043],[152.476205,-28.990648],[152.467109,-28.973664],[152.486653,-28.969974],[152.509573,-28.973254],[152.516572,-28.983581],[152.558516,-28.990078],[152.560612,-28.986331],[152.553601,-28.955808],[152.545781,-28.942359],[152.548638,-28.932364],[152.565936,-28.926074],[152.580988,-28.928604],[152.580107,-28.911484],[152.557145,-28.89375],[152.564307,-28.887482],[152.573306,-28.86365],[152.567877,-28.858052],[152.544747,-28.85373],[152.537174,-28.847035],[152.556973,-28.824527],[152.55488,-28.817862],[152.540304,-28.816032],[152.537034,-28.803606],[152.543678,-28.787938],[152.530992,-28.781374],[152.521678,-28.793089],[152.480325,-28.780262],[152.490174,-28.768841],[152.488846,-28.758949],[152.498235,-28.74483],[152.492334,-28.735588],[152.477743,-28.746271],[152.465277,-28.735837],[152.426474,-28.724078],[152.421238,-28.718079],[152.407664,-28.723407],[152.404789,-28.710113],[152.375208,-28.699883],[152.373705,-28.687903],[152.384483,-28.686102],[152.389091,-28.665769],[152.402465,-28.659427],[152.399648,-28.645827],[152.407829,-28.642945],[152.408765,-28.628211],[152.422079,-28.606845],[152.434765,-28.602244],[152.441811,-28.592688],[152.441062,-28.574986],[152.451841,-28.562728],[152.442458,-28.556841],[152.447754,-28.527473],[152.500138,-28.528526],[152.503236,-28.511599],[152.518968,-28.51032],[152.533191,-28.513812],[152.536924,-28.499767],[152.527376,-28.497501],[152.561765,-28.455342],[152.567384,-28.437925],[152.577038,-28.437617],[152.583561,-28.41709],[152.594641,-28.408597],[152.593233,-28.401257],[152.60488,-28.391985],[152.615639,-28.352387],[152.627689,-28.347076],[152.627861,-28.327548],[152.617767,-28.320421],[152.597846,-28.314779],[152.597642,-28.314618],[152.597572,-28.314551],[152.585233,-28.328411],[152.579506,-28.339198],[152.57462,-28.334094],[152.572299,-28.326754],[152.564036,-28.323534],[152.556799,-28.324022],[152.554675,-28.325536],[152.554946,-28.31897],[152.549056,-28.321269],[152.547013,-28.320487],[152.544048,-28.31894],[152.543248,-28.315922],[152.538879,-28.311349],[152.533545,-28.310727],[152.525919,-28.305978],[152.525593,-28.301795],[152.529298,-28.297945],[152.528879,-28.286644],[152.532802,-28.279583],[152.533975,-28.262694],[152.521699,-28.260734],[152.516065,-28.256825],[152.515812,-28.251799],[152.507531,-28.249],[152.497194,-28.25335],[152.487893,-28.253199],[152.482866,-28.258017],[152.468237,-28.257757],[152.461331,-28.260935],[152.459494,-28.266686],[152.461228,-28.269753],[152.457959,-28.27238],[152.455141,-28.278408],[152.449262,-28.280688],[152.443162,-28.288923],[152.444181,-28.297245],[152.440457,-28.2976],[152.435654,-28.299493],[152.425391,-28.299614],[152.416744,-28.296816],[152.415173,-28.298073],[152.413216,-28.301582],[152.413889,-28.307139],[152.4107,-28.310447],[152.410571,-28.320408],[152.417299,-28.329874],[152.416362,-28.335003],[152.41024,-28.341494],[152.401119,-28.347069],[152.387971,-28.367464],[152.383425,-28.368848],[152.365173,-28.366149],[152.356632,-28.361187],[152.341853,-28.36797],[152.33194,-28.36829],[152.320358,-28.36695],[152.312827,-28.362494],[152.309367,-28.36284],[152.307341,-28.36904],[152.291754,-28.381265],[152.288609,-28.391503],[152.268244,-28.389531],[152.266677,-28.390742],[152.26038,-28.40077],[152.252449,-28.40728],[152.252075,-28.410599],[152.239161,-28.417868],[152.238062,-28.423477],[152.230983,-28.429585],[152.228676,-28.437025],[152.225691,-28.43724],[152.219625,-28.447797],[152.217235,-28.449114],[152.213976,-28.44599],[152.207271,-28.44523],[152.204702,-28.438071],[152.190219,-28.43404],[152.184266,-28.439044],[152.164688,-28.432592],[152.156414,-28.434585],[152.154493,-28.438027],[152.141966,-28.442435],[152.135412,-28.452164],[152.121239,-28.462649],[152.111776,-28.464346],[152.102805,-28.463302],[152.093821,-28.469739],[152.079795,-28.470625],[152.075588,-28.469966],[152.07408,-28.46803],[152.069682,-28.468535],[152.0687,-28.476477],[152.066817,-28.478727],[152.067119,-28.485152],[152.059663,-28.490847],[152.045553,-28.495219],[152.043769,-28.499314],[152.035733,-28.507459],[152.026935,-28.512917],[152.024266,-28.51294],[152.019602,-28.517319],[152.02002,-28.521201],[152.016708,-28.525233],[152.000453,-28.528124],[151.991759,-28.524752],[151.988794,-28.525617],[151.984457,-28.516901],[151.985591,-28.509941],[151.982626,-28.503328],[151.977801,-28.503068],[151.964092,-28.514544],[151.958186,-28.515945],[151.955352,-28.519191],[151.953223,-28.539938],[151.957333,-28.564747],[151.976088,-28.573541],[151.985938,-28.582131],[151.988309,-28.591981],[151.992118,-28.594874],[151.994006,-28.611945],[151.990987,-28.624585],[152.002412,-28.640299],[152.002042,-28.65064],[152.005934,-28.651735],[152.008903,-28.659218],[152.011596,-28.661847],[152.010495,-28.664987],[152.014193,-28.665777],[152.039056,-28.664577],[152.052543,-28.682229],[152.062002,-28.679389],[152.066446,-28.681191],[152.068052,-28.685124],[152.06466,-28.690654],[152.066075,-28.697586],[152.076035,-28.708345],[152.071329,-28.714959],[152.062127,-28.718238],[152.053881,-28.725549],[152.042291,-28.731828],[152.046097,-28.733854],[152.047698,-28.740431],[152.043767,-28.746043],[152.040872,-28.747511],[152.036073,-28.757271],[152.033967,-28.791124],[152.035223,-28.803652],[152.036498,-28.810729],[152.034593,-28.815157],[152.036603,-28.817792],[152.034126,-28.820023],[152.03338,-28.82807],[152.027762,-28.831651],[152.022937,-28.830948],[152.016925,-28.837932],[152.014915,-28.850232],[152.015359,-28.851704],[152.017637,-28.851473],[152.023088,-28.854668],[152.037562,-28.851641],[152.039002,-28.854602],[152.035504,-28.858437],[152.037544,-28.864355],[152.030141,-28.869945],[152.031384,-28.873921],[152.028202,-28.876566],[152.026391,-28.883193],[152.023854,-28.886384],[152.024364,-28.889636],[152.016432,-28.892693],[152.016253,-28.896796],[152.010697,-28.906685],[152.004766,-28.909063],[152.001616,-28.908491],[151.999685,-28.903503],[152.001299,-28.899752],[151.996311,-28.89479],[151.994803,-28.89874],[151.98073,-28.909169],[151.974485,-28.908562],[151.968491,-28.916683],[151.961012,-28.919116],[151.956236,-28.917151],[151.951703,-28.919524],[151.937128,-28.921876],[151.922854,-28.928165],[151.916316,-28.929342],[151.915588,-28.926812],[151.917058,-28.924821],[151.913691,-28.92012],[151.89558,-28.913451],[151.881543,-28.911492],[151.871595,-28.914295],[151.859768,-28.90681],[151.849775,-28.907624],[151.841344,-28.911473],[151.838224,-28.916363],[151.835152,-28.932077],[151.836518,-28.9367],[151.839829,-28.939497],[151.839903,-28.942779],[151.835554,-28.956773],[151.825738,-28.963974],[151.813315,-28.959812],[151.8069,-28.945298],[151.793431,-28.949471],[151.777397,-28.957172],[151.773339,-28.938076],[151.76283,-28.935097],[151.761766,-28.932354],[151.758294,-28.930027],[151.759752,-28.926208],[151.745964,-28.91532],[151.739453,-28.901337],[151.74092,-28.89752],[151.73643,-28.89195],[151.731755,-28.882422],[151.733663,-28.878503],[151.733862,-28.871455],[151.726416,-28.866955],[151.72262,-28.868464],[151.722611,-28.870168],[151.716492,-28.874952],[151.713207,-28.875476],[151.71104,-28.871185],[151.706368,-28.871719],[151.702067,-28.882137],[151.69565,-28.884453],[151.695847,-28.888458],[151.688609,-28.88696],[151.674772,-28.907749],[151.666013,-28.905613],[151.651541,-28.917295],[151.616952,-28.926333],[151.609782,-28.923458],[151.588469,-28.932062],[151.57894,-28.94412],[151.572047,-28.944727],[151.566706,-28.941837],[151.548109,-28.952947],[151.544829,-28.953286],[151.541801,-28.968718],[151.537289,-28.979804],[151.531697,-28.98541],[151.52364,-28.989001],[151.50607,-29.006767],[151.50278,-29.015802],[151.500164,-29.016937],[151.497799,-29.02088],[151.494912,-29.032914],[151.497256,-29.042233],[151.490092,-29.056575],[151.502375,-29.065521],[151.502776,-29.069867],[151.499897,-29.072683],[151.496739,-29.070394],[151.493429,-29.071771],[151.494431,-29.074631],[151.485341,-29.089335],[151.476729,-29.091305],[151.462942,-29.098313],[151.457829,-29.117142],[151.452744,-29.126252],[151.432354,-29.140094],[151.428579,-29.147122],[151.423627,-29.149276],[151.416468,-29.149166],[151.409894,-29.153933],[151.402117,-29.171349],[151.394116,-29.178028],[151.387552,-29.175145],[151.376945,-29.176801],[151.363017,-29.172349],[151.35847,-29.172279],[151.353201,-29.17572],[151.338428,-29.179266],[151.312067,-29.161927],[151.309311,-29.146588],[151.318009,-29.138057],[151.30426,-29.121138],[151.303493,-29.116651],[151.301073,-29.114013],[151.297829,-29.112604],[151.290347,-29.113887],[151.28647,-29.107269],[151.280468,-29.102157],[151.278225,-29.092653],[151.279192,-29.086534],[151.274628,-29.081833],[151.275132,-29.076424],[151.28551,-29.065447],[151.285421,-29.058162],[151.290545,-29.051096],[151.285791,-29.047397],[151.28651,-29.036742],[151.283694,-29.035391],[151.276381,-29.03571],[151.271676,-29.030392],[151.273984,-29.024654],[151.283506,-29.017495],[151.284103,-29.006822],[151.283161,-29.002701],[151.278693,-28.99686],[151.276392,-28.987063],[151.276623,-28.984709],[151.282087,-28.98096],[151.271939,-28.972733],[151.273318,-28.967698],[151.280424,-28.964971],[151.281528,-28.958492],[151.281613,-28.949009],[151.275861,-28.942717],[151.274167,-28.937912],[151.266156,-28.935446],[151.264264,-28.93211],[151.257813,-28.932061],[151.25014,-28.92619],[151.242318,-28.923373],[151.238629,-28.909303],[151.234642,-28.904803],[151.229385,-28.908803],[151.214966,-28.904299],[151.207008,-28.898337],[151.19959,-28.884255],[151.184,-28.87822],[151.178443,-28.880449],[151.172985,-28.880302],[151.163027,-28.870328],[151.161066,-28.86538],[151.143574,-28.860149],[151.139792,-28.863091],[151.131898,-28.860063],[151.12515,-28.850556],[151.115349,-28.850528],[151.108624,-28.842729],[151.104492,-28.844069],[151.103329,-28.836584],[151.099626,-28.836498],[151.09684,-28.838391],[151.090408,-28.835299],[151.082664,-28.834515],[151.07217,-28.840705],[151.071491,-28.844912],[151.058844,-28.846251],[151.053691,-28.849818],[151.053018,-28.844923],[151.050248,-28.843548],[151.046884,-28.845351],[151.044403,-28.843892],[151.038916,-28.838305],[151.03922,-28.83653],[151.042683,-28.835243],[151.042994,-28.833079],[151.03657,-28.825693],[151.037586,-28.818435],[151.04226,-28.815764],[151.042704,-28.801597],[151.041089,-28.797634],[151.037699,-28.797602],[151.033281,-28.793931],[151.024087,-28.793484],[151.028534,-28.770532],[151.024567,-28.753062],[151.012,-28.744525],[151.009923,-28.740947],[151.002891,-28.740702],[150.989548,-28.73607],[150.98342,-28.736168],[150.97949,-28.732628],[150.970428,-28.732074],[150.963344,-28.737839],[150.95244,-28.736701],[150.94746,-28.733797],[150.94592,-28.728823],[150.943014,-28.728642],[150.938421,-28.731247],[150.938182,-28.725656],[150.932405,-28.722346],[150.930615,-28.705109],[150.924764,-28.699019],[150.919848,-28.700701],[150.915416,-28.698518],[150.911384,-28.695399],[150.907437,-28.688525],[150.9043,-28.68732],[150.894726,-28.688474],[150.890934,-28.695005],[150.885897,-28.695844],[150.884423,-28.695033],[150.880253,-28.689051],[150.874065,-28.694394],[150.870051,-28.686264],[150.863498,-28.688262],[150.852186,-28.680187],[150.849048,-28.673719],[150.839294,-28.672514],[150.828523,-28.667188],[150.818775,-28.666694],[150.81635,-28.662485],[150.818978,-28.659848],[150.804498,-28.653704],[150.796334,-28.656128],[150.782486,-28.645526],[150.751259,-28.63425],[150.727285,-28.635564],[150.724245,-28.640969],[150.71027,-28.645515],[150.709552,-28.652157],[150.692013,-28.653895],[150.681372,-28.661674],[150.673421,-28.650462],[150.64152,-28.665359],[150.63223,-28.67709],[150.600452,-28.671328],[150.599945,-28.665075],[150.580625,-28.655833],[150.55442,-28.664272],[150.551024,-28.6716],[150.537986,-28.670896],[150.534972,-28.672449],[150.527466,-28.669331],[150.525559,-28.665553],[150.532405,-28.66181],[150.536934,-28.662547],[150.539286,-28.660048],[150.537733,-28.657241],[150.530694,-28.655323],[150.521782,-28.65531],[150.518786,-28.66077],[150.513845,-28.662307],[150.486323,-28.657359],[150.483832,-28.662259],[150.420939,-28.751976],[150.383723,-28.789905],[150.343964,-28.827542],[150.169218,-28.876344],[150.148546,-28.889263],[150.259498,-29.013903],[150.252614,-29.051194],[150.25007,-29.076044],[150.244334,-29.088651],[150.239673,-29.114568],[150.24578,-29.116176],[150.230161,-29.195738],[150.183563,-29.437825],[150.175322,-29.462575],[150.169228,-29.495984],[150.192619,-29.49395],[150.205956,-29.483191],[150.219462,-29.497948],[150.194526,-29.518855],[150.211639,-29.529801],[150.194619,-29.620235],[150.215942,-29.648851],[150.218816,-29.659719],[150.23183,-29.66296],[150.262893,-29.679026],[150.272589,-29.691971],[150.272068,-29.704023],[150.280958,-29.70647],[150.287829,-29.721939],[150.302529,-29.731788],[150.298058,-29.744221],[150.28796,-29.749832],[150.293233,-29.763954],[150.290127,-29.774071],[150.29072,-29.802698],[150.298251,-29.808285],[150.301779,-29.840026],[150.294081,-29.846606],[150.293831,-29.870525],[150.301511,-29.873729],[150.312409,-29.892556],[150.312038,-29.90691],[150.300511,-29.920914],[150.301924,-29.957239],[150.292467,-29.963772],[150.292859,-29.990531],[150.278474,-29.995908],[150.272628,-29.989392],[150.248852,-29.99348],[150.248841,-30.010267],[150.236102,-30.012698],[150.197512,-30.062574],[150.188487,-30.065706],[150.171956,-30.062964],[150.162812,-30.078139],[150.139505,-30.086488],[150.124153,-30.070046],[150.113319,-30.080521],[150.102979,-30.081962],[150.083633,-30.097049],[150.07566,-30.107363],[150.074402,-30.137122],[150.080728,-30.140085],[150.088669,-30.158066],[150.089365,-30.171677],[150.102263,-30.191946],[150.125231,-30.19599],[150.129844,-30.203072],[150.144859,-30.202355],[150.146369,-30.215644],[150.167062,-30.228544],[150.17393,-30.248429],[150.175503,-30.265359],[150.169036,-30.274894],[150.181347,-30.279575],[150.186723,-30.290665],[150.182964,-30.299506],[150.194998,-30.321087],[150.195547,-30.345626],[150.188295,-30.359725],[150.203418,-30.375046],[150.224023,-30.370921],[150.237671,-30.384604],[150.225751,-30.399298],[150.239201,-30.40157],[150.25277,-30.413992],[150.274604,-30.421448],[150.283241,-30.430848],[150.300528,-30.432724],[150.314174,-30.429023],[150.322614,-30.419724],[150.319713,-30.411142],[150.328624,-30.402452],[150.338779,-30.41508],[150.351488,-30.418184],[150.362791,-30.433258],[150.360984,-30.454077],[150.351826,-30.457706],[150.350862,-30.472987],[150.367582,-30.470081],[150.358849,-30.519138],[150.368537,-30.530077],[150.366127,-30.543415],[150.388654,-30.551035],[150.390702,-30.56932],[150.372742,-30.566742],[150.36502,-30.583433],[150.378269,-30.602705],[150.394623,-30.602644],[150.396077,-30.593689],[150.410649,-30.589852],[150.430031,-30.60087],[150.454351,-30.607517],[150.456351,-30.619198],[150.468508,-30.628335],[150.475413,-30.626218],[150.499184,-30.638655],[150.509647,-30.660088],[150.457961,-30.690158],[150.453462,-30.715383],[150.464497,-30.717095],[150.467178,-30.745206],[150.452613,-30.757233],[150.456319,-30.772761],[150.463393,-30.778957],[150.490387,-30.783325],[150.487268,-30.798984],[150.520149,-30.800458],[150.54384,-30.813422],[150.559266,-30.810814],[150.555997,-30.844956],[150.54661,-30.858757],[150.521061,-30.854963],[150.530401,-30.875117],[150.530215,-30.903012],[150.52454,-30.906436],[150.499366,-30.908822],[150.49177,-30.92138],[150.510418,-30.921303],[150.523233,-30.928141],[150.533062,-30.9405],[150.527741,-30.968574],[150.539871,-30.986252],[150.551811,-31.011416],[150.575263,-31.020065],[150.599399,-31.046846],[150.579729,-31.147056],[150.572125,-31.206047],[150.586718,-31.210359],[150.580167,-31.222317],[150.569044,-31.220816],[150.562324,-31.235923],[150.583751,-31.228476],[150.575295,-31.273798],[150.548416,-31.264927],[150.546033,-31.277541],[150.550514,-31.289523],[150.546135,-31.3292],[150.537653,-31.328101],[150.534605,-31.343092],[150.549846,-31.343969],[150.543292,-31.36287],[150.507647,-31.356856],[150.498841,-31.350986],[150.484234,-31.356201],[150.469625,-31.346978],[150.419482,-31.34003],[150.433278,-31.36388],[150.429634,-31.384383],[150.417667,-31.397631],[150.382465,-31.392679],[150.383718,-31.386122],[150.351856,-31.384543],[150.33888,-31.386238],[150.303409,-31.381349],[150.285905,-31.373839],[150.200263,-31.362883],[150.191955,-31.358432],[150.160961,-31.354959],[150.156807,-31.328574],[150.15936,-31.313773],[150.148646,-31.303841],[150.157848,-31.252418],[150.158496,-31.237667],[150.144799,-31.236738],[150.134651,-31.244313],[150.103379,-31.240018],[150.091357,-31.297896],[150.086472,-31.297257],[150.078838,-31.338094],[150.039868,-31.332773],[150.041308,-31.325018],[150.006557,-31.320806],[149.986677,-31.329315],[149.99871,-31.344639],[149.999201,-31.361647],[149.98813,-31.427367],[150.004391,-31.429592],[150.002257,-31.445629],[149.986349,-31.45443],[149.968049,-31.45813],[149.93685,-31.45683],[149.89765,-31.45113],[149.882911,-31.451994],[149.866949,-31.537269],[149.875955,-31.534964],[149.904408,-31.536897],[149.903174,-31.54531],[149.911777,-31.552989],[149.911314,-31.572789],[149.89291,-31.592553],[149.898799,-31.617178],[149.887255,-31.621153],[149.840889,-31.616108],[149.851432,-31.628732],[149.864563,-31.636342],[149.866465,-31.651505],[149.863574,-31.669611],[149.878832,-31.691837],[149.897302,-31.698558],[149.904783,-31.706764],[149.919362,-31.706317],[149.930174,-31.698388],[149.93933,-31.706498],[149.965541,-31.700973],[149.980844,-31.718763],[149.993737,-31.721789],[150.013668,-31.697585],[150.030212,-31.69088],[150.052178,-31.698507],[150.044686,-31.710931],[150.057577,-31.719709],[150.075072,-31.739869],[150.099944,-31.748999],[150.069755,-31.76552],[150.068656,-31.772915],[150.049893,-31.786316],[150.034337,-31.816898],[150.023983,-31.828752],[149.992219,-31.843498],[149.968322,-31.861497],[149.959059,-31.863238],[149.941452,-31.878752],[149.919587,-31.886679],[149.919454,-31.893978],[149.897359,-31.912621],[149.898585,-31.918615],[149.883297,-31.937943],[149.873155,-31.943996],[149.866099,-31.961503],[149.851323,-31.970932],[149.839116,-31.987378],[149.857806,-31.989533],[149.858932,-31.982647],[149.875564,-31.984515],[149.879703,-31.999875],[149.869721,-32.023779],[149.849875,-32.025559],[149.825749,-32.037255],[149.80816,-32.039277],[149.805267,-32.055177],[149.795665,-32.05809],[149.791608,-32.079359],[149.803022,-32.089331],[149.820768,-32.096376],[149.81943,-32.103624],[149.892267,-32.11267],[149.893982,-32.119893],[149.921931,-32.123016],[149.930319,-32.131107],[149.947996,-32.134952],[149.939343,-32.157041],[149.964628,-32.160154],[149.960754,-32.181876],[149.982621,-32.184721],[149.990684,-32.163682],[150.00946,-32.162659],[150.008146,-32.176603],[150.028746,-32.187263],[150.034803,-32.195905],[150.062069,-32.184882],[150.065847,-32.196602],[150.062718,-32.208113],[150.051395,-32.21388],[150.049508,-32.225449],[150.060244,-32.22725],[150.055302,-32.238879],[150.063026,-32.245722],[150.053208,-32.25836],[150.041874,-32.262327],[150.042813,-32.284617],[150.028126,-32.291394],[150.021827,-32.305597],[150.031963,-32.316378],[150.054166,-32.351038],[150.08648,-32.342172],[150.102236,-32.34281],[150.133246,-32.336956],[150.142133,-32.341593],[150.164314,-32.320185],[150.187925,-32.334637],[150.205217,-32.333366],[150.217873,-32.336569],[150.222278,-32.314542],[150.235107,-32.308823],[150.26078,-32.317813],[150.260377,-32.345878],[150.266698,-32.375736],[150.276674,-32.381121],[150.287422,-32.378052],[150.295695,-32.384213],[150.304179,-32.373515],[150.314548,-32.394704],[150.317714,-32.409655],[150.299748,-32.419382],[150.279603,-32.422298],[150.267406,-32.44944],[150.246977,-32.460298],[150.234448,-32.454258],[150.226655,-32.462928],[150.24592,-32.480509],[150.240483,-32.494422],[150.241115,-32.509881],[150.24714,-32.519241],[150.241839,-32.538423],[150.247538,-32.549987],[150.236833,-32.574043],[150.266043,-32.577718],[150.25947,-32.597717],[150.239685,-32.601556],[150.236447,-32.608444],[150.311343,-32.646919],[150.320162,-32.647922],[150.319289,-32.660848],[150.3081,-32.66522],[150.29694,-32.691551],[150.290842,-32.72089],[150.277383,-32.732025],[150.275476,-32.747621],[150.288566,-32.765054],[150.317335,-32.784304],[150.337975,-32.790387],[150.33854,-32.808963],[150.349214,-32.817999],[150.356219,-32.840729],[150.362598,-32.845913],[150.385959,-32.839508],[150.388886,-32.826471],[150.412753,-32.824092],[150.429555,-32.810938],[150.432361,-32.801027],[150.444698,-32.792363],[150.461168,-32.794695],[150.464503,-32.780318],[150.492341,-32.765301],[150.494135,-32.751937],[150.518173,-32.749337],[150.526978,-32.759688],[150.54106,-32.754256],[150.556609,-32.758462],[150.581546,-32.747072],[150.603086,-32.71812],[150.622867,-32.71335],[150.634164,-32.702287],[150.652217,-32.700667],[150.660799,-32.706861],[150.67129,-32.698479],[150.681978,-32.632525],[150.744565,-32.641325],[150.773575,-32.498261],[150.799883,-32.501657],[150.776458,-32.482391],[150.778138,-32.473783],[150.798642,-32.466028],[150.817495,-32.472639],[150.83349,-32.486456],[150.84305,-32.480091],[150.846795,-32.45871],[150.852744,-32.451088],[150.883068,-32.470205],[150.893218,-32.414368],[150.898029,-32.397086],[150.914908,-32.400567],[150.976696,-32.40783],[150.984204,-32.397603],[151.017862,-32.402065],[151.028602,-32.344626],[151.045525,-32.346769],[151.048094,-32.332335],[151.073495,-32.33586],[151.099023,-32.335295],[151.101452,-32.324328],[151.095871,-32.312058],[151.108309,-32.290881],[151.109563,-32.281652],[151.126307,-32.283977],[151.129091,-32.269651],[151.140776,-32.271259],[151.155948,-32.266688],[151.169039,-32.243566],[151.159927,-32.229238],[151.159242,-32.211122],[151.174018,-32.211807],[151.186215,-32.228198],[151.196823,-32.23366],[151.208815,-32.220166],[151.238403,-32.207745],[151.246256,-32.209568],[151.269863,-32.183694],[151.284939,-32.178413],[151.29484,-32.169154],[151.309698,-32.138984],[151.312247,-32.111336],[151.335448,-32.082403],[151.352109,-32.080392],[151.387447,-32.083526],[151.394632,-32.069713],[151.406738,-32.058774],[151.408589,-32.032685],[151.433128,-32.016711],[151.454726,-31.995979],[151.446091,-31.970044],[151.448739,-31.961657],[151.442452,-31.949366],[151.450361,-31.944195],[151.455799,-31.923058],[151.469226,-31.906085],[151.469467,-31.896611],[151.484698,-31.892795],[151.491173,-31.878161],[151.515154,-31.865728],[151.516642,-31.852535],[151.535463,-31.84554],[151.556427,-31.849326],[151.556248,-31.861963],[151.57678,-31.85484],[151.584899,-31.837576],[151.585374,-31.81926],[151.594022,-31.78969],[151.55445,-31.787303],[151.540731,-31.775763],[151.517871,-31.768467],[151.532389,-31.697316],[151.521103,-31.675951],[151.536255,-31.598101],[151.557171,-31.60081],[151.561148,-31.60625],[151.584911,-31.604352],[151.60098,-31.595677],[151.61184,-31.606796],[151.643779,-31.611317],[151.652578,-31.60266],[151.659977,-31.61219],[151.681943,-31.608751],[151.690203,-31.622344],[151.710995,-31.623573],[151.733097,-31.628452],[151.740025,-31.6359],[151.756867,-31.638158],[151.757149,-31.601741],[151.802497,-31.573861],[151.788201,-31.559293],[151.787466,-31.549545],[151.763901,-31.540943],[151.753741,-31.524385],[151.761575,-31.511185],[151.789327,-31.514938],[151.802351,-31.505003],[151.842759,-31.509038],[151.84458,-31.499475],[151.915755,-31.510067],[151.91277,-31.4767],[152.083657,-31.500485],[152.079653,-31.46276],[152.085306,-31.449821],[152.064663,-31.438591],[152.061895,-31.429235],[152.065575,-31.409145],[152.087244,-31.391719],[152.09976,-31.392027],[152.123679,-31.278729],[152.137785,-31.284686],[152.1475,-31.279899],[152.160941,-31.240885],[152.160655,-31.230368],[152.149626,-31.223774],[152.154124,-31.209319],[152.14755,-31.196017],[152.157201,-31.186285],[152.170211,-31.190611],[152.175595,-31.19851],[152.199673,-31.193581],[152.223397,-31.207902],[152.253103,-31.205393],[152.254681,-31.194535],[152.316572,-31.202936],[152.330897,-31.127464],[152.336641,-31.116269],[152.349587,-31.117004],[152.338112,-31.106029],[152.334987,-31.096198],[152.340634,-31.06821],[152.331474,-31.05557],[152.34517,-31.050618],[152.340341,-31.036442],[152.307849,-31.025194],[152.285222,-31.010356],[152.275066,-31.008692],[152.269825,-30.999147],[152.29117,-30.975444],[152.290658,-30.961333],[152.284306,-30.949125],[152.296107,-30.930719],[152.291013,-30.924718],[152.294739,-30.910623],[152.289493,-30.900382],[152.290613,-30.882266],[152.299116,-30.868431],[152.28951,-30.844152],[152.28454,-30.841506],[152.291453,-30.823737],[152.298103,-30.823219],[152.315673,-30.793799],[152.333339,-30.789489],[152.343857,-30.791901],[152.351956,-30.769156],[152.375309,-30.745347],[152.37586,-30.731802],[152.365915,-30.702985],[152.369327,-30.698688],[152.358405,-30.684213],[152.364359,-30.663496],[152.369291,-30.658905],[152.331578,-30.628318],[152.333149,-30.620307],[152.321906,-30.615829],[152.316055,-30.602971],[152.317728,-30.593425],[152.329911,-30.584223],[152.335809,-30.567038],[152.361994,-30.555286],[152.363655,-30.546112],[152.376388,-30.540287],[152.386854,-30.528965],[152.382551,-30.519325],[152.385807,-30.505194],[152.400253,-30.500942],[152.408423,-30.489261],[152.394568,-30.479499],[152.395074,-30.468166],[152.389645,-30.453052],[152.39205,-30.442917],[152.401805,-30.435009],[152.41753,-30.436503],[152.428078,-30.418897]]]},"bbox":[149.791608,-32.845913,152.627861,-28.249]}]}