{"type":"FeatureCollection","features":[
{"properties":{"electorateShortName":"newcastle","electorateName":"Newcastle","area":159.36,"state":"NSW"},"type":"Feature","geometry":{"type":"Polygon","coordinates":[[[151.737915,-32.962947],[151.726931,-32.978167],[151.730916,-33.005938],[151.707644,-33.021904],[151.68241924911894,-33.03948998091259],[151.71004133413902,-33.04907155586052],[151.72790573847413,-33.05248431062373],[151.74582544292556,-33.05259868650238],[151.7629771040416,-33.04938710030656],[151.7791866349827,-33.04292607317451],[151.80817585518335,-33.02471650110579],[151.81224049530874,-33.02086742722781],[151.81896928256432,-33.01799096801621],[151.8306281128247,-33.01070597144167],[151.83271369195998,-33.00985217342456],[151.84701405107728,-33.00051073070141],[151.86577381717404,-32.98124942434873],[151.87958320554068,-32.96326779456098],[151.88745380160483,-32.947442494834156],[151.8920798291087,-32.93038417535707],[151.89315814614895,-32.911785977745325],[151.89988629013544,-32.88456174498991],[151.8993853462278,-32.86682208107128],[151.8895386271026,-32.83648467348084],[151.852437,-32.853585],[151.81011,-32.87822],[151.786362,-32.87521],[151.777455,-32.85653],[151.755311,-32.853511],[151.736322,-32.847836],[151.72725,-32.837075],[151.6951,-32.830312],[151.685972,-32.823141],[151.672974,-32.829504],[151.635341,-32.860248],[151.614151,-32.856826],[151.60937,-32.880272],[151.600846,-32.88926],[151.61948,-32.902353],[151.639099,-32.907005],[151.640251,-32.919863],[151.659364,-32.925125],[151.671396,-32.935354],[151.684951,-32.938301],[151.684621,-32.948468],[151.729059,-32.955082],[151.737915,-32.962947]]]},"bbox":[151.600846,-33.05259868650238,151.89988629013544,-32.823141]}]}