{"type":"FeatureCollection","features":[
{"properties":{"electorateShortName":"oconnor","electorateName":"O'Connor","area":1093790.24,"state":"WA"},"type":"Feature","geometry":{"type":"Polygon","coordinates":[[[115.337093,-34.314847],[115.438431,-34.352423],[115.543282,-34.416072],[115.577862,-34.422088],[115.669869,-34.480925],[115.818598,-34.602152],[115.953801,-34.727826],[116.002664,-34.812392],[116.001924,-34.842304],[116.137045,-34.844744],[116.250729,-34.876055],[116.354297,-34.926471],[116.478566,-35.003983],[116.532847,-35.004438],[116.658079,-35.051438],[116.77645,-35.01525],[116.921228,-35.064349],[116.956844,-35.019364],[117.14111,-35.052212],[117.186737,-35.01811],[117.315425,-35.037173],[117.362834,-35.01957],[117.479131,-35.073569],[117.525533,-35.074377],[117.595832,-35.10774],[117.675724,-35.04433],[117.751663,-35.051469],[117.865886,-35.109255],[117.937906,-35.117861],[117.9164,-35.021585],[118.04428,-35.016737],[118.102092,-34.98602],[118.168661,-34.995963],[118.174417,-34.941147],[118.259873,-34.908552],[118.360101,-34.90501],[118.397075,-34.876645],[118.400428,-34.823854],[118.456643,-34.747472],[118.519837,-34.717451],[118.645197,-34.691221],[118.717375,-34.6576],[118.751991,-34.622448],[118.739631,-34.573564],[118.811598,-34.509473],[118.907827,-34.503446],[118.911791,-34.462878],[118.960905,-34.451277],[119.069109,-34.458813],[119.15223,-34.494511],[119.23936,-34.516177],[119.271965,-34.466048],[119.31478,-34.444887],[119.384092,-34.467011],[119.404848,-34.379817],[119.482512,-34.375228],[119.517885,-34.249365],[119.582687,-34.150976],[119.666402,-34.080413],[119.781732,-34.026733],[119.81637,-33.983476],[119.85863,-33.969793],[119.944395,-33.977887],[119.989165,-33.93781],[120.04406,-33.923133],[120.11917,-33.952521],[120.176725,-33.934825],[120.253374,-33.93423],[120.43657,-33.971882],[120.550598,-33.925241],[120.593472,-33.886246],[120.810206,-33.88951],[120.868536,-33.85626],[121.008718,-33.870853],[121.123484,-33.850629],[121.172767,-33.867086],[121.210243,-33.842331],[121.296339,-33.840199],[121.361482,-33.815442],[121.546584,-33.82799],[121.651814,-33.888868],[121.695084,-33.86121],[121.783533,-33.906759],[121.857122,-33.890379],[121.933382,-33.834289],[122.017722,-33.836469],[122.085382,-33.902798],[122.136743,-34.006599],[122.188992,-34.008159],[122.272801,-33.984388],[122.287791,-33.949018],[122.375301,-33.911607],[122.49111,-33.938987],[122.55757,-33.936617],[122.61869,-33.892836],[122.742759,-33.896066],[122.773819,-33.877735],[122.829389,-33.909975],[122.905749,-33.889245],[123.083117,-33.871534],[123.133887,-33.904374],[123.181778,-34.011595],[123.292497,-33.974044],[123.354366,-33.900993],[123.412296,-33.893833],[123.546755,-33.934992],[123.590045,-33.881141],[123.742364,-33.809171],[123.756934,-33.723069],[123.810233,-33.664769],[123.872452,-33.633848],[123.869262,-33.606228],[123.97602,-33.558606],[123.998,-33.426375],[124.07911,-33.249225],[124.101189,-33.176154],[124.154307,-33.096063],[124.238655,-33.017591],[124.354414,-32.960069],[124.458263,-32.935578],[124.741,-32.900144],[124.900218,-32.828561],[124.928047,-32.794161],[125.026186,-32.728859],[125.102415,-32.715398],[125.230343,-32.643236],[125.370691,-32.591694],[125.419171,-32.587753],[125.56025,-32.534091],[125.679369,-32.444049],[125.801225,-32.366725],[125.95101,-32.290542],[126.037052,-32.268591],[126.113991,-32.264579],[126.203139,-32.232277],[126.422025,-32.284084],[126.672789,-32.308371],[126.772578,-32.292341],[126.956523,-32.297599],[127.057213,-32.283819],[127.213371,-32.276387],[127.33541,-32.254086],[127.481898,-32.216534],[127.705705,-32.136702],[128.022372,-32.073979],[128.280599,-31.990758],[128.494827,-31.911905],[128.543281,-31.88153],[128.642335,-31.850935],[128.803353,-31.757973],[128.896362,-31.717043],[129.00134,-31.687068],[129.001838,-25.998606],[129.00057,-25.998606],[129.000535,-23.440312],[128.483794,-23.441419],[127.815929,-23.440315],[126.001329,-23.44908],[125.489188,-23.446435],[124.668017,-23.440313],[124.120744,-23.443158],[123.558797,-23.444084],[122.99685,-23.442986],[122.483783,-23.440217],[121.842459,-23.440984],[121.504833,-23.440328],[121.004772,-23.440313],[121.004776,-23.727947],[120.671006,-23.72795],[120.610007,-23.812349],[120.493061,-23.866211],[120.43642,-23.953645],[120.41012,-24.017236],[120.321122,-24.108595],[120.219556,-24.246102],[120.183458,-24.330903],[120.132462,-24.370668],[120.111407,-24.456297],[120.078139,-24.476128],[120.08504,-24.552886],[120.042849,-24.707384],[120.05603,-24.73353],[120.055309,-24.844965],[120.105409,-24.940156],[120.115382,-24.997553],[120.18968,-25.142323],[120.202186,-25.192078],[120.136996,-25.232399],[120.085041,-25.338552],[120.088338,-25.527427],[120.118849,-25.754399],[120.00788,-26.027034],[119.961071,-26.085744],[119.921764,-26.187648],[119.867298,-26.256946],[119.804632,-26.382191],[119.804642,-26.440293],[119.613872,-26.552722],[119.528459,-26.644437],[119.44751,-26.768846],[119.411368,-26.785149],[119.339526,-26.863788],[119.287867,-27.008656],[119.236548,-27.062833],[119.201353,-27.169384],[119.201084,-27.231052],[119.332534,-27.242172],[119.584957,-27.242168],[119.584957,-27.290279],[120.058394,-27.290273],[120.058396,-27.502273],[120.074693,-27.612623],[120.157504,-27.612622],[120.154283,-28.047607],[120.196175,-28.047205],[120.196178,-28.291143],[120.044976,-28.291144],[120.045187,-28.464007],[119.80261,-28.464089],[119.802614,-28.847811],[119.775784,-28.915122],[119.663042,-29.112987],[119.344406,-29.110937],[119.200641,-29.290941],[118.720338,-29.292284],[118.720335,-29.106923],[118.435744,-29.105093],[118.4357,-29.279378],[118.508165,-29.636857],[118.507917,-30.203307],[118.751476,-30.632799],[118.755178,-30.720975],[118.784855,-30.81153],[118.859633,-30.817494],[118.917335,-30.847196],[118.95748,-30.926315],[118.918405,-30.967584],[118.863406,-30.962139],[118.870448,-31.074881],[118.811075,-31.149038],[118.81008,-31.217907],[118.738657,-31.259378],[118.740999,-31.555373],[118.755113,-31.618452],[118.804326,-31.61842],[118.804433,-31.695543],[118.738919,-31.695583],[118.789911,-31.757553],[118.66999,-31.78031],[118.378345,-31.78133],[118.378141,-31.6965],[118.2356,-31.696448],[118.053204,-31.72003],[117.991937,-31.708666],[117.992069,-31.828698],[117.87919,-31.811603],[117.648654,-31.813906],[117.484607,-31.838794],[117.428026,-31.807919],[117.288631,-31.856223],[117.185362,-31.795475],[117.134159,-31.817336],[117.158314,-31.856642],[117.096419,-31.930533],[117.099605,-31.981831],[117.143838,-31.982063],[117.227493,-32.038928],[117.247049,-32.179319],[117.233848,-32.240197],[117.190984,-32.257245],[117.040474,-32.261495],[116.833937,-32.258218],[116.818774,-32.293729],[116.724612,-32.348373],[116.666036,-32.356596],[116.383807,-32.357441],[116.383953,-32.23644],[116.224901,-32.235885],[116.189554,-32.287428],[116.259679,-32.389885],[116.259683,-32.674704],[116.20635,-32.6752],[116.205982,-32.755436],[116.178224,-32.803244],[116.179953,-32.94311],[116.208859,-32.984207],[116.209065,-33.085053],[116.146899,-33.084885],[116.144761,-33.231879],[116.008534,-33.231938],[115.945801,-33.222515],[115.918585,-33.290001],[115.919199,-33.378625],[116.00576,-33.407106],[116.023415,-33.505311],[115.867177,-33.505016],[115.815044,-33.541855],[115.730434,-33.533278],[115.731753,-33.692265],[115.766938,-33.701058],[115.763245,-33.796935],[115.669598,-33.811811],[115.536089,-33.913782],[115.419608,-33.919748],[115.39011,-33.999647],[115.404064,-34.049272],[115.401813,-34.156478],[115.337197,-34.160078],[115.337093,-34.314847]]]},"bbox":[115.337093,-35.117861,129.001838,-23.440217]}]}