{"type":"FeatureCollection","features":[
{"properties":{"electorateShortName":"page","electorateName":"Page","area":19335.11,"state":"NSW"},"type":"Feature","geometry":{"type":"MultiPolygon","coordinates":[[[[153.544475,-28.917804],[153.54363,-28.91706],[153.53809,-28.916827],[153.53301,-28.918326],[153.527295,-28.917138],[153.52241,-28.916959],[153.518517,-28.918317],[153.516496,-28.915889],[153.512217,-28.915993],[153.512397,-28.913597],[153.507797,-28.912851],[153.500495,-28.917229],[153.497254,-28.921028],[153.494665,-28.920215],[153.491145,-28.922726],[153.489465,-28.919872],[153.484006,-28.920681],[153.478917,-28.924761],[153.475801,-28.924591],[153.476196,-28.921004],[153.47842,-28.910964],[153.479857,-28.902606],[153.482855,-28.888026],[153.484963,-28.882824],[153.487932,-28.878097],[153.491704,-28.869839],[153.495095,-28.867168],[153.499699,-28.865705],[153.494448,-28.863343],[153.486858,-28.864848],[153.482168,-28.863032],[153.483991,-28.860243],[153.478549,-28.857612],[153.476547,-28.855464],[153.477461,-28.853121],[153.478138,-28.847961],[153.476029,-28.84608],[153.472667,-28.845779],[153.469565,-28.842991],[153.467031,-28.842446],[153.465035,-28.840742],[153.451238,-28.838635],[153.45253,-28.830749],[153.445085,-28.829767],[153.447738,-28.82717],[153.441382,-28.823097],[153.442378,-28.821064],[153.445499,-28.809762],[153.446092,-28.801828],[153.444905,-28.800914],[153.444901,-28.796568],[153.448426,-28.796294],[153.448994,-28.793843],[153.448111,-28.791336],[153.4502,-28.789236],[153.453139,-28.784294],[153.453966,-28.781664],[153.450663,-28.781638],[153.443937,-28.776178],[153.446571,-28.773228],[153.442518,-28.765878],[153.442291,-28.762701],[153.447683,-28.759424],[153.447798,-28.756764],[153.449623,-28.756174],[153.449122,-28.753716],[153.447375,-28.753221],[153.448804,-28.749674],[153.448133,-28.746851],[153.443046,-28.746569],[153.442096,-28.744977],[153.438191,-28.745957],[153.435966,-28.747477],[153.434183,-28.745354],[153.431814,-28.745969],[153.430607,-28.743263],[153.428306,-28.741487],[153.428834,-28.739079],[153.426461,-28.738388],[153.424167,-28.739857],[153.422106,-28.742678],[153.417009,-28.743983],[153.416338,-28.742234],[153.413967,-28.741856],[153.40682,-28.742889],[153.409487,-28.72554],[153.411505,-28.724502],[153.41215,-28.720592],[153.407149,-28.719933],[153.409153,-28.707793],[153.408099,-28.705437],[153.404401,-28.70417],[153.402251,-28.702264],[153.401155,-28.697227],[153.40383,-28.697851],[153.408046,-28.69353],[153.406905,-28.689664],[153.407747,-28.68615],[153.412483,-28.690164],[153.416047,-28.693881],[153.420036,-28.695673],[153.42249,-28.695065],[153.424239,-28.692997],[153.422235,-28.686625],[153.424764,-28.684963],[153.426622,-28.681017],[153.424286,-28.677807],[153.421346,-28.676688],[153.418182,-28.677922],[153.416241,-28.677126],[153.417804,-28.674247],[153.416824,-28.670542],[153.417876,-28.663639],[153.41933,-28.661752],[153.421234,-28.661843],[153.422354,-28.665493],[153.424365,-28.667217],[153.427573,-28.666432],[153.429991,-28.662805],[153.430096,-28.659333],[153.426933,-28.660951],[153.424244,-28.659459],[153.426749,-28.65613],[153.424958,-28.654175],[153.421495,-28.654434],[153.420568,-28.652288],[153.421186,-28.649282],[153.41547,-28.64871],[153.415937,-28.644838],[153.418409,-28.643713],[153.414506,-28.640264],[153.415486,-28.636231],[153.412596,-28.633742],[153.416404,-28.625427],[153.413144,-28.624748],[153.412627,-28.618563],[153.409947,-28.619067],[153.407077,-28.61805],[153.373087,-28.613976],[153.375449,-28.603359],[153.375276,-28.599735],[153.37855,-28.595294],[153.379904,-28.589817],[153.378737,-28.588118],[153.379787,-28.586057],[153.379084,-28.582456],[153.375014,-28.580918],[153.367924,-28.574847],[153.363644,-28.573011],[153.359883,-28.566941],[153.351798,-28.567264],[153.350177,-28.566176],[153.348849,-28.562193],[153.346171,-28.558012],[153.340363,-28.55647],[153.337881,-28.550068],[153.331525,-28.54798],[153.328875,-28.541607],[153.32783,-28.542733],[153.323608,-28.541005],[153.320579,-28.540744],[153.317575,-28.541702],[153.314022,-28.540417],[153.310209,-28.542595],[153.305296,-28.541693],[153.301496,-28.539241],[153.299082,-28.540597],[153.291318,-28.541378],[153.291475,-28.537738],[153.289123,-28.53651],[153.284635,-28.531741],[153.283913,-28.529906],[153.284812,-28.523553],[153.28274,-28.522531],[153.282365,-28.520409],[153.283382,-28.516864],[153.281572,-28.516234],[153.277878,-28.518327],[153.275857,-28.520644],[153.273306,-28.522004],[153.268788,-28.522317],[153.254768,-28.527109],[153.251768,-28.520089],[153.247732,-28.515887],[153.243179,-28.516556],[153.239196,-28.518265],[153.226422,-28.517733],[153.221804,-28.520592],[153.219644,-28.522855],[153.215763,-28.522896],[153.205712,-28.52654],[153.201376,-28.525908],[153.197746,-28.526987],[153.193084,-28.523175],[153.186001,-28.521294],[153.178129,-28.522826],[153.17269,-28.521405],[153.16993,-28.52358],[153.160263,-28.524129],[153.15951,-28.518882],[153.155249,-28.515685],[153.153934,-28.513463],[153.153305,-28.509683],[153.151258,-28.509112],[153.149796,-28.502963],[153.15079,-28.499903],[153.152598,-28.499209],[153.154522,-28.491996],[153.153674,-28.484325],[153.147352,-28.480213],[153.146008,-28.476838],[153.14407,-28.475259],[153.141014,-28.470775],[153.142088,-28.46796],[153.141195,-28.466257],[153.143898,-28.462728],[153.139511,-28.458834],[153.135998,-28.457227],[153.137376,-28.453736],[153.140181,-28.449535],[153.143132,-28.448875],[153.145213,-28.44445],[153.142746,-28.443286],[153.14387,-28.438768],[153.142127,-28.436139],[153.140271,-28.437428],[153.138692,-28.435005],[153.13155,-28.432002],[153.127976,-28.433091],[153.126653,-28.435329],[153.120886,-28.433412],[153.124034,-28.430592],[153.124966,-28.426606],[153.127145,-28.422456],[153.127518,-28.419263],[153.123181,-28.416143],[153.120837,-28.415282],[153.122463,-28.41175],[153.126464,-28.408957],[153.1277,-28.405931],[153.121452,-28.404285],[153.117435,-28.40382],[153.112616,-28.401255],[153.112843,-28.399815],[153.115831,-28.399307],[153.118059,-28.396456],[153.115033,-28.394172],[153.110781,-28.388469],[153.10774,-28.388195],[153.109017,-28.384335],[153.11081,-28.383388],[153.110503,-28.3783],[153.106738,-28.37616],[153.110038,-28.373049],[153.112564,-28.372538],[153.113192,-28.366678],[153.112955,-28.361311],[153.1094,-28.35744],[153.108548,-28.356328],[153.107655,-28.358494],[153.098334,-28.356964],[153.089175,-28.353318],[153.080675,-28.354407],[153.077505,-28.35197],[153.074175,-28.352198],[153.065302,-28.344239],[153.053254,-28.343149],[153.044902,-28.339012],[153.038075,-28.34345],[153.035438,-28.34168],[153.032596,-28.341957],[153.030483,-28.339714],[153.022228,-28.338045],[153.010062,-28.341295],[152.996092,-28.339965],[152.98982,-28.336627],[152.983597,-28.338108],[152.97318,-28.331822],[152.950745,-28.333643],[152.945141,-28.335669],[152.939167,-28.334753],[152.934266,-28.337655],[152.923368,-28.331594],[152.915417,-28.330405],[152.908531,-28.326342],[152.899915,-28.325378],[152.893429,-28.317929],[152.882688,-28.313321],[152.880424,-28.309813],[152.875501,-28.312428],[152.865772,-28.313577],[152.859596,-28.31147],[152.854716,-28.312789],[152.849424,-28.311186],[152.847419,-28.315454],[152.840206,-28.321612],[152.831369,-28.31967],[152.823691,-28.328914],[152.824568,-28.332191],[152.823111,-28.335484],[152.818607,-28.335042],[152.80931,-28.34208],[152.809072,-28.350635],[152.804259,-28.35357],[152.793378,-28.354043],[152.781735,-28.346686],[152.777385,-28.345967],[152.759798,-28.35246],[152.758216,-28.355079],[152.761853,-28.358278],[152.761045,-28.360161],[152.756969,-28.363596],[152.750949,-28.36388],[152.746532,-28.360675],[152.740324,-28.359187],[152.734097,-28.353385],[152.731107,-28.353949],[152.723053,-28.344132],[152.719913,-28.345226],[152.712855,-28.341368],[152.707637,-28.344287],[152.704141,-28.338429],[152.698575,-28.335668],[152.692407,-28.336801],[152.688397,-28.334837],[152.686374,-28.329145],[152.679494,-28.330585],[152.673962,-28.326287],[152.673551,-28.317971],[152.667517,-28.311703],[152.659116,-28.309879],[152.648477,-28.313376],[152.6468,-28.312071],[152.639747,-28.312186],[152.63536,-28.307181],[152.628435,-28.303561],[152.62695,-28.300108],[152.624124,-28.298298],[152.622146,-28.293183],[152.623511,-28.288885],[152.620921,-28.284017],[152.617525,-28.282572],[152.616095,-28.271843],[152.614242,-28.269477],[152.610656,-28.274448],[152.603276,-28.279246],[152.599624,-28.283681],[152.597326,-28.291288],[152.601822,-28.30731],[152.599077,-28.309578],[152.596783,-28.313553],[152.597572,-28.314551],[152.597642,-28.314618],[152.597846,-28.314779],[152.602433,-28.318308],[152.607771,-28.320192],[152.612433,-28.320368],[152.615137,-28.319212],[152.617767,-28.320421],[152.619922,-28.324645],[152.622712,-28.327897],[152.626433,-28.326545],[152.627861,-28.327548],[152.629216,-28.334244],[152.630849,-28.338294],[152.6294,-28.343149],[152.627484,-28.344311],[152.627689,-28.347076],[152.624626,-28.348634],[152.621719,-28.346753],[152.618257,-28.348372],[152.618282,-28.350531],[152.615639,-28.352387],[152.615371,-28.356262],[152.612734,-28.357348],[152.614897,-28.361244],[152.615095,-28.364156],[152.614158,-28.366418],[152.611901,-28.367469],[152.610809,-28.372363],[152.611868,-28.373019],[152.609455,-28.376939],[152.602677,-28.379469],[152.602509,-28.384083],[152.605111,-28.385102],[152.60488,-28.391985],[152.597626,-28.39487],[152.599003,-28.397104],[152.598011,-28.39952],[152.595546,-28.399226],[152.593233,-28.401257],[152.594641,-28.408597],[152.589113,-28.413004],[152.586439,-28.414568],[152.58618,-28.416572],[152.583561,-28.41709],[152.57821,-28.414854],[152.576437,-28.416303],[152.57752,-28.418124],[152.581645,-28.420346],[152.582685,-28.422639],[152.580172,-28.425308],[152.578519,-28.432943],[152.578697,-28.435138],[152.577038,-28.437617],[152.572281,-28.436737],[152.567384,-28.437925],[152.565252,-28.440519],[152.566698,-28.442813],[152.564251,-28.447097],[152.566562,-28.450571],[152.561765,-28.455342],[152.561049,-28.460356],[152.561889,-28.465768],[152.558493,-28.469866],[152.554433,-28.465245],[152.551431,-28.466628],[152.548846,-28.470781],[152.552796,-28.474052],[152.55312,-28.477686],[152.551146,-28.479069],[152.547646,-28.478975],[152.54638,-28.477603],[152.543675,-28.47922],[152.542838,-28.482115],[152.540396,-28.482763],[152.537515,-28.485722],[152.535265,-28.486852],[152.534119,-28.489128],[152.530766,-28.492288],[152.527376,-28.497501],[152.536924,-28.499767],[152.537373,-28.501071],[152.536904,-28.506636],[152.533191,-28.513812],[152.530266,-28.515006],[152.528153,-28.511747],[152.525158,-28.513078],[152.522972,-28.510911],[152.518968,-28.51032],[152.510718,-28.513825],[152.508053,-28.513518],[152.506504,-28.511379],[152.503236,-28.511599],[152.50056,-28.517412],[152.500786,-28.521954],[152.499931,-28.523504],[152.502858,-28.52671],[152.500138,-28.528526],[152.493511,-28.527216],[152.487327,-28.527262],[152.485253,-28.53119],[152.483019,-28.525895],[152.476117,-28.52696],[152.475717,-28.524046],[152.476979,-28.522673],[152.475763,-28.519907],[152.472183,-28.519232],[152.469177,-28.520762],[152.466564,-28.526306],[152.463904,-28.525473],[152.463412,-28.52283],[152.459743,-28.522668],[152.462678,-28.528058],[152.460079,-28.52932],[152.456655,-28.52886],[152.454691,-28.527083],[152.447754,-28.527473],[152.443981,-28.529536],[152.440594,-28.530206],[152.442997,-28.532658],[152.444069,-28.536216],[152.446419,-28.539191],[152.445934,-28.542922],[152.444362,-28.546214],[152.441932,-28.547154],[152.443219,-28.550323],[152.441134,-28.553207],[152.442458,-28.556841],[152.447451,-28.555561],[152.451841,-28.562728],[152.454473,-28.565084],[152.456435,-28.565369],[152.457758,-28.568977],[152.455687,-28.569809],[152.45011,-28.567932],[152.443595,-28.572613],[152.441062,-28.574986],[152.441666,-28.577634],[152.445694,-28.576007],[152.447357,-28.576241],[152.446421,-28.584282],[152.444832,-28.584689],[152.442461,-28.581121],[152.440688,-28.580561],[152.43866,-28.582308],[152.438358,-28.584442],[152.440995,-28.587651],[152.440367,-28.590497],[152.441811,-28.592688],[152.439097,-28.598856],[152.441951,-28.60001],[152.44282,-28.603383],[152.439391,-28.604725],[152.434765,-28.602244],[152.428814,-28.603617],[152.425832,-28.605782],[152.422079,-28.606845],[152.420216,-28.608539],[152.417347,-28.612965],[152.417175,-28.615472],[152.420609,-28.618643],[152.424234,-28.618526],[152.42482,-28.620825],[152.421155,-28.621603],[152.418787,-28.620772],[152.416608,-28.618534],[152.413065,-28.621255],[152.409838,-28.620413],[152.406612,-28.620758],[152.405834,-28.62302],[152.407699,-28.624629],[152.411525,-28.625629],[152.411731,-28.627192],[152.408765,-28.628211],[152.413981,-28.632036],[152.412405,-28.633995],[152.409849,-28.634622],[152.408076,-28.636777],[152.408474,-28.639873],[152.407829,-28.642945],[152.402657,-28.645264],[152.399648,-28.645827],[152.398771,-28.647626],[152.403248,-28.652435],[152.403692,-28.656635],[152.402465,-28.659427],[152.398629,-28.662004],[152.397289,-28.665274],[152.394458,-28.663823],[152.390769,-28.664157],[152.389091,-28.665769],[152.391442,-28.669829],[152.391145,-28.670854],[152.386341,-28.676333],[152.389048,-28.681288],[152.384483,-28.686102],[152.378172,-28.684799],[152.374333,-28.685495],[152.373705,-28.687903],[152.376136,-28.69426],[152.375208,-28.699883],[152.376211,-28.702654],[152.378832,-28.703981],[152.385991,-28.701988],[152.391604,-28.703675],[152.397393,-28.706918],[152.401695,-28.70661],[152.4036,-28.70395],[152.406486,-28.705472],[152.404789,-28.710113],[152.406351,-28.715112],[152.407664,-28.723407],[152.412586,-28.724082],[152.414905,-28.723181],[152.418876,-28.718618],[152.421238,-28.718079],[152.426474,-28.724078],[152.429335,-28.725364],[152.435037,-28.725093],[152.437458,-28.727949],[152.440932,-28.729164],[152.450011,-28.730273],[152.455816,-28.731834],[152.459374,-28.733723],[152.465277,-28.735837],[152.467507,-28.735568],[152.472384,-28.730782],[152.475256,-28.73221],[152.476059,-28.737605],[152.474294,-28.738716],[152.471274,-28.742751],[152.471691,-28.746468],[152.473711,-28.747146],[152.477743,-28.746271],[152.47974,-28.742438],[152.484161,-28.738602],[152.492334,-28.735588],[152.495115,-28.736178],[152.497634,-28.737884],[152.499036,-28.741115],[152.498235,-28.74483],[152.493561,-28.749296],[152.490654,-28.750053],[152.486577,-28.748681],[152.481443,-28.749225],[152.479715,-28.751232],[152.48037,-28.753224],[152.488846,-28.758949],[152.492042,-28.764561],[152.490174,-28.768841],[152.480716,-28.772274],[152.47796,-28.775428],[152.477761,-28.777384],[152.480325,-28.780262],[152.490571,-28.782599],[152.496297,-28.785396],[152.50191,-28.785391],[152.505201,-28.782168],[152.508518,-28.780094],[152.511038,-28.779742],[152.51331,-28.780909],[152.515242,-28.784393],[152.514027,-28.789245],[152.514585,-28.792189],[152.517063,-28.794426],[152.519957,-28.794595],[152.521678,-28.793089],[152.525454,-28.787235],[152.528304,-28.784912],[152.530992,-28.781374],[152.533967,-28.780747],[152.536482,-28.781683],[152.54079,-28.781511],[152.542992,-28.78377],[152.543678,-28.787938],[152.540228,-28.797193],[152.537034,-28.803606],[152.53741,-28.806827],[152.540304,-28.816032],[152.544351,-28.81775],[152.55488,-28.817862],[152.557199,-28.822257],[152.556973,-28.824527],[152.552538,-28.830686],[152.545624,-28.837014],[152.542772,-28.841073],[152.537174,-28.847035],[152.540604,-28.851604],[152.544747,-28.85373],[152.548361,-28.854766],[152.556286,-28.856124],[152.561198,-28.857808],[152.564321,-28.857169],[152.567877,-28.858052],[152.573306,-28.86365],[152.568969,-28.874626],[152.565676,-28.884922],[152.564307,-28.887482],[152.557145,-28.89375],[152.557543,-28.894948],[152.554495,-28.899534],[152.554729,-28.902509],[152.550764,-28.906858],[152.548131,-28.908609],[152.550203,-28.910597],[152.555079,-28.912589],[152.563501,-28.909226],[152.565374,-28.905706],[152.567178,-28.904199],[152.571212,-28.905406],[152.573818,-28.908605],[152.580107,-28.911484],[152.58026,-28.917926],[152.580988,-28.928604],[152.579635,-28.931411],[152.577328,-28.932486],[152.571934,-28.930516],[152.57035,-28.928302],[152.565936,-28.926074],[152.563581,-28.92735],[152.562674,-28.929717],[152.560707,-28.930585],[152.554287,-28.930673],[152.548638,-28.932364],[152.545582,-28.936317],[152.54503,-28.939229],[152.545781,-28.942359],[152.549108,-28.94674],[152.550148,-28.954584],[152.553601,-28.955808],[152.553408,-28.960114],[152.555817,-28.965075],[152.558263,-28.974134],[152.560612,-28.986331],[152.558516,-28.990078],[152.551109,-28.988973],[152.549501,-28.987993],[152.534054,-28.985694],[152.529499,-28.987005],[152.525775,-28.984736],[152.516572,-28.983581],[152.516943,-28.981566],[152.508325,-28.980353],[152.509573,-28.973254],[152.486653,-28.969974],[152.487723,-28.973976],[152.489403,-28.975186],[152.488649,-28.977093],[152.485321,-28.976172],[152.477542,-28.972734],[152.467109,-28.973664],[152.462606,-28.975905],[152.462411,-28.978267],[152.464342,-28.979461],[152.470635,-28.979371],[152.473742,-28.981331],[152.476205,-28.990648],[152.473804,-28.991998],[152.46552,-28.99043],[152.463819,-28.992874],[152.464953,-28.998733],[152.471277,-29.002695],[152.471744,-29.004915],[152.467461,-29.005874],[152.46464,-29.008025],[152.462974,-29.011631],[152.459445,-29.01597],[152.455898,-29.019338],[152.454072,-29.024549],[152.455381,-29.027084],[152.459386,-29.029856],[152.45983,-29.031591],[152.456824,-29.033239],[152.453251,-29.032211],[152.449169,-29.029445],[152.446122,-29.02834],[152.437109,-29.032428],[152.429755,-29.03267],[152.425462,-29.035061],[152.424203,-29.036863],[152.443897,-29.039755],[152.441565,-29.052136],[152.436061,-29.056547],[152.435678,-29.059363],[152.433283,-29.060953],[152.430571,-29.064585],[152.431539,-29.069129],[152.43111,-29.071963],[152.428747,-29.07432],[152.42434,-29.075452],[152.42402,-29.077213],[152.421748,-29.078699],[152.421305,-29.080484],[152.418978,-29.081045],[152.421006,-29.084096],[152.455006,-29.089027],[152.452551,-29.102037],[152.451815,-29.101929],[152.449061,-29.116383],[152.449974,-29.116519],[152.444231,-29.144175],[152.441396,-29.14543],[152.435213,-29.14518],[152.433107,-29.146415],[152.429618,-29.150025],[152.425985,-29.150853],[152.423835,-29.152229],[152.419882,-29.151961],[152.41689,-29.153095],[152.415795,-29.158984],[152.413804,-29.161257],[152.414465,-29.165374],[152.418846,-29.168955],[152.417451,-29.170468],[152.417948,-29.172646],[152.421531,-29.17393],[152.424963,-29.178626],[152.421705,-29.180721],[152.420671,-29.18533],[152.418325,-29.190383],[152.415842,-29.19272],[152.413683,-29.196718],[152.410177,-29.200865],[152.405443,-29.210307],[152.405201,-29.212154],[152.407112,-29.214117],[152.411005,-29.219805],[152.411554,-29.226585],[152.414118,-29.228894],[152.412805,-29.230414],[152.404461,-29.235111],[152.399887,-29.236702],[152.394086,-29.24125],[152.387215,-29.240105],[152.384166,-29.242592],[152.379027,-29.245286],[152.376275,-29.243867],[152.374502,-29.244159],[152.369003,-29.246949],[152.36576,-29.246099],[152.357498,-29.250633],[152.353553,-29.248554],[152.351323,-29.249123],[152.346527,-29.253982],[152.34415,-29.254071],[152.340145,-29.257761],[152.33886,-29.261859],[152.336555,-29.264011],[152.333729,-29.264889],[152.328733,-29.268528],[152.32318,-29.269926],[152.321484,-29.273322],[152.320994,-29.277583],[152.315848,-29.279878],[152.314253,-29.282443],[152.311349,-29.28172],[152.306473,-29.283097],[152.308705,-29.287685],[152.311461,-29.29008],[152.310686,-29.292839],[152.312574,-29.29637],[152.314656,-29.298519],[152.313037,-29.300603],[152.309494,-29.302034],[152.308811,-29.304891],[152.304847,-29.304052],[152.300035,-29.304458],[152.298279,-29.307447],[152.301428,-29.310777],[152.300097,-29.313605],[152.303043,-29.31763],[152.307254,-29.320939],[152.310687,-29.32254],[152.319433,-29.324306],[152.322716,-29.326751],[152.326825,-29.32728],[152.331189,-29.32889],[152.336513,-29.334657],[152.336834,-29.337972],[152.335325,-29.340442],[152.331517,-29.341837],[152.420219,-29.353722],[152.451081,-29.358053],[152.451149,-29.360996],[152.447509,-29.360804],[152.445491,-29.366141],[152.442888,-29.367768],[152.444028,-29.370755],[152.440688,-29.371987],[152.441266,-29.374274],[152.439903,-29.376464],[152.434979,-29.378167],[152.436076,-29.38122],[152.433132,-29.387309],[152.433558,-29.389869],[152.432312,-29.392534],[152.429492,-29.391941],[152.425322,-29.39314],[152.421242,-29.395417],[152.421038,-29.397423],[152.418899,-29.398486],[152.416365,-29.398202],[152.413835,-29.399485],[152.410225,-29.398284],[152.410052,-29.400771],[152.404317,-29.432778],[152.397171,-29.431767],[152.394556,-29.446113],[152.388785,-29.445316],[152.406963,-29.492749],[152.412456,-29.50688],[152.408932,-29.508891],[152.409433,-29.511782],[152.406426,-29.51371],[152.40543,-29.516645],[152.400914,-29.51964],[152.393814,-29.520812],[152.392313,-29.522518],[152.389782,-29.52199],[152.386799,-29.524425],[152.387239,-29.527534],[152.383346,-29.52794],[152.38099,-29.531236],[152.378027,-29.531125],[152.371042,-29.534955],[152.369631,-29.534922],[152.363964,-29.538722],[152.358684,-29.540345],[152.357335,-29.543469],[152.354492,-29.545471],[152.3391,-29.623416],[152.336123,-29.640777],[152.330877,-29.645424],[152.327909,-29.646484],[152.325919,-29.649651],[152.327136,-29.65388],[152.325098,-29.655607],[152.322233,-29.655095],[152.315315,-29.65149],[152.312202,-29.651606],[152.310268,-29.655777],[152.312214,-29.663098],[152.310934,-29.665134],[152.307411,-29.664535],[152.306899,-29.662217],[152.304397,-29.662856],[152.30402,-29.667324],[152.30303,-29.66794],[152.295227,-29.66876],[152.289543,-29.676294],[152.287416,-29.675382],[152.285083,-29.671809],[152.28345,-29.665956],[152.280708,-29.665904],[152.279034,-29.669756],[152.276789,-29.672523],[152.277245,-29.676104],[152.276473,-29.68154],[152.274105,-29.684153],[152.271871,-29.685303],[152.269103,-29.692663],[152.265417,-29.69423],[152.262303,-29.696878],[152.261801,-29.701512],[152.267586,-29.703538],[152.269991,-29.705411],[152.269758,-29.708842],[152.264393,-29.709506],[152.262699,-29.711025],[152.26213,-29.714902],[152.265797,-29.725395],[152.264337,-29.728419],[152.261364,-29.727828],[152.259304,-29.730114],[152.255628,-29.732701],[152.255666,-29.736077],[152.259211,-29.739256],[152.258427,-29.744062],[152.263144,-29.747319],[152.264365,-29.750938],[152.261495,-29.754183],[152.260625,-29.757001],[152.256665,-29.75802],[152.254963,-29.756294],[152.254487,-29.752694],[152.252322,-29.753121],[152.25021,-29.755171],[152.246677,-29.756398],[152.241856,-29.754732],[152.236152,-29.756929],[152.233648,-29.7567],[152.230372,-29.754887],[152.228277,-29.75576],[152.226959,-29.760801],[152.225134,-29.761608],[152.220788,-29.761509],[152.217284,-29.760508],[152.213024,-29.763412],[152.21098,-29.767953],[152.209568,-29.769533],[152.205433,-29.771754],[152.20509,-29.773439],[152.206658,-29.777564],[152.20467,-29.779716],[152.201765,-29.780466],[152.202949,-29.786103],[152.200825,-29.787955],[152.196977,-29.788718],[152.192892,-29.787627],[152.190825,-29.78857],[152.192641,-29.791943],[152.190452,-29.79289],[152.190129,-29.796338],[152.19308,-29.798515],[152.193767,-29.800614],[152.187053,-29.800016],[152.186614,-29.802951],[152.190693,-29.804664],[152.192114,-29.807108],[152.185919,-29.804779],[152.1804,-29.806453],[152.17596,-29.817476],[152.170447,-29.821793],[152.171767,-29.823459],[152.173974,-29.822271],[152.176407,-29.823298],[152.174585,-29.825706],[152.17767,-29.82637],[152.177321,-29.82989],[152.17452,-29.831218],[152.175898,-29.834604],[152.174476,-29.836622],[152.172251,-29.836874],[152.170423,-29.841246],[152.175335,-29.842492],[152.175632,-29.845842],[152.177577,-29.847351],[152.175151,-29.850018],[152.173128,-29.849338],[152.169282,-29.855815],[152.169099,-29.860498],[152.169986,-29.863168],[152.168527,-29.865041],[152.168757,-29.869874],[152.176435,-29.872023],[152.179799,-29.87216],[152.190329,-29.875442],[152.197742,-29.875924],[152.197749,-29.872549],[152.20005,-29.868411],[152.204862,-29.86808],[152.209077,-29.866124],[152.210538,-29.868907],[152.213554,-29.869652],[152.216357,-29.871362],[152.220604,-29.87101],[152.228007,-29.868102],[152.228435,-29.865615],[152.234887,-29.864124],[152.238589,-29.864964],[152.240422,-29.863228],[152.242952,-29.862931],[152.247946,-29.863736],[152.251091,-29.864976],[152.25418,-29.861353],[152.257182,-29.860366],[152.261681,-29.853552],[152.265944,-29.850112],[152.267689,-29.847868],[152.271433,-29.848465],[152.273839,-29.846322],[152.275989,-29.853367],[152.28171,-29.85646],[152.282437,-29.858724],[152.277895,-29.860951],[152.276913,-29.863208],[152.277096,-29.866029],[152.278753,-29.86787],[152.284512,-29.869659],[152.286915,-29.871914],[152.287524,-29.875249],[152.282935,-29.876874],[152.281263,-29.878271],[152.284955,-29.884581],[152.284815,-29.887789],[152.282399,-29.890319],[152.280753,-29.895718],[152.281178,-29.900458],[152.283323,-29.902457],[152.285582,-29.907048],[152.284722,-29.909263],[152.278553,-29.911735],[152.271739,-29.910549],[152.268994,-29.91249],[152.270005,-29.915778],[152.272,-29.916447],[152.277111,-29.915999],[152.277896,-29.918786],[152.273174,-29.921186],[152.26942,-29.922148],[152.266924,-29.925116],[152.268484,-29.928857],[152.272127,-29.928374],[152.276483,-29.922306],[152.280097,-29.921076],[152.281881,-29.921786],[152.2833,-29.925514],[152.279945,-29.929209],[152.26983,-29.932062],[152.26944,-29.935937],[152.270534,-29.937484],[152.273493,-29.944915],[152.272385,-29.951399],[152.275042,-29.960416],[152.281949,-29.965369],[152.285664,-29.963744],[152.287691,-29.96644],[152.285967,-29.968703],[152.288306,-29.973654],[152.292028,-29.976949],[152.295691,-29.978132],[152.30228,-29.979272],[152.305146,-29.979113],[152.308005,-29.980175],[152.307677,-29.982301],[152.300858,-29.984185],[152.301231,-29.986512],[152.303525,-29.98772],[152.308029,-29.987215],[152.308681,-29.989387],[152.307984,-29.993371],[152.309674,-29.996191],[152.312828,-29.997637],[152.316419,-30.000565],[152.317087,-30.005942],[152.316263,-30.008243],[152.313601,-30.011928],[152.312936,-30.014076],[152.3156,-30.019061],[152.314272,-30.023098],[152.313319,-30.030123],[152.315172,-30.034209],[152.312789,-30.034805],[152.309025,-30.03433],[152.305566,-30.038446],[152.303636,-30.039372],[152.296979,-30.038795],[152.294461,-30.041799],[152.294901,-30.044096],[152.298929,-30.047008],[152.297132,-30.048963],[152.293955,-30.049561],[152.293122,-30.052432],[152.297501,-30.053255],[152.299935,-30.056575],[152.299613,-30.057872],[152.293161,-30.060241],[152.291865,-30.062152],[152.293282,-30.065425],[152.297586,-30.067299],[152.299776,-30.069875],[152.298392,-30.071752],[152.293662,-30.070516],[152.295494,-30.075522],[152.292128,-30.077188],[152.294542,-30.082122],[152.2937,-30.085508],[152.291227,-30.085056],[152.286336,-30.086548],[152.280721,-30.087436],[152.280366,-30.089891],[152.283388,-30.092407],[152.283952,-30.095289],[152.281003,-30.096807],[152.279555,-30.099624],[152.282066,-30.101967],[152.284557,-30.102824],[152.286687,-30.105731],[152.287509,-30.109716],[152.292672,-30.11253],[152.292328,-30.116324],[152.295454,-30.11381],[152.297236,-30.115096],[152.298318,-30.11844],[152.297462,-30.121845],[152.300088,-30.122888],[152.299652,-30.127594],[152.301612,-30.12944],[152.302269,-30.13201],[152.300369,-30.133291],[152.29656,-30.132758],[152.297503,-30.138918],[152.299738,-30.139806],[152.303507,-30.1385],[152.304861,-30.141257],[152.298003,-30.144475],[152.298828,-30.148225],[152.301242,-30.147812],[152.301128,-30.14477],[152.305498,-30.145053],[152.309672,-30.147907],[152.307995,-30.152488],[152.304969,-30.15729],[152.304407,-30.159898],[152.305624,-30.162046],[152.307862,-30.161591],[152.308577,-30.15805],[152.313121,-30.158502],[152.31622,-30.160965],[152.314829,-30.162929],[152.310531,-30.160436],[152.309124,-30.161204],[152.307119,-30.165131],[152.307024,-30.168126],[152.309928,-30.168312],[152.309762,-30.172173],[152.308728,-30.174394],[152.304534,-30.177327],[152.303203,-30.179112],[152.307729,-30.181156],[152.309708,-30.181283],[152.31164,-30.178619],[152.316999,-30.181972],[152.312588,-30.183776],[152.312209,-30.188238],[152.313365,-30.192512],[152.310012,-30.195352],[152.312953,-30.20039],[152.315846,-30.202231],[152.313886,-30.204545],[152.315421,-30.208575],[152.318389,-30.209862],[152.324229,-30.210059],[152.32333,-30.212698],[152.326105,-30.217225],[152.3286,-30.216099],[152.330277,-30.217354],[152.331176,-30.220241],[152.333181,-30.219499],[152.33581,-30.220343],[152.338329,-30.219391],[152.338675,-30.224594],[152.340905,-30.226971],[152.34513,-30.227531],[152.346129,-30.231007],[152.348672,-30.234165],[152.346551,-30.24216],[152.344663,-30.241665],[152.344235,-30.244941],[152.340248,-30.247102],[152.340599,-30.250774],[152.337896,-30.251819],[152.337486,-30.257203],[152.337677,-30.26243],[152.340286,-30.264412],[152.340635,-30.268089],[152.342243,-30.271272],[152.340404,-30.272066],[152.342175,-30.275967],[152.338817,-30.279209],[152.339349,-30.281979],[152.344275,-30.290217],[152.348253,-30.290701],[152.346825,-30.297623],[152.346957,-30.300368],[152.344473,-30.301603],[152.342286,-30.313618],[152.344599,-30.315088],[152.342873,-30.324239],[152.347016,-30.325947],[152.345887,-30.328297],[152.345622,-30.33295],[152.351166,-30.333711],[152.351448,-30.335266],[152.349464,-30.33955],[152.354768,-30.34037],[152.35178,-30.355359],[152.35514,-30.355882],[152.359397,-30.354886],[152.360832,-30.353455],[152.365554,-30.354135],[152.364574,-30.360976],[152.38192,-30.362628],[152.383528,-30.364052],[152.385967,-30.370863],[152.389916,-30.374706],[152.38817,-30.378689],[152.387531,-30.383159],[152.390374,-30.386282],[152.394419,-30.387025],[152.396828,-30.392564],[152.399579,-30.394415],[152.401941,-30.394744],[152.40424,-30.397937],[152.408253,-30.399368],[152.409379,-30.40186],[152.413114,-30.404723],[152.413678,-30.406313],[152.416297,-30.40693],[152.418225,-30.41101],[152.423335,-30.41625],[152.424197,-30.417938],[152.428078,-30.418897],[152.429957,-30.415254],[152.430936,-30.409847],[152.430484,-30.406173],[152.434682,-30.405573],[152.435586,-30.40281],[152.438056,-30.400246],[152.44109,-30.398902],[152.443346,-30.400024],[152.446293,-30.39844],[152.448914,-30.400919],[152.450928,-30.398355],[152.453901,-30.396759],[152.456268,-30.396551],[152.460534,-30.398083],[152.462496,-30.396195],[152.465233,-30.395579],[152.473208,-30.396082],[152.478585,-30.396994],[152.481211,-30.393664],[152.484632,-30.390795],[152.477668,-30.389834],[152.477361,-30.37907],[152.478,-30.37421],[152.476776,-30.371141],[152.477947,-30.368255],[152.476185,-30.367019],[152.476566,-30.361574],[152.474912,-30.356637],[152.476456,-30.354932],[152.475866,-30.351789],[152.477936,-30.348232],[152.482101,-30.345338],[152.48144,-30.34219],[152.479941,-30.340735],[152.481623,-30.33787],[152.480573,-30.333043],[152.482235,-30.331637],[152.485254,-30.335199],[152.487958,-30.334923],[152.490477,-30.337341],[152.493356,-30.336865],[152.49592,-30.334864],[152.496458,-30.331494],[152.501693,-30.329694],[152.50284,-30.326018],[152.506245,-30.320598],[152.508795,-30.319135],[152.510693,-30.319524],[152.513515,-30.316879],[152.517572,-30.317073],[152.519851,-30.315994],[152.522277,-30.313299],[152.523902,-30.313322],[152.527107,-30.309438],[152.529275,-30.303821],[152.529328,-30.301111],[152.532971,-30.297461],[152.531016,-30.295172],[152.533173,-30.292704],[152.535396,-30.294983],[152.538831,-30.295178],[152.538835,-30.293155],[152.543779,-30.292663],[152.542474,-30.290329],[152.547091,-30.28865],[152.546576,-30.285373],[152.549713,-30.283192],[152.550432,-30.281324],[152.554847,-30.28037],[152.550222,-30.277692],[152.550971,-30.275647],[152.555282,-30.273888],[152.555152,-30.270689],[152.556315,-30.269264],[152.55721,-30.262152],[152.554799,-30.260269],[152.551689,-30.259172],[152.552539,-30.255242],[152.554825,-30.253133],[152.554962,-30.249645],[152.55772,-30.248241],[152.55955,-30.245748],[152.559647,-30.243719],[152.55748,-30.242886],[152.558213,-30.240646],[152.560861,-30.239457],[152.564795,-30.239445],[152.561414,-30.235383],[152.564755,-30.235168],[152.566352,-30.237985],[152.569803,-30.239287],[152.573454,-30.244055],[152.580537,-30.242227],[152.583599,-30.244044],[152.586725,-30.24099],[152.589764,-30.244985],[152.592669,-30.245538],[152.598015,-30.247926],[152.598318,-30.250331],[152.603012,-30.252486],[152.610902,-30.249251],[152.612596,-30.251232],[152.612786,-30.254309],[152.615696,-30.257952],[152.625973,-30.258376],[152.630549,-30.256008],[152.634654,-30.25688],[152.633126,-30.253684],[152.635409,-30.25166],[152.638292,-30.251256],[152.641544,-30.252712],[152.644753,-30.257292],[152.647195,-30.257968],[152.648172,-30.256069],[152.646943,-30.25417],[152.650384,-30.25236],[152.651411,-30.254421],[152.655376,-30.255316],[152.658089,-30.252253],[152.663602,-30.251438],[152.662996,-30.248164],[152.665166,-30.245788],[152.669445,-30.244978],[152.670631,-30.239541],[152.673992,-30.238218],[152.676272,-30.235733],[152.682015,-30.231104],[152.68596,-30.230282],[152.690476,-30.227286],[152.691202,-30.22604],[152.694647,-30.225574],[152.697823,-30.223335],[152.693396,-30.218782],[152.69442,-30.214643],[152.693538,-30.212633],[152.694852,-30.209951],[152.700424,-30.209452],[152.705889,-30.207145],[152.70743,-30.204586],[152.706547,-30.202967],[152.702589,-30.202658],[152.698602,-30.200212],[152.694868,-30.195276],[152.692987,-30.189015],[152.750763,-30.196616],[152.751231,-30.194656],[152.749945,-30.189864],[152.7506,-30.187883],[152.755151,-30.186547],[152.754176,-30.183563],[152.755184,-30.180789],[152.767936,-30.182442],[152.767521,-30.184706],[152.803453,-30.189567],[152.801345,-30.192125],[152.802786,-30.193138],[152.806353,-30.192805],[152.808751,-30.195178],[152.807536,-30.196559],[152.80927,-30.200639],[152.813695,-30.202416],[152.81391,-30.204731],[152.817555,-30.20687],[152.816728,-30.209186],[152.817606,-30.213377],[152.822002,-30.212613],[152.826854,-30.21349],[152.828091,-30.215036],[152.831375,-30.215633],[152.833629,-30.219236],[152.831515,-30.219594],[152.82954,-30.222078],[152.868435,-30.210215],[152.869312,-30.214769],[152.871379,-30.216423],[152.873489,-30.220503],[152.878766,-30.223257],[152.882005,-30.222205],[152.884422,-30.224797],[152.890097,-30.227469],[152.891758,-30.225911],[152.911059,-30.228489],[152.915033,-30.226862],[152.918727,-30.228277],[152.921385,-30.228237],[152.922411,-30.226813],[152.927924,-30.227114],[152.929991,-30.225536],[152.930973,-30.222714],[152.932759,-30.22146],[152.936759,-30.221875],[152.937008,-30.218641],[152.938843,-30.21774],[152.946882,-30.216333],[152.949692,-30.218074],[152.952152,-30.215507],[152.958331,-30.219547],[152.966118,-30.222588],[152.971888,-30.220849],[152.975682,-30.218734],[152.974913,-30.216036],[152.978584,-30.21459],[152.979133,-30.216596],[152.982126,-30.216025],[152.982412,-30.213909],[152.985742,-30.21413],[152.983144,-30.21722],[152.984128,-30.22024],[152.98726,-30.222288],[152.99908,-30.221404],[152.99494,-30.24676],[153.010696,-30.248775],[153.009672,-30.254251],[153.011892,-30.257597],[153.013134,-30.256929],[153.017729,-30.259232],[153.017178,-30.262189],[153.021702,-30.263862],[153.020376,-30.267484],[153.021715,-30.269071],[153.027458,-30.272981],[153.030727,-30.271139],[153.033941,-30.271614],[153.034252,-30.270049],[153.046471,-30.271946],[153.045714,-30.275312],[153.047405,-30.280003],[153.058655,-30.286735],[153.061224,-30.287819],[153.063319,-30.287125],[153.0677,-30.28263],[153.069036,-30.279087],[153.074526,-30.27631],[153.0818,-30.27433],[153.084884,-30.27267],[153.082709,-30.268716],[153.085897,-30.26659],[153.085653,-30.263382],[153.096454,-30.261703],[153.105337,-30.263479],[153.110668,-30.264971],[153.11983,-30.26602],[153.121672,-30.265899],[153.127555,-30.268214],[153.128079,-30.265904],[153.130626,-30.265224],[153.131303,-30.261617],[153.138428,-30.262793],[153.140185,-30.255886],[153.143361,-30.248623],[153.155198,-30.23394],[153.153843,-30.232336],[153.154539,-30.228094],[153.161181,-30.215627],[153.163863,-30.214544],[153.16176,-30.209411],[153.166987,-30.198029],[153.184709,-30.177824],[153.190596,-30.178673],[153.189554,-30.176204],[153.189851,-30.173698],[153.192018,-30.172077],[153.18979,-30.170264],[153.191957,-30.166087],[153.194908,-30.164591],[153.194903,-30.16251],[153.20109,-30.157596],[153.202299,-30.15596],[153.200803,-30.15387],[153.201117,-30.147392],[153.199564,-30.141272],[153.201143,-30.13452],[153.205001,-30.129406],[153.204393,-30.124254],[153.206919,-30.116635],[153.208976,-30.11299],[153.212309,-30.111853],[153.213714,-30.109724],[153.205137,-30.108027],[153.202839,-30.109081],[153.199641,-30.103902],[153.199427,-30.099075],[153.201738,-30.094502],[153.200831,-30.086521],[153.203411,-30.078338],[153.203279,-30.072944],[153.204614,-30.070094],[153.207861,-30.068526],[153.202601,-30.065365],[153.20335,-30.060621],[153.200672,-30.059462],[153.19634,-30.054904],[153.195573,-30.048546],[153.197084,-30.040577],[153.218425,-30.003099],[153.231952,-29.983743],[153.234485,-29.982094],[153.233366,-29.979753],[153.253878,-29.952482],[153.258106,-29.950321],[153.260129,-29.951939],[153.261313,-29.947415],[153.258303,-29.947243],[153.257694,-29.944107],[153.258895,-29.941186],[153.261773,-29.939942],[153.262973,-29.93483],[153.261147,-29.930649],[153.272656,-29.917179],[153.271273,-29.913155],[153.272686,-29.908789],[153.271847,-29.903677],[153.274574,-29.8947],[153.276892,-29.893298],[153.27408,-29.891551],[153.271762,-29.892352],[153.267554,-29.885679],[153.26655,-29.878707],[153.267648,-29.86525],[153.274262,-29.848237],[153.282471,-29.83383],[153.28625,-29.83035],[153.288734,-29.830781],[153.290324,-29.826411],[153.294417,-29.82508],[153.287327,-29.805609],[153.288043,-29.798317],[153.294966,-29.785067],[153.2993,-29.780554],[153.301618,-29.780755],[153.302914,-29.779179],[153.303944,-29.774537],[153.301068,-29.774437],[153.297268,-29.770225],[153.296096,-29.766142],[153.298231,-29.764552],[153.29201,-29.755913],[153.295891,-29.737114],[153.305161,-29.715407],[153.319411,-29.694118],[153.326651,-29.686773],[153.329945,-29.686241],[153.330254,-29.680309],[153.333974,-29.674551],[153.330997,-29.673078],[153.328085,-29.673214],[153.322897,-29.670529],[153.320727,-29.663132],[153.321075,-29.653464],[153.322947,-29.644035],[153.330051,-29.625802],[153.336151,-29.616087],[153.341218,-29.612667],[153.341035,-29.609959],[153.335909,-29.606519],[153.33178,-29.595787],[153.332441,-29.586645],[153.337454,-29.573572],[153.338523,-29.564386],[153.347249,-29.550089],[153.347042,-29.545763],[153.35096,-29.537141],[153.356569,-29.52979],[153.360683,-29.530308],[153.35985,-29.528042],[153.36259,-29.525353],[153.358717,-29.524101],[153.357588,-29.520733],[153.358386,-29.516742],[153.36072,-29.514838],[153.359858,-29.510108],[153.363183,-29.504372],[153.358735,-29.496081],[153.363777,-29.485746],[153.365846,-29.483818],[153.363986,-29.477863],[153.360512,-29.476972],[153.361687,-29.472568],[153.359145,-29.471416],[153.358416,-29.465843],[153.365895,-29.445267],[153.370091,-29.440136],[153.372774,-29.440342],[153.372353,-29.437678],[153.368235,-29.438365],[153.365,-29.435611],[153.365897,-29.431752],[153.363993,-29.430211],[153.364769,-29.428216],[153.371621,-29.428568],[153.372817,-29.425122],[153.363282,-29.421572],[153.367014,-29.404748],[153.369915,-29.399321],[153.372449,-29.399068],[153.374038,-29.396411],[153.372867,-29.394252],[153.369251,-29.393548],[153.368219,-29.389796],[153.370499,-29.384428],[153.372839,-29.381239],[153.370348,-29.38],[153.370088,-29.376719],[153.371679,-29.372011],[153.374391,-29.37115],[153.375511,-29.366632],[153.373573,-29.364432],[153.367106,-29.363909],[153.36334,-29.359864],[153.364425,-29.357385],[153.362896,-29.355398],[153.360543,-29.359632],[153.353928,-29.357709],[153.344441,-29.344446],[153.340963,-29.332551],[153.340263,-29.320414],[153.344322,-29.296579],[153.358856,-29.264965],[153.373378,-29.242413],[153.386588,-29.226418],[153.392014,-29.214262],[153.400519,-29.201378],[153.418788,-29.177667],[153.446484,-29.152556],[153.453325,-29.141867],[153.456659,-29.140191],[153.457055,-29.138112],[153.45277,-29.13876],[153.448568,-29.133389],[153.451312,-29.118746],[153.447596,-29.115794],[153.443883,-29.116381],[153.435487,-29.113259],[153.433591,-29.108996],[153.433862,-29.091555],[153.441451,-29.065288],[153.452966,-29.039249],[153.473336,-29.004791],[153.499213,-28.969924],[153.544475,-28.917804]]],[[[153.3927,-29.92684],[153.392284,-29.923992],[153.388617,-29.923206],[153.389558,-29.92627],[153.3927,-29.92684]]],[[[153.229105,-30.160946],[153.227465,-30.159251],[153.225033,-30.161049],[153.226679,-30.162389],[153.229105,-30.160946]]]]},"bbox":[152.168527,-30.418897,153.544475,-28.269477]}]}