{"type":"FeatureCollection","features":[
{"properties":{"electorateShortName":"page","electorateName":"Page","area":19335.11,"state":"NSW"},"type":"Feature","geometry":{"type":"MultiPolygon","coordinates":[[[[153.138428,-30.262793],[153.143465,-30.275998],[153.139025,-30.296585],[153.140955,-30.301646],[153.154572,-30.305148],[153.148992,-30.313694],[153.140489,-30.31296],[153.13202,-30.319282],[153.113451,-30.340617],[153.106312,-30.354371],[153.13088231923763,-30.35815247311741],[153.1487988004915,-30.355670851879527],[153.16585724531365,-30.34965685115303],[153.19319109223352,-30.33421431144849],[153.19874790631016,-30.328973479427447],[153.21966732945558,-30.32271831064747],[153.23477872408412,-30.31398332517335],[153.2479198813619,-30.30249575779577],[153.25293388090665,-30.29601117128831],[153.2779221751681,-30.296843109330904],[153.29593389355514,-30.292690545999914],[153.3127173912192,-30.284945871207956],[153.32997787572538,-30.272547140941565],[153.3421853803318,-30.258904980525767],[153.35137982826222,-30.243074824595347],[153.35718080580634,-30.225711634535365],[153.35934830166528,-30.20753379992208],[153.35779263724731,-30.189293415667763],[153.34724761259892,-30.16002205938403],[153.33726546918058,-30.145071400853713],[153.32451110666,-30.13240287235162],[153.31028630265948,-30.123043612407052],[153.30306561721292,-30.1030251777421],[153.33028549373384,-30.08678748428258],[153.34261771300353,-30.073372202044812],[153.3532359144802,-30.05510581334953],[153.35953471675347,-30.036797753940906],[153.36160918541148,-30.015938076285064],[153.39032793934456,-30.02261037649401],[153.40816502654172,-30.021729462664673],[153.42547700738288,-30.017343917292695],[153.44158222221878,-30.00962642132935],[153.45584652783975,-29.998880851358134],[153.46770826687936,-29.985530314447196],[153.4767003830864,-29.970100488298677],[153.48246881167555,-29.95319892267693],[153.48478642063662,-29.93549111712237],[153.48356195406274,-29.917674316891585],[153.47690516941,-29.8933446887365],[153.4690154322862,-29.87695704173162],[153.45799199363955,-29.862490296187328],[153.44428504924315,-29.850535272073888],[153.42845438888907,-29.841580210991307],[153.4111465346476,-29.83599083644708],[153.38368643572488,-29.833730055919954],[153.3837603337833,-29.81869286542272],[153.39077706599176,-29.79867468245859],[153.39391932420136,-29.776644376297863],[153.39076502860968,-29.752434510318576],[153.40339028057306,-29.738258216011108],[153.4122097885038,-29.722744487126942],[153.4221947698596,-29.692358182971546],[153.42396756501134,-29.675627223282756],[153.42103533791948,-29.653196726530606],[153.4317514679107,-29.62187473582051],[153.4327131077374,-29.604709504297553],[153.43039322415984,-29.587674597060364],[153.44104384202157,-29.5708312657813],[153.45115338488665,-29.541369455832143],[153.45190110874623,-29.51791095844375],[153.45852172697505,-29.491637945536326],[153.4573669830731,-29.469731341274837],[153.4626879765685,-29.444276058672326],[153.46373120144227,-29.388986068011306],[153.4666794890872,-29.366268278213713],[153.46515599615222,-29.34909290923325],[153.46038502335077,-29.332523294003384],[153.45254169149564,-29.317167628086583],[153.44134658733813,-29.30309717594553],[153.45598150353118,-29.283728921015694],[153.47029868378675,-29.259682745653905],[153.4860197089018,-29.238195074253124],[153.50693594741466,-29.219231048209778],[153.53315338307232,-29.187610503987155],[153.54051708170195,-29.17286854784667],[153.54546547097806,-29.154952089709877],[153.54705467459948,-29.13786998350119],[153.54537362425947,-29.12079667127334],[153.5327698417663,-29.081317631241372],[153.54841408702808,-29.054645460112784],[153.56942801146042,-29.02633103018727],[153.61242804859808,-28.976815720752995],[153.62222384632662,-28.963137397124882],[153.62930271359187,-28.947874899666907],[153.6334172796478,-28.9315615757694],[153.63442376114088,-28.914767493912453],[153.6322869866138,-28.89807952264468],[153.6270816255707,-28.882080822484205],[153.6189895791543,-28.867330467396666],[153.6024023438833,-28.849008370251155],[153.589714,-28.873409],[153.576789,-28.869838],[153.564095,-28.873706],[153.546206,-28.867225],[153.529065,-28.871144],[153.530165,-28.877919],[153.555088,-28.877984],[153.570746,-28.88507],[153.57400700637186,-28.877160071570465],[153.58636216686338,-28.876365658994192],[153.579532,-28.881682],[153.544475,-28.917804],[153.518517,-28.918317],[153.507797,-28.912851],[153.497254,-28.921028],[153.484006,-28.920681],[153.475801,-28.924591],[153.482855,-28.888026],[153.494448,-28.863343],[153.486858,-28.864848],[153.476547,-28.855464],[153.478138,-28.847961],[153.465035,-28.840742],[153.451238,-28.838635],[153.45253,-28.830749],[153.441382,-28.823097],[153.450663,-28.781638],[153.442291,-28.762701],[153.447683,-28.759424],[153.448133,-28.746851],[153.422106,-28.742678],[153.40682,-28.742889],[153.409487,-28.72554],[153.409153,-28.707793],[153.402251,-28.702264],[153.408046,-28.69353],[153.424239,-28.692997],[153.418182,-28.677922],[153.417876,-28.663639],[153.424244,-28.659459],[153.41547,-28.64871],[153.412627,-28.618563],[153.373087,-28.613976],[153.379084,-28.582456],[153.351798,-28.567264],[153.346171,-28.558012],[153.32783,-28.542733],[153.291318,-28.541378],[153.283913,-28.529906],[153.273306,-28.522004],[153.254768,-28.527109],[153.247732,-28.515887],[153.226422,-28.517733],[153.219644,-28.522855],[153.197746,-28.526987],[153.186001,-28.521294],[153.160263,-28.524129],[153.149796,-28.502963],[153.153674,-28.484325],[153.141014,-28.470775],[153.143898,-28.462728],[153.135998,-28.457227],[153.143132,-28.448875],[153.142127,-28.436139],[153.124034,-28.430592],[153.127518,-28.419263],[153.120837,-28.415282],[153.1277,-28.405931],[153.110781,-28.388469],[153.112955,-28.361311],[153.1094,-28.35744],[153.108548,-28.356328],[153.10806193000346,-28.35750697828948],[153.10314217891872,-28.3577532408267],[153.09949418532506,-28.357154439174696],[153.08960197279802,-28.353487968645226],[153.08542297767454,-28.35379870027205],[153.08023109772748,-28.354065741375962],[153.0744702774585,-28.352177782804645],[153.0656553759412,-28.34455597499335],[153.0652872380933,-28.344237664468935],[153.0502142120475,-28.341643300435887],[153.04639961265454,-28.339753813164723],[153.0459287599052,-28.33952058545592],[153.0384118795887,-28.34323100606201],[153.03731333758148,-28.342938759013737],[153.03334759230594,-28.34188374487377],[153.03225256161608,-28.341592431947383],[153.022228,-28.338045],[153.01077829289133,-28.341103651003056],[153.00999888779248,-28.341288991464854],[152.99651698417318,-28.340005460196874],[152.99508436070474,-28.33942872768373],[152.98932164019254,-28.336745603707996],[152.98614515373112,-28.337501569713037],[152.98362939455643,-28.338100290480785],[152.97397867749993,-28.33230395130694],[152.97265029860984,-28.331864994706105],[152.9579584450079,-28.333057500407424],[152.94531818068165,-28.33560494431459],[152.94044390598273,-28.334948789400766],[152.934266,-28.337655],[152.9203083094624,-28.331136451006262],[152.90896835972526,-28.32660005875162],[152.90299337079378,-28.325722423101812],[152.89980742782035,-28.32525445618776],[152.8944770085621,-28.319132610203383],[152.88108816404906,-28.3108421022456],[152.88026557792608,-28.3098971506649],[152.8631789485854,-28.312692356326004],[152.85740008053332,-28.3120635282329],[152.84958374433828,-28.31123438816596],[152.84025674048138,-28.321568681008674],[152.84016561928092,-28.32160312602054],[152.83598981105163,-28.320685459438984],[152.83323794896063,-28.32008071617987],[152.824052292363,-28.330264005785143],[152.82343744102505,-28.334746202954374],[152.82319905489246,-28.335284985064657],[152.82219035599655,-28.3353936526089],[152.8092995490205,-28.34245566441117],[152.80425655689945,-28.35357010620224],[152.80100095529306,-28.353711628080728],[152.7930300281381,-28.353823122907517],[152.77556685514554,-28.34663824663331],[152.76031343926408,-28.352269703352373],[152.7577622878996,-28.362927466159192],[152.751455067429,-28.36385612572262],[152.7510157859353,-28.36387684930139],[152.74694821208766,-28.360977005827703],[152.74001759262214,-28.358901505282436],[152.73483582824917,-28.354073402360974],[152.73334256275632,-28.35352730856369],[152.72445134170275,-28.345836435124884],[152.72294612177146,-28.344169237191725],[152.72008,-28.34509],[152.71613585498744,-28.343161360518792],[152.7126478232657,-28.341483896682124],[152.70435031273092,-28.33877973054283],[152.7028563280391,-28.337791741774346],[152.699344,-28.335469],[152.692385,-28.336667],[152.688551,-28.334678],[152.686418,-28.329075],[152.67395911379418,-28.32622860173344],[152.673551,-28.317971],[152.667517,-28.311703],[152.65839361566532,-28.31011644506236],[152.6482412653104,-28.3131925570841],[152.64314518628484,-28.312130592170316],[152.63881200843278,-28.31111929546527],[152.63502781005067,-28.307007349802664],[152.62829938278486,-28.303245655728013],[152.62494033171703,-28.298820845154935],[152.62293672593353,-28.290693227060586],[152.6230267100583,-28.28797475929103],[152.6211146482011,-28.284380968896837],[152.61751242247018,-28.28247763334449],[152.61643548463564,-28.274397587171904],[152.61473597530215,-28.2701077315515],[152.61439768420422,-28.2696757851199],[152.61328886456994,-28.27079825940402],[152.60793786012323,-28.276215159231537],[152.597326,-28.291288],[152.60082189255684,-28.303746005014595],[152.60163022924425,-28.307468446657207],[152.597572,-28.314551],[152.597642,-28.314618],[152.597846,-28.314779],[152.617767,-28.320421],[152.627861,-28.327548],[152.630849,-28.338294],[152.627689,-28.347076],[152.615639,-28.352387],[152.609455,-28.376939],[152.602677,-28.379469],[152.60488,-28.391985],[152.593233,-28.401257],[152.594641,-28.408597],[152.583561,-28.41709],[152.577038,-28.437617],[152.567384,-28.437925],[152.561765,-28.455342],[152.527376,-28.497501],[152.536924,-28.499767],[152.533191,-28.513812],[152.518968,-28.51032],[152.503236,-28.511599],[152.500138,-28.528526],[152.476117,-28.52696],[152.469177,-28.520762],[152.460079,-28.52932],[152.447754,-28.527473],[152.442458,-28.556841],[152.451841,-28.562728],[152.441062,-28.574986],[152.441811,-28.592688],[152.434765,-28.602244],[152.422079,-28.606845],[152.408765,-28.628211],[152.407829,-28.642945],[152.399648,-28.645827],[152.402465,-28.659427],[152.389091,-28.665769],[152.384483,-28.686102],[152.373705,-28.687903],[152.375208,-28.699883],[152.404789,-28.710113],[152.407664,-28.723407],[152.421238,-28.718079],[152.426474,-28.724078],[152.465277,-28.735837],[152.472384,-28.730782],[152.477743,-28.746271],[152.492334,-28.735588],[152.498235,-28.74483],[152.488846,-28.758949],[152.490174,-28.768841],[152.480716,-28.772274],[152.480325,-28.780262],[152.50191,-28.785391],[152.521678,-28.793089],[152.530992,-28.781374],[152.543678,-28.787938],[152.537034,-28.803606],[152.540304,-28.816032],[152.55488,-28.817862],[152.556973,-28.824527],[152.537174,-28.847035],[152.544747,-28.85373],[152.567877,-28.858052],[152.573306,-28.86365],[152.564307,-28.887482],[152.557145,-28.89375],[152.555079,-28.912589],[152.567178,-28.904199],[152.580107,-28.911484],[152.580988,-28.928604],[152.565936,-28.926074],[152.548638,-28.932364],[152.545781,-28.942359],[152.553601,-28.955808],[152.560612,-28.986331],[152.558516,-28.990078],[152.516572,-28.983581],[152.509573,-28.973254],[152.486653,-28.969974],[152.467109,-28.973664],[152.476205,-28.990648],[152.46552,-28.99043],[152.46464,-29.008025],[152.454072,-29.024549],[152.424203,-29.036863],[152.443897,-29.039755],[152.441565,-29.052136],[152.430571,-29.064585],[152.43111,-29.071963],[152.421006,-29.084096],[152.455006,-29.089027],[152.444231,-29.144175],[152.41689,-29.153095],[152.414465,-29.165374],[152.424963,-29.178626],[152.410177,-29.200865],[152.405201,-29.212154],[152.412805,-29.230414],[152.394086,-29.24125],[152.379027,-29.245286],[152.351323,-29.249123],[152.33886,-29.261859],[152.32318,-29.269926],[152.320994,-29.277583],[152.306473,-29.283097],[152.314656,-29.298519],[152.298279,-29.307447],[152.303043,-29.31763],[152.310687,-29.32254],[152.331189,-29.32889],[152.331517,-29.341837],[152.451081,-29.358053],[152.429492,-29.391941],[152.410052,-29.400771],[152.404317,-29.432778],[152.397171,-29.431767],[152.388785,-29.445316],[152.412456,-29.50688],[152.40543,-29.516645],[152.389782,-29.52199],[152.378027,-29.531125],[152.358684,-29.540345],[152.354492,-29.545471],[152.336123,-29.640777],[152.312214,-29.663098],[152.295227,-29.66876],[152.289543,-29.676294],[152.280708,-29.665904],[152.276473,-29.68154],[152.261801,-29.701512],[152.269991,-29.705411],[152.26213,-29.714902],[152.265797,-29.725395],[152.255628,-29.732701],[152.264365,-29.750938],[152.246677,-29.756398],[152.230372,-29.754887],[152.217284,-29.760508],[152.205433,-29.771754],[152.202949,-29.786103],[152.192641,-29.791943],[152.17596,-29.817476],[152.177321,-29.82989],[152.170423,-29.841246],[152.175632,-29.845842],[152.169282,-29.855815],[152.168757,-29.869874],[152.197742,-29.875924],[152.209077,-29.866124],[152.216357,-29.871362],[152.240422,-29.863228],[152.251091,-29.864976],[152.267689,-29.847868],[152.28171,-29.85646],[152.277096,-29.866029],[152.284512,-29.869659],[152.284955,-29.884581],[152.280753,-29.895718],[152.285582,-29.907048],[152.277896,-29.918786],[152.279945,-29.929209],[152.26983,-29.932062],[152.275042,-29.960416],[152.292028,-29.976949],[152.308005,-29.980175],[152.309674,-29.996191],[152.316419,-30.000565],[152.312936,-30.014076],[152.313319,-30.030123],[152.303636,-30.039372],[152.296979,-30.038795],[152.293161,-30.060241],[152.298392,-30.071752],[152.291227,-30.085056],[152.280721,-30.087436],[152.287509,-30.109716],[152.297236,-30.115096],[152.303507,-30.1385],[152.309672,-30.147907],[152.304407,-30.159898],[152.309928,-30.168312],[152.303203,-30.179112],[152.312588,-30.183776],[152.310012,-30.195352],[152.315421,-30.208575],[152.326105,-30.217225],[152.34513,-30.227531],[152.346551,-30.24216],[152.337896,-30.251819],[152.337677,-30.26243],[152.348253,-30.290701],[152.342286,-30.313618],[152.345622,-30.33295],[152.354768,-30.34037],[152.35178,-30.355359],[152.364574,-30.360976],[152.38192,-30.362628],[152.389916,-30.374706],[152.387531,-30.383159],[152.416297,-30.40693],[152.428078,-30.418897],[152.430484,-30.406173],[152.44109,-30.398902],[152.478585,-30.396994],[152.478,-30.37421],[152.474912,-30.356637],[152.480573,-30.333043],[152.490477,-30.337341],[152.501693,-30.329694],[152.506245,-30.320598],[152.517572,-30.317073],[152.527107,-30.309438],[152.529328,-30.301111],[152.547091,-30.28865],[152.55721,-30.262152],[152.551689,-30.259172],[152.559647,-30.243719],[152.586725,-30.24099],[152.603012,-30.252486],[152.625973,-30.258376],[152.635409,-30.25166],[152.655376,-30.255316],[152.663602,-30.251438],[152.670631,-30.239541],[152.697823,-30.223335],[152.694852,-30.209951],[152.698602,-30.200212],[152.692987,-30.189015],[152.750763,-30.196616],[152.755184,-30.180789],[152.767521,-30.184706],[152.803453,-30.189567],[152.80927,-30.200639],[152.82954,-30.222078],[152.868435,-30.210215],[152.873489,-30.220503],[152.891758,-30.225911],[152.911059,-30.228489],[152.927924,-30.227114],[152.937008,-30.218641],[152.952152,-30.215507],[152.966118,-30.222588],[152.982412,-30.213909],[152.98726,-30.222288],[152.99908,-30.221404],[152.99494,-30.24676],[153.010696,-30.248775],[153.020376,-30.267484],[153.046471,-30.271946],[153.047405,-30.280003],[153.063319,-30.287125],[153.069036,-30.279087],[153.084884,-30.27267],[153.085653,-30.263382],[153.096454,-30.261703],[153.127555,-30.268214],[153.138428,-30.262793]]],[[[152.53001720738607,-28.262062094369234],[152.536487,-28.265894],[152.532898,-28.272311],[152.532802,-28.279583],[152.52900101813302,-28.28993499503899],[152.533192,-28.279307],[152.532948,-28.272245],[152.536835,-28.266283],[152.534221,-28.262631],[152.53001720738607,-28.262062094369234]]],[[[152.55187689791322,-28.32016793984678],[152.556799,-28.324022],[152.564036,-28.323534],[152.572299,-28.326754],[152.5743334883855,-28.333187927078576],[152.572472,-28.326185],[152.568635,-28.323575],[152.55187689791322,-28.32016793984678]]]]},"bbox":[152.168757,-30.418897,153.63442376114088,-28.262062094369234]}]}