{"type":"FeatureCollection","features":[
{"properties":{"electorateShortName":"parkes","electorateName":"Parkes","area":406754.54,"state":"NSW"},"type":"Feature","geometry":{"type":"Polygon","coordinates":[[[149.795665,-32.05809],[149.805267,-32.055177],[149.80816,-32.039277],[149.825749,-32.037255],[149.827619,-32.034151],[149.840599,-32.030793],[149.849875,-32.025559],[149.858374,-32.03043],[149.859837,-32.02253],[149.869721,-32.023779],[149.868526,-32.03024],[149.87485,-32.031064],[149.872892,-32.018975],[149.873485,-32.01204],[149.879703,-31.999875],[149.873787,-31.995918],[149.875564,-31.984515],[149.858932,-31.982647],[149.857806,-31.989533],[149.839116,-31.987378],[149.846338,-31.98054],[149.851323,-31.970932],[149.866099,-31.961503],[149.866233,-31.956917],[149.871661,-31.949886],[149.873155,-31.943996],[149.883297,-31.937943],[149.888344,-31.929688],[149.898585,-31.918615],[149.897359,-31.912621],[149.909069,-31.899965],[149.919454,-31.893978],[149.919587,-31.886679],[149.92829,-31.881696],[149.941452,-31.878752],[149.959059,-31.863238],[149.968322,-31.861497],[149.978572,-31.85351],[149.986155,-31.849877],[149.992219,-31.843498],[150.009959,-31.837442],[150.023983,-31.828752],[150.034337,-31.816898],[150.045344,-31.797175],[150.049893,-31.786316],[150.068656,-31.772915],[150.069755,-31.76552],[150.084247,-31.758537],[150.099944,-31.748999],[150.110638,-31.746135],[150.102595,-31.740355],[150.087071,-31.742291],[150.075072,-31.739869],[150.057577,-31.719709],[150.051531,-31.721227],[150.044686,-31.710931],[150.050241,-31.704444],[150.052178,-31.698507],[150.030212,-31.69088],[150.02086,-31.696345],[150.013668,-31.697585],[150.01387,-31.704792],[150.002707,-31.707615],[149.995779,-31.714723],[149.993737,-31.721789],[149.98412,-31.727937],[149.980844,-31.718763],[149.971625,-31.709498],[149.971833,-31.706119],[149.965541,-31.700973],[149.958312,-31.700183],[149.946991,-31.702277],[149.93933,-31.706498],[149.933434,-31.705155],[149.930174,-31.698388],[149.919362,-31.706317],[149.904783,-31.706764],[149.897302,-31.698558],[149.878832,-31.691837],[149.877771,-31.683283],[149.870213,-31.683005],[149.863574,-31.669611],[149.86475,-31.65512],[149.866465,-31.651505],[149.863071,-31.643363],[149.864563,-31.636342],[149.851432,-31.628732],[149.849681,-31.623959],[149.840889,-31.616108],[149.857331,-31.618312],[149.863643,-31.617768],[149.887255,-31.621153],[149.89666,-31.620186],[149.898799,-31.617178],[149.896758,-31.602487],[149.89291,-31.592553],[149.899503,-31.584291],[149.911314,-31.572789],[149.913288,-31.561597],[149.911777,-31.552989],[149.903174,-31.54531],[149.904408,-31.536897],[149.892615,-31.537123],[149.875955,-31.534964],[149.866949,-31.537269],[149.882911,-31.451994],[149.89765,-31.45113],[149.93685,-31.45683],[149.943549,-31.45513],[149.968049,-31.45813],[149.986349,-31.45443],[150.002257,-31.445629],[150.004391,-31.429592],[149.98813,-31.427367],[149.999201,-31.361647],[149.995759,-31.360109],[149.99871,-31.344639],[149.986677,-31.329315],[149.994616,-31.324779],[150.005558,-31.326216],[150.006557,-31.320806],[150.041308,-31.325018],[150.039868,-31.332773],[150.078838,-31.338094],[150.086472,-31.297257],[150.091357,-31.297896],[150.096406,-31.278328],[150.103379,-31.240018],[150.134651,-31.244313],[150.138318,-31.223918],[150.147657,-31.225161],[150.144799,-31.236738],[150.158496,-31.237667],[150.159665,-31.232256],[150.165295,-31.233006],[150.163289,-31.243325],[150.156288,-31.242337],[150.154467,-31.251937],[150.157848,-31.252418],[150.148646,-31.303841],[150.152988,-31.304395],[150.151496,-31.312758],[150.15936,-31.313773],[150.156807,-31.328574],[150.160931,-31.329103],[150.15888,-31.340962],[150.163276,-31.34153],[150.160961,-31.354959],[150.191955,-31.358432],[150.192906,-31.352953],[150.201711,-31.354087],[150.200263,-31.362883],[150.227149,-31.366392],[150.226534,-31.369676],[150.237233,-31.371153],[150.237969,-31.367195],[150.285905,-31.373839],[150.304184,-31.37732],[150.303409,-31.381349],[150.33888,-31.386238],[150.350951,-31.389338],[150.351856,-31.384543],[150.366284,-31.386459],[150.370359,-31.384207],[150.383718,-31.386122],[150.382465,-31.392679],[150.417667,-31.397631],[150.418905,-31.391036],[150.434616,-31.3933],[150.434163,-31.387001],[150.429634,-31.384383],[150.43187,-31.377709],[150.433278,-31.36388],[150.426929,-31.357941],[150.427821,-31.350392],[150.419482,-31.34003],[150.469625,-31.346978],[150.468341,-31.353996],[150.484234,-31.356201],[150.485538,-31.349161],[150.498841,-31.350986],[150.497969,-31.355606],[150.507647,-31.356856],[150.505697,-31.367288],[150.516695,-31.366749],[150.518266,-31.358407],[150.543292,-31.36287],[150.547014,-31.357459],[150.549846,-31.343969],[150.534605,-31.343092],[150.537653,-31.328101],[150.546135,-31.3292],[150.548091,-31.318962],[150.551579,-31.310253],[150.546772,-31.309566],[150.550514,-31.289523],[150.550391,-31.278162],[150.546033,-31.277541],[150.548416,-31.264927],[150.566555,-31.268537],[150.56586,-31.272451],[150.575295,-31.273798],[150.583751,-31.228476],[150.562324,-31.235923],[150.564196,-31.225842],[150.569044,-31.220816],[150.580167,-31.222317],[150.585536,-31.217611],[150.586718,-31.210359],[150.571431,-31.208215],[150.572125,-31.206047],[150.579729,-31.147056],[150.589532,-31.147311],[150.590495,-31.142482],[150.580899,-31.141223],[150.58431,-31.125056],[150.596757,-31.059287],[150.599399,-31.046846],[150.595879,-31.03697],[150.589728,-31.036198],[150.583118,-31.028432],[150.578,-31.028097],[150.575263,-31.020065],[150.561927,-31.014672],[150.5579,-31.016074],[150.551811,-31.011416],[150.549726,-31.005414],[150.544419,-30.999412],[150.539871,-30.986252],[150.533144,-30.978633],[150.527741,-30.968574],[150.533062,-30.9405],[150.528592,-30.938181],[150.523233,-30.928141],[150.51357,-30.928452],[150.510418,-30.921303],[150.49177,-30.92138],[150.493029,-30.916593],[150.498687,-30.912981],[150.499366,-30.908822],[150.507019,-30.90615],[150.515505,-30.907365],[150.52454,-30.906436],[150.530215,-30.903012],[150.531694,-30.889384],[150.530401,-30.875117],[150.521061,-30.854963],[150.54661,-30.858757],[150.549465,-30.843992],[150.555997,-30.844956],[150.55754,-30.836976],[150.561702,-30.837589],[150.563202,-30.829941],[150.55599,-30.828422],[150.559266,-30.810814],[150.54384,-30.813422],[150.520149,-30.800458],[150.515322,-30.801635],[150.501624,-30.801019],[150.487268,-30.798984],[150.490387,-30.783325],[150.463393,-30.778957],[150.464437,-30.773983],[150.456319,-30.772761],[150.457808,-30.763312],[150.466331,-30.764641],[150.467416,-30.759534],[150.452613,-30.757233],[150.458334,-30.748598],[150.467178,-30.745206],[150.463847,-30.739544],[150.467057,-30.734025],[150.464447,-30.725508],[150.464497,-30.717095],[150.453462,-30.715383],[150.457961,-30.690158],[150.509647,-30.660088],[150.507405,-30.651059],[150.499184,-30.638655],[150.490168,-30.636809],[150.48611,-30.63214],[150.475413,-30.626218],[150.468508,-30.628335],[150.461953,-30.621007],[150.456351,-30.619198],[150.454351,-30.607517],[150.449033,-30.604869],[150.441236,-30.604886],[150.437868,-30.597427],[150.430031,-30.60087],[150.421935,-30.597152],[150.420946,-30.592643],[150.410649,-30.589852],[150.402578,-30.593862],[150.396077,-30.593689],[150.394623,-30.602644],[150.390829,-30.605231],[150.384609,-30.602017],[150.378269,-30.602705],[150.371693,-30.594562],[150.371989,-30.588984],[150.36502,-30.583433],[150.366634,-30.575504],[150.359985,-30.570019],[150.360449,-30.55944],[150.373754,-30.561229],[150.372742,-30.566742],[150.390702,-30.56932],[150.39169,-30.562965],[150.388654,-30.551035],[150.393759,-30.547065],[150.366127,-30.543415],[150.368537,-30.530077],[150.354745,-30.528235],[150.358849,-30.519138],[150.36257,-30.498579],[150.348388,-30.496715],[150.364157,-30.489295],[150.367582,-30.470081],[150.36321,-30.468485],[150.350862,-30.472987],[150.346536,-30.469539],[150.35188,-30.465212],[150.351826,-30.457706],[150.360984,-30.454077],[150.364082,-30.445719],[150.362791,-30.433258],[150.355686,-30.428051],[150.351488,-30.418184],[150.344603,-30.412213],[150.338779,-30.41508],[150.328624,-30.402452],[150.319713,-30.411142],[150.322614,-30.419724],[150.314174,-30.429023],[150.300528,-30.432724],[150.29346,-30.428206],[150.283241,-30.430848],[150.274604,-30.421448],[150.263307,-30.415754],[150.25277,-30.413992],[150.239201,-30.40157],[150.229654,-30.402077],[150.225751,-30.399298],[150.227391,-30.391036],[150.237671,-30.384604],[150.235857,-30.378521],[150.228799,-30.376523],[150.224023,-30.370921],[150.203418,-30.375046],[150.192199,-30.366188],[150.188295,-30.359725],[150.195547,-30.345626],[150.194135,-30.331729],[150.191254,-30.32616],[150.194998,-30.321087],[150.189526,-30.307726],[150.182964,-30.299506],[150.193656,-30.293246],[150.186723,-30.290665],[150.181347,-30.279575],[150.172995,-30.278854],[150.169036,-30.274894],[150.169542,-30.267385],[150.175503,-30.265359],[150.17117,-30.255697],[150.17393,-30.248429],[150.168487,-30.239443],[150.167062,-30.228544],[150.16293,-30.221816],[150.158769,-30.222448],[150.146369,-30.215644],[150.144859,-30.202355],[150.136509,-30.20072],[150.129844,-30.203072],[150.125231,-30.19599],[150.111106,-30.194335],[150.102263,-30.191946],[150.100706,-30.188012],[150.089365,-30.171677],[150.090429,-30.164582],[150.088669,-30.158066],[150.080728,-30.140085],[150.074402,-30.137122],[150.074876,-30.12775],[150.077205,-30.12205],[150.074464,-30.113683],[150.07566,-30.107363],[150.083633,-30.097049],[150.091593,-30.096286],[150.091529,-30.092626],[150.102979,-30.081962],[150.113319,-30.080521],[150.118096,-30.077794],[150.119478,-30.07208],[150.124153,-30.070046],[150.139505,-30.086488],[150.144869,-30.087298],[150.153588,-30.082015],[150.158003,-30.082769],[150.162812,-30.078139],[150.164022,-30.070652],[150.171956,-30.062964],[150.179171,-30.065514],[150.188487,-30.065706],[150.197512,-30.062574],[150.213702,-30.042997],[150.21378,-30.039823],[150.224954,-30.027031],[150.231681,-30.024417],[150.236992,-30.016169],[150.236102,-30.012698],[150.248841,-30.010267],[150.250842,-30.002715],[150.248852,-29.99348],[150.254329,-29.989891],[150.272628,-29.989392],[150.278474,-29.995908],[150.285121,-29.996387],[150.285923,-29.991851],[150.292859,-29.990531],[150.292467,-29.963772],[150.301924,-29.957239],[150.302223,-29.949311],[150.298682,-29.946048],[150.30252,-29.938875],[150.300511,-29.920914],[150.312038,-29.90691],[150.313714,-29.897114],[150.312409,-29.892556],[150.305017,-29.889455],[150.306053,-29.885274],[150.301511,-29.873729],[150.293831,-29.870525],[150.294258,-29.857041],[150.296765,-29.850213],[150.294081,-29.846606],[150.301779,-29.840026],[150.302375,-29.827035],[150.307027,-29.825922],[150.306484,-29.81985],[150.29936,-29.817174],[150.298251,-29.808285],[150.29072,-29.802698],[150.292227,-29.796397],[150.289255,-29.789468],[150.290127,-29.774071],[150.293233,-29.763954],[150.291971,-29.75543],[150.28796,-29.749832],[150.298058,-29.744221],[150.302529,-29.731788],[150.297477,-29.726324],[150.287829,-29.721939],[150.285779,-29.71364],[150.280958,-29.70647],[150.272068,-29.704023],[150.272589,-29.691971],[150.264137,-29.688573],[150.262893,-29.679026],[150.252457,-29.672759],[150.241034,-29.667977],[150.24049,-29.66179],[150.23183,-29.66296],[150.225559,-29.659542],[150.218816,-29.659719],[150.215942,-29.648851],[150.194619,-29.620235],[150.211639,-29.529801],[150.194868,-29.522347],[150.194526,-29.518855],[150.204039,-29.511836],[150.208179,-29.506577],[150.206247,-29.502228],[150.219462,-29.497948],[150.205956,-29.483191],[150.200376,-29.485475],[150.192619,-29.49395],[150.184194,-29.493246],[150.172437,-29.496745],[150.169228,-29.495984],[150.175322,-29.462575],[150.179177,-29.463113],[150.179453,-29.451659],[150.183563,-29.437825],[150.213337,-29.282748],[150.230161,-29.195738],[150.231215,-29.193327],[150.24578,-29.116176],[150.239673,-29.114568],[150.244334,-29.088651],[150.247215,-29.078831],[150.25007,-29.076044],[150.253133,-29.060131],[150.252614,-29.051194],[150.259498,-29.013903],[150.202218,-28.949213],[150.148546,-28.889263],[150.169218,-28.876344],[150.23033,-28.859069],[150.343964,-28.827542],[150.343136,-28.827026],[150.383723,-28.789905],[150.408465,-28.764115],[150.420939,-28.751976],[150.460684,-28.69586],[150.477481,-28.673234],[150.481603,-28.671042],[150.483832,-28.662259],[150.479703,-28.664082],[150.473288,-28.660699],[150.465757,-28.666289],[150.458926,-28.66896],[150.452329,-28.665985],[150.440447,-28.663651],[150.432853,-28.655719],[150.424627,-28.650626],[150.41438,-28.651998],[150.411972,-28.648226],[150.415814,-28.64542],[150.415311,-28.634621],[150.40885,-28.634023],[150.401606,-28.627177],[150.396891,-28.62897],[150.391682,-28.634032],[150.387518,-28.633807],[150.384826,-28.631648],[150.370146,-28.621136],[150.368573,-28.61344],[150.363306,-28.607381],[150.368229,-28.598276],[150.362822,-28.596751],[150.362831,-28.589067],[150.354907,-28.589269],[150.351527,-28.586745],[150.349079,-28.58115],[150.350575,-28.575056],[150.341635,-28.574991],[150.327873,-28.571109],[150.323091,-28.566602],[150.320157,-28.556956],[150.313173,-28.555362],[150.309253,-28.550629],[150.300532,-28.548497],[150.295781,-28.539665],[150.29136,-28.537299],[150.287965,-28.537777],[150.282112,-28.542814],[150.270252,-28.539584],[150.26127,-28.544867],[150.253851,-28.546443],[150.248469,-28.552635],[150.243965,-28.554772],[150.242312,-28.552446],[150.239523,-28.554185],[150.235621,-28.553926],[150.23543,-28.555693],[150.239287,-28.557668],[150.238577,-28.559976],[150.229938,-28.555735],[150.229767,-28.558779],[150.233721,-28.56078],[150.228453,-28.567761],[150.226628,-28.568653],[150.2195,-28.566645],[150.217802,-28.56878],[150.213728,-28.567235],[150.212442,-28.568305],[150.213646,-28.572902],[150.212587,-28.574299],[150.208204,-28.572604],[150.203548,-28.573248],[150.202,-28.569965],[150.198035,-28.567288],[150.191817,-28.566661],[150.189177,-28.567993],[150.189658,-28.570121],[150.186382,-28.573017],[150.181079,-28.569144],[150.186775,-28.568911],[150.185844,-28.565108],[150.183333,-28.56567],[150.177311,-28.563382],[150.180278,-28.56249],[150.183149,-28.558453],[150.182573,-28.556472],[150.176544,-28.559231],[150.173951,-28.557932],[150.171806,-28.559841],[150.172095,-28.562856],[150.170488,-28.563512],[150.16919,-28.556643],[150.167098,-28.555428],[150.169907,-28.554185],[150.168652,-28.550595],[150.16633,-28.551211],[150.163255,-28.555763],[150.157861,-28.554321],[150.154083,-28.555321],[150.151551,-28.555451],[150.152322,-28.553445],[150.154311,-28.553094],[150.152532,-28.550196],[150.147392,-28.553069],[150.148193,-28.558291],[150.143435,-28.557671],[150.132853,-28.561513],[150.132021,-28.563565],[150.134323,-28.564582],[150.131617,-28.565642],[150.125987,-28.564943],[150.121579,-28.559644],[150.120693,-28.562746],[150.116188,-28.561764],[150.117058,-28.563407],[150.115852,-28.56415],[150.115837,-28.566567],[150.114926,-28.568478],[150.111144,-28.570344],[150.105212,-28.567745],[150.104143,-28.564945],[150.101111,-28.56602],[150.097069,-28.563309],[150.09221,-28.564059],[150.091014,-28.568655],[150.093849,-28.573672],[150.092764,-28.578428],[150.089806,-28.578709],[150.088003,-28.577282],[150.087383,-28.580379],[150.085231,-28.580909],[150.08089,-28.577459],[150.079789,-28.581724],[150.080043,-28.58428],[150.076975,-28.58349],[150.074732,-28.580026],[150.07222,-28.58011],[150.069684,-28.578239],[150.070272,-28.580237],[150.06904,-28.581107],[150.068358,-28.578408],[150.066369,-28.577707],[150.065042,-28.579193],[150.063818,-28.577508],[150.058099,-28.578983],[150.057374,-28.583848],[150.055415,-28.584488],[150.056537,-28.586496],[150.051166,-28.585278],[150.048832,-28.589445],[150.044204,-28.586495],[150.036198,-28.586162],[150.034167,-28.583417],[150.031024,-28.583784],[150.029771,-28.582243],[150.030624,-28.58028],[150.026874,-28.579017],[150.021861,-28.582714],[150.018066,-28.580175],[150.015363,-28.580547],[150.017247,-28.583351],[150.012934,-28.583572],[150.011562,-28.585309],[150.008085,-28.591363],[150.004712,-28.588676],[149.994972,-28.593909],[149.993429,-28.600261],[149.985055,-28.602574],[149.97725,-28.613565],[149.972243,-28.608123],[149.970692,-28.608492],[149.970876,-28.61024],[149.968361,-28.608686],[149.96471,-28.610892],[149.962715,-28.610402],[149.962734,-28.612542],[149.957024,-28.610074],[149.953113,-28.609948],[149.950915,-28.608329],[149.948619,-28.610785],[149.949592,-28.613036],[149.943264,-28.613889],[149.942093,-28.618388],[149.925011,-28.609009],[149.917332,-28.608143],[149.903151,-28.615566],[149.905719,-28.618388],[149.903521,-28.619909],[149.899346,-28.619672],[149.899645,-28.622202],[149.897382,-28.621621],[149.89745,-28.619286],[149.894947,-28.618828],[149.89379,-28.615968],[149.889547,-28.618929],[149.886704,-28.615169],[149.8905,-28.612691],[149.883754,-28.612343],[149.88219,-28.609823],[149.877483,-28.611988],[149.87746,-28.608823],[149.874852,-28.607407],[149.860646,-28.607161],[149.854427,-28.604385],[149.844939,-28.61059],[149.839253,-28.603942],[149.831406,-28.60381],[149.827069,-28.609037],[149.822192,-28.609092],[149.819376,-28.616828],[149.81167,-28.606068],[149.809935,-28.607682],[149.803312,-28.607651],[149.801649,-28.609878],[149.800061,-28.608053],[149.793807,-28.611516],[149.786583,-28.611808],[149.783758,-28.614428],[149.780866,-28.612519],[149.779795,-28.610189],[149.775672,-28.613288],[149.772584,-28.614518],[149.764166,-28.614703],[149.761888,-28.613908],[149.759882,-28.615484],[149.759243,-28.613478],[149.755533,-28.611658],[149.754296,-28.612931],[149.751045,-28.61113],[149.750535,-28.612774],[149.749318,-28.611459],[149.746478,-28.612026],[149.744085,-28.615538],[149.746357,-28.616463],[149.74499,-28.618723],[149.741808,-28.615602],[149.741773,-28.613441],[149.735192,-28.617645],[149.726339,-28.615762],[149.72332,-28.613136],[149.718572,-28.611655],[149.71388,-28.616725],[149.712527,-28.614963],[149.714123,-28.612829],[149.712962,-28.612375],[149.711003,-28.614467],[149.709827,-28.613055],[149.707112,-28.614763],[149.705912,-28.617992],[149.703487,-28.619452],[149.705922,-28.621908],[149.707164,-28.627486],[149.703965,-28.633913],[149.698423,-28.633322],[149.696052,-28.631184],[149.694494,-28.633604],[149.693041,-28.632057],[149.691121,-28.63432],[149.690444,-28.630912],[149.688843,-28.630439],[149.690469,-28.629244],[149.689466,-28.628391],[149.687824,-28.629415],[149.687978,-28.632832],[149.685364,-28.629482],[149.683352,-28.631496],[149.680564,-28.630619],[149.679993,-28.633222],[149.676842,-28.631406],[149.674166,-28.631738],[149.672618,-28.633954],[149.671612,-28.632564],[149.669511,-28.633162],[149.66673,-28.632132],[149.666161,-28.630709],[149.669413,-28.630681],[149.671582,-28.628621],[149.670928,-28.627333],[149.668352,-28.628234],[149.668313,-28.626364],[149.672845,-28.62675],[149.671009,-28.621139],[149.663492,-28.617642],[149.66433,-28.613399],[149.661792,-28.610435],[149.660087,-28.609521],[149.657549,-28.611598],[149.658977,-28.613124],[149.656324,-28.615928],[149.653674,-28.613361],[149.647561,-28.612296],[149.64544,-28.603921],[149.642088,-28.599199],[149.640617,-28.60057],[149.639627,-28.598189],[149.635904,-28.599546],[149.634869,-28.595452],[149.630944,-28.598158],[149.630674,-28.595248],[149.627171,-28.596274],[149.624261,-28.595223],[149.619682,-28.596178],[149.618628,-28.598878],[149.610963,-28.60109],[149.609483,-28.599521],[149.610312,-28.597418],[149.606573,-28.593968],[149.602303,-28.587792],[149.597739,-28.588888],[149.598328,-28.579849],[149.587242,-28.573377],[149.584421,-28.574634],[149.579751,-28.572637],[149.57756,-28.573943],[149.576287,-28.572502],[149.574006,-28.574109],[149.572378,-28.571908],[149.568366,-28.571592],[149.567167,-28.574017],[149.562258,-28.574109],[149.55768,-28.576673],[149.552909,-28.577613],[149.535802,-28.574501],[149.529446,-28.574401],[149.52514,-28.579551],[149.521947,-28.579243],[149.519534,-28.581348],[149.517626,-28.579005],[149.513758,-28.581936],[149.510146,-28.57757],[149.503651,-28.574286],[149.502852,-28.580725],[149.499169,-28.577737],[149.493236,-28.580226],[149.485971,-28.582255],[149.481209,-28.582722],[149.482573,-28.586592],[149.480888,-28.589871],[149.479448,-28.591402],[149.475353,-28.593775],[149.471512,-28.59236],[149.466846,-28.593984],[149.461821,-28.591436],[149.4588,-28.594257],[149.455797,-28.592705],[149.455552,-28.595991],[149.452485,-28.594856],[149.453998,-28.599057],[149.452215,-28.60021],[149.451813,-28.604213],[149.443994,-28.60625],[149.439033,-28.61166],[149.438715,-28.615506],[149.439999,-28.618735],[149.435034,-28.626429],[149.430148,-28.626187],[149.428503,-28.631735],[149.428238,-28.643509],[149.422844,-28.64956],[149.416816,-28.651332],[149.416011,-28.658265],[149.417529,-28.659846],[149.416147,-28.662882],[149.412971,-28.662271],[149.41019,-28.663928],[149.410709,-28.667537],[149.413565,-28.665015],[149.414264,-28.667085],[149.404307,-28.673428],[149.40538,-28.675405],[149.401874,-28.676202],[149.398962,-28.674705],[149.396417,-28.677693],[149.393821,-28.67749],[149.394339,-28.680296],[149.39281,-28.682265],[149.393951,-28.686572],[149.387492,-28.696172],[149.385337,-28.694909],[149.38543,-28.692707],[149.385178,-28.691387],[149.380923,-28.689793],[149.379464,-28.69062],[149.378748,-28.688476],[149.377121,-28.690096],[149.378384,-28.691471],[149.375879,-28.692791],[149.373294,-28.689077],[149.368946,-28.687418],[149.363324,-28.689239],[149.36162,-28.684442],[149.358576,-28.684066],[149.354766,-28.687947],[149.352122,-28.688473],[149.351271,-28.692667],[149.347687,-28.690926],[149.345572,-28.694212],[149.340124,-28.694955],[149.335358,-28.698367],[149.330621,-28.697347],[149.328944,-28.699206],[149.332021,-28.702398],[149.327785,-28.705146],[149.328648,-28.707379],[149.32284,-28.707807],[149.315492,-28.710209],[149.311285,-28.710537],[149.310139,-28.712231],[149.300751,-28.710096],[149.29675,-28.709748],[149.29368,-28.711283],[149.290603,-28.71704],[149.291402,-28.718819],[149.2866,-28.72174],[149.280448,-28.730658],[149.275552,-28.73345],[149.269319,-28.743262],[149.266331,-28.743257],[149.265348,-28.740135],[149.262936,-28.740187],[149.264586,-28.738911],[149.262088,-28.734125],[149.251905,-28.739649],[149.249665,-28.739906],[149.249399,-28.741596],[149.247271,-28.739796],[149.244645,-28.743247],[149.240749,-28.745643],[149.243188,-28.747131],[149.240561,-28.746318],[149.239413,-28.748793],[149.236604,-28.748554],[149.236356,-28.750759],[149.232797,-28.748946],[149.230422,-28.750691],[149.231786,-28.755627],[149.230606,-28.756469],[149.228569,-28.755074],[149.228668,-28.757575],[149.227702,-28.759039],[149.22861,-28.761886],[149.225481,-28.761007],[149.214203,-28.763417],[149.211885,-28.765024],[149.210203,-28.7684],[149.207484,-28.76942],[149.204939,-28.768584],[149.194536,-28.770931],[149.193588,-28.773917],[149.188619,-28.775114],[149.188412,-28.777057],[149.186095,-28.782011],[149.186962,-28.786312],[149.183988,-28.790512],[149.186842,-28.79405],[149.179582,-28.79867],[149.179194,-28.803031],[149.17564,-28.802486],[149.169399,-28.808044],[149.166578,-28.808759],[149.162454,-28.805865],[149.158525,-28.80909],[149.154712,-28.809498],[149.151076,-28.807402],[149.148142,-28.808508],[149.139568,-28.806734],[149.138205,-28.812512],[149.14215,-28.819075],[149.138547,-28.825612],[149.138949,-28.827954],[149.13105,-28.82941],[149.127799,-28.831619],[149.127874,-28.835535],[149.124346,-28.833041],[149.123034,-28.832932],[149.12142,-28.831567],[149.119252,-28.829472],[149.113179,-28.832026],[149.111933,-28.83426],[149.109049,-28.83316],[149.103224,-28.83859],[149.102694,-28.833399],[149.099154,-28.834158],[149.096781,-28.831563],[149.09626,-28.834329],[149.093379,-28.833639],[149.090224,-28.8372],[149.086855,-28.83838],[149.086113,-28.841992],[149.082328,-28.843134],[149.080529,-28.841999],[149.081171,-28.846955],[149.079115,-28.851735],[149.080039,-28.858173],[149.075324,-28.85925],[149.072317,-28.863821],[149.070576,-28.871627],[149.063535,-28.878467],[149.059173,-28.879373],[149.055021,-28.884385],[149.05487,-28.886445],[149.063383,-28.886992],[149.064032,-28.889114],[149.060819,-28.890085],[149.057663,-28.893636],[149.060615,-28.894384],[149.055697,-28.901436],[149.057825,-28.903988],[149.056882,-28.905724],[149.058683,-28.907826],[149.058426,-28.910973],[149.054976,-28.911932],[149.050778,-28.91771],[149.048533,-28.916188],[149.047516,-28.919861],[149.047264,-28.924545],[149.042621,-28.9269],[149.043459,-28.934563],[149.043016,-28.939452],[149.040124,-28.942368],[149.034631,-28.945538],[149.034355,-28.947594],[149.036164,-28.94866],[149.033176,-28.95165],[149.034535,-28.952817],[149.031879,-28.956599],[149.030042,-28.957176],[149.027802,-28.954488],[149.016853,-28.956513],[149.004707,-28.960608],[149.004036,-28.967285],[148.997125,-28.972752],[148.991226,-28.971384],[148.990723,-28.975903],[148.986356,-28.974135],[148.983865,-28.976567],[148.97797,-28.975475],[148.971717,-28.978291],[148.971112,-28.985329],[148.965996,-28.985851],[148.969027,-28.988032],[148.967365,-28.991214],[148.963411,-28.991686],[148.965577,-28.993643],[148.958089,-28.999064],[144.41535,-28.99909],[140.999265,-28.9991],[140.999596,-29.204811],[140.999883,-29.472053],[141.000084,-29.732442],[141.000216,-29.904013],[141.00033,-30.050624],[141.0004,-30.184098],[141.000444,-30.266084],[141.000568,-30.475266],[141.000634,-30.969827],[141.000624,-31.092715],[141.000594,-31.199968],[141.001129,-31.683869],[141.001316,-31.932267],[141.00142,-32.079475],[141.002405,-33.329023],[141.167885,-33.345854],[141.263992,-33.355755],[141.266626,-33.337241],[141.308721,-33.341403],[141.30584,-33.362454],[141.348003,-33.366658],[141.362415,-33.26469],[141.388322,-33.081312],[141.40258,-32.98766],[141.573204,-33.005572],[141.560773,-33.096293],[141.755369,-33.115945],[141.884476,-33.128715],[142.038355,-33.143941],[142.022933,-33.0848],[142.107802,-33.090131],[142.105679,-33.11242],[142.168599,-33.116529],[142.178229,-33.115346],[142.224487,-33.120035],[142.226627,-33.126217],[142.242827,-33.130873],[142.244604,-33.119457],[142.27428,-33.123423],[142.279734,-33.120261],[142.273788,-33.115048],[142.29338,-33.116597],[142.294958,-33.109389],[142.287566,-33.108652],[142.296702,-33.101595],[142.29491,-33.095964],[142.300501,-33.093801],[142.288328,-33.087881],[142.28965,-33.081676],[142.302121,-33.074312],[142.311348,-33.067128],[142.314277,-33.057633],[142.314154,-33.049337],[142.323993,-33.050171],[142.334034,-33.046291],[142.343633,-33.037787],[142.351729,-33.033155],[142.357629,-33.033758],[142.357481,-33.02736],[142.362969,-33.025362],[142.366126,-33.017522],[142.373471,-33.016021],[142.382492,-33.005539],[142.379777,-32.997171],[142.372555,-32.996433],[142.374359,-32.989311],[142.371464,-32.975807],[142.376475,-32.973676],[142.428011,-32.979027],[142.424469,-33.005226],[142.547987,-33.01714],[142.551917,-32.991617],[142.549908,-32.991416],[142.515536,-32.847454],[142.705129,-32.866688],[142.79212,-32.875413],[142.94435,-32.890533],[142.964638,-32.748537],[143.071628,-32.759322],[143.271212,-32.780229],[143.269614,-32.791387],[143.432435,-32.808446],[143.416969,-32.907493],[143.438317,-32.9112],[143.499566,-32.918349],[143.505852,-32.876004],[143.550719,-32.881162],[143.591987,-32.885141],[143.585153,-32.93103],[143.671807,-32.940764],[143.670598,-32.94527],[143.661538,-32.955298],[143.653413,-33.012413],[143.602799,-33.007104],[143.57281,-33.012429],[143.55246,-33.140481],[143.637288,-33.149916],[143.636107,-33.157788],[143.648475,-33.15901],[143.66485,-33.178855],[143.674028,-33.170711],[143.690486,-33.163458],[143.714801,-33.154611],[143.719453,-33.149103],[143.720951,-33.140453],[143.789876,-33.148866],[143.816663,-33.137446],[143.839023,-33.15459],[143.898192,-33.161392],[143.905907,-33.115708],[144.07974,-33.135369],[144.140087,-33.142435],[144.251426,-33.15507],[144.236255,-33.249829],[144.277778,-33.254216],[144.264268,-33.263015],[144.262641,-33.272906],[144.359521,-33.281918],[144.414163,-33.286491],[144.416202,-33.279072],[144.433489,-33.280482],[144.433578,-33.287676],[144.471702,-33.291203],[144.471793,-33.29897],[144.488676,-33.300463],[144.491092,-33.292975],[144.530284,-33.296625],[144.530799,-33.298321],[144.546947,-33.300011],[144.549233,-33.28552],[144.577529,-33.288666],[144.58018,-33.268377],[144.595668,-33.270038],[144.598011,-33.255087],[144.609422,-33.256341],[144.61222,-33.237804],[144.642648,-33.241122],[144.645681,-33.222352],[144.733424,-33.231398],[144.741889,-33.173591],[144.748739,-33.171396],[144.747612,-33.161452],[144.760138,-33.156815],[144.76036,-33.160688],[144.768233,-33.161598],[144.775774,-33.157994],[144.777974,-33.163461],[144.798235,-33.036219],[144.913078,-33.049131],[144.908865,-33.074448],[144.942311,-33.078304],[144.941139,-33.084777],[144.96278,-33.087289],[144.9635,-33.081991],[144.979402,-33.083791],[144.980927,-33.07304],[144.985912,-33.070528],[144.982305,-33.06332],[144.987542,-33.026363],[144.991731,-33.033662],[145.007975,-33.035543],[145.010266,-33.024449],[145.026982,-33.026341],[145.027698,-33.021923],[145.107556,-33.033712],[145.118833,-32.953708],[145.127254,-32.954686],[145.14842,-32.818818],[145.15955,-32.747169],[145.164993,-32.71483],[145.249374,-32.724393],[145.257279,-32.671254],[145.344278,-32.682486],[145.330563,-32.766674],[145.412631,-32.775949],[145.414944,-32.761412],[145.467462,-32.722507],[145.510436,-32.727862],[145.506254,-32.752996],[145.504348,-32.770092],[145.544859,-32.775372],[145.537932,-32.783255],[145.550822,-32.791615],[145.560599,-32.781409],[145.569099,-32.757875],[145.561076,-32.756899],[145.557476,-32.766127],[145.54889,-32.765196],[145.552592,-32.755852],[145.554424,-32.73598],[145.556637,-32.733284],[145.595723,-32.737769],[145.586515,-32.796236],[145.671923,-32.805722],[145.651787,-32.935351],[145.668529,-32.935871],[145.645258,-33.080312],[145.686333,-33.082059],[145.754709,-33.082677],[145.87087,-33.086311],[145.872639,-33.0748],[145.906825,-33.078623],[145.905331,-33.087748],[146.03166,-33.093579],[146.093631,-33.189083],[146.068914,-33.204006],[146.058892,-33.211808],[146.076584,-33.24436],[146.095088,-33.276178],[146.094338,-33.284152],[146.087068,-33.289565],[146.084524,-33.299924],[146.089188,-33.303343],[146.081561,-33.309145],[146.087751,-33.320942],[146.083297,-33.334511],[146.076061,-33.338914],[146.070979,-33.350078],[146.072643,-33.35554],[146.066897,-33.359114],[146.07093,-33.368768],[146.0671,-33.370964],[146.053962,-33.475767],[146.066884,-33.516494],[146.095141,-33.603131],[146.074577,-33.731759],[146.0703,-33.753534],[146.09783,-33.756752],[146.317227,-33.780549],[146.353269,-33.78524],[146.437185,-33.794499],[146.425307,-33.865684],[146.417433,-33.910635],[146.492809,-33.919657],[146.4868,-33.955644],[146.471543,-34.056649],[146.458206,-34.13293],[146.570387,-34.144385],[146.586487,-34.146321],[146.591522,-34.14012],[146.598472,-34.140859],[146.597436,-34.147188],[146.635404,-34.151187],[146.623872,-34.224735],[146.626411,-34.225474],[146.729043,-34.236768],[146.718745,-34.298111],[146.823028,-34.310851],[146.825092,-34.299016],[146.911402,-34.309658],[146.913279,-34.299189],[146.923762,-34.30051],[146.924887,-34.294356],[146.934456,-34.293468],[146.979546,-34.299124],[146.979639,-34.310275],[146.991779,-34.304418],[147.018169,-34.299334],[147.041592,-34.296352],[147.047915,-34.296523],[147.07388,-34.301875],[147.107655,-34.317224],[147.108408,-34.308509],[147.119997,-34.311751],[147.124782,-34.284239],[147.129354,-34.276486],[147.254958,-34.291339],[147.264839,-34.23541],[147.271315,-34.244892],[147.283147,-34.244935],[147.285711,-34.25055],[147.297026,-34.254427],[147.30159,-34.228701],[147.284595,-34.220643],[147.30619,-34.204259],[147.296181,-34.202656],[147.300877,-34.176171],[147.336677,-34.180326],[147.358412,-34.183547],[147.390771,-34.187321],[147.388807,-34.197788],[147.397996,-34.201203],[147.416021,-34.203606],[147.421769,-34.202403],[147.47044,-34.20871],[147.476312,-34.176372],[147.46725,-34.175193],[147.472346,-34.15305],[147.480742,-34.154036],[147.488402,-34.116467],[147.490419,-34.111145],[147.495931,-34.107059],[147.517799,-34.110884],[147.554652,-34.115845],[147.554989,-34.114167],[147.584001,-34.117906],[147.580391,-34.137989],[147.630027,-34.144183],[147.63288,-34.129587],[147.650423,-34.131834],[147.665632,-34.130172],[147.668797,-34.132304],[147.67617,-34.145302],[147.690667,-34.146122],[147.697202,-34.150395],[147.70093,-34.159032],[147.710068,-34.158826],[147.715572,-34.163269],[147.718921,-34.158491],[147.730164,-34.149425],[147.744054,-34.140905],[147.759162,-34.142334],[147.760662,-34.132424],[147.766896,-34.131704],[147.770975,-34.113338],[147.7658,-34.112597],[147.771827,-34.083863],[147.780873,-34.085079],[147.784044,-34.069741],[147.767689,-34.067202],[147.769165,-34.06091],[147.757152,-34.05897],[147.736702,-33.998472],[147.730212,-33.995627],[147.732432,-33.983499],[147.722092,-33.982149],[147.727229,-33.954542],[147.7098,-33.952352],[147.712793,-33.936519],[147.69915,-33.934766],[147.696658,-33.926578],[147.558599,-33.908883],[147.553882,-33.905998],[147.540937,-33.910467],[147.540159,-33.905203],[147.546491,-33.894249],[147.543687,-33.890506],[147.547551,-33.878327],[147.553631,-33.871839],[147.546039,-33.869136],[147.540976,-33.857332],[147.543923,-33.840133],[147.554304,-33.832184],[147.545332,-33.825776],[147.549996,-33.820821],[147.542575,-33.810814],[147.543285,-33.806627],[147.533747,-33.802358],[147.525515,-33.80418],[147.525826,-33.794557],[147.52891,-33.788449],[147.518335,-33.758688],[147.51458,-33.742823],[147.514998,-33.732979],[147.512304,-33.724343],[147.507467,-33.722281],[147.508482,-33.712764],[147.514252,-33.710723],[147.514726,-33.701707],[147.519991,-33.698167],[147.523058,-33.682512],[147.533035,-33.676616],[147.554997,-33.669536],[147.57999,-33.629947],[147.598814,-33.620561],[147.60177,-33.613927],[147.682629,-33.623918],[147.68034,-33.629386],[147.671846,-33.640805],[147.671037,-33.645327],[147.664208,-33.656671],[147.67728,-33.658314],[147.670084,-33.695592],[147.675918,-33.696275],[147.696789,-33.703896],[147.712052,-33.703397],[147.739053,-33.704106],[147.764118,-33.707129],[147.774516,-33.694655],[147.778395,-33.686972],[147.792371,-33.686574],[147.802751,-33.693765],[147.827917,-33.69437],[147.867607,-33.700032],[147.870755,-33.697081],[147.879125,-33.700481],[147.894356,-33.700281],[147.918787,-33.703515],[147.934228,-33.70753],[147.943804,-33.708745],[147.947962,-33.700864],[148.018167,-33.710169],[148.051922,-33.716264],[148.079989,-33.719824],[148.082062,-33.71331],[148.078318,-33.707527],[148.080611,-33.698351],[148.08988,-33.684606],[148.089645,-33.675649],[148.094899,-33.664145],[148.093335,-33.657707],[148.100875,-33.648375],[148.151775,-33.654747],[148.152699,-33.649558],[148.169172,-33.651684],[148.172498,-33.632455],[148.177249,-33.633896],[148.186776,-33.641205],[148.237355,-33.636004],[148.249678,-33.638491],[148.256136,-33.643711],[148.258873,-33.639829],[148.271566,-33.641537],[148.270255,-33.648958],[148.324099,-33.655588],[148.328046,-33.648977],[148.33905,-33.640876],[148.341778,-33.632054],[148.341668,-33.624694],[148.345418,-33.613523],[148.350201,-33.60888],[148.359402,-33.609532],[148.371812,-33.607345],[148.372722,-33.604038],[148.389584,-33.606299],[148.386809,-33.600716],[148.413815,-33.604347],[148.414106,-33.596161],[148.402002,-33.586093],[148.388833,-33.57999],[148.387872,-33.573132],[148.390459,-33.567654],[148.401363,-33.567563],[148.409817,-33.570222],[148.415161,-33.567108],[148.422681,-33.568616],[148.421274,-33.55957],[148.41558,-33.556066],[148.410564,-33.558502],[148.396593,-33.55387],[148.39125,-33.546972],[148.390233,-33.540161],[148.400175,-33.535056],[148.392772,-33.518727],[148.384773,-33.518738],[148.37723,-33.51334],[148.367207,-33.513853],[148.357113,-33.510524],[148.356411,-33.502323],[148.351789,-33.49463],[148.342868,-33.497074],[148.34086,-33.492502],[148.328952,-33.490636],[148.32511,-33.497162],[148.314945,-33.499899],[148.30838,-33.49914],[148.308506,-33.494466],[148.297935,-33.494271],[148.290651,-33.491909],[148.29026,-33.485888],[148.293234,-33.478291],[148.300064,-33.473681],[148.307341,-33.465745],[148.316138,-33.46612],[148.313524,-33.453189],[148.319063,-33.452723],[148.329322,-33.455928],[148.33306,-33.444235],[148.346915,-33.450031],[148.352123,-33.443805],[148.359315,-33.449418],[148.365145,-33.435299],[148.355366,-33.430941],[148.344338,-33.429496],[148.345935,-33.420913],[148.360801,-33.422226],[148.367724,-33.420889],[148.367931,-33.410824],[148.388437,-33.412704],[148.390759,-33.405906],[148.396207,-33.401777],[148.404482,-33.405398],[148.408395,-33.401768],[148.403638,-33.392221],[148.410606,-33.390246],[148.418223,-33.385],[148.413,-33.37989],[148.41474,-33.370297],[148.40316,-33.368909],[148.393629,-33.358266],[148.386193,-33.356489],[148.385485,-33.351008],[148.39194,-33.347301],[148.392928,-33.343237],[148.403079,-33.328935],[148.415671,-33.32703],[148.412717,-33.313462],[148.405274,-33.305801],[148.402028,-33.2997],[148.400981,-33.28751],[148.399063,-33.284574],[148.397185,-33.269909],[148.401671,-33.266776],[148.401701,-33.259592],[148.414688,-33.250728],[148.428194,-33.239169],[148.432654,-33.225572],[148.429009,-33.220244],[148.431691,-33.212422],[148.42834,-33.202387],[148.431934,-33.200082],[148.442501,-33.204476],[148.44755,-33.202623],[148.458002,-33.204896],[148.46668,-33.208771],[148.475002,-33.198769],[148.489988,-33.194898],[148.495895,-33.190869],[148.4927,-33.185358],[148.493043,-33.179705],[148.505521,-33.165857],[148.502941,-33.157372],[148.505823,-33.150971],[148.502386,-33.140386],[148.504332,-33.134199],[148.497977,-33.134124],[148.486567,-33.123236],[148.490432,-33.107743],[148.499758,-33.097941],[148.497275,-33.096367],[148.499598,-33.082631],[148.502703,-33.079039],[148.505455,-33.062037],[148.503823,-33.060008],[148.503737,-33.046861],[148.495488,-33.039428],[148.493038,-33.03024],[148.487583,-33.025463],[148.486498,-33.02081],[148.481055,-33.016377],[148.472815,-33.01718],[148.464864,-33.014495],[148.454646,-33.000726],[148.455275,-32.993992],[148.44635,-32.992575],[148.439192,-32.983498],[148.437365,-32.976252],[148.430165,-32.969942],[148.418644,-32.973569],[148.41419,-32.968974],[148.406958,-32.966374],[148.399352,-32.959165],[148.394266,-32.96881],[148.389388,-32.974236],[148.384234,-32.972157],[148.372179,-32.971583],[148.376304,-32.961737],[148.378368,-32.942259],[148.381831,-32.93455],[148.372514,-32.929172],[148.378697,-32.921153],[148.381257,-32.914022],[148.382125,-32.889427],[148.380598,-32.878381],[148.384572,-32.874917],[148.385126,-32.862382],[148.383295,-32.851975],[148.378012,-32.850019],[148.378164,-32.833103],[148.367947,-32.825013],[148.359092,-32.823698],[148.347443,-32.81636],[148.34251,-32.81081],[148.329377,-32.810831],[148.328315,-32.798687],[148.331807,-32.795715],[148.331597,-32.784338],[148.33533,-32.781608],[148.334944,-32.768913],[148.332528,-32.758459],[148.331923,-32.746568],[148.335609,-32.73187],[148.33182,-32.728392],[148.32974,-32.715975],[148.331908,-32.709749],[148.329513,-32.701025],[148.33496,-32.679034],[148.34687,-32.676862],[148.347663,-32.672819],[148.342801,-32.664758],[148.346763,-32.660719],[148.344554,-32.653727],[148.348767,-32.645278],[148.349499,-32.636824],[148.355706,-32.633293],[148.361775,-32.621947],[148.369629,-32.628854],[148.391421,-32.621925],[148.401477,-32.62371],[148.435418,-32.620599],[148.459516,-32.60721],[148.467384,-32.621001],[148.475148,-32.627842],[148.501184,-32.614117],[148.605154,-32.652179],[148.614429,-32.653617],[148.623194,-32.647936],[148.628655,-32.652987],[148.632003,-32.649707],[148.629583,-32.644743],[148.635718,-32.64026],[148.637411,-32.633346],[148.646324,-32.639147],[148.66492,-32.639621],[148.664868,-32.633715],[148.669562,-32.624041],[148.678041,-32.619574],[148.686155,-32.612737],[148.697775,-32.615316],[148.7026,-32.612075],[148.699774,-32.607024],[148.693894,-32.604953],[148.692833,-32.597355],[148.708254,-32.58926],[148.709107,-32.583894],[148.700969,-32.582471],[148.700857,-32.576506],[148.70925,-32.574637],[148.719957,-32.575391],[148.723659,-32.568773],[148.714541,-32.561977],[148.714699,-32.552531],[148.701208,-32.554063],[148.712669,-32.531306],[148.708746,-32.523119],[148.699642,-32.523412],[148.699205,-32.516992],[148.702499,-32.509846],[148.700407,-32.496936],[148.714604,-32.491885],[148.719586,-32.495371],[148.724458,-32.493788],[148.7226,-32.483155],[148.72766,-32.472939],[148.73372,-32.469475],[148.731995,-32.465031],[148.725946,-32.462179],[148.72171,-32.451291],[148.716681,-32.446327],[148.717157,-32.436744],[148.711782,-32.434273],[148.703837,-32.434946],[148.704409,-32.420476],[148.698419,-32.408755],[148.700428,-32.405867],[148.710111,-32.407473],[148.716606,-32.415897],[148.72466,-32.416117],[148.724161,-32.421029],[148.734998,-32.423472],[148.740778,-32.418047],[148.754109,-32.419051],[148.757358,-32.395653],[148.764591,-32.39658],[148.765665,-32.390262],[148.760477,-32.386089],[148.768123,-32.343124],[148.770239,-32.343616],[148.790523,-32.359617],[148.805097,-32.367108],[148.841028,-32.331261],[148.850666,-32.332466],[148.852684,-32.319664],[148.851192,-32.31338],[148.883545,-32.312008],[148.8873,-32.290286],[148.89617,-32.291159],[148.927247,-32.271664],[148.939146,-32.210435],[148.935174,-32.209943],[148.938574,-32.189759],[148.944185,-32.174016],[148.950374,-32.165805],[148.959971,-32.161548],[148.968396,-32.167622],[148.981011,-32.157329],[148.98716,-32.15001],[148.990911,-32.138475],[148.996868,-32.142113],[149.00078,-32.139631],[149.004028,-32.122088],[149.008823,-32.118587],[149.012024,-32.106866],[149.025633,-32.10885],[149.032917,-32.099845],[149.045465,-32.103574],[149.055692,-32.099913],[149.059265,-32.096665],[149.056325,-32.088802],[149.059991,-32.087396],[149.071722,-32.096331],[149.070597,-32.101239],[149.078536,-32.102173],[149.081758,-32.105748],[149.093141,-32.108653],[149.095629,-32.114747],[149.100358,-32.115175],[149.115181,-32.107189],[149.121258,-32.106614],[149.123723,-32.101561],[149.1308,-32.112209],[149.138685,-32.117212],[149.153361,-32.118193],[149.154648,-32.121757],[149.171136,-32.124813],[149.173073,-32.120563],[149.166358,-32.11601],[149.166007,-32.108991],[149.177293,-32.105245],[149.193756,-32.104421],[149.197988,-32.1104],[149.195177,-32.114163],[149.20151,-32.11977],[149.196341,-32.125327],[149.201199,-32.132956],[149.198393,-32.142506],[149.204954,-32.148549],[149.211095,-32.149912],[149.212452,-32.154789],[149.209829,-32.161974],[149.215134,-32.173749],[149.220152,-32.180984],[149.218634,-32.184757],[149.205981,-32.1831],[149.198763,-32.186752],[149.199006,-32.194443],[149.196513,-32.202271],[149.192528,-32.201953],[149.190704,-32.212045],[149.203018,-32.213612],[149.198331,-32.236432],[149.196199,-32.236153],[149.192127,-32.258286],[149.194979,-32.258674],[149.189159,-32.290575],[149.227829,-32.295411],[149.238575,-32.299269],[149.253305,-32.295055],[149.264557,-32.293979],[149.273224,-32.294852],[149.280004,-32.288237],[149.284998,-32.288772],[149.29333,-32.302698],[149.305892,-32.304507],[149.312734,-32.299326],[149.315209,-32.292634],[149.321015,-32.286807],[149.329354,-32.289245],[149.335167,-32.284461],[149.327897,-32.274684],[149.325404,-32.266076],[149.326494,-32.260376],[149.339784,-32.256435],[149.345953,-32.24606],[149.346378,-32.238059],[149.356421,-32.234832],[149.361011,-32.220394],[149.366813,-32.216562],[149.373717,-32.215765],[149.375344,-32.20492],[149.373174,-32.203613],[149.373105,-32.189919],[149.384681,-32.193166],[149.388541,-32.191351],[149.38858,-32.183529],[149.39626,-32.18036],[149.396757,-32.176834],[149.407363,-32.178088],[149.413277,-32.175537],[149.417288,-32.153064],[149.411783,-32.138195],[149.412891,-32.135524],[149.427939,-32.137201],[149.428251,-32.124041],[149.412256,-32.10611],[149.415023,-32.095554],[149.427052,-32.097023],[149.432506,-32.095033],[149.447643,-32.096816],[149.446976,-32.100632],[149.470718,-32.103526],[149.472505,-32.093272],[149.480145,-32.094151],[149.479716,-32.108794],[149.494803,-32.102092],[149.500301,-32.073225],[149.510176,-32.07462],[149.520216,-32.085583],[149.532813,-32.089463],[149.552231,-32.088937],[149.561371,-32.084299],[149.573847,-32.086985],[149.574652,-32.095137],[149.577988,-32.099314],[149.577915,-32.106025],[149.581513,-32.110948],[149.592025,-32.116562],[149.593614,-32.121401],[149.602701,-32.126936],[149.609034,-32.122976],[149.616178,-32.122995],[149.618603,-32.117761],[149.627585,-32.115433],[149.636793,-32.115902],[149.638067,-32.112778],[149.654302,-32.115276],[149.659142,-32.119593],[149.665027,-32.118609],[149.671618,-32.121922],[149.679061,-32.114819],[149.692248,-32.116396],[149.692944,-32.112395],[149.750811,-32.119822],[149.753312,-32.106283],[149.751833,-32.099561],[149.762869,-32.089301],[149.777619,-32.091553],[149.778478,-32.07755],[149.782548,-32.07108],[149.792019,-32.066365],[149.795665,-32.05809]]]},"bbox":[140.999265,-34.317224,150.599399,-28.537299]}]}