{"type":"FeatureCollection","features":[
{"properties":{"electorateShortName":"parkes","electorateName":"Parkes","area":406754.54,"state":"NSW"},"type":"Feature","geometry":{"type":"MultiPolygon","coordinates":[[[[149.795665,-32.05809],[149.869721,-32.023779],[149.873155,-31.943996],[149.919454,-31.893978],[150.023983,-31.828752],[150.075072,-31.739869],[150.030212,-31.69088],[149.904783,-31.706764],[149.863574,-31.669611],[149.911314,-31.572789],[149.866949,-31.537269],[149.882911,-31.451994],[149.968049,-31.45813],[150.006557,-31.320806],[150.078838,-31.338094],[150.103379,-31.240018],[150.158496,-31.237667],[150.160961,-31.354959],[150.417667,-31.397631],[150.433278,-31.36388],[150.543292,-31.36287],[150.599399,-31.046846],[150.527741,-30.968574],[150.530401,-30.875117],[150.559266,-30.810814],[150.487268,-30.798984],[150.457961,-30.690158],[150.509647,-30.660088],[150.454351,-30.607517],[150.36502,-30.583433],[150.351488,-30.418184],[150.283241,-30.430848],[150.188295,-30.359725],[150.194998,-30.321087],[150.167062,-30.228544],[150.102263,-30.191946],[150.07566,-30.107363],[150.124153,-30.070046],[150.197512,-30.062574],[150.248852,-29.99348],[150.292859,-29.990531],[150.312409,-29.892556],[150.293831,-29.870525],[150.287829,-29.721939],[150.194619,-29.620235],[150.219462,-29.497948],[150.169228,-29.495984],[150.24578,-29.116176],[150.259498,-29.013903],[150.148546,-28.889263],[150.343964,-28.827542],[150.420939,-28.751976],[150.483832,-28.662259],[150.48508687475586,-28.659790559091245],[150.48251712022184,-28.662839534229978],[150.48103489419685,-28.663493953712557],[150.47278,-28.660118],[150.47132023479978,-28.66215960383339],[150.46891446678572,-28.663945321958277],[150.46244757826778,-28.667583022170508],[150.45986894674493,-28.668591296917622],[150.45701900558635,-28.6643609282807],[150.45300126392024,-28.66560958189344],[150.4492010263617,-28.665370567204864],[150.44363270943316,-28.66427677392838],[150.43908426950583,-28.662227615975805],[150.43348570977017,-28.656379870937183],[150.429277,-28.651122],[150.42529637529086,-28.65104043330372],[150.42203140870794,-28.650973531106928],[150.415222,-28.650834],[150.416337,-28.635887],[150.41533040093995,-28.63503752236684],[150.41477842797622,-28.63457170761953],[150.413973,-28.633892],[150.401823,-28.627281],[150.40174292203437,-28.6273063992611],[150.39886678182208,-28.628218658153344],[150.397551,-28.628636],[150.385375,-28.631512],[150.37595,-28.622436],[150.368789,-28.614149],[150.36978,-28.611735],[150.363767,-28.60751],[150.363344,-28.589484],[150.3513,-28.575348],[150.320591,-28.557182],[150.309109,-28.550592],[150.295979,-28.53967],[150.289648,-28.537157],[150.272201,-28.539275],[150.269541,-28.539786],[150.253124,-28.547008],[150.243227,-28.552357],[150.236053,-28.55381],[150.23525,-28.556234],[150.238197,-28.557261],[150.230399,-28.555713],[150.228929,-28.558576],[150.233491,-28.561074],[150.219983,-28.566728],[150.213149,-28.567549],[150.212298,-28.569405],[150.212287,-28.574181],[150.207564,-28.572675],[150.20116,-28.568803],[150.189802,-28.567468],[150.181958,-28.569393],[150.17789,-28.563474],[150.184067,-28.558642],[150.17693,-28.558982],[150.169758,-28.557208],[150.167777,-28.555527],[150.169233,-28.550587],[150.166572,-28.551051],[150.155057,-28.554804],[150.15409,-28.557155],[150.154104,-28.551015],[150.15228,-28.55021],[150.147836,-28.552713],[150.143682,-28.557528],[150.141293,-28.559879],[150.136876,-28.564214],[150.136794,-28.560141],[150.131617,-28.563496],[150.13142,-28.565256],[150.130734,-28.562688],[150.128017,-28.562401],[150.124418,-28.56116],[150.121475,-28.559734],[150.116974,-28.561657],[150.112885,-28.563041],[150.111804,-28.568144],[150.105653,-28.567746],[150.105191,-28.56535],[150.091932,-28.564239],[150.093634,-28.574009],[150.090443,-28.575497],[150.085176,-28.575843],[150.081605,-28.577473],[150.075092,-28.58023],[150.073281,-28.576562],[150.070506,-28.57715],[150.067904,-28.577774],[150.059394,-28.578451],[150.057296,-28.579955],[150.04874,-28.589196],[150.045836,-28.582399],[150.043652,-28.582032],[150.04051,-28.586101],[150.040147,-28.583074],[150.03628,-28.585802],[150.034356,-28.583532],[150.031022,-28.5837],[150.0313,-28.580975],[150.013196,-28.583245],[150.014944,-28.585641],[150.005732,-28.586995],[149.998877,-28.591224],[149.994482,-28.59392],[149.984973,-28.602472],[149.987038,-28.604601],[149.982085,-28.605201],[149.977001,-28.610814],[149.97158,-28.607665],[149.964376,-28.608113],[149.925285,-28.608948],[149.921042,-28.610298],[149.90907,-28.612367],[149.905541,-28.61331],[149.902947,-28.615503],[149.899112,-28.619651],[149.899141,-28.621909],[149.893975,-28.615919],[149.887122,-28.615574],[149.878212,-28.609409],[149.875866,-28.607824],[149.867097,-28.604141],[149.8623,-28.602199],[149.854586,-28.604269],[149.850807,-28.60556],[149.82942,-28.606234],[149.826584,-28.606895],[149.814927,-28.608284],[149.811439,-28.605773],[149.800623,-28.60791],[149.786738,-28.61125],[149.78613,-28.613557],[149.771108,-28.610386],[149.772386,-28.614164],[149.767492,-28.611029],[149.764905,-28.612704],[149.760026,-28.615048],[149.754943,-28.609441],[149.753291,-28.61067],[149.751087,-28.610788],[149.750307,-28.612112],[149.746135,-28.611953],[149.741846,-28.615396],[149.741585,-28.613086],[149.738771,-28.61457],[149.736923,-28.61578],[149.727256,-28.61189],[149.729563,-28.610853],[149.708538,-28.613359],[149.705886,-28.617819],[149.705552,-28.622034],[149.705352,-28.622772],[149.703544,-28.625403],[149.704575,-28.627868],[149.704946,-28.629499],[149.703104,-28.633712],[149.69126,-28.633651],[149.689807,-28.628191],[149.687835,-28.629185],[149.680878,-28.633888],[149.678571,-28.632655],[149.676387,-28.6312],[149.672426,-28.633442],[149.6724,-28.630267],[149.666654,-28.631859],[149.671799,-28.629213],[149.674008,-28.624156],[149.670612,-28.623461],[149.668235,-28.619248],[149.664264,-28.612387],[149.660712,-28.609311],[149.657292,-28.611391],[149.648339,-28.610667],[149.645013,-28.607322],[149.642282,-28.599207],[149.639043,-28.598016],[149.634597,-28.59544],[149.630956,-28.595231],[149.627408,-28.596006],[149.618393,-28.598606],[149.610493,-28.597399],[149.606681,-28.593788],[149.603449,-28.589065],[149.605955,-28.587647],[149.598314,-28.57928],[149.587938,-28.572815],[149.580467,-28.572525],[149.577481,-28.573425],[149.576706,-28.572146],[149.572477,-28.571742],[149.567052,-28.573655],[149.565088,-28.572527],[149.561804,-28.573937],[149.553629,-28.577364],[149.552587,-28.580137],[149.543553,-28.576703],[149.542158,-28.575023],[149.538465,-28.574767],[149.535797,-28.574444],[149.528925,-28.57422],[149.526179,-28.575365],[149.527039,-28.577434],[149.518255,-28.579025],[149.51545,-28.579331],[149.513949,-28.581674],[149.512177,-28.576094],[149.509787,-28.577127],[149.502977,-28.574351],[149.502704,-28.580399],[149.49629,-28.578458],[149.492418,-28.580934],[149.490205,-28.584502],[149.480842,-28.589813],[149.469835,-28.594279],[149.461616,-28.591554],[149.458763,-28.594066],[149.455768,-28.592989],[149.452554,-28.594867],[149.453705,-28.599216],[149.451812,-28.604093],[149.444329,-28.608957],[149.439051,-28.615778],[149.44033,-28.618923],[149.430292,-28.626226],[149.428298,-28.629225],[149.429017,-28.632224],[149.430569,-28.642874],[149.428059,-28.644319],[149.418298,-28.653653],[149.422895,-28.653758],[149.423022,-28.655209],[149.41568,-28.662762],[149.40203,-28.6761],[149.393867,-28.677292],[149.387389,-28.695803],[149.385521,-28.694777],[149.375848,-28.692621],[149.366881,-28.692283],[149.361973,-28.685113],[149.345837,-28.694456],[149.346685,-28.696672],[149.328585,-28.704504],[149.322967,-28.707777],[149.315941,-28.710296],[149.290852,-28.718805],[149.285317,-28.731863],[149.282999,-28.733084],[149.271335,-28.733949],[149.271506,-28.736729],[149.266365,-28.742825],[149.263561,-28.73975],[149.2654,-28.735795],[149.262342,-28.734297],[149.240167,-28.746722],[149.230523,-28.751208],[149.22631,-28.761075],[149.222678,-28.764188],[149.219257,-28.763117],[149.214126,-28.763662],[149.186766,-28.786496],[149.184118,-28.790145],[149.179183,-28.802996],[149.143915,-28.806094],[149.136601,-28.812462],[149.139782,-28.81588],[149.138908,-28.827812],[149.131061,-28.829568],[149.128043,-28.831633],[149.122057,-28.831754],[149.11929,-28.829415],[149.112444,-28.829575],[149.111044,-28.830785],[149.103225,-28.838124],[149.102764,-28.833372],[149.097078,-28.83168],[149.093157,-28.8338],[149.087224,-28.838087],[149.080762,-28.841801],[149.063634,-28.878167],[149.055347,-28.886921],[149.059047,-28.891861],[149.060261,-28.894842],[149.055979,-28.900787],[149.05486,-28.912071],[149.045294,-28.934515],[149.04293,-28.939231],[149.038946,-28.939036],[149.03988,-28.942418],[149.027847,-28.954529],[149.017476,-28.956769],[149.012349,-28.955576],[149.009223,-28.956919],[149.008501,-28.958294],[149.011386,-28.958464],[149.00021,-28.969508],[148.986892,-28.974319],[148.981264,-28.975594],[148.976321,-28.976413],[148.971078,-28.985324],[148.967276,-28.991009],[148.964244,-28.991446],[148.958089,-28.999064],[144.41535,-28.99909],[142.602575,-28.999048],[142.200593,-28.998988],[140.999475,-28.999095],[140.99947500294059,-28.99909999938525],[140.999596,-29.204811],[141.000084,-29.732442],[141.000568,-30.475266],[141.000634,-30.969827],[141.001129,-31.683869],[141.00142,-32.079475],[141.002405,-33.329023],[141.167885,-33.345854],[141.263992,-33.355755],[141.348003,-33.366658],[141.40258,-32.98766],[141.573204,-33.005572],[141.560773,-33.096293],[142.038355,-33.143941],[142.105679,-33.11242],[142.27428,-33.123423],[142.28965,-33.081676],[142.382492,-33.005539],[142.547987,-33.01714],[142.515536,-32.847454],[142.94435,-32.890533],[142.964638,-32.748537],[143.271212,-32.780229],[143.432435,-32.808446],[143.416969,-32.907493],[143.499566,-32.918349],[143.505852,-32.876004],[143.591987,-32.885141],[143.585153,-32.93103],[143.671807,-32.940764],[143.653413,-33.012413],[143.57281,-33.012429],[143.55246,-33.140481],[143.720951,-33.140453],[143.898192,-33.161392],[143.905907,-33.115708],[144.251426,-33.15507],[144.236255,-33.249829],[144.262641,-33.272906],[144.546947,-33.300011],[144.645681,-33.222352],[144.733424,-33.231398],[144.777974,-33.163461],[144.798235,-33.036219],[144.913078,-33.049131],[144.979402,-33.083791],[144.991731,-33.033662],[145.107556,-33.033712],[145.127254,-32.954686],[145.164993,-32.71483],[145.249374,-32.724393],[145.257279,-32.671254],[145.344278,-32.682486],[145.330563,-32.766674],[145.412631,-32.775949],[145.467462,-32.722507],[145.504348,-32.770092],[145.671923,-32.805722],[145.668529,-32.935871],[145.645258,-33.080312],[146.03166,-33.093579],[146.093631,-33.189083],[146.058892,-33.211808],[146.095088,-33.276178],[146.066897,-33.359114],[146.053962,-33.475767],[146.095141,-33.603131],[146.0703,-33.753534],[146.437185,-33.794499],[146.417433,-33.910635],[146.492809,-33.919657],[146.458206,-34.13293],[146.635404,-34.151187],[146.623872,-34.224735],[146.729043,-34.236768],[146.718745,-34.298111],[146.823028,-34.310851],[147.047915,-34.296523],[147.107655,-34.317224],[147.129354,-34.276486],[147.254958,-34.291339],[147.300877,-34.176171],[147.47044,-34.20871],[147.495931,-34.107059],[147.584001,-34.117906],[147.70093,-34.159032],[147.766896,-34.131704],[147.727229,-33.954542],[147.696658,-33.926578],[147.540159,-33.905203],[147.554304,-33.832184],[147.508482,-33.712764],[147.60177,-33.613927],[147.682629,-33.623918],[147.670084,-33.695592],[147.947962,-33.700864],[148.079989,-33.719824],[148.100875,-33.648375],[148.237355,-33.636004],[148.324099,-33.655588],[148.345418,-33.613523],[148.413815,-33.604347],[148.392772,-33.518727],[148.290651,-33.491909],[148.418223,-33.385],[148.397185,-33.269909],[148.495895,-33.190869],[148.486567,-33.123236],[148.505455,-33.062037],[148.430165,-32.969942],[148.381831,-32.93455],[148.378164,-32.833103],[148.328315,-32.798687],[148.329513,-32.701025],[148.349499,-32.636824],[148.501184,-32.614117],[148.605154,-32.652179],[148.669562,-32.624041],[148.719957,-32.575391],[148.703837,-32.434946],[148.754109,-32.419051],[148.851192,-32.31338],[148.927247,-32.271664],[148.944185,-32.174016],[149.059265,-32.096665],[149.100358,-32.115175],[149.193756,-32.104421],[149.220152,-32.180984],[149.189159,-32.290575],[149.305892,-32.304507],[149.346378,-32.238059],[149.413277,-32.175537],[149.432506,-32.095033],[149.573847,-32.086985],[149.638067,-32.112778],[149.750811,-32.119822],[149.795665,-32.05809]],[[150.52729368921322,-28.668989631278222],[150.53586423680923,-28.671989264178926],[150.535145,-28.67203],[150.52729368921322,-28.668989631278222]]],[[[150.48702924121224,-28.657485970478824],[150.48759871485984,-28.65758835241358],[150.487084,-28.657421],[150.48702924121224,-28.657485970478824]]],[[[150.50457504233034,-28.66064041506615],[150.513845,-28.662307],[150.5294933593238,-28.65532124861661],[150.525002,-28.654311],[150.51481,-28.661759],[150.50457504233034,-28.66064041506615]]],[[[150.53633667073905,-28.656860525568618],[150.5374593820316,-28.657166444059758],[150.537428,-28.657106],[150.53633667073905,-28.656860525568618]]],[[[150.53907297446065,-28.660274339635563],[150.53738074210563,-28.662072336512765],[150.538095,-28.662076],[150.5392,-28.660519],[150.53907297446065,-28.660274339635563]]],[[[150.54520064412725,-28.671285562008407],[150.551024,-28.6716],[150.55442,-28.664272],[150.55154425930965,-28.662135234073883],[150.55276,-28.663446],[150.550566,-28.670145],[150.54520064412725,-28.671285562008407]]],[[[150.54832978959396,-28.658669513622733],[150.54832019393507,-28.658282488715063],[150.548167,-28.658494],[150.54832978959396,-28.658669513622733]]],[[[150.54858829819133,-28.657912323435937],[150.55578763368732,-28.654020840257218],[150.554094,-28.653064],[150.551448,-28.653964],[150.54858829819133,-28.657912323435937]]],[[[150.55599401528517,-28.654137438210274],[150.56089,-28.662304],[150.56165615958085,-28.661821518267946],[150.561392,-28.661817],[150.556657,-28.654512],[150.55599401528517,-28.654137438210274]]]]},"bbox":[140.999475,-34.317224,150.599399,-28.537157]}]}