{"type":"FeatureCollection","features":[
{"properties":{"electorateShortName":"parramatta","electorateName":"Parramatta","area":65.58,"state":"NSW"},"type":"Feature","geometry":{"type":"Polygon","coordinates":[[[151.071641,-33.819693],[151.073929,-33.817836],[151.07386,-33.817188],[151.070243,-33.806194],[151.066636,-33.80351],[151.066068,-33.802624],[151.065982,-33.797876],[151.065048,-33.795275],[151.066274,-33.793266],[151.065727,-33.79089],[151.073359,-33.788884],[151.075565,-33.788496],[151.073789,-33.782273],[151.070975,-33.77315],[151.06757,-33.762875],[151.067328,-33.761196],[151.068319,-33.76066],[151.065997,-33.758983],[151.062842,-33.757451],[151.060353,-33.757065],[151.057957,-33.757238],[151.052665,-33.758295],[151.048939,-33.758638],[151.0414,-33.759813],[151.036818,-33.761082],[151.035649,-33.761607],[151.032784,-33.763606],[151.030993,-33.764422],[151.030383,-33.765401],[151.031156,-33.768882],[151.029221,-33.769622],[151.026643,-33.772817],[151.026177,-33.774345],[151.025167,-33.775124],[151.016875,-33.775088],[151.01596,-33.775377],[151.012275,-33.777723],[151.011229,-33.778924],[151.011103,-33.781115],[151.009375,-33.78352],[151.008409,-33.786283],[151.007594,-33.787602],[151.004646,-33.78964],[151.002171,-33.790883],[151.00151,-33.791567],[150.99888,-33.791321],[150.987451,-33.796571],[150.985752,-33.796591],[150.984679,-33.795944],[150.981757,-33.792898],[150.979618,-33.791486],[150.97008,-33.784236],[150.967497,-33.781825],[150.964298,-33.778278],[150.96067,-33.773306],[150.959392,-33.770476],[150.958354,-33.765616],[150.954885,-33.766418],[150.945444,-33.767863],[150.942848,-33.768365],[150.941142,-33.770005],[150.937836,-33.771595],[150.935266,-33.774243],[150.93867,-33.774971],[150.942291,-33.776523],[150.945198,-33.778309],[150.947411,-33.780158],[150.949094,-33.782256],[150.950638,-33.785066],[150.94914,-33.786246],[150.948094,-33.7878],[150.943958,-33.790746],[150.940239,-33.792408],[150.938051,-33.793913],[150.936193,-33.796359],[150.935032,-33.798626],[150.936267,-33.802127],[150.93429,-33.806096],[150.932805,-33.806964],[150.932601,-33.807698],[150.937839,-33.810345],[150.940145,-33.810949],[150.949302,-33.812747],[150.963514,-33.816181],[150.966842,-33.816984],[150.969934,-33.817303],[150.976605,-33.81725],[150.979195,-33.817758],[150.98198,-33.819214],[150.987338,-33.823753],[150.989135,-33.824848],[150.994821,-33.827473],[150.996571,-33.827974],[150.999371,-33.828038],[151.005459,-33.826921],[151.012091,-33.826847],[151.013791,-33.827078],[151.015763,-33.827832],[151.022418,-33.832387],[151.024075,-33.833177],[151.02999,-33.835206],[151.03379,-33.833095],[151.035243,-33.831804],[151.038219,-33.832126],[151.042524,-33.829956],[151.045111,-33.829567],[151.046551,-33.828716],[151.047329,-33.827691],[151.048326,-33.82521],[151.050042,-33.824184],[151.052212,-33.824295],[151.058685,-33.823994],[151.062052,-33.824478],[151.065455,-33.823712],[151.068404,-33.822202],[151.071641,-33.819693]]]},"bbox":[150.932601,-33.835206,151.075565,-33.757065]}]}