{"type":"FeatureCollection","features":[
{"properties":{"electorateShortName":"paterson","electorateName":"Paterson","area":947.81,"state":"NSW"},"type":"Feature","geometry":{"type":"Polygon","coordinates":[[[151.81011,-32.87822],[151.795393,-32.890876],[151.788615,-32.902716],[151.792983,-32.922815],[151.779388,-32.937162],[151.771558,-32.939154],[151.753763,-32.953028],[151.76111200228627,-32.96159540163394],[151.79609503555164,-32.967122085304624],[151.8165357736911,-32.967990314873404],[151.83664445196408,-32.96421955150445],[151.8553819293513,-32.956004654095864],[151.89400335854864,-32.93352635635975],[151.92577288214449,-32.9188836231625],[151.9805366223821,-32.89810763714309],[152.03053365340512,-32.88275520297653],[152.0584216788718,-32.87640389787091],[152.10383695121945,-32.88335182802358],[152.12612577270727,-32.88225860573515],[152.1439602799073,-32.87829150187582],[152.1606261194253,-32.87080435600714],[152.18598974654884,-32.85025582489003],[152.21279005339062,-32.842191489599685],[152.2487413144566,-32.825873203788994],[152.26363125935484,-32.8146115823642],[152.27610922236622,-32.800806756392355],[152.284732524619,-32.78638455826672],[152.2905245629701,-32.77061073716156],[152.2932834304374,-32.75403515901733],[152.29233366022854,-32.73182334614109],[152.28402412354595,-32.70403872433744],[152.2782182806919,-32.67467243684739],[152.27003017254157,-32.65875190357528],[152.2588528608075,-32.644767047582135],[152.2451286199785,-32.633271234935066],[152.22260079074894,-32.62187278187251],[152.214414,-32.627575],[152.195678,-32.647922],[152.18698,-32.669451],[152.187085,-32.686966],[152.191883,-32.694347],[152.209158,-32.696684],[152.194486,-32.707671],[152.187855,-32.70488],[152.124656,-32.699981],[152.074763,-32.692632],[152.05231,-32.688083],[152.039421,-32.692282],[151.976222,-32.684583],[151.940611,-32.673964],[151.932013,-32.661416],[151.913385,-32.658548],[151.896241,-32.658999],[151.894875,-32.668889],[151.844219,-32.661604],[151.809842,-32.686222],[151.756003,-32.678348],[151.749351,-32.687152],[151.753831,-32.700754],[151.744122,-32.713501],[151.747545,-32.720581],[151.734006,-32.736067],[151.743356,-32.746645],[151.727015,-32.751268],[151.714642,-32.736929],[151.686176,-32.727182],[151.673875,-32.741315],[151.665226,-32.739649],[151.654059,-32.724982],[151.641298,-32.71886],[151.619945,-32.722822],[151.612901,-32.714914],[151.590326,-32.720842],[151.589985,-32.730164],[151.582331,-32.736703],[151.554002,-32.728486],[151.569049,-32.697386],[151.566236,-32.688561],[151.543176,-32.687608],[151.535393,-32.679101],[151.518456,-32.693278],[151.509915,-32.687487],[151.510743,-32.66365],[151.496875,-32.638999],[151.484052,-32.637074],[151.471345,-32.662503],[151.453371,-32.656502],[151.451577,-32.670754],[151.437698,-32.671561],[151.438599,-32.68217],[151.424995,-32.691366],[151.407184,-32.679147],[151.400589,-32.702881],[151.412011,-32.717728],[151.423423,-32.723477],[151.421343,-32.734594],[151.434447,-32.758971],[151.446311,-32.765872],[151.474282,-32.796368],[151.498267,-32.807257],[151.509157,-32.823056],[151.533302,-32.831153],[151.541085,-32.83967],[151.54584,-32.852006],[151.562861,-32.866781],[151.565617,-32.875075],[151.600846,-32.88926],[151.60937,-32.880272],[151.614151,-32.856826],[151.635341,-32.860248],[151.672974,-32.829504],[151.685972,-32.823141],[151.6951,-32.830312],[151.72725,-32.837075],[151.736322,-32.847836],[151.755311,-32.853511],[151.777455,-32.85653],[151.786362,-32.87521],[151.81011,-32.87822]]]},"bbox":[151.400589,-32.967990314873404,152.2932834304374,-32.62187278187251]}]}