{"type":"FeatureCollection","features":[
{"properties":{"electorateShortName":"paterson","electorateName":"Paterson","area":947.81,"state":"NSW"},"type":"Feature","geometry":{"type":"Polygon","coordinates":[[[151.81011,-32.87822],[151.788615,-32.902716],[151.753763,-32.953028],[151.8165357736911,-32.967990314873404],[151.83664445196408,-32.96421955150445],[151.8553819293513,-32.956004654095864],[151.89400335854864,-32.93352635635975],[151.9805366223821,-32.89810763714309],[152.0584216788718,-32.87640389787091],[152.12612577270727,-32.88225860573515],[152.2487413144566,-32.825873203788994],[152.27610922236622,-32.800806756392355],[152.284732524619,-32.78638455826672],[152.2905245629701,-32.77061073716156],[152.2782182806919,-32.67467243684739],[152.22260079074894,-32.62187278187251],[152.194486,-32.707671],[151.976222,-32.684583],[151.932013,-32.661416],[151.756003,-32.678348],[151.727015,-32.751268],[151.569049,-32.697386],[151.509915,-32.687487],[151.496875,-32.638999],[151.407184,-32.679147],[151.434447,-32.758971],[151.565617,-32.875075],[151.600846,-32.88926],[151.672974,-32.829504],[151.81011,-32.87822]]]},"bbox":[151.407184,-32.967990314873404,152.2905245629701,-32.62187278187251]}]}