{"type":"FeatureCollection","features":[
{"properties":{"electorateShortName":"paterson","electorateName":"Paterson","area":947.81,"state":"NSW"},"type":"Feature","geometry":{"type":"MultiPolygon","coordinates":[[[[152.194486,-32.707671],[152.187855,-32.70488],[152.124656,-32.699981],[152.074763,-32.692632],[152.05231,-32.688083],[152.039421,-32.692282],[151.976222,-32.684583],[151.95491,-32.677857],[151.951065,-32.676313],[151.944606,-32.676772],[151.940611,-32.673964],[151.940752,-32.67061],[151.939127,-32.666313],[151.936832,-32.666062],[151.935528,-32.663582],[151.932835,-32.664193],[151.932013,-32.661416],[151.913385,-32.658548],[151.912841,-32.661336],[151.896241,-32.658999],[151.896001,-32.665501],[151.893441,-32.667956],[151.894875,-32.668889],[151.844219,-32.661604],[151.835597,-32.668405],[151.828093,-32.673142],[151.819496,-32.67947],[151.813069,-32.683434],[151.809842,-32.686222],[151.798143,-32.684666],[151.789911,-32.683146],[151.764507,-32.679678],[151.756003,-32.678348],[151.754963,-32.680833],[151.750643,-32.683842],[151.749351,-32.687152],[151.753217,-32.695614],[151.753831,-32.700754],[151.751505,-32.705146],[151.746096,-32.709703],[151.744122,-32.713501],[151.745293,-32.717455],[151.747545,-32.720581],[151.746945,-32.721993],[151.743349,-32.724268],[151.737815,-32.731493],[151.735607,-32.733122],[151.734006,-32.736067],[151.735681,-32.738731],[151.738975,-32.740358],[151.74142,-32.743076],[151.743356,-32.746645],[151.747397,-32.748684],[151.750014,-32.748025],[151.751776,-32.750261],[151.746882,-32.752337],[151.744219,-32.754321],[151.73797,-32.752987],[151.734625,-32.754481],[151.732351,-32.758772],[151.72844,-32.760024],[151.727628,-32.75828],[151.728273,-32.753833],[151.727015,-32.751268],[151.722459,-32.74796],[151.721508,-32.744532],[151.725264,-32.739586],[151.725781,-32.736656],[151.72363,-32.73475],[151.717627,-32.737079],[151.714642,-32.736929],[151.70436,-32.732496],[151.700636,-32.73137],[151.696577,-32.731378],[151.69395,-32.730518],[151.691205,-32.727636],[151.686176,-32.727182],[151.680968,-32.729022],[151.67988,-32.730622],[151.680561,-32.735555],[151.676727,-32.739715],[151.673875,-32.741315],[151.6685,-32.741328],[151.665226,-32.739649],[151.662466,-32.736406],[151.658884,-32.730713],[151.654059,-32.724982],[151.651037,-32.723614],[151.646373,-32.722879],[151.643847,-32.720006],[151.641298,-32.71886],[151.638088,-32.719507],[151.634812,-32.721835],[151.63063,-32.723382],[151.624948,-32.724075],[151.619945,-32.722822],[151.618943,-32.717878],[151.612901,-32.714914],[151.610583,-32.716186],[151.605322,-32.715167],[151.599749,-32.716142],[151.59572,-32.71993],[151.590326,-32.720842],[151.589503,-32.722869],[151.589985,-32.730164],[151.588134,-32.733669],[151.582331,-32.736703],[151.577983,-32.735796],[151.574824,-32.732774],[151.566907,-32.731023],[151.561038,-32.733157],[151.557076,-32.732309],[151.554002,-32.728486],[151.556988,-32.721333],[151.559674,-32.716222],[151.562702,-32.712321],[151.566318,-32.70574],[151.569049,-32.697386],[151.568951,-32.695809],[151.566236,-32.688561],[151.562287,-32.686769],[151.559718,-32.686809],[151.552355,-32.689631],[151.543176,-32.687608],[151.542188,-32.685463],[151.542934,-32.682061],[151.541299,-32.678315],[151.537086,-32.678317],[151.535393,-32.679101],[151.532547,-32.682393],[151.525859,-32.688648],[151.518456,-32.693278],[151.515592,-32.693794],[151.513029,-32.692013],[151.509915,-32.687487],[151.511018,-32.679041],[151.510224,-32.673313],[151.510743,-32.66365],[151.509983,-32.661676],[151.506274,-32.65897],[151.501238,-32.650055],[151.498909,-32.641625],[151.496875,-32.638999],[151.488447,-32.635764],[151.484052,-32.637074],[151.481215,-32.64097],[151.477981,-32.648406],[151.47755,-32.650684],[151.47874,-32.654311],[151.477099,-32.659775],[151.471345,-32.662503],[151.457148,-32.657339],[151.453371,-32.656502],[151.450949,-32.657012],[151.44927,-32.658831],[151.4502,-32.660877],[151.45361,-32.663086],[151.454598,-32.665982],[151.451577,-32.670754],[151.449274,-32.671169],[151.443201,-32.669055],[151.43852,-32.669282],[151.437698,-32.671561],[151.440012,-32.678736],[151.438599,-32.68217],[151.433552,-32.684733],[151.43051,-32.687103],[151.432256,-32.691732],[151.429414,-32.692409],[151.424995,-32.691366],[151.41926,-32.686563],[151.41241,-32.684632],[151.40853,-32.682242],[151.407184,-32.679147],[151.400305,-32.680842],[151.399184,-32.686616],[151.402867,-32.690938],[151.400589,-32.702881],[151.404762,-32.706545],[151.412011,-32.717728],[151.414248,-32.720285],[151.417647,-32.722431],[151.423423,-32.723477],[151.421343,-32.734594],[151.424732,-32.737488],[151.428296,-32.743552],[151.430498,-32.75244],[151.43192,-32.755731],[151.434447,-32.758971],[151.438405,-32.761804],[151.446311,-32.765872],[151.451413,-32.770309],[151.457734,-32.777519],[151.465886,-32.786046],[151.474282,-32.796368],[151.477078,-32.798482],[151.481541,-32.800343],[151.487629,-32.80134],[151.492238,-32.802648],[151.495065,-32.804226],[151.498267,-32.807257],[151.504214,-32.818089],[151.506577,-32.821109],[151.509157,-32.823056],[151.513207,-32.824762],[151.52524,-32.827552],[151.529563,-32.829095],[151.533302,-32.831153],[151.538225,-32.835448],[151.541085,-32.83967],[151.543575,-32.84764],[151.54584,-32.852006],[151.550333,-32.856448],[151.559305,-32.862927],[151.562861,-32.866781],[151.565617,-32.875075],[151.567428,-32.876834],[151.570686,-32.878187],[151.582772,-32.88108],[151.593537,-32.885327],[151.600846,-32.88926],[151.608578,-32.880151],[151.60937,-32.880272],[151.612457,-32.865998],[151.614151,-32.856826],[151.620213,-32.856992],[151.622373,-32.85772],[151.631152,-32.858755],[151.635341,-32.860248],[151.672974,-32.829504],[151.675459,-32.828014],[151.674343,-32.825487],[151.677251,-32.824352],[151.681811,-32.826965],[151.685972,-32.823141],[151.690758,-32.826264],[151.6951,-32.830312],[151.697979,-32.831836],[151.70239,-32.832952],[151.70833,-32.832356],[151.712941,-32.833018],[151.716692,-32.834425],[151.72725,-32.837075],[151.731309,-32.839712],[151.736322,-32.847836],[151.740053,-32.848828],[151.749348,-32.852201],[151.755311,-32.853511],[151.766921,-32.853735],[151.772484,-32.854553],[151.777455,-32.85653],[151.781586,-32.860739],[151.783865,-32.866369],[151.786362,-32.87521],[151.793951,-32.875713],[151.81011,-32.87822],[151.852437,-32.853585],[151.890933,-32.835842],[151.951335,-32.812927],[152.0073,-32.795742],[152.053106,-32.78531],[152.070929,-32.783452],[152.074943,-32.783985],[152.079834,-32.789076],[152.083686,-32.78769],[152.087703,-32.788015],[152.091037,-32.791284],[152.092709,-32.788924],[152.095128,-32.790314],[152.099738,-32.788029],[152.100522,-32.789137],[152.104135,-32.787695],[152.109801,-32.791148],[152.114649,-32.791919],[152.115744,-32.790452],[152.114309,-32.786755],[152.120644,-32.788958],[152.119088,-32.781887],[152.116905,-32.779809],[152.116187,-32.776736],[152.119383,-32.771139],[152.125107,-32.766969],[152.132348,-32.764151],[152.134114,-32.766347],[152.139869,-32.765758],[152.143239,-32.766567],[152.144736,-32.765609],[152.14826,-32.765916],[152.149036,-32.763709],[152.153836,-32.765534],[152.156133,-32.763742],[152.158415,-32.7649],[152.160065,-32.763869],[152.160653,-32.759693],[152.1638,-32.758813],[152.168341,-32.761956],[152.169548,-32.759851],[152.169265,-32.757533],[152.176033,-32.754788],[152.172862,-32.752081],[152.174787,-32.74919],[152.171464,-32.74782],[152.170981,-32.744437],[152.176112,-32.7404],[152.18685,-32.741132],[152.183126,-32.735844],[152.184362,-32.733846],[152.183025,-32.731775],[152.184584,-32.72763],[152.183552,-32.725531],[152.18588,-32.718554],[152.189322,-32.717873],[152.187884,-32.711732],[152.194486,-32.707671]]],[[[152.203513,-32.747611],[152.201033,-32.744522],[152.202932,-32.742184],[152.196919,-32.740429],[152.195788,-32.741711],[152.192662,-32.739777],[152.189945,-32.744052],[152.184939,-32.749721],[152.190502,-32.751173],[152.197109,-32.746103],[152.202189,-32.748848],[152.203513,-32.747611]]]]},"bbox":[151.399184,-32.88926,152.203513,-32.635764]}]}