{"type":"FeatureCollection","features":[
{"properties":{"electorateShortName":"pearce","electorateName":"Pearce","area":754.93,"state":"WA"},"type":"Feature","geometry":{"type":"Polygon","coordinates":[[[115.982838,-31.741886],[115.955359,-31.682999],[115.861396,-31.627194],[115.855007,-31.474564],[115.678385,-31.477001],[115.670095,-31.455129],[115.560745,-31.45522],[115.51740311018658,-31.37673397424635],[115.47367906142807,-31.43242696727965],[115.47138744036288,-31.465954362379627],[115.47496266376177,-31.482448492237193],[115.47809966376178,-31.49233149223719],[115.50405481092106,-31.54493282451547],[115.55786781107882,-31.613902113895243],[115.62595478846583,-31.752986401543573],[115.63518856252801,-31.76890040975477],[115.645953562528,-31.783722409754773],[115.65823728295307,-31.79743209223379],[115.67305342002682,-31.808355794141498],[115.68978217416274,-31.816036547113466],[115.70772373576507,-31.8201530442198],[115.7177747927129,-31.82036059740974],[115.71963263515785,-31.824154273345158],[115.730553324767,-31.83837359426446],[115.751671,-31.848348],[115.73771,-31.827174],[115.736891,-31.820312],[115.732277,-31.794305],[115.725301,-31.75029],[115.718774,-31.730834],[115.768635,-31.717476],[115.808556,-31.783339],[115.927113,-31.795677],[115.982838,-31.741886]]]},"bbox":[115.47138744036288,-31.848348,115.982838,-31.37673397424635]}]}