{"type":"FeatureCollection","features":[
{"properties":{"electorateShortName":"perth","electorateName":"Perth","area":68.91,"state":"WA"},"type":"Feature","geometry":{"type":"Polygon","coordinates":[[[115.936916,-31.930089],[115.928288,-31.923139],[115.924654,-31.917464],[115.923146,-31.902564],[115.91764,-31.888814],[115.911652,-31.887712],[115.888988,-31.887452],[115.880913,-31.890268],[115.850514,-31.888917],[115.826719,-31.888898],[115.816163,-31.889768],[115.803966,-31.882542],[115.800666,-31.882382],[115.800677,-31.882535],[115.804969,-31.894477],[115.815314,-31.897645],[115.820995,-31.902355],[115.824917,-31.920735],[115.834542,-31.930036],[115.843989,-31.941421],[115.819685,-31.962606],[115.818139,-31.973694],[115.827252,-31.972849],[115.838086,-31.991159],[115.839807,-31.988854],[115.839354,-31.973109],[115.843248,-31.96489],[115.853216,-31.963464],[115.864603,-31.967758],[115.875517,-31.969503],[115.884842,-31.966328],[115.888287,-31.962772],[115.883047,-31.948088],[115.88635,-31.93882],[115.894734,-31.940679],[115.897878,-31.951591],[115.903119,-31.952965],[115.913123,-31.951321],[115.91668,-31.946606],[115.908454,-31.939952],[115.909629,-31.935398],[115.915346,-31.932542],[115.936916,-31.930089]]]},"bbox":[115.800666,-31.991159,115.936916,-31.882382]}]}