{"type":"FeatureCollection","features":[
{"properties":{"electorateShortName":"richmond","electorateName":"Richmond","area":2133.19,"state":"NSW"},"type":"Feature","geometry":{"type":"Polygon","coordinates":[[[153.544475,-28.917804],[153.570746,-28.88507],[153.555088,-28.877984],[153.530165,-28.877919],[153.529065,-28.871144],[153.546206,-28.867225],[153.564095,-28.873706],[153.576789,-28.869838],[153.589714,-28.873409],[153.605627,-28.84396],[153.607918,-28.830488],[153.606246,-28.808687],[153.595142,-28.797087],[153.595813,-28.775189],[153.617909,-28.715466],[153.613547,-28.701135],[153.617653,-28.678142],[153.627162,-28.654618],[153.638727,-28.636102],[153.618008,-28.642001],[153.603234,-28.635661],[153.590668,-28.624827],[153.568497,-28.589701],[153.559765,-28.559721],[153.558319,-28.538225],[153.553457,-28.531851],[153.55184,-28.499505],[153.553822,-28.464425],[153.567979,-28.39472],[153.575982,-28.368206],[153.575888,-28.3395],[153.571396,-28.32713],[153.576085,-28.295427],[153.586296,-28.258206],[153.570274,-28.243791],[153.566973,-28.218902],[153.569601,-28.199072],[153.552171,-28.164408],[153.534649,-28.177643],[153.485857,-28.157036],[153.476947,-28.156892],[153.46845,-28.162432],[153.45705,-28.180518],[153.435757,-28.187173],[153.414911,-28.207419],[153.405714,-28.211023],[153.390906,-28.227887],[153.389724,-28.234832],[153.364723,-28.247354],[153.357284,-28.249274],[153.34585,-28.248454],[153.339104,-28.250546],[153.33189,-28.246127],[153.329766,-28.236874],[153.325717,-28.235936],[153.321862,-28.237802],[153.312036,-28.237321],[153.304761,-28.239695],[153.300367,-28.238027],[153.296189,-28.233808],[153.279598,-28.233493],[153.274236,-28.238009],[153.269054,-28.238611],[153.264006,-28.243478],[153.243925,-28.2473],[153.23624,-28.25558],[153.232838,-28.265076],[153.218217,-28.263224],[153.207378,-28.252962],[153.199479,-28.256548],[153.188167,-28.247512],[153.17978,-28.250254],[153.176667,-28.249603],[153.171483,-28.259186],[153.175172,-28.274206],[153.161203,-28.279401],[153.162253,-28.282466],[153.166498,-28.285116],[153.169175,-28.293105],[153.164377,-28.297889],[153.155146,-28.296121],[153.152918,-28.301918],[153.142489,-28.305321],[153.143282,-28.312204],[153.135755,-28.312119],[153.132961,-28.317536],[153.125005,-28.317764],[153.124831,-28.323929],[153.13024,-28.330279],[153.125197,-28.336741],[153.125302,-28.33931],[153.120507,-28.342001],[153.116734,-28.341503],[153.11319,-28.352903],[153.108548,-28.356328],[153.1094,-28.35744],[153.112955,-28.361311],[153.110781,-28.388469],[153.1277,-28.405931],[153.124034,-28.430592],[153.142127,-28.436139],[153.143132,-28.448875],[153.135998,-28.457227],[153.141014,-28.470775],[153.153674,-28.484325],[153.149796,-28.502963],[153.160263,-28.524129],[153.186001,-28.521294],[153.197746,-28.526987],[153.219644,-28.522855],[153.226422,-28.517733],[153.247732,-28.515887],[153.254768,-28.527109],[153.273306,-28.522004],[153.291318,-28.541378],[153.32783,-28.542733],[153.346171,-28.558012],[153.351798,-28.567264],[153.379084,-28.582456],[153.373087,-28.613976],[153.412627,-28.618563],[153.418182,-28.677922],[153.424239,-28.692997],[153.408046,-28.69353],[153.409153,-28.707793],[153.40682,-28.742889],[153.422106,-28.742678],[153.448133,-28.746851],[153.442291,-28.762701],[153.450663,-28.781638],[153.441382,-28.823097],[153.45253,-28.830749],[153.451238,-28.838635],[153.465035,-28.840742],[153.478138,-28.847961],[153.476547,-28.855464],[153.486858,-28.864848],[153.475801,-28.924591],[153.497254,-28.921028],[153.507797,-28.912851],[153.518517,-28.918317],[153.544475,-28.917804]]]},"bbox":[153.108548,-28.924591,153.638727,-28.156892]}]}