{"type":"FeatureCollection","features":[
{"properties":{"electorateShortName":"richmond","electorateName":"Richmond","area":2133.19,"state":"NSW"},"type":"Feature","geometry":{"type":"MultiPolygon","coordinates":[[[[153.1094,-28.35744],[153.112955,-28.361311],[153.112564,-28.372538],[153.106738,-28.37616],[153.110503,-28.3783],[153.110781,-28.388469],[153.118059,-28.396456],[153.112616,-28.401255],[153.117435,-28.40382],[153.1277,-28.405931],[153.126464,-28.408957],[153.122463,-28.41175],[153.120837,-28.415282],[153.127518,-28.419263],[153.124034,-28.430592],[153.120886,-28.433412],[153.126653,-28.435329],[153.13155,-28.432002],[153.142127,-28.436139],[153.14387,-28.438768],[153.142746,-28.443286],[153.145213,-28.44445],[153.143132,-28.448875],[153.140181,-28.449535],[153.135998,-28.457227],[153.143898,-28.462728],[153.141195,-28.466257],[153.141014,-28.470775],[153.146008,-28.476838],[153.147352,-28.480213],[153.153674,-28.484325],[153.154522,-28.491996],[153.152598,-28.499209],[153.149796,-28.502963],[153.151258,-28.509112],[153.153305,-28.509683],[153.155249,-28.515685],[153.15951,-28.518882],[153.160263,-28.524129],[153.16993,-28.52358],[153.17269,-28.521405],[153.178129,-28.522826],[153.186001,-28.521294],[153.193084,-28.523175],[153.197746,-28.526987],[153.205712,-28.52654],[153.215763,-28.522896],[153.219644,-28.522855],[153.226422,-28.517733],[153.239196,-28.518265],[153.247732,-28.515887],[153.251768,-28.520089],[153.254768,-28.527109],[153.268788,-28.522317],[153.273306,-28.522004],[153.281572,-28.516234],[153.28274,-28.522531],[153.284812,-28.523553],[153.283913,-28.529906],[153.289123,-28.53651],[153.291318,-28.541378],[153.299082,-28.540597],[153.301496,-28.539241],[153.305296,-28.541693],[153.310209,-28.542595],[153.314022,-28.540417],[153.317575,-28.541702],[153.323608,-28.541005],[153.32783,-28.542733],[153.331525,-28.54798],[153.337881,-28.550068],[153.340363,-28.55647],[153.346171,-28.558012],[153.351798,-28.567264],[153.359883,-28.566941],[153.363644,-28.573011],[153.367924,-28.574847],[153.375014,-28.580918],[153.379084,-28.582456],[153.379904,-28.589817],[153.37855,-28.595294],[153.375276,-28.599735],[153.375449,-28.603359],[153.373087,-28.613976],[153.412627,-28.618563],[153.413144,-28.624748],[153.416404,-28.625427],[153.412596,-28.633742],[153.415486,-28.636231],[153.414506,-28.640264],[153.41547,-28.64871],[153.421186,-28.649282],[153.421495,-28.654434],[153.426749,-28.65613],[153.424244,-28.659459],[153.429991,-28.662805],[153.427573,-28.666432],[153.424365,-28.667217],[153.421234,-28.661843],[153.417876,-28.663639],[153.416824,-28.670542],[153.418182,-28.677922],[153.424286,-28.677807],[153.426622,-28.681017],[153.422235,-28.686625],[153.424239,-28.692997],[153.420036,-28.695673],[153.416047,-28.693881],[153.407747,-28.68615],[153.408046,-28.69353],[153.40383,-28.697851],[153.402251,-28.702264],[153.408099,-28.705437],[153.409153,-28.707793],[153.407149,-28.719933],[153.41215,-28.720592],[153.409487,-28.72554],[153.40682,-28.742889],[153.413967,-28.741856],[153.417009,-28.743983],[153.422106,-28.742678],[153.426461,-28.738388],[153.431814,-28.745969],[153.435966,-28.747477],[153.442096,-28.744977],[153.448133,-28.746851],[153.449122,-28.753716],[153.447683,-28.759424],[153.442291,-28.762701],[153.442518,-28.765878],[153.446571,-28.773228],[153.443937,-28.776178],[153.450663,-28.781638],[153.453966,-28.781664],[153.4502,-28.789236],[153.448111,-28.791336],[153.448426,-28.796294],[153.444901,-28.796568],[153.446092,-28.801828],[153.445499,-28.809762],[153.441382,-28.823097],[153.447738,-28.82717],[153.445085,-28.829767],[153.45253,-28.830749],[153.451238,-28.838635],[153.465035,-28.840742],[153.472667,-28.845779],[153.478138,-28.847961],[153.476547,-28.855464],[153.483991,-28.860243],[153.482168,-28.863032],[153.486858,-28.864848],[153.494448,-28.863343],[153.495095,-28.867168],[153.491704,-28.869839],[153.482855,-28.888026],[153.475801,-28.924591],[153.478917,-28.924761],[153.484006,-28.920681],[153.489465,-28.919872],[153.497254,-28.921028],[153.500495,-28.917229],[153.507797,-28.912851],[153.512397,-28.913597],[153.518517,-28.918317],[153.52241,-28.916959],[153.53301,-28.918326],[153.53809,-28.916827],[153.544475,-28.917804],[153.499213,-28.969924],[153.473336,-29.004791],[153.46787302348278,-29.014032200040766],[153.47705909244922,-29.014896052348544],[153.48456752656932,-29.014583444575337],[153.500343276207,-29.011774372886347],[153.50867771416188,-29.011002229411535],[153.51766116814173,-29.00847099279696],[153.5453663297021,-29.007799586177114],[153.5630178344778,-29.005873082483753],[153.57994757192677,-29.000518549148868],[153.59549656343637,-28.991944407771395],[153.60905957499835,-28.980484401022018],[153.6314459004681,-28.957417999201613],[153.6455704000688,-28.948436929925048],[153.66024642049408,-28.9343095254038],[153.67015112389404,-28.92029654228333],[153.67721614449047,-28.90465837329371],[153.67926365375624,-28.89863691142604],[153.6837442275355,-28.893124957009032],[153.69181157250438,-28.878101288187526],[153.69690031827204,-28.8618256208827],[153.69882777718192,-28.844882256935247],[153.6976529196676,-28.827138426186732],[153.69816881384898,-28.820243747023518],[153.6953835590282,-28.796257375287396],[153.6903731796806,-28.77725661309132],[153.70058699682772,-28.759960154521412],[153.7065517657563,-28.74253322683888],[153.70884373219894,-28.724256926156038],[153.70814454931977,-28.715564631347206],[153.70903586405873,-28.70885945587495],[153.70829465471925,-28.697424969239396],[153.710405362805,-28.695007145224565],[153.719140052008,-28.679861042090838],[153.72478140264957,-28.663311891099063],[153.72633140264955,-28.656728891099064],[153.72866297110215,-28.639496274872936],[153.727145938034,-28.61901093935601],[153.72246822392407,-28.601275330404466],[153.71429193131738,-28.58485640615876],[153.70295666185527,-28.570436125287802],[153.68893322502305,-28.55861343297221],[153.67280408311683,-28.549879383765475],[153.6552391587199,-28.544596745683464],[153.64893776911825,-28.544040860463163],[153.64632647588635,-28.519391938960577],[153.64229734661592,-28.50640545041339],[153.64196700917572,-28.49979747586768],[153.6433126969106,-28.475979753496002],[153.65534680087052,-28.416727283585463],[153.6582696984856,-28.408618755134665],[153.66585371608215,-28.39212054801635],[153.66997177977834,-28.37443581696333],[153.67045626498054,-28.356284413846428],[153.66768370298226,-28.340640938092296],[153.66817588823903,-28.334694599807666],[153.666337128781,-28.317691789819804],[153.66473396735506,-28.31247289276601],[153.67308923882757,-28.28201636945994],[153.67619338147702,-28.26250260372585],[153.67496443976623,-28.24278174023095],[153.66946164910365,-28.223804331302524],[153.66643588044,-28.21829473374929],[153.66843951953277,-28.210851052446806],[153.66959201094693,-28.1930820845686],[153.66722363815282,-28.175433989310907],[153.6614271081666,-28.158597579478773],[153.65242931896688,-28.14323189545776],[153.63940867978158,-28.12831855697785],[153.63404774238148,-28.124285244721126],[153.63037974878958,-28.117632513592564],[153.61926483744028,-28.10434632708651],[153.6181815859415,-28.103467871547736],[153.6170920690817,-28.102076187983275],[153.60329000398426,-28.090334742803787],[153.5874156720593,-28.081596086053818],[153.57011258841658,-28.07621446619457],[153.55208218703268,-28.074408043820807],[153.53405538595692,-28.076250047846816],[153.52937225295653,-28.077716742933255],[153.52087303983316,-28.074127152737464],[153.50432755713487,-28.068951730580725],[153.48709675293577,-28.06704453922367],[153.4798783672171,-28.06693975107737],[153.4606057604733,-28.068387966810935],[153.44661642035018,-28.072565023243307],[153.447581,-28.076061],[153.452174,-28.086693],[153.45439,-28.089031],[153.46003,-28.090866],[153.459964,-28.094797],[153.473484,-28.120061],[153.479953,-28.126831],[153.485018,-28.127628],[153.488613,-28.131105],[153.500411,-28.147743],[153.514318,-28.161019],[153.523277,-28.166121],[153.529245,-28.167217],[153.536585,-28.165053],[153.543606,-28.166862],[153.5447,-28.164489],[153.552171,-28.164408],[153.54147145201418,-28.168986680333298],[153.53792238158837,-28.173479023568046],[153.534643,-28.17763],[153.485949,-28.157028],[153.4858934451609,-28.15705139238873],[153.482577,-28.158316],[153.476947,-28.156892],[153.472484,-28.161753],[153.46845,-28.162432],[153.458523,-28.175014],[153.45705,-28.180518],[153.44072458601482,-28.185620410654735],[153.4356,-28.187207],[153.43181336662894,-28.19085678423487],[153.424575936096,-28.19761733471957],[153.41897371311111,-28.200076286115287],[153.4180656780453,-28.20169101767007],[153.41482580625893,-28.207452384608327],[153.40922898295406,-28.2096455944801],[153.4062669482687,-28.210806317868823],[153.390812757813,-28.228434857012562],[153.38952768441928,-28.234930326615014],[153.3894973752793,-28.234945507249815],[153.382281,-28.237505],[153.37282616644623,-28.24329544833248],[153.36745929186966,-28.245983500948284],[153.35948962168936,-28.24870473079129],[153.3509777329543,-28.248821740162892],[153.346223,-28.248172],[153.33958,-28.250311],[153.33667021467508,-28.249055163106355],[153.33409324776852,-28.247476619058652],[153.33173359507586,-28.245445637117296],[153.3315998049904,-28.244862793585828],[153.32980048109945,-28.237024213565537],[153.32452082645827,-28.236515003846655],[153.32005551994837,-28.23771356962092],[153.3096849438338,-28.23808820375789],[153.30449314890646,-28.23959332143285],[153.30376251377052,-28.239315966083122],[153.296863,-28.234233],[153.2966325017184,-28.23425585393727],[153.28915971118707,-28.234996782176918],[153.28424355412537,-28.23477672720335],[153.2792472537707,-28.233788406559395],[153.2755932615334,-28.236865883050196],[153.269054,-28.238611],[153.264006,-28.243478],[153.249731,-28.247493],[153.243925,-28.2473],[153.23601138308808,-28.25621813821153],[153.232816032379,-28.265073217424657],[153.23154942673779,-28.26491278013258],[153.217328,-28.26228],[153.21575907847466,-28.260896922714913],[153.207378,-28.252962],[153.2063613318207,-28.253423548561976],[153.20277496997085,-28.255051690553813],[153.20046887883456,-28.256098613305387],[153.19899193348147,-28.25615893236726],[153.188167,-28.247512],[153.18725895410805,-28.24780887156739],[153.185558,-28.246449],[153.177674,-28.247667],[153.17676315868036,-28.249623108994832],[153.17595292309437,-28.25136315864289],[153.17241203407906,-28.258967518154467],[153.17176868179703,-28.26034917175161],[153.1748122794307,-28.2743397782488],[153.16131672225845,-28.279732960687777],[153.16151093690857,-28.280299882499744],[153.1653145774769,-28.284377232111616],[153.165362,-28.288792],[153.16542249907644,-28.28885989518168],[153.1687680685543,-28.292648392614527],[153.16382007146197,-28.297607002916745],[153.15678172190167,-28.29611294225664],[153.154794,-28.295691],[153.15227,-28.301878],[153.14382423704856,-28.30488530993612],[153.14325767759954,-28.311992888925058],[153.14216958248744,-28.311992068546736],[153.1361386685493,-28.31198752148923],[153.13331,-28.316801],[153.1293736880734,-28.31763880381087],[153.1249821528757,-28.318573497247968],[153.12483698372122,-28.32371699056648],[153.12592641927415,-28.325214988609897],[153.12968718368342,-28.33098736784408],[153.12525009010673,-28.338039937945165],[153.11950250716134,-28.341868416529646],[153.116734,-28.341503],[153.1124916135302,-28.354101158641086],[153.1103697866492,-28.35639266218045],[153.108548,-28.356328],[153.1094,-28.35744]]],[[[153.0502142120475,-28.341643300435887],[153.053254,-28.343149],[153.0652872380933,-28.344237664468935],[153.053737,-28.343118],[153.0502142120475,-28.341643300435887]]]]},"bbox":[153.0502142120475,-29.014896052348544,153.72866297110215,-28.06693975107737]}]}