{"type":"FeatureCollection","features":[
{"properties":{"electorateShortName":"robertson","electorateName":"Robertson","area":938.68,"state":"NSW"},"type":"Feature","geometry":{"type":"Polygon","coordinates":[[[151.3352,-33.5822],[151.348535,-33.539918],[151.370241,-33.528967],[151.38474,-33.530278],[151.391571,-33.523077],[151.404889,-33.528724],[151.421471,-33.51843],[151.418963,-33.510806],[151.442572,-33.481745],[151.435561,-33.466388],[151.444331,-33.456617],[151.443595,-33.442565],[151.449605,-33.429352],[151.438677,-33.422679],[151.414406,-33.427199],[151.39507,-33.427578],[151.390708,-33.422519],[151.34508,-33.412419],[151.343542,-33.395501],[151.354362,-33.383311],[151.371765,-33.38088],[151.376638,-33.371292],[151.329939,-33.364503],[151.302593,-33.36238],[151.295728,-33.351467],[151.302527,-33.328444],[151.296322,-33.322193],[151.279948,-33.319933],[151.282875,-33.29596],[151.264766,-33.285505],[151.26309,-33.275289],[151.252651,-33.258596],[151.299131,-33.262361],[151.286766,-33.253126],[151.28351,-33.238654],[151.254989,-33.235193],[151.258392,-33.219318],[151.239802,-33.215164],[151.208269,-33.203652],[151.215835,-33.188713],[151.223056,-33.189733],[151.224534,-33.163825],[151.209288,-33.14745],[151.207311,-33.13327],[151.202626,-33.13886],[151.162,-33.123812],[151.151993,-33.114222],[151.135527,-33.110401],[151.116986,-33.124815],[151.107692,-33.127955],[151.099671,-33.144458],[151.10582,-33.151514],[151.100964,-33.162629],[151.096711,-33.193462],[151.098677,-33.22073],[151.106299,-33.22835],[151.098213,-33.257092],[151.089995,-33.268492],[151.095188,-33.303085],[151.090244,-33.324986],[151.081096,-33.334326],[151.069965,-33.332963],[151.064369,-33.341887],[151.051469,-33.34089],[151.018358,-33.3536],[150.999641,-33.351156],[150.984146,-33.371598],[150.988457,-33.379232],[150.993367,-33.397455],[151.0026,-33.401579],[151.01766,-33.400094],[151.032748,-33.406351],[151.03233,-33.427343],[151.045882,-33.431075],[151.05257,-33.44112],[151.062181,-33.442013],[151.063987,-33.454504],[151.071362,-33.461391],[151.08229,-33.451135],[151.086202,-33.469627],[151.093559,-33.48074],[151.103296,-33.482514],[151.114089,-33.467592],[151.124807,-33.464472],[151.145295,-33.472193],[151.157741,-33.496559],[151.158792,-33.517262],[151.16873,-33.521295],[151.17654,-33.506317],[151.186379,-33.510212],[151.194585,-33.538259],[151.207769,-33.540864],[151.2305,-33.535448],[151.24875,-33.541251],[151.239819,-33.560895],[151.251151,-33.577001],[151.260413,-33.579351],[151.284798,-33.572214],[151.302304,-33.573509],[151.310802,-33.579452],[151.328127,-33.578163],[151.3352,-33.5822]]]},"bbox":[150.984146,-33.5822,151.449605,-33.110401]}]}