{"type":"FeatureCollection","features":[
{"properties":{"electorateShortName":"robertson","electorateName":"Robertson","area":938.68,"state":"NSW"},"type":"Feature","geometry":{"type":"Polygon","coordinates":[[[151.3352,-33.5822],[151.348535,-33.539918],[151.404889,-33.528724],[151.442572,-33.481745],[151.449605,-33.429352],[151.34508,-33.412419],[151.376638,-33.371292],[151.302593,-33.36238],[151.302527,-33.328444],[151.252651,-33.258596],[151.258392,-33.219318],[151.208269,-33.203652],[151.207311,-33.13327],[151.135527,-33.110401],[151.099671,-33.144458],[151.090244,-33.324986],[150.999641,-33.351156],[150.988457,-33.379232],[151.032748,-33.406351],[151.103296,-33.482514],[151.158792,-33.517262],[151.2305,-33.535448],[151.284798,-33.572214],[151.3352,-33.5822]]]},"bbox":[150.988457,-33.5822,151.449605,-33.110401]}]}