{"type":"FeatureCollection","features":[
{"properties":{"electorateShortName":"ryan","electorateName":"Ryan","area":365.801962,"state":"QLD"},"type":"Feature","geometry":{"type":"Polygon","coordinates":[[[153.021748,-27.500406],[153.016333,-27.492451],[152.998404,-27.490956],[153.003037,-27.476914],[153.003899,-27.47611],[152.997212,-27.466273],[152.97752,-27.450486],[152.976127,-27.437076],[152.987742,-27.438726],[152.992407,-27.412612],[152.976999,-27.400782],[152.965853,-27.396862],[152.944568,-27.406007],[152.92519,-27.393334],[152.91504,-27.40572],[152.899311,-27.403572],[152.897229,-27.41728],[152.872683,-27.413756],[152.861148,-27.422375],[152.836792,-27.418856],[152.820849,-27.410698],[152.814194,-27.402181],[152.798652,-27.405106],[152.775615,-27.401686],[152.775638,-27.389108],[152.762318,-27.371757],[152.762898,-27.354608],[152.771761,-27.35005],[152.76759,-27.334987],[152.748845,-27.332301],[152.748503,-27.318755],[152.739167,-27.323338],[152.719551,-27.323462],[152.710194,-27.332553],[152.684185,-27.348788],[152.679693,-27.372265],[152.690506,-27.370119],[152.707818,-27.351805],[152.723898,-27.353974],[152.72201,-27.365085],[152.736847,-27.373346],[152.737133,-27.392764],[152.74361,-27.394694],[152.747525,-27.423266],[152.74272,-27.436379],[152.747202,-27.443026],[152.744119,-27.460133],[152.737839,-27.464647],[152.748793,-27.495279],[152.767394,-27.488307],[152.79526,-27.497085],[152.80679,-27.492879],[152.813051,-27.477849],[152.828979,-27.490793],[152.842256,-27.495533],[152.841179,-27.515698],[152.852999,-27.541706],[152.849693,-27.565837],[152.860306,-27.598022],[152.869357,-27.581936],[152.876341,-27.579947],[152.890042,-27.59139],[152.895538,-27.601032],[152.905734,-27.597889],[152.896096,-27.585351],[152.894941,-27.560522],[152.90669,-27.554483],[152.908562,-27.543216],[152.923776,-27.541945],[152.927121,-27.530466],[152.94987,-27.528116],[152.965154,-27.543654],[152.973568,-27.543756],[152.966998,-27.512579],[152.974399,-27.505852],[152.991004,-27.519947],[153.001051,-27.507774],[153.021748,-27.500406]]]},"bbox":[152.679693,-27.601032,153.021748,-27.318755]}]}