{"type":"FeatureCollection","features":[
{"properties":{"electorateShortName":"scullin","electorateName":"Scullin","area":173.82,"state":"VIC"},"type":"Feature","geometry":{"type":"Polygon","coordinates":[[[145.084739,-37.679155],[145.11624,-37.617721],[145.050592,-37.610468],[145.060039,-37.572823],[144.945469,-37.540114],[144.939473,-37.575563],[144.958535,-37.692181],[144.972061,-37.690999],[145.058219,-37.699983],[145.084739,-37.679155]]]},"bbox":[144.939473,-37.699983,145.11624,-37.540114]}]}