{"type":"FeatureCollection","features":[
{"properties":{"electorateShortName":"scullin","electorateName":"Scullin","area":173.82,"state":"VIC"},"type":"Feature","geometry":{"type":"Polygon","coordinates":[[[145.084739,-37.679155],[145.084496,-37.676567],[145.086683,-37.677495],[145.087032,-37.676717],[145.085764,-37.675344],[145.0857,-37.674307],[145.089061,-37.674533],[145.088488,-37.673027],[145.086387,-37.672272],[145.086585,-37.670725],[145.084126,-37.670109],[145.087309,-37.667709],[145.088588,-37.668582],[145.091056,-37.66704],[145.092256,-37.667122],[145.092143,-37.665769],[145.091413,-37.665063],[145.089732,-37.664765],[145.089472,-37.663918],[145.09085,-37.663161],[145.093535,-37.664106],[145.094583,-37.663033],[145.096374,-37.664819],[145.098135,-37.662459],[145.101115,-37.662516],[145.102176,-37.661361],[145.103321,-37.661361],[145.10272,-37.658129],[145.104102,-37.656949],[145.107202,-37.658522],[145.107799,-37.658234],[145.106074,-37.656088],[145.104035,-37.655136],[145.10276,-37.655323],[145.101885,-37.654534],[145.10269,-37.652735],[145.105134,-37.654244],[145.106817,-37.654027],[145.107052,-37.652814],[145.104665,-37.65265],[145.10437,-37.651303],[145.103302,-37.65051],[145.104995,-37.649041],[145.107216,-37.649059],[145.106636,-37.647779],[145.104938,-37.647265],[145.105729,-37.645115],[145.103443,-37.644078],[145.10311,-37.642477],[145.104609,-37.641014],[145.10253,-37.640783],[145.102307,-37.638391],[145.104515,-37.639355],[145.107783,-37.640092],[145.109659,-37.638969],[145.108173,-37.637206],[145.10959,-37.63539],[145.108994,-37.633884],[145.109698,-37.63203],[145.112627,-37.630473],[145.114084,-37.630676],[145.114704,-37.629911],[145.113382,-37.628881],[145.113633,-37.627884],[145.116496,-37.627137],[145.119108,-37.627837],[145.120155,-37.626285],[145.121931,-37.626845],[145.121607,-37.624893],[145.122798,-37.623471],[145.122481,-37.622547],[145.123148,-37.621183],[145.119822,-37.620812],[145.119306,-37.622531],[145.117463,-37.622105],[145.116179,-37.620973],[145.115634,-37.619705],[145.116467,-37.61901],[145.11624,-37.617721],[145.113457,-37.61615],[145.112594,-37.616138],[145.10968,-37.61838],[145.108503,-37.617124],[145.095815,-37.615576],[145.095467,-37.615459],[145.081427,-37.613615],[145.079541,-37.613529],[145.062827,-37.611824],[145.050592,-37.610468],[145.050864,-37.609603],[145.053765,-37.607748],[145.054614,-37.606355],[145.054805,-37.604561],[145.053932,-37.603775],[145.051823,-37.602965],[145.051951,-37.601207],[145.051204,-37.600139],[145.053335,-37.598741],[145.053488,-37.595749],[145.052444,-37.59471],[145.052926,-37.592581],[145.053663,-37.591868],[145.057632,-37.592958],[145.059225,-37.594084],[145.063331,-37.591461],[145.064403,-37.589736],[145.06368,-37.588312],[145.064112,-37.586766],[145.063765,-37.584835],[145.064176,-37.582372],[145.058499,-37.581752],[145.060039,-37.572823],[145.055954,-37.571434],[145.052566,-37.572466],[145.05069,-37.572111],[145.047873,-37.57237],[145.047189,-37.570673],[145.046104,-37.569646],[145.042467,-37.569638],[145.040838,-37.57105],[145.038999,-37.571195],[145.037777,-37.570551],[145.03611,-37.570398],[145.035316,-37.568721],[145.032216,-37.5665],[145.031635,-37.567644],[145.030354,-37.567936],[145.028886,-37.567462],[145.028122,-37.566431],[145.015177,-37.56501],[145.015648,-37.562617],[144.997781,-37.561328],[144.979421,-37.558513],[144.962691,-37.5572],[144.960751,-37.556547],[144.960036,-37.554604],[144.95871,-37.553999],[144.955412,-37.550553],[144.953796,-37.549757],[144.953095,-37.547966],[144.953783,-37.54506],[144.954796,-37.543793],[144.959866,-37.541642],[144.945469,-37.540114],[144.944869,-37.543527],[144.941497,-37.564563],[144.939473,-37.575563],[144.939347,-37.577774],[144.939583,-37.580135],[144.940811,-37.586172],[144.942399,-37.59301],[144.942939,-37.59721],[144.943344,-37.598395],[144.945262,-37.601835],[144.945906,-37.608063],[144.947814,-37.621949],[144.950914,-37.640804],[144.953756,-37.658864],[144.956017,-37.67567],[144.957424,-37.683979],[144.958535,-37.692181],[144.971358,-37.69094],[144.972061,-37.690999],[144.982127,-37.691918],[145.011402,-37.694852],[145.022682,-37.696148],[145.022835,-37.696299],[145.040806,-37.698274],[145.043053,-37.699453],[145.044784,-37.698685],[145.058219,-37.699983],[145.059904,-37.695207],[145.061451,-37.693395],[145.067017,-37.687617],[145.068553,-37.685002],[145.069755,-37.678254],[145.076103,-37.678698],[145.084739,-37.679155]]]},"bbox":[144.939347,-37.699983,145.123148,-37.540114]}]}