{"type":"FeatureCollection","features":[
{"properties":{"electorateShortName":"spence","electorateName":"Spence","area":532.15,"state":"SA"},"type":"Feature","geometry":{"type":"Polygon","coordinates":[[[138.78019,-34.767026],[138.799363,-34.77051],[138.810323,-34.775393],[138.814577,-34.763399],[138.811628,-34.742121],[138.819551,-34.728794],[138.824931,-34.727412],[138.828067,-34.717044],[138.832696,-34.712674],[138.839953,-34.700378],[138.843385,-34.68518],[138.847549,-34.680538],[138.841092,-34.679338],[138.836713,-34.673433],[138.828957,-34.668342],[138.825968,-34.670961],[138.802662,-34.663633],[138.799103,-34.665488],[138.790293,-34.661118],[138.795767,-34.653842],[138.809727,-34.649441],[138.816113,-34.639045],[138.800976,-34.609536],[138.800443,-34.601906],[138.815425,-34.600873],[138.818568,-34.595339],[138.824788,-34.590962],[138.824411,-34.58233],[138.820916,-34.561723],[138.813489,-34.562677],[138.807203,-34.560335],[138.804213,-34.551384],[138.798589,-34.551006],[138.792362,-34.557416],[138.790093,-34.562915],[138.775867,-34.560058],[138.770362,-34.56727],[138.761748,-34.571745],[138.749733,-34.569137],[138.758125,-34.56222],[138.747465,-34.558248],[138.723546,-34.555939],[138.721897,-34.566806],[138.703304,-34.564963],[138.715442,-34.590974],[138.706003,-34.594654],[138.695786,-34.593168],[138.682444,-34.586545],[138.686235,-34.595716],[138.684394,-34.610522],[138.671056,-34.615657],[138.651681,-34.62507],[138.646277,-34.630572],[138.638384,-34.632047],[138.62577,-34.627381],[138.621373,-34.631256],[138.612154,-34.633701],[138.600037,-34.632656],[138.59052,-34.638999],[138.58212,-34.639083],[138.568943,-34.635256],[138.558493,-34.638764],[138.549078,-34.635351],[138.540868,-34.639793],[138.537902,-34.635282],[138.529465,-34.641335],[138.524346,-34.636672],[138.511329,-34.640988],[138.49985,-34.647279],[138.49197,-34.647424],[138.488692,-34.6584],[138.474046,-34.66366],[138.466767,-34.672001],[138.451464,-34.676114],[138.444655,-34.670494],[138.437737,-34.674691],[138.451113,-34.683383],[138.456112,-34.688862],[138.466475,-34.695476],[138.475866,-34.698481],[138.476123,-34.703835],[138.481001,-34.705658],[138.484846,-34.712796],[138.493619,-34.718986],[138.491739,-34.721322],[138.506919,-34.725801],[138.525137,-34.737409],[138.529693,-34.73491],[138.534874,-34.740641],[138.532559,-34.744324],[138.541428,-34.752951],[138.546464,-34.765141],[138.543501,-34.774809],[138.550536,-34.786046],[138.572278,-34.786165],[138.575302,-34.788011],[138.592468,-34.779667],[138.591994,-34.773673],[138.596544,-34.769509],[138.607409,-34.767724],[138.647038,-34.791796],[138.676105,-34.758684],[138.680179,-34.755628],[138.705383,-34.752998],[138.711715,-34.755509],[138.720128,-34.755396],[138.722305,-34.746266],[138.730819,-34.736815],[138.736359,-34.735677],[138.739087,-34.742236],[138.744132,-34.741443],[138.755644,-34.744861],[138.765976,-34.743471],[138.77136,-34.745874],[138.769023,-34.756775],[138.78019,-34.767026]]]},"bbox":[138.437737,-34.791796,138.847549,-34.551006]}]}