{"type":"FeatureCollection","features":[
{"properties":{"electorateShortName":"spence","electorateName":"Spence","area":532.15,"state":"SA"},"type":"Feature","geometry":{"type":"Polygon","coordinates":[[[138.78019,-34.767026],[138.781558,-34.767648],[138.784667,-34.768293],[138.787461,-34.767852],[138.791652,-34.769185],[138.793297,-34.770663],[138.795804,-34.771098],[138.799363,-34.77051],[138.801883,-34.771326],[138.805752,-34.774103],[138.810323,-34.775393],[138.811172,-34.774883],[138.812784,-34.775264],[138.813864,-34.774914],[138.81156,-34.772616],[138.811735,-34.77059],[138.813581,-34.76501],[138.814577,-34.763399],[138.813778,-34.759445],[138.814875,-34.755399],[138.813344,-34.753481],[138.812674,-34.749847],[138.812869,-34.747462],[138.811869,-34.744612],[138.811628,-34.742121],[138.812414,-34.740248],[138.811986,-34.738485],[138.815938,-34.735785],[138.816915,-34.733507],[138.817276,-34.731825],[138.818863,-34.7307],[138.819551,-34.728794],[138.822639,-34.728314],[138.824931,-34.727412],[138.826329,-34.725541],[138.826591,-34.723607],[138.827957,-34.721072],[138.828067,-34.717044],[138.830191,-34.716164],[138.832281,-34.716918],[138.833565,-34.716121],[138.832696,-34.712674],[138.833137,-34.711229],[138.83464,-34.709155],[138.835862,-34.704693],[138.838713,-34.701224],[138.839953,-34.700378],[138.841335,-34.692938],[138.843026,-34.688084],[138.843385,-34.68518],[138.846939,-34.682323],[138.848044,-34.681008],[138.847549,-34.680538],[138.846432,-34.681368],[138.845,-34.681322],[138.841092,-34.679338],[138.842194,-34.67804],[138.841336,-34.67659],[138.842023,-34.674111],[138.840926,-34.673242],[138.839024,-34.672826],[138.837584,-34.673625],[138.836713,-34.673433],[138.835131,-34.671836],[138.831466,-34.671237],[138.832413,-34.669895],[138.831011,-34.669022],[138.828957,-34.668342],[138.827844,-34.668494],[138.827361,-34.669803],[138.828046,-34.670568],[138.825968,-34.670961],[138.822787,-34.668288],[138.820877,-34.668232],[138.819571,-34.669392],[138.817497,-34.668859],[138.814606,-34.6677],[138.811183,-34.668509],[138.80895,-34.668031],[138.8082,-34.666035],[138.80464,-34.66385],[138.802662,-34.663633],[138.801359,-34.664082],[138.799103,-34.665488],[138.79791,-34.665214],[138.797812,-34.663986],[138.795153,-34.663847],[138.794932,-34.661905],[138.792698,-34.662643],[138.790523,-34.662321],[138.790293,-34.661118],[138.792874,-34.656395],[138.7912,-34.656149],[138.788184,-34.657554],[138.786576,-34.656894],[138.786635,-34.655159],[138.789213,-34.654201],[138.795767,-34.653842],[138.807883,-34.649689],[138.809727,-34.649441],[138.811801,-34.64717],[138.812612,-34.645478],[138.813601,-34.644824],[138.814794,-34.642997],[138.814654,-34.642148],[138.812805,-34.640443],[138.816113,-34.639045],[138.800976,-34.609536],[138.801669,-34.609618],[138.800443,-34.601906],[138.805873,-34.602254],[138.809512,-34.601565],[138.815425,-34.600873],[138.817219,-34.598789],[138.818461,-34.598075],[138.818568,-34.595339],[138.824788,-34.590962],[138.82532,-34.587566],[138.824411,-34.58233],[138.821489,-34.581615],[138.823308,-34.577038],[138.821228,-34.563822],[138.820516,-34.563242],[138.820916,-34.561723],[138.819424,-34.560769],[138.818175,-34.561155],[138.816935,-34.56227],[138.814919,-34.562745],[138.813489,-34.562677],[138.813243,-34.560055],[138.813694,-34.558518],[138.81289,-34.557851],[138.810353,-34.558765],[138.808255,-34.557755],[138.807203,-34.560335],[138.805833,-34.560731],[138.802355,-34.560918],[138.80044,-34.559085],[138.801907,-34.558108],[138.804557,-34.557529],[138.805859,-34.555677],[138.805612,-34.554514],[138.804213,-34.551384],[138.802517,-34.550657],[138.800563,-34.551094],[138.798589,-34.551006],[138.796381,-34.552181],[138.793789,-34.551292],[138.793249,-34.552581],[138.793791,-34.553514],[138.79625,-34.554458],[138.795901,-34.555453],[138.793848,-34.555784],[138.792362,-34.557416],[138.788533,-34.556113],[138.788528,-34.558833],[138.788864,-34.559892],[138.791083,-34.560735],[138.791137,-34.561805],[138.790093,-34.562915],[138.78666,-34.562672],[138.782639,-34.561608],[138.780609,-34.560699],[138.775867,-34.560058],[138.772815,-34.560872],[138.772062,-34.562363],[138.770276,-34.563476],[138.769993,-34.564979],[138.769007,-34.565854],[138.770362,-34.56727],[138.769169,-34.56907],[138.767402,-34.56869],[138.764963,-34.569833],[138.762613,-34.569048],[138.761661,-34.569622],[138.762937,-34.571307],[138.761748,-34.571745],[138.749733,-34.569137],[138.749202,-34.569139],[138.758125,-34.56222],[138.753245,-34.5579],[138.752726,-34.558663],[138.747465,-34.558248],[138.723546,-34.555939],[138.721897,-34.566806],[138.703304,-34.564963],[138.715442,-34.590974],[138.715503,-34.591793],[138.706003,-34.594654],[138.695786,-34.593168],[138.682444,-34.586545],[138.686235,-34.595716],[138.684394,-34.610522],[138.683945,-34.611934],[138.680426,-34.615592],[138.679525,-34.614956],[138.679649,-34.613557],[138.678396,-34.61365],[138.676974,-34.615015],[138.675354,-34.613965],[138.673833,-34.615407],[138.671056,-34.615657],[138.67033,-34.613999],[138.669102,-34.613015],[138.668202,-34.613105],[138.667055,-34.614523],[138.669195,-34.617537],[138.667769,-34.618746],[138.667854,-34.619779],[138.666695,-34.620067],[138.664958,-34.619453],[138.663576,-34.619522],[138.662047,-34.620318],[138.661581,-34.62291],[138.660173,-34.623641],[138.659172,-34.622276],[138.65799,-34.621745],[138.655762,-34.621801],[138.655004,-34.623156],[138.653739,-34.623159],[138.650527,-34.624194],[138.651681,-34.62507],[138.650449,-34.626576],[138.650385,-34.627723],[138.64799,-34.629175],[138.646221,-34.629014],[138.646277,-34.630572],[138.643688,-34.631457],[138.641557,-34.630939],[138.640252,-34.631562],[138.639267,-34.630889],[138.638384,-34.632047],[138.634913,-34.629604],[138.633352,-34.630912],[138.631647,-34.630675],[138.630768,-34.628479],[138.629924,-34.628835],[138.628867,-34.62736],[138.627288,-34.627432],[138.625995,-34.625707],[138.625137,-34.625937],[138.62577,-34.627381],[138.62458,-34.628249],[138.624202,-34.629489],[138.623079,-34.63013],[138.621797,-34.629963],[138.621373,-34.631256],[138.61869,-34.632091],[138.617575,-34.633704],[138.615917,-34.633049],[138.612154,-34.633701],[138.609741,-34.63524],[138.608783,-34.633753],[138.606809,-34.634245],[138.606125,-34.633563],[138.604049,-34.634103],[138.60171,-34.63382],[138.601102,-34.632797],[138.600037,-34.632656],[138.597332,-34.633521],[138.596915,-34.635117],[138.595852,-34.63543],[138.594056,-34.634611],[138.592504,-34.635961],[138.591937,-34.637769],[138.59052,-34.638999],[138.588108,-34.638066],[138.583305,-34.638703],[138.58212,-34.639083],[138.579944,-34.637998],[138.578279,-34.638594],[138.57691,-34.637876],[138.576135,-34.636031],[138.571677,-34.636044],[138.568943,-34.635256],[138.565014,-34.636076],[138.563166,-34.635318],[138.562158,-34.635793],[138.56185,-34.637282],[138.560468,-34.637736],[138.559768,-34.638689],[138.558493,-34.638764],[138.556195,-34.636931],[138.55503,-34.63672],[138.553667,-34.637928],[138.551891,-34.63749],[138.5518,-34.636288],[138.549078,-34.635351],[138.54688,-34.636952],[138.547053,-34.637902],[138.545826,-34.638229],[138.54445,-34.63931],[138.540868,-34.639793],[138.539476,-34.637919],[138.539393,-34.635763],[138.537902,-34.635282],[138.536835,-34.63719],[138.535757,-34.636982],[138.533329,-34.639698],[138.531425,-34.639445],[138.529465,-34.641335],[138.526573,-34.639663],[138.526625,-34.638526],[138.525418,-34.636996],[138.524346,-34.636672],[138.522224,-34.637558],[138.520026,-34.637123],[138.518697,-34.639591],[138.51729,-34.63885],[138.515413,-34.639557],[138.513902,-34.641357],[138.511329,-34.640988],[138.509707,-34.642636],[138.508481,-34.642577],[138.507227,-34.643489],[138.507619,-34.644329],[138.505328,-34.645008],[138.50363,-34.646206],[138.49985,-34.647279],[138.497687,-34.647027],[138.496125,-34.647455],[138.49427,-34.646768],[138.49197,-34.647424],[138.492389,-34.651167],[138.491489,-34.652323],[138.490021,-34.653266],[138.489834,-34.654759],[138.490518,-34.6562],[138.488692,-34.6584],[138.474046,-34.66366],[138.472075,-34.667273],[138.468565,-34.668964],[138.46725,-34.670138],[138.466767,-34.672001],[138.464838,-34.673172],[138.463483,-34.673504],[138.460846,-34.673378],[138.459242,-34.674369],[138.457704,-34.674665],[138.456268,-34.675616],[138.453568,-34.676305],[138.451464,-34.676114],[138.449221,-34.674772],[138.447071,-34.674013],[138.445661,-34.672734],[138.444655,-34.670494],[138.439172,-34.669537],[138.43878392881527,-34.669774159942804],[138.43867713712135,-34.66983942300026],[138.435127,-34.672009],[138.430262,-34.667742],[138.429835,-34.664253],[138.431874,-34.66289],[138.436243,-34.653886],[138.439711,-34.653553],[138.442785,-34.655395],[138.445781,-34.653393],[138.434762,-34.634136],[138.434644,-34.631231],[138.432957,-34.631105],[138.426467,-34.621629],[138.422155,-34.62005],[138.417935,-34.622098],[138.413243,-34.620852],[138.415877,-34.619971],[138.412935,-34.615311],[138.416988,-34.614387],[138.411779,-34.61324],[138.414224,-34.611499],[138.407795,-34.601436],[138.408432,-34.60026],[138.402367,-34.59767],[138.398692,-34.598486],[138.393946,-34.596917],[138.39015448836568,-34.59434015111171],[138.3766670698923,-34.604610888670564],[138.3741040698923,-34.607052888670566],[138.3626302049709,-34.620352594825526],[138.3539581434364,-34.63562764339448],[138.3484182070675,-34.6522962025725],[138.34622141392828,-34.66972336126077],[138.34745144061796,-34.68724531304661],[138.35206143500076,-34.704194640815956],[138.35987580081985,-34.71992573889868],[138.36142580081986,-34.72240473889868],[138.373543980453,-34.737772346224055],[138.38869756769103,-34.75015711212203],[138.39398403662858,-34.753592368402316],[138.39447432642555,-34.75433902708563],[138.40853116268732,-34.76800946597636],[138.4199811466838,-34.77507943807635],[138.42263824255943,-34.77898555279671],[138.4352018736617,-34.79134737643889],[138.44993387463785,-34.80102351500101],[138.45869737330162,-34.80457462351736],[138.4590135177707,-34.80582295406194],[138.46721740599332,-34.82256686098042],[138.47425240599333,-34.833803860980424],[138.47875573696376,-34.83962136707833],[138.488512,-34.819798],[138.490256,-34.810966],[138.488394,-34.797054],[138.481691,-34.795753],[138.485446,-34.790504],[138.477997,-34.78294],[138.487623,-34.77059],[138.496325,-34.764612],[138.507004,-34.763389],[138.51369,-34.766567],[138.515749,-34.771573],[138.510594,-34.790777],[138.510296,-34.801181],[138.512092,-34.807273],[138.511546,-34.818085],[138.506326,-34.82632],[138.505872,-34.838453],[138.503274,-34.840852],[138.497192,-34.84217],[138.496816,-34.840448],[138.495542,-34.842118],[138.497114,-34.850552],[138.498947,-34.850612],[138.498257,-34.843806],[138.506739,-34.841257],[138.50724,-34.8406],[138.508541,-34.835876],[138.509121,-34.831164],[138.512298,-34.832031],[138.509575,-34.828072],[138.51636,-34.816505],[138.51616,-34.810835],[138.533039,-34.815146],[138.530822,-34.822573],[138.533564,-34.819865],[138.533579,-34.815136],[138.541959,-34.816942],[138.540331,-34.815441],[138.540695,-34.813132],[138.545732,-34.81061],[138.558473,-34.825161],[138.561471,-34.826549],[138.56627,-34.825305],[138.558316,-34.822384],[138.547565,-34.809637],[138.549512,-34.801437],[138.552231,-34.800789],[138.553874,-34.797933],[138.551163,-34.793146],[138.551668,-34.790488],[138.553914,-34.789902],[138.551259,-34.788442],[138.552925,-34.787511],[138.550536,-34.786046],[138.556637,-34.786147],[138.572278,-34.786165],[138.575302,-34.788011],[138.577788,-34.7867],[138.578945,-34.785354],[138.580522,-34.784299],[138.585224,-34.78211],[138.589212,-34.781366],[138.590591,-34.781342],[138.592468,-34.779667],[138.591826,-34.778707],[138.592132,-34.777692],[138.591586,-34.776544],[138.591994,-34.773673],[138.593697,-34.772525],[138.593799,-34.771022],[138.596544,-34.769509],[138.599287,-34.769473],[138.600566,-34.769048],[138.602058,-34.769205],[138.604319,-34.768465],[138.60665,-34.768339],[138.607409,-34.767724],[138.636656,-34.785448],[138.647038,-34.791796],[138.649653,-34.788915],[138.651053,-34.787045],[138.655656,-34.781751],[138.669499,-34.766266],[138.676105,-34.758684],[138.678718,-34.754288],[138.680108,-34.754265],[138.680179,-34.755628],[138.681631,-34.755655],[138.685513,-34.75472],[138.687493,-34.754638],[138.690821,-34.755127],[138.691791,-34.754424],[138.694389,-34.754864],[138.695714,-34.753988],[138.698583,-34.754517],[138.701353,-34.755861],[138.702052,-34.75454],[138.703418,-34.753342],[138.705383,-34.752998],[138.707186,-34.755322],[138.70779,-34.755613],[138.708946,-34.75369],[138.709747,-34.75357],[138.711715,-34.755509],[138.715076,-34.755996],[138.717834,-34.755434],[138.720128,-34.755396],[138.722526,-34.751688],[138.722786,-34.749857],[138.722175,-34.74799],[138.722305,-34.746266],[138.724087,-34.744326],[138.726912,-34.742278],[138.72865,-34.740625],[138.730819,-34.736815],[138.732099,-34.736051],[138.736359,-34.735677],[138.737272,-34.736279],[138.738188,-34.73809],[138.737232,-34.740334],[138.739087,-34.742236],[138.741431,-34.74179],[138.74183,-34.742155],[138.744132,-34.741443],[138.746578,-34.743011],[138.750085,-34.743496],[138.75031,-34.745416],[138.751297,-34.745328],[138.751805,-34.749088],[138.756171,-34.748707],[138.755644,-34.744861],[138.76119,-34.744473],[138.762324,-34.743145],[138.764249,-34.742964],[138.765976,-34.743471],[138.766186,-34.741823],[138.767744,-34.738527],[138.768524,-34.737855],[138.769855,-34.73536],[138.771396,-34.734253],[138.775767,-34.734847],[138.775259,-34.736312],[138.773145,-34.737798],[138.771688,-34.739498],[138.770294,-34.743092],[138.77136,-34.745874],[138.768474,-34.753476],[138.769023,-34.756775],[138.77129,-34.759226],[138.77435,-34.760616],[138.775674,-34.762105],[138.778753,-34.76445],[138.78019,-34.767026]],[[138.537055,-34.812005],[138.524303,-34.810078],[138.531174,-34.803385],[138.537721,-34.801407],[138.540294,-34.805248],[138.544082,-34.80611],[138.540391,-34.81075],[138.537055,-34.812005]],[[138.529523,-34.774156],[138.541282,-34.787312],[138.546309,-34.799042],[138.545146,-34.802006],[138.537991,-34.800077],[138.529285,-34.801922],[138.523699,-34.809017],[138.518591,-34.805594],[138.516103,-34.796182],[138.522502,-34.769668],[138.518938,-34.763234],[138.513522,-34.759487],[138.514615,-34.756904],[138.518133,-34.756868],[138.52175,-34.760124],[138.529523,-34.774156]],[[138.511818,-34.755477],[138.515763,-34.755783],[138.509408,-34.75751],[138.511818,-34.755477]]]},"bbox":[138.34622141392828,-34.850612,138.848044,-34.550657]}]}