{"type":"FeatureCollection","features":[
{"properties":{"electorateShortName":"sydney","electorateName":"Sydney","area":44.69,"state":"NSW"},"type":"Feature","geometry":{"type":"MultiPolygon","coordinates":[[[[151.180834,-33.919165],[151.211162,-33.923502],[151.211284,-33.919806],[151.215031,-33.900896],[151.218198,-33.885041],[151.216993,-33.880587],[151.212246,-33.876511],[151.212848,-33.871801],[151.223278,-33.866642],[151.228346,-33.857848],[151.22665,-33.854461],[151.195942,-33.849776],[151.191549,-33.84953],[151.187207,-33.844913],[151.182761,-33.844215],[151.173688,-33.844691],[151.16194,-33.846754],[151.159279,-33.845383],[151.158813,-33.848724],[151.163587,-33.854725],[151.160927,-33.858238],[151.157771,-33.857358],[151.149639,-33.862113],[151.144478,-33.863224],[151.14661,-33.866646],[151.142072,-33.870421],[151.148417,-33.870338],[151.152122,-33.874781],[151.159139,-33.875223],[151.174978,-33.872667],[151.176844,-33.878278],[151.175265,-33.883008],[151.17654,-33.886821],[151.173136,-33.887914],[151.171947,-33.894771],[151.176072,-33.897513],[151.181554,-33.906851],[151.181242,-33.913353],[151.185984,-33.917299],[151.180834,-33.919165]]],[[[158.94976394558378,-31.496391718459954],[158.94782181703312,-31.50409042570681],[158.94710125113576,-31.522822122904444],[158.95027661142998,-31.541296775326565],[158.95183361143,-31.546824775326563],[158.95818029116379,-31.56310283993674],[158.96755249645068,-31.577847923834657],[158.97714120218023,-31.58792375846292],[158.9776506028357,-31.599764563717297],[158.98132027006153,-31.617926024002426],[158.9855775216217,-31.630106332890694],[158.99383193757268,-31.645584695711328],[159.00493207473266,-31.659167849002365],[159.01845624423785,-31.670339775313174],[159.0245876896778,-31.673950884485627],[159.04020738396278,-31.681766134341068],[159.05704245511657,-31.68641730184045],[159.0744588798525,-31.687729220007785],[159.0939207406071,-31.685186480874396],[159.11086783305893,-31.67965351187525],[159.12639185431473,-31.670888670030337],[159.13988369220755,-31.65923585926254],[159.14894796523552,-31.650181624805377],[159.1518356685067,-31.646203023366898],[159.160543553505,-31.63962927350128],[159.172145406949,-31.62668331082874],[159.18448407775844,-31.60692493520558],[159.19134879330218,-31.590719241782114],[159.1949283819626,-31.57348742922933],[159.19500262107636,-31.565195995378446],[159.19676447033785,-31.560078598753687],[159.19915021980623,-31.542720911903622],[159.19812767493156,-31.525229900060676],[159.19373558904016,-31.508268453340733],[159.18614041735788,-31.492479391923816],[159.1756300085398,-31.478461103876118],[159.16260269552308,-31.466744866900257],[159.1543270343274,-31.461812541174893],[159.15339422058878,-31.45884297780166],[159.14504715425417,-31.443513277219637],[159.1338979910787,-31.430083109803842],[159.12036609546084,-31.41905763760008],[159.10496045584887,-31.41085157249704],[159.08826053965987,-31.405773577261694],[159.07089449720397,-31.404014655504216],[159.05351553445118,-31.40564096727205],[159.0367773433553,-31.410591340507224],[159.02130951389805,-31.4186795719709],[159.0100184566875,-31.426860721698084],[159.0070147942273,-31.427643313143612],[158.9914381102521,-31.43511241639771],[158.97757538796213,-31.445419963040663],[158.9659373584346,-31.45818620194647],[158.9569527905094,-31.472940798731283],[158.95095269406747,-31.489140163835266],[158.94976394558378,-31.496391718459954]]],[[[151.297149,-33.799331],[151.29391366127635,-33.79466468011573],[151.28847510476106,-33.78952122350498],[151.288179,-33.795086],[151.290368,-33.799145],[151.29413,-33.800895],[151.297149,-33.799331]]],[[[151.24988,-34.001238],[151.23932131695716,-34.01035408253575],[151.2474620818981,-34.007986963552334],[151.26262907179498,-34.00023461349151],[151.27606380085436,-33.98976348322305],[151.28728504618047,-33.976948641541256],[151.29589087036567,-33.96224910739588],[151.30157301861627,-33.94619140814423],[151.30412796023032,-33.929350719697894],[151.30363731185986,-33.916769680144654],[151.3054014279085,-33.907750773730996],[151.30852950062808,-33.90209438613603],[151.31577725095224,-33.885272774621335],[151.31946918360828,-33.86733214665084],[151.3194523812531,-33.84901559085033],[151.31572753982877,-33.831081766520974],[151.30844893973733,-33.81427348048636],[151.30586981721595,-33.81058840265872],[151.301061,-33.818464],[151.301529,-33.823317],[151.290672,-33.828322],[151.280955,-33.832769],[151.287848,-33.850202],[151.286273,-33.852492],[151.286331,-33.857691],[151.282829,-33.862556],[151.28462,-33.873529],[151.282691,-33.877446],[151.286014,-33.886101],[151.285919,-33.891886],[151.281274,-33.891017],[151.27494,-33.893234],[151.276311,-33.898964],[151.272591,-33.899507],[151.268554,-33.903922],[151.270355,-33.906403],[151.271398,-33.914235],[151.262396,-33.916745],[151.257621,-33.922461],[151.261377,-33.927516],[151.259779,-33.929651],[151.261772,-33.935191],[151.259436,-33.937234],[151.265683,-33.94154],[151.258558,-33.945658],[151.256967,-33.951596],[151.265739,-33.958847],[151.262961,-33.961215],[151.265965,-33.96803],[151.260411,-33.967842],[151.256485,-33.964933],[151.251886,-33.964671],[151.257516,-33.971637],[151.258952,-33.975768],[151.251185,-33.978936],[151.254113,-33.983334],[151.252027,-33.98647],[151.253132,-33.991321],[151.249186,-33.998521],[151.24988,-34.001238]]]]},"bbox":[151.142072,-34.01035408253575,159.19915021980623,-31.404014655504216]}]}