{"type":"FeatureCollection","features":[
{"properties":{"electorateShortName":"tangney","electorateName":"Tangney","area":96.83,"state":"WA"},"type":"Feature","geometry":{"type":"MultiPolygon","coordinates":[[[[115.916173,-32.115337],[115.931407,-32.053788],[115.838086,-31.991159],[115.775886,-32.026464],[115.849087,-32.086043],[115.916173,-32.115337]]],[[[115.754246,-31.973838],[115.75498507453919,-31.92083142474129],[115.7277237300481,-31.934198730760034],[115.7155836595772,-31.944715322251206],[115.70550626158241,-31.957222362559975],[115.6860822340575,-32.02052399810247],[115.68616522709645,-32.028063853722884],[115.68614581586351,-32.03035599681234],[115.68612158885284,-32.031661267387456],[115.68605320634059,-32.03726606916652],[115.68627253197475,-32.048487702074596],[115.68836611728844,-32.066398733594696],[115.69696229100755,-32.09059927823202],[115.70539830480982,-32.10586669280414],[115.71662095566612,-32.119220058834735],[115.749868,-32.132801],[115.762165,-32.106388],[115.758589,-32.095537],[115.724328,-32.05389],[115.749752,-32.026033],[115.750871,-32.021603],[115.751592,-32.001348],[115.754246,-31.973838]]]]},"bbox":[115.68605320634059,-32.132801,115.931407,-31.92083142474129]}]}