{"type":"FeatureCollection","features":[
{"properties":{"electorateShortName":"tangney","electorateName":"Tangney","area":96.83,"state":"WA"},"type":"Feature","geometry":{"type":"MultiPolygon","coordinates":[[[[115.916173,-32.115337],[115.927638,-32.105376],[115.930735,-32.100217],[115.944312,-32.088706],[115.951618,-32.082767],[115.949082,-32.08016],[115.942763,-32.074634],[115.941724,-32.07354],[115.940138,-32.070522],[115.93818,-32.06222],[115.936994,-32.060465],[115.932686,-32.056687],[115.931801,-32.055473],[115.931407,-32.053788],[115.931036,-32.05132],[115.931591,-32.049281],[115.927949,-32.048548],[115.92625,-32.047601],[115.924527,-32.045936],[115.917221,-32.039733],[115.917515,-32.039019],[115.914876,-32.036435],[115.914568,-32.031965],[115.913014,-32.030609],[115.912389,-32.03154],[115.910206,-32.032634],[115.907704,-32.032667],[115.905395,-32.031219],[115.903329,-32.030459],[115.900752,-32.028236],[115.90289,-32.02664],[115.903766,-32.024845],[115.902548,-32.02385],[115.901279,-32.021347],[115.898578,-32.020869],[115.89765,-32.020369],[115.897582,-32.018437],[115.895289,-32.019804],[115.894083,-32.019362],[115.891606,-32.019528],[115.889422,-32.02008],[115.887858,-32.021324],[115.885413,-32.022208],[115.882708,-32.022761],[115.880133,-32.023755],[115.878732,-32.025744],[115.877526,-32.028176],[115.874951,-32.031602],[115.873387,-32.031602],[115.872246,-32.030966],[115.868889,-32.029903],[115.866412,-32.030013],[115.864913,-32.031395],[115.864587,-32.033052],[115.863805,-32.034489],[115.861458,-32.035429],[115.85872,-32.035208],[115.856569,-32.03366],[115.855461,-32.031809],[115.855591,-32.028879],[115.856765,-32.02606],[115.856243,-32.023352],[115.854614,-32.021196],[115.853832,-32.018046],[115.853832,-32.013845],[115.853192,-32.01095],[115.850259,-32.004453],[115.849836,-32.001586],[115.848484,-31.99786],[115.845865,-31.99528],[115.84316,-31.99356],[115.838086,-31.991159],[115.836184,-31.99354],[115.831474,-31.99546],[115.82758,-31.997764],[115.82296,-32.001451],[115.82133,-32.003448],[115.820696,-32.005599],[115.820334,-32.010514],[115.819156,-32.013049],[115.817888,-32.014201],[115.815986,-32.014355],[115.81336,-32.014048],[115.809012,-32.012127],[115.803035,-32.011436],[115.801314,-32.010898],[115.795064,-32.009439],[115.786641,-32.007172],[115.783652,-32.006673],[115.780347,-32.007211],[115.779848,-32.008823],[115.780165,-32.011319],[115.780845,-32.012625],[115.782701,-32.01443],[115.783426,-32.016542],[115.782566,-32.018692],[115.780211,-32.021032],[115.777358,-32.024372],[115.775886,-32.026464],[115.77621,-32.026327],[115.776047,-32.038323],[115.776261,-32.047047],[115.779478,-32.046997],[115.779584,-32.054911],[115.793594,-32.054897],[115.793621,-32.056642],[115.803205,-32.056437],[115.803274,-32.06582],[115.808372,-32.06699],[115.811115,-32.068092],[115.813224,-32.068616],[115.814973,-32.068654],[115.815113,-32.072593],[115.81561,-32.074055],[115.817283,-32.077236],[115.820016,-32.076222],[115.821726,-32.074619],[115.824181,-32.073877],[115.827834,-32.074584],[115.830006,-32.075974],[115.83334,-32.078928],[115.835131,-32.079685],[115.841282,-32.079693],[115.847597,-32.07877],[115.849211,-32.078664],[115.849087,-32.086043],[115.853356,-32.087654],[115.85675,-32.087972],[115.859661,-32.087595],[115.87056,-32.084375],[115.874858,-32.082548],[115.877868,-32.080819],[115.880172,-32.079105],[115.884363,-32.075088],[115.892017,-32.081769],[115.892108,-32.082241],[115.891012,-32.085565],[115.889682,-32.086993],[115.890686,-32.088228],[115.890624,-32.092087],[115.896141,-32.09654],[115.900055,-32.102187],[115.914245,-32.114054],[115.915903,-32.114519],[115.916173,-32.115337]]],[[[115.754246,-31.973838],[115.75498507453919,-31.92083142474129],[115.74226381923303,-31.92566153504363],[115.74153981923304,-31.92600753504363],[115.7277237300481,-31.934198730760034],[115.7155836595772,-31.944715322251206],[115.70550626158241,-31.957222362559975],[115.69781249497875,-31.971321510161115],[115.69749549497874,-31.972050510161115],[115.69188292765925,-31.9897715207638],[115.69097805405475,-31.997742500700998],[115.68864878090751,-32.004335565690056],[115.6860822340575,-32.02052399810247],[115.68616522709645,-32.028063853722884],[115.68614581586351,-32.03035599681234],[115.68612158885284,-32.031661267387456],[115.68605320634059,-32.03726606916652],[115.68627253197475,-32.048487702074596],[115.68836611728844,-32.066398733594696],[115.69398839078318,-32.08353285715939],[115.69560425811322,-32.08636970560134],[115.69696229100755,-32.09059927823202],[115.70539830480982,-32.10586669280414],[115.71662095566612,-32.119220058834735],[115.73020868717475,-32.13015778387419],[115.73884433230141,-32.134693713060315],[115.749868,-32.132801],[115.755948,-32.129549],[115.761982,-32.117234],[115.762165,-32.106388],[115.756912,-32.102611],[115.755312,-32.097876],[115.758589,-32.095537],[115.750337,-32.082988],[115.75073,-32.071679],[115.745755,-32.069676],[115.742605,-32.064925],[115.738303,-32.062867],[115.741386,-32.05942],[115.740672,-32.056798],[115.73228,-32.056106],[115.73184,-32.053535],[115.724328,-32.05389],[115.727255,-32.052886],[115.735008,-32.041053],[115.741787,-32.03951],[115.749752,-32.026033],[115.750871,-32.021603],[115.751592,-32.001348],[115.749997,-31.996945],[115.754246,-31.973838]]],[[[115.747773,-32.134755],[115.74440395416008,-32.1376139408699],[115.74565110341634,-32.13826901418845],[115.7535118435511,-32.14061075123858],[115.75421925767094,-32.141009307690794],[115.75681794989922,-32.14389916611375],[115.76069287399788,-32.14675400767883],[115.760232,-32.14482],[115.766082,-32.143592],[115.765381,-32.139611],[115.761562,-32.13847],[115.760719,-32.13751],[115.7554,-32.135494],[115.747773,-32.134755]]],[[[115.743571,-32.135821],[115.74005764514719,-32.13533101358255],[115.74424209486425,-32.13752892321422],[115.744851,-32.136729],[115.743571,-32.135821]]]]},"bbox":[115.68605320634059,-32.14675400767883,115.951618,-31.92083142474129]}]}