{"type":"FeatureCollection","features":[
{"properties":{"electorateShortName":"wannon","electorateName":"Wannon","area":34269.68,"state":"VIC"},"type":"Feature","geometry":{"type":"Polygon","coordinates":[[[144.229339,-38.398384],[144.204071,-38.380812],[144.210504,-38.302272],[144.265111,-38.308642],[144.278098,-38.242206],[144.241325,-38.237773],[144.262376,-38.141269],[144.196952,-38.146593],[144.144172,-38.113488],[144.098785,-38.115291],[144.095631,-38.064297],[143.918973,-38.041879],[143.829715,-38.022363],[143.672409,-38.0294],[143.648335,-37.98852],[143.59345,-37.954669],[143.47941,-37.94085],[143.44652,-37.9005],[143.440712,-37.784849],[143.465148,-37.654997],[143.641965,-37.650303],[143.668559,-37.538443],[143.613246,-37.500982],[143.665129,-37.236655],[143.585412,-37.184553],[143.489971,-37.172003],[143.46687,-37.269288],[143.405776,-37.233753],[143.293612,-37.210623],[143.224695,-37.153609],[143.180461,-37.188585],[143.066938,-37.147368],[143.04891,-37.18975],[142.993522,-37.183072],[142.953974,-37.207778],[142.837885,-37.191641],[142.717082,-37.1573],[142.542773,-37.157418],[142.595244,-37.217598],[142.592197,-37.290376],[142.501402,-37.292561],[142.42309,-37.260097],[142.239742,-37.147674],[142.215704,-37.111402],[142.114488,-37.112054],[142.079378,-37.223647],[142.002821,-37.224473],[141.937174,-37.206681],[141.923352,-37.121251],[141.88185,-37.145686],[141.707912,-37.184733],[141.668383,-37.155188],[141.599007,-37.161094],[141.576178,-37.188122],[141.491325,-37.220707],[141.531444,-37.297643],[141.431506,-37.297536],[141.43153,-37.372302],[141.221004,-37.348705],[141.279118,-37.393094],[141.261036,-37.429675],[141.168237,-37.41988],[141.0976,-37.449839],[140.973283,-37.358326],[140.973173,-37.358237],[140.973507,-37.411222],[140.972011,-37.730752],[140.966871,-37.998534],[140.965796,-38.055998],[141.034168,-38.073843],[141.184425,-38.144919],[141.26201,-38.19454],[141.35761,-38.274759],[141.407068,-38.369077],[141.46102,-38.362096],[141.519235,-38.390029],[141.650257,-38.393048],[141.59922,-38.321074],[141.704748,-38.258015],[141.769645,-38.253559],[141.903504,-38.269872],[142.00267,-38.310335],[142.147231,-38.389581],[142.233573,-38.392431],[142.261528,-38.364586],[142.372518,-38.349483],[142.472772,-38.401661],[142.563319,-38.422004],[142.79147,-38.571292],[142.929846,-38.624073],[143.01345,-38.624138],[143.112149,-38.669307],[143.215322,-38.758393],[143.257632,-38.770702],[143.356471,-38.753943],[143.429177,-38.783691],[143.51134,-38.857693],[143.554703,-38.855492],[143.671353,-38.748526],[143.728555,-38.717798],[143.840412,-38.690993],[143.971968,-38.566854],[143.979728,-38.532276],[144.036497,-38.475775],[144.104758,-38.469255],[144.132302,-38.4353],[144.229339,-38.398384]]]},"bbox":[140.965796,-38.857693,144.278098,-37.111402]}]}