{"type":"FeatureCollection","features":[
{"properties":{"electorateShortName":"warringah","electorateName":"Warringah","area":51.49,"state":"NSW"},"type":"Feature","geometry":{"type":"Polygon","coordinates":[[[151.290672,-33.828322],[151.301529,-33.823317],[151.301061,-33.818464],[151.307595,-33.807763],[151.303564,-33.806415],[151.298607,-33.79939],[151.29413,-33.800895],[151.288179,-33.795086],[151.289834,-33.782487],[151.295954,-33.781772],[151.292959,-33.773661],[151.299538,-33.767132],[151.279336,-33.765735],[151.28055,-33.759726],[151.274556,-33.755306],[151.245268,-33.751763],[151.234471,-33.752223],[151.232842,-33.764364],[151.2383,-33.778678],[151.232252,-33.77787],[151.230948,-33.784291],[151.234942,-33.788918],[151.232766,-33.794651],[151.234028,-33.814165],[151.22002,-33.818588],[151.214088,-33.815751],[151.19906,-33.822066],[151.19826,-33.825088],[151.189155,-33.831219],[151.186236,-33.838056],[151.187207,-33.844913],[151.191549,-33.84953],[151.22665,-33.854461],[151.250617,-33.85728],[151.268491,-33.838962],[151.281141,-33.823585],[151.290672,-33.828322]]]},"bbox":[151.186236,-33.85728,151.307595,-33.751763]}]}