{"type":"FeatureCollection","features":[
{"properties":{"electorateShortName":"watson","electorateName":"Watson","area":50.5,"state":"NSW"},"type":"Feature","geometry":{"type":"Polygon","coordinates":[[[151.117138,-33.91335],[151.109992,-33.903214],[151.089427,-33.900708],[151.091508,-33.887654],[151.087733,-33.892706],[151.068876,-33.884497],[151.061478,-33.882978],[151.039409,-33.887699],[151.035036,-33.898755],[151.011422,-33.896285],[151.001676,-33.903873],[150.986888,-33.893462],[150.973326,-33.889429],[150.968663,-33.896735],[150.979445,-33.906353],[150.973705,-33.916751],[150.97899,-33.929267],[150.998038,-33.931445],[151.017983,-33.938396],[151.026504,-33.934021],[151.072388,-33.929428],[151.090846,-33.924245],[151.117138,-33.91335]]]},"bbox":[150.968663,-33.938396,151.117138,-33.882978]}]}