{"type":"FeatureCollection","features":[
{"properties":{"electorateShortName":"wentworth","electorateName":"Wentworth","area":31.23,"state":"NSW"},"type":"Feature","geometry":{"type":"Polygon","coordinates":[[[151.290672,-33.828322],[151.281141,-33.823585],[151.268491,-33.838962],[151.250617,-33.85728],[151.22665,-33.854461],[151.228346,-33.857848],[151.223278,-33.866642],[151.212848,-33.871801],[151.212246,-33.876511],[151.218198,-33.885041],[151.215031,-33.900896],[151.222841,-33.901398],[151.234161,-33.908458],[151.236526,-33.912005],[151.262396,-33.916745],[151.271398,-33.914235],[151.268554,-33.903922],[151.276311,-33.898964],[151.27494,-33.893234],[151.281274,-33.891017],[151.286014,-33.886101],[151.282691,-33.877446],[151.28462,-33.873529],[151.282829,-33.862556],[151.287848,-33.850202],[151.280955,-33.832769],[151.290672,-33.828322]]]},"bbox":[151.212246,-33.916745,151.290672,-33.823585]}]}