{"type":"FeatureCollection","features":[
{"properties":{"electorateShortName":"wentworth","electorateName":"Wentworth","area":31.23,"state":"NSW"},"type":"Feature","geometry":{"type":"Polygon","coordinates":[[[151.290672,-33.828322],[151.281141,-33.823585],[151.250617,-33.85728],[151.22665,-33.854461],[151.223278,-33.866642],[151.212848,-33.871801],[151.218198,-33.885041],[151.215031,-33.900896],[151.236526,-33.912005],[151.262396,-33.916745],[151.27494,-33.893234],[151.286014,-33.886101],[151.282829,-33.862556],[151.287848,-33.850202],[151.280955,-33.832769],[151.290672,-33.828322]]]},"bbox":[151.212848,-33.916745,151.290672,-33.823585]}]}