{"type":"FeatureCollection","features":[
{"properties":{"electorateShortName":"whitlam","electorateName":"Whitlam","area":2995.61,"state":"NSW"},"type":"Feature","geometry":{"type":"Polygon","coordinates":[[[150.860886,-34.627883],[150.855549,-34.615623],[150.865212,-34.605193],[150.871488,-34.603859],[150.877248,-34.60675],[150.895521,-34.601241],[150.904456,-34.596968],[150.887699,-34.592982],[150.883464,-34.594216],[150.87492,-34.589021],[150.873135,-34.579929],[150.869104,-34.573328],[150.869874,-34.560796],[150.868284,-34.556502],[150.87025,-34.549011],[150.874841,-34.542305],[150.862742,-34.529093],[150.868822,-34.525597],[150.873683,-34.507393],[150.873367,-34.499017],[150.886849,-34.497801],[150.886605,-34.491595],[150.870808,-34.492025],[150.856149,-34.484348],[150.847247,-34.484134],[150.830966,-34.490359],[150.835437,-34.500694],[150.82587,-34.49559],[150.82647,-34.488099],[150.823834,-34.480531],[150.831977,-34.473542],[150.82668,-34.468482],[150.830634,-34.463523],[150.821838,-34.461237],[150.814883,-34.461801],[150.798363,-34.450307],[150.792239,-34.44283],[150.78477,-34.448065],[150.769382,-34.450523],[150.760032,-34.449966],[150.751164,-34.455918],[150.747162,-34.461249],[150.734918,-34.460658],[150.727989,-34.456861],[150.717595,-34.45478],[150.701766,-34.443988],[150.689634,-34.441706],[150.745677,-34.337416],[150.601549,-34.314359],[150.59394,-34.318735],[150.581021,-34.317478],[150.562136,-34.331174],[150.560266,-34.32439],[150.565677,-34.323408],[150.561692,-34.304859],[150.563079,-34.297483],[150.541769,-34.29449],[150.539567,-34.28853],[150.545982,-34.283395],[150.551371,-34.2669],[150.547994,-34.264424],[150.509642,-34.25943],[150.442084,-34.24843],[150.357227,-34.236925],[150.352941,-34.234731],[150.341197,-34.234352],[150.330407,-34.236948],[150.331336,-34.2322],[150.286499,-34.225726],[150.27768,-34.226929],[150.271555,-34.2227],[150.269566,-34.214195],[150.260959,-34.215134],[150.25405,-34.225259],[150.244051,-34.226115],[150.232692,-34.229037],[150.229923,-34.231798],[150.230708,-34.246921],[150.225549,-34.26151],[150.225018,-34.271184],[150.222686,-34.274638],[150.213026,-34.279251],[150.208248,-34.29412],[150.197015,-34.304104],[150.187372,-34.303356],[150.178057,-34.307803],[150.164672,-34.308096],[150.156949,-34.305789],[150.153057,-34.2975],[150.146811,-34.295372],[150.140897,-34.299334],[150.134159,-34.292953],[150.126532,-34.293122],[150.124695,-34.288136],[150.117145,-34.282811],[150.096241,-34.277043],[150.098225,-34.26841],[150.091336,-34.266435],[150.086368,-34.270993],[150.080206,-34.272141],[150.072029,-34.268107],[150.059231,-34.267018],[150.05375,-34.266374],[150.049718,-34.273264],[150.022123,-34.270089],[150.023589,-34.262406],[149.997166,-34.259263],[149.99234,-34.253752],[149.988788,-34.273919],[149.988102,-34.297734],[149.975285,-34.297701],[149.969577,-34.309041],[149.96518,-34.31243],[149.970416,-34.319341],[149.967914,-34.325623],[149.98034,-34.337096],[149.985818,-34.34457],[149.995591,-34.346378],[149.998508,-34.352481],[150.007084,-34.35184],[150.005888,-34.359282],[150.018796,-34.367449],[150.037847,-34.354503],[150.044273,-34.360769],[150.05936,-34.356504],[150.073876,-34.356113],[150.075203,-34.349471],[150.088824,-34.346653],[150.095917,-34.349542],[150.103573,-34.35887],[150.095866,-34.366956],[150.09988,-34.371846],[150.105828,-34.367537],[150.111026,-34.367494],[150.122261,-34.373719],[150.114197,-34.383933],[150.106718,-34.389737],[150.11006,-34.403586],[150.115681,-34.410168],[150.10771,-34.417899],[150.10551,-34.424954],[150.098189,-34.432841],[150.087948,-34.433046],[150.088465,-34.438016],[150.084285,-34.445725],[150.07719,-34.446534],[150.064451,-34.457903],[150.058894,-34.465456],[150.058462,-34.471926],[150.066649,-34.470495],[150.072227,-34.472561],[150.073515,-34.478963],[150.067519,-34.483943],[150.071793,-34.494041],[150.083235,-34.495625],[150.092955,-34.510536],[150.092163,-34.513143],[150.077932,-34.517359],[150.068477,-34.51116],[150.062873,-34.517621],[150.057719,-34.519273],[150.045488,-34.527401],[150.049994,-34.536259],[150.058543,-34.539414],[150.065079,-34.545566],[150.071187,-34.543206],[150.079918,-34.546079],[150.082923,-34.554433],[150.089525,-34.552867],[150.094848,-34.557601],[150.092437,-34.561494],[150.093886,-34.573938],[150.084564,-34.575405],[150.082942,-34.582311],[150.08732,-34.58641],[150.097613,-34.579867],[150.099031,-34.584975],[150.0934,-34.588353],[150.097481,-34.597398],[150.09265,-34.605824],[150.091331,-34.615387],[150.097594,-34.616789],[150.099629,-34.627263],[150.093986,-34.629695],[150.087113,-34.636693],[150.078388,-34.639572],[150.081541,-34.649351],[150.088592,-34.653437],[150.098483,-34.655064],[150.092571,-34.680435],[150.112608,-34.68363],[150.118,-34.693232],[150.116738,-34.699591],[150.143399,-34.702748],[150.141094,-34.715296],[150.170697,-34.719616],[150.17016,-34.726836],[150.178459,-34.728125],[150.176355,-34.74921],[150.17291,-34.748716],[150.169182,-34.769189],[150.180369,-34.764717],[150.194342,-34.751262],[150.202535,-34.757018],[150.21107,-34.753972],[150.216106,-34.747265],[150.24172,-34.744879],[150.243081,-34.74073],[150.250293,-34.739131],[150.256727,-34.741415],[150.267547,-34.736539],[150.270408,-34.732832],[150.29312,-34.736438],[150.301885,-34.733907],[150.313929,-34.740634],[150.325621,-34.744171],[150.33353,-34.752388],[150.338408,-34.748354],[150.35873,-34.748311],[150.371234,-34.743849],[150.37784,-34.736644],[150.382828,-34.723335],[150.390312,-34.719254],[150.388709,-34.714101],[150.394241,-34.708665],[150.405853,-34.701211],[150.415894,-34.701365],[150.424718,-34.697764],[150.433291,-34.68976],[150.451792,-34.691769],[150.469216,-34.678192],[150.498253,-34.681892],[150.50076,-34.68022],[150.501543,-34.67056],[150.504252,-34.666829],[150.514208,-34.6644],[150.518632,-34.660928],[150.53054,-34.656811],[150.538386,-34.662078],[150.541561,-34.652083],[150.548328,-34.650451],[150.554802,-34.641431],[150.562864,-34.651618],[150.565997,-34.663658],[150.566207,-34.674203],[150.56211,-34.681942],[150.563762,-34.689596],[150.568456,-34.69652],[150.579649,-34.693488],[150.579834,-34.681209],[150.576376,-34.669631],[150.582243,-34.666894],[150.582947,-34.661687],[150.590467,-34.658718],[150.591921,-34.648857],[150.603458,-34.651838],[150.61136,-34.646171],[150.623283,-34.644297],[150.632351,-34.633934],[150.632739,-34.628836],[150.642787,-34.624886],[150.654761,-34.624469],[150.663307,-34.619229],[150.666625,-34.611709],[150.700452,-34.604969],[150.758131,-34.613022],[150.759991,-34.605954],[150.766636,-34.606761],[150.768286,-34.598949],[150.790172,-34.602266],[150.788127,-34.613501],[150.795873,-34.614609],[150.793003,-34.628734],[150.799275,-34.629579],[150.796952,-34.641328],[150.807979,-34.642745],[150.814947,-34.640819],[150.832741,-34.6389],[150.835945,-34.632892],[150.850047,-34.628296],[150.846324,-34.621915],[150.838414,-34.615208],[150.849196,-34.614642],[150.858721,-34.628075],[150.860886,-34.627883]]]},"bbox":[149.96518,-34.769189,150.904456,-34.214195]}]}