{"type":"FeatureCollection","features":[
{"properties":{"electorateShortName":"wide-bay","electorateName":"Wide Bay","area":14226.66495,"state":"QLD"},"type":"Feature","geometry":{"type":"Polygon","coordinates":[[[153.095559,-26.498572],[153.102535,-26.45121],[153.114533,-26.39812],[153.116775,-26.380122],[153.100736,-26.379296],[153.093458,-26.386251],[153.079365,-26.380509],[153.071174,-26.367606],[153.066094,-26.355249],[153.061293,-26.330499],[153.061367,-26.313167],[153.066389,-26.271765],[153.074788,-26.232052],[153.086322,-26.187939],[153.113189,-26.10351],[153.134892,-26.046591],[153.152157,-26.006326],[153.185404,-25.938954],[153.192346,-25.933099],[153.186524,-25.927106],[153.182187,-25.928384],[153.181591,-25.936941],[153.17692,-25.945318],[153.16877,-25.94889],[153.155631,-25.949424],[153.137977,-25.944868],[153.124945,-25.937417],[153.113226,-25.927567],[153.091306,-25.899029],[153.085906,-25.888748],[153.077777,-25.859826],[153.072996,-25.81403],[153.070327,-25.810715],[153.075331,-25.802271],[153.076161,-25.793678],[153.089358,-25.757713],[153.088506,-25.749023],[153.081728,-25.728376],[153.078467,-25.710373],[153.077191,-25.680149],[153.080423,-25.655766],[153.089213,-25.617477],[153.098901,-25.585052],[153.115547,-25.539959],[153.142124,-25.475521],[153.212031,-25.319322],[153.266602,-25.207921],[153.325039,-25.080732],[153.350539,-25.031741],[153.356251,-25.017436],[153.357926,-25.008795],[153.352266,-24.999593],[153.350101,-24.980606],[153.350587,-24.968309],[153.349239,-24.964839],[153.341134,-24.966317],[153.324778,-24.963771],[153.316458,-24.959291],[153.299818,-24.945941],[153.292608,-24.938198],[153.285148,-24.926539],[153.267913,-24.886388],[153.26168,-24.855684],[153.259634,-24.823713],[153.262094,-24.76701],[153.266924,-24.708307],[153.264621,-24.697089],[153.249611,-24.69767],[153.242773,-24.7017],[153.212125,-24.715944],[153.171305,-24.747295],[153.171304,-24.747295],[153.17086,-24.74852],[153.16997,-24.74997],[153.16444,-24.75558],[153.15536,-24.76913],[153.14281,-24.78215],[153.13055,-24.79291],[153.12048,-24.80628],[153.11761,-24.81324],[153.119832,-24.817541],[153.13117,-24.814263],[153.14483,-24.81764],[153.16414,-24.82936],[153.17464,-24.83856],[153.18615,-24.85237],[153.19706,-24.86752],[153.21056,-24.89054],[153.22485,-24.91074],[153.22932,-24.91878],[153.23231,-24.92907],[153.23322,-24.93945],[153.23176,-24.95255],[153.22576,-24.97279],[153.22637,-24.98128],[153.22341,-24.99022],[153.213229,-25.010823],[153.199759,-25.032335],[153.17872,-25.05865],[153.168539,-25.073923],[153.161351,-25.082543],[153.1399,-25.10167],[153.124827,-25.116297],[153.11414,-25.1231],[153.106016,-25.130114],[153.072756,-25.155583],[153.056929,-25.165237],[153.045881,-25.170451],[153.030724,-25.175517],[153.017566,-25.188401],[153.012366,-25.195921],[152.999518,-25.208491],[152.9906,-25.22394],[152.99793,-25.22855],[153.00861,-25.23106],[153.01704,-25.23034],[153.02593,-25.223076],[153.03739,-25.22392],[153.04424,-25.2381],[153.04841,-25.24026],[153.04573,-25.24659],[153.050075,-25.262659],[153.045206,-25.26312],[153.0397,-25.27404],[153.04128,-25.28443],[153.046135,-25.291607],[153.04198,-25.29815],[153.04786,-25.31468],[153.05005,-25.34258],[153.04588,-25.35044],[153.046385,-25.359734],[153.03456,-25.38088],[153.034165,-25.384709],[152.938394,-25.424003],[152.929485,-25.431709],[152.92243,-25.431514],[152.906341,-25.419618],[152.889758,-25.425552],[152.902467,-25.426334],[152.908245,-25.429336],[152.896387,-25.433779],[152.881687,-25.443196],[152.87369,-25.442564],[152.86885,-25.447048],[152.86587,-25.460501],[152.860504,-25.463402],[152.854298,-25.472753],[152.851173,-25.484163],[152.848902,-25.485972],[152.83661,-25.486142],[152.823736,-25.494003],[152.805881,-25.487352],[152.801434,-25.488144],[152.791579,-25.496191],[152.787014,-25.50417],[152.77349,-25.510504],[152.764228,-25.509739],[152.751773,-25.501069],[152.747651,-25.484814],[152.741707,-25.469153],[152.736887,-25.466316],[152.730582,-25.467392],[152.726347,-25.473973],[152.713548,-25.473466],[152.702776,-25.471412],[152.696681,-25.477425],[152.693165,-25.471911],[152.684247,-25.474088],[152.672727,-25.467953],[152.666234,-25.470039],[152.659712,-25.466455],[152.650137,-25.467095],[152.638943,-25.46073],[152.627476,-25.473294],[152.619046,-25.471446],[152.613819,-25.480326],[152.602675,-25.481144],[152.573972,-25.467412],[152.510262,-25.457858],[152.511006,-25.454585],[152.497553,-25.455667],[152.492847,-25.464471],[152.485826,-25.461834],[152.481007,-25.465422],[152.464365,-25.467713],[152.460807,-25.473072],[152.451649,-25.477265],[152.450228,-25.480766],[152.442474,-25.480017],[152.437783,-25.475349],[152.434082,-25.47872],[152.421987,-25.476112],[152.410052,-25.485737],[152.405511,-25.483303],[152.405857,-25.467313],[152.401014,-25.46491],[152.404295,-25.44301],[152.410968,-25.438373],[152.41356,-25.429849],[152.416121,-25.412754],[152.410984,-25.410647],[152.403532,-25.403269],[152.401841,-25.408898],[152.395735,-25.409031],[152.389752,-25.400716],[152.381812,-25.404016],[152.376469,-25.401861],[152.364741,-25.402425],[152.364258,-25.406171],[152.327752,-25.401749],[152.319957,-25.407976],[152.306624,-25.407121],[152.298613,-25.410233],[152.273093,-25.432342],[152.272063,-25.433234],[152.260376,-25.461914],[152.263781,-25.470471],[152.262079,-25.47656],[152.27339,-25.483131],[152.270826,-25.489849],[152.268637,-25.5035],[152.272674,-25.506328],[152.26935,-25.515397],[152.26976,-25.521904],[152.251173,-25.521076],[152.24629,-25.516507],[152.214937,-25.512918],[152.215758,-25.520186],[152.207062,-25.518728],[152.193459,-25.519325],[152.179305,-25.523068],[152.179166,-25.529428],[152.175423,-25.535857],[152.165411,-25.547505],[152.162723,-25.559592],[152.164418,-25.574584],[152.151829,-25.584177],[152.139631,-25.587167],[152.129338,-25.587721],[152.124061,-25.595915],[152.111252,-25.59843],[152.109701,-25.603509],[152.115812,-25.615454],[152.11529,-25.623473],[152.112134,-25.62701],[152.092612,-25.632195],[152.090661,-25.636328],[152.080261,-25.63101],[152.07317,-25.624364],[152.0661,-25.621286],[152.058075,-25.620692],[152.05187,-25.623777],[152.044132,-25.615126],[152.041155,-25.619681],[152.038053,-25.642759],[152.02956,-25.642241],[152.027238,-25.64931],[152.010987,-25.667617],[152.012236,-25.676373],[152.017406,-25.680358],[152.015502,-25.703861],[152.011822,-25.712082],[152.003286,-25.717589],[151.996997,-25.711224],[151.982369,-25.714891],[151.982451,-25.728582],[151.980272,-25.732958],[151.995299,-25.736844],[151.997517,-25.746418],[151.995453,-25.757201],[151.997343,-25.760758],[151.997389,-25.771044],[151.990273,-25.773895],[151.986326,-25.778887],[151.988981,-25.783486],[151.984733,-25.793916],[151.986207,-25.801285],[151.978909,-25.8137],[151.973338,-25.810871],[151.968886,-25.823065],[151.97037,-25.830597],[151.959502,-25.83317],[151.955426,-25.842617],[151.948406,-25.850825],[151.944529,-25.850898],[151.937907,-25.856158],[151.934963,-25.862831],[151.928602,-25.867609],[151.921471,-25.867975],[151.912883,-25.872474],[151.901243,-25.869509],[151.892421,-25.858635],[151.892811,-25.848651],[151.889405,-25.842047],[151.882501,-25.841783],[151.880871,-25.834456],[151.872573,-25.820062],[151.874725,-25.814909],[151.863018,-25.805697],[151.855631,-25.803963],[151.853211,-25.806568],[151.84581,-25.803676],[151.840231,-25.798076],[151.829022,-25.794416],[151.828813,-25.78473],[151.826505,-25.782806],[151.818568,-25.786835],[151.813167,-25.784971],[151.813737,-25.780079],[151.810575,-25.763555],[151.800312,-25.757007],[151.791987,-25.757567],[151.789786,-25.760914],[151.789831,-25.77171],[151.778267,-25.774487],[151.775824,-25.780048],[151.780541,-25.786844],[151.775013,-25.789742],[151.76842,-25.787998],[151.762195,-25.799748],[151.756923,-25.80341],[151.764372,-25.806895],[151.765987,-25.811131],[151.774541,-25.814303],[151.771977,-25.820751],[151.764944,-25.82768],[151.76711,-25.838898],[151.771034,-25.842451],[151.772839,-25.852184],[151.768132,-25.858398],[151.773624,-25.863985],[151.775496,-25.874766],[151.774274,-25.885075],[151.780763,-25.896673],[151.77645,-25.906423],[151.779773,-25.918549],[151.770274,-25.929496],[151.762977,-25.933098],[151.755829,-25.944522],[151.750852,-25.946878],[151.756208,-25.952814],[151.755123,-25.956471],[151.748131,-25.962301],[151.747767,-25.982619],[151.745511,-25.990229],[151.747883,-25.995871],[151.745639,-26.007579],[151.751177,-26.010761],[151.748113,-26.016463],[151.742071,-26.02045],[151.746409,-26.029345],[151.752566,-26.034705],[151.741932,-26.042285],[151.722655,-26.047354],[151.726911,-26.056142],[151.726321,-26.063467],[151.734661,-26.067384],[151.729104,-26.076674],[151.729929,-26.082238],[151.72279,-26.086058],[151.72065,-26.092598],[151.73065,-26.094208],[151.733999,-26.100198],[151.72536,-26.104468],[151.72369,-26.118918],[151.73218,-26.123338],[151.74407,-26.122128],[151.74592,-26.130718],[151.74563,-26.143588],[151.75201,-26.144498],[151.7584,-26.139207],[151.76451,-26.146787],[151.779109,-26.159017],[151.786219,-26.167727],[151.787209,-26.172127],[151.793589,-26.172147],[151.797959,-26.176107],[151.809869,-26.167207],[151.824158,-26.177689],[151.821455,-26.187986],[151.826295,-26.190486],[151.829819,-26.198067],[151.829549,-26.203487],[151.848449,-26.203637],[151.851089,-26.198447],[151.858849,-26.198237],[151.869118,-26.194747],[151.879868,-26.200527],[151.872218,-26.210447],[151.884838,-26.220517],[151.885838,-26.224807],[151.894463,-26.237798],[151.895743,-26.24674],[151.893311,-26.258234],[151.907515,-26.260096],[151.91769,-26.273954],[151.914307,-26.280856],[151.905567,-26.275997],[151.90072,-26.27996],[151.898704,-26.292026],[151.89115,-26.295353],[151.887749,-26.302294],[151.96736,-26.311697],[151.969211,-26.318702],[151.981362,-26.313347],[151.976569,-26.34617],[152.008945,-26.349807],[152.012645,-26.355588],[152.001176,-26.363489],[152.004573,-26.367569],[152.004079,-26.375493],[152.011798,-26.375274],[152.066278,-26.381612],[152.068957,-26.383207],[152.072527,-26.359419],[152.088317,-26.365849],[152.096439,-26.373543],[152.10745,-26.374935],[152.120144,-26.378695],[152.123319,-26.384578],[152.121249,-26.392641],[152.130484,-26.397607],[152.134343,-26.396983],[152.140217,-26.401569],[152.142535,-26.406768],[152.148731,-26.401357],[152.152972,-26.408905],[152.159427,-26.415523],[152.16719,-26.416696],[152.166972,-26.422337],[152.17112,-26.427302],[152.173777,-26.438091],[152.167652,-26.475419],[152.174343,-26.481202],[152.182078,-26.484073],[152.195163,-26.495239],[152.2063,-26.508644],[152.213607,-26.513101],[152.217896,-26.506702],[152.23124,-26.507415],[152.233257,-26.491897],[152.245803,-26.48568],[152.253135,-26.484574],[152.25926,-26.476504],[152.258847,-26.470152],[152.267106,-26.469196],[152.271306,-26.464931],[152.27318,-26.454072],[152.283717,-26.452212],[152.293839,-26.45933],[152.296741,-26.46474],[152.309864,-26.471658],[152.315719,-26.481963],[152.319366,-26.478005],[152.330231,-26.476067],[152.340519,-26.469829],[152.350103,-26.469302],[152.356095,-26.465181],[152.370763,-26.462442],[152.376622,-26.472418],[152.386235,-26.472227],[152.390065,-26.476111],[152.398917,-26.470945],[152.402705,-26.474046],[152.412067,-26.46449],[152.420683,-26.467534],[152.424636,-26.464515],[152.442847,-26.460453],[152.438608,-26.486246],[152.444737,-26.487111],[152.444132,-26.505895],[152.439045,-26.513239],[152.440006,-26.517563],[152.435708,-26.523785],[152.436135,-26.537588],[152.449616,-26.530914],[152.448483,-26.537929],[152.4431,-26.544445],[152.440343,-26.557075],[152.450857,-26.55842],[152.449059,-26.569788],[152.458536,-26.570989],[152.456971,-26.580891],[152.473482,-26.58247],[152.519817,-26.588308],[152.522265,-26.586301],[152.515122,-26.57748],[152.51149,-26.567389],[152.553989,-26.572576],[152.560405,-26.581838],[152.575195,-26.584007],[152.57928,-26.580884],[152.587941,-26.579747],[152.595498,-26.584102],[152.602516,-26.577936],[152.606318,-26.584297],[152.61866,-26.584313],[152.625629,-26.581981],[152.643663,-26.58625],[152.652639,-26.590247],[152.66026,-26.597107],[152.669965,-26.596116],[152.680487,-26.597709],[152.682892,-26.589286],[152.681006,-26.583942],[152.686019,-26.577021],[152.694959,-26.575566],[152.694935,-26.567879],[152.700754,-26.565206],[152.710558,-26.556582],[152.714697,-26.546348],[152.728448,-26.536977],[152.733389,-26.543001],[152.737645,-26.540255],[152.745131,-26.549627],[152.75273,-26.549767],[152.758211,-26.543946],[152.758494,-26.536387],[152.767154,-26.537338],[152.769516,-26.531222],[152.767395,-26.527314],[152.759691,-26.525015],[152.762079,-26.510649],[152.743706,-26.508173],[152.744811,-26.499361],[152.749273,-26.497801],[152.75242,-26.491441],[152.765607,-26.482028],[152.765382,-26.47578],[152.757652,-26.475388],[152.757618,-26.468445],[152.78861,-26.473046],[152.789208,-26.469451],[152.804179,-26.471487],[152.80319,-26.477411],[152.813186,-26.488879],[152.814092,-26.498097],[152.826966,-26.499405],[152.828162,-26.492727],[152.843807,-26.484049],[152.853259,-26.481456],[152.869335,-26.474206],[152.870848,-26.46547],[152.879551,-26.466692],[152.892404,-26.455],[152.89992,-26.454038],[152.91721,-26.449316],[152.921839,-26.443048],[152.935645,-26.445044],[152.945017,-26.4446],[152.946255,-26.437176],[152.964466,-26.439619],[152.966381,-26.432044],[152.986675,-26.434861],[152.996807,-26.433356],[153.00602,-26.43515],[153.007481,-26.440016],[153.030792,-26.443104],[153.034068,-26.44622],[153.038591,-26.463126],[153.05675,-26.477345],[153.070617,-26.480819],[153.082978,-26.482574],[153.081046,-26.493854],[153.084331,-26.496561],[153.095559,-26.498572]]]},"bbox":[151.72065,-26.597709,153.357926,-24.697089]}]}