{"type":"FeatureCollection","features":[
{"properties":{"electorateShortName":"wide-bay","electorateName":"Wide Bay","area":14226.66495,"state":"QLD"},"type":"Feature","geometry":{"type":"Polygon","coordinates":[[[152.575195,-26.584007],[152.57651,-26.584148],[152.577834,-26.583136],[152.57928,-26.580884],[152.582318,-26.581081],[152.583077,-26.579823],[152.587941,-26.579747],[152.58889,-26.582269],[152.590984,-26.583149],[152.592181,-26.584366],[152.593898,-26.584724],[152.595498,-26.584102],[152.598461,-26.581418],[152.59974,-26.581083],[152.602516,-26.577936],[152.60461,-26.578378],[152.605874,-26.579699],[152.605873,-26.583032],[152.606318,-26.584297],[152.609757,-26.583898],[152.612222,-26.582973],[152.6142,-26.582865],[152.615985,-26.583215],[152.61713,-26.583964],[152.61866,-26.584313],[152.620766,-26.583975],[152.623638,-26.583125],[152.625629,-26.581981],[152.628175,-26.582968],[152.629447,-26.583777],[152.630534,-26.58338],[152.633144,-26.584539],[152.635757,-26.585125],[152.637993,-26.584561],[152.638434,-26.585653],[152.640285,-26.585604],[152.642003,-26.586529],[152.643663,-26.58625],[152.649649,-26.588628],[152.651045,-26.590068],[152.652639,-26.590247],[152.653461,-26.591685],[152.653582,-26.592833],[152.655746,-26.593818],[152.656316,-26.594681],[152.66026,-26.597107],[152.662939,-26.597348],[152.665434,-26.596269],[152.666835,-26.596791],[152.669965,-26.596116],[152.670472,-26.596806],[152.672964,-26.596301],[152.673278,-26.597277],[152.675385,-26.597057],[152.676723,-26.597521],[152.680487,-26.597709],[152.680811,-26.596792],[152.680436,-26.595242],[152.681534,-26.592722],[152.681416,-26.590886],[152.682892,-26.589286],[152.682395,-26.586645],[152.681006,-26.583942],[152.681268,-26.582509],[152.682611,-26.582056],[152.683315,-26.580694],[152.683649,-26.57879],[152.686019,-26.577021],[152.687361,-26.576625],[152.688443,-26.577089],[152.692019,-26.57653],[152.694959,-26.575566],[152.695415,-26.573847],[152.694723,-26.571779],[152.695619,-26.570418],[152.694935,-26.567879],[152.696917,-26.567026],[152.699349,-26.56543],[152.700754,-26.565206],[152.701461,-26.564176],[152.702611,-26.563836],[152.705047,-26.561609],[152.706587,-26.559836],[152.708437,-26.559901],[152.710558,-26.556582],[152.709555,-26.554166],[152.71047,-26.552512],[152.711564,-26.552646],[152.712443,-26.546208],[152.71441,-26.545725],[152.714697,-26.546348],[152.728448,-26.536977],[152.733389,-26.543001],[152.737645,-26.540255],[152.745131,-26.549627],[152.746473,-26.549855],[152.747975,-26.548305],[152.749825,-26.547251],[152.75101,-26.548718],[152.75273,-26.549767],[152.754549,-26.549709],[152.755722,-26.549057],[152.756142,-26.548003],[152.755694,-26.546421],[152.758211,-26.543946],[152.758701,-26.542891],[152.757579,-26.541921],[152.756257,-26.542593],[152.755101,-26.542151],[152.755493,-26.541227],[152.757175,-26.539368],[152.758494,-26.536387],[152.760954,-26.53609],[152.761991,-26.536434],[152.764296,-26.540006],[152.764851,-26.538605],[152.767154,-26.537338],[152.769394,-26.533715],[152.769516,-26.531222],[152.768249,-26.528166],[152.767395,-26.527314],[152.762737,-26.525382],[152.759691,-26.525015],[152.762079,-26.510649],[152.743706,-26.508173],[152.743516,-26.506265],[152.745016,-26.504819],[152.744835,-26.503653],[152.743925,-26.502749],[152.745198,-26.501536],[152.744811,-26.499361],[152.745302,-26.498678],[152.746805,-26.498761],[152.749273,-26.497801],[152.750615,-26.496017],[152.752171,-26.493339],[152.75242,-26.491441],[152.755561,-26.489459],[152.757833,-26.487664],[152.761444,-26.486885],[152.761627,-26.48373],[152.762466,-26.483052],[152.76482,-26.482867],[152.765607,-26.482028],[152.765107,-26.480464],[152.765354,-26.478986],[152.766666,-26.477757],[152.765382,-26.47578],[152.764195,-26.474944],[152.762082,-26.474455],[152.759876,-26.474736],[152.759061,-26.475533],[152.757652,-26.475388],[152.756492,-26.474256],[152.756589,-26.473323],[152.757946,-26.471806],[152.75811,-26.470633],[152.757384,-26.470031],[152.757618,-26.468445],[152.764424,-26.469363],[152.765466,-26.463611],[152.768092,-26.464174],[152.76857,-26.464617],[152.767514,-26.466052],[152.767206,-26.468398],[152.768006,-26.470265],[152.78861,-26.473046],[152.789208,-26.469451],[152.804179,-26.471487],[152.80319,-26.477411],[152.80848,-26.48193],[152.810461,-26.486124],[152.811732,-26.487982],[152.813186,-26.488879],[152.812247,-26.494557],[152.813155,-26.495837],[152.813331,-26.497322],[152.814092,-26.498097],[152.816922,-26.498763],[152.818136,-26.498227],[152.826966,-26.499405],[152.828162,-26.492727],[152.835067,-26.488172],[152.835832,-26.489271],[152.843807,-26.484049],[152.845951,-26.4867],[152.849134,-26.484746],[152.850347,-26.484707],[152.850613,-26.483197],[152.853259,-26.481456],[152.8565,-26.480547],[152.859442,-26.479065],[152.859794,-26.477903],[152.861246,-26.476937],[152.86104,-26.47625],[152.861887,-26.474733],[152.864959,-26.476138],[152.866481,-26.472302],[152.867192,-26.473272],[152.869335,-26.474206],[152.870848,-26.46547],[152.879551,-26.466692],[152.880123,-26.468997],[152.885429,-26.469829],[152.886245,-26.465162],[152.885273,-26.462241],[152.887692,-26.458801],[152.889099,-26.45878],[152.891927,-26.455969],[152.892404,-26.455],[152.89538,-26.455012],[152.89992,-26.454038],[152.903346,-26.45087],[152.905442,-26.451418],[152.908468,-26.451627],[152.908432,-26.449351],[152.912372,-26.450752],[152.912956,-26.44747],[152.913792,-26.447595],[152.91721,-26.449316],[152.918266,-26.450889],[152.919426,-26.451521],[152.920161,-26.4527],[152.921839,-26.443048],[152.935645,-26.445044],[152.936102,-26.443163],[152.945017,-26.4446],[152.946255,-26.437176],[152.964466,-26.439619],[152.964984,-26.440289],[152.966381,-26.432044],[152.986675,-26.434861],[152.985676,-26.433266],[152.99556,-26.434668],[152.99502,-26.433843],[152.995519,-26.432178],[152.996807,-26.433356],[153.003863,-26.43449],[153.00602,-26.43515],[153.006051,-26.436437],[153.007481,-26.440016],[153.023849,-26.442314],[153.02498,-26.444367],[153.025962,-26.444745],[153.029146,-26.443059],[153.030792,-26.443104],[153.034068,-26.44622],[153.036067,-26.455932],[153.036506,-26.459163],[153.037166,-26.461042],[153.038591,-26.463126],[153.04634,-26.468961],[153.05675,-26.477345],[153.059623,-26.478717],[153.063808,-26.479455],[153.065413,-26.478543],[153.070617,-26.480819],[153.082978,-26.482574],[153.081046,-26.493854],[153.081964,-26.495468],[153.084331,-26.496561],[153.089757,-26.497293],[153.091813,-26.498568],[153.09352,-26.498303],[153.095559,-26.498572],[153.102535,-26.45121],[153.114533,-26.39812],[153.115542,-26.39562],[153.117272,-26.395664],[153.116814,-26.392645],[153.119643,-26.391567],[153.115515,-26.389255],[153.115763,-26.383552],[153.116775,-26.380122],[153.119947,-26.379249],[153.11578,-26.376359],[153.111762,-26.379297],[153.107715,-26.376908],[153.105938,-26.379235],[153.100736,-26.379296],[153.093458,-26.386251],[153.09072,-26.386099],[153.079365,-26.380509],[153.071174,-26.367606],[153.066094,-26.355249],[153.061293,-26.330499],[153.061367,-26.313167],[153.066389,-26.271765],[153.074788,-26.232052],[153.086322,-26.187939],[153.113189,-26.10351],[153.134892,-26.046591],[153.152157,-26.006326],[153.185404,-25.938954],[153.187567,-25.936247],[153.191683,-25.936987],[153.19069,-25.934586],[153.192346,-25.933099],[153.191303,-25.930436],[153.186524,-25.927106],[153.182187,-25.928384],[153.181591,-25.936941],[153.17692,-25.945318],[153.16877,-25.94889],[153.155631,-25.949424],[153.137977,-25.944868],[153.124945,-25.937417],[153.113226,-25.927567],[153.091306,-25.899029],[153.085906,-25.888748],[153.077777,-25.859826],[153.072996,-25.81403],[153.070327,-25.810715],[153.075331,-25.802271],[153.076161,-25.793678],[153.089358,-25.757713],[153.088506,-25.749023],[153.081728,-25.728376],[153.078467,-25.710373],[153.077191,-25.680149],[153.080423,-25.655766],[153.089213,-25.617477],[153.098901,-25.585052],[153.115547,-25.539959],[153.142124,-25.475521],[153.212031,-25.319322],[153.266602,-25.207921],[153.325039,-25.080732],[153.350539,-25.031741],[153.356251,-25.017436],[153.357926,-25.008795],[153.360338,-25.006563],[153.359874,-25.005476],[153.355336,-25.006092],[153.352266,-24.999593],[153.351049,-24.991549],[153.352232,-24.989582],[153.350661,-24.987707],[153.351284,-24.981872],[153.350101,-24.980606],[153.350587,-24.968309],[153.351734,-24.967809],[153.350721,-24.963441],[153.349783,-24.962581],[153.349239,-24.964839],[153.341134,-24.966317],[153.324778,-24.963771],[153.316458,-24.959291],[153.299818,-24.945941],[153.292608,-24.938198],[153.285148,-24.926539],[153.267913,-24.886388],[153.26168,-24.855684],[153.259634,-24.823713],[153.262094,-24.76701],[153.266924,-24.708307],[153.266328,-24.699737],[153.264621,-24.697089],[153.262651,-24.697743],[153.256531,-24.697392],[153.253065,-24.696996],[153.249611,-24.69767],[153.246689,-24.699612],[153.243755,-24.700985],[153.242773,-24.7017],[153.238703,-24.70312],[153.230865,-24.706822],[153.225861,-24.709028],[153.216719,-24.713499],[153.212125,-24.715944],[153.206288,-24.719953],[153.203056,-24.722821],[153.196123,-24.728254],[153.191091,-24.731967],[153.189115,-24.733203],[153.183366,-24.737667],[153.180527,-24.740285],[153.17706,-24.743188],[153.173248,-24.747293],[153.171305,-24.747295],[153.171304,-24.747295],[153.17086,-24.74852],[153.16997,-24.74997],[153.16444,-24.75558],[153.1601,-24.76317],[153.15536,-24.76913],[153.14281,-24.78215],[153.13668,-24.78721],[153.13055,-24.79291],[153.12542,-24.79923],[153.12048,-24.80628],[153.1188,-24.80972],[153.11761,-24.81324],[153.11752,-24.81559],[153.119832,-24.817541],[153.122766,-24.817354],[153.13117,-24.814263],[153.13849,-24.81548],[153.14483,-24.81764],[153.15028,-24.82026],[153.15552,-24.82332],[153.16414,-24.82936],[153.17009,-24.83432],[153.17464,-24.83856],[153.18615,-24.85237],[153.19706,-24.86752],[153.20232,-24.87601],[153.21056,-24.89054],[153.21373,-24.89441],[153.2189,-24.90299],[153.22485,-24.91074],[153.22932,-24.91878],[153.23231,-24.92907],[153.23322,-24.93485],[153.23322,-24.93945],[153.23176,-24.95255],[153.2297,-24.96158],[153.22723,-24.96719],[153.22576,-24.97279],[153.22616,-24.97586],[153.227179,-24.977453],[153.227977,-24.977556],[153.228728,-24.979619],[153.22637,-24.98128],[153.22617,-24.98254],[153.22479,-24.98525],[153.22341,-24.99022],[153.21986,-24.99745],[153.21905,-24.9984],[153.21853,-25.00023],[153.21739,-25.0026],[153.21413,-25.00766],[153.213229,-25.010823],[153.21225,-25.01164],[153.21017,-25.01435],[153.20938,-25.01616],[153.20761,-25.01923],[153.20434,-25.02438],[153.20078,-25.02945],[153.199759,-25.032335],[153.19742,-25.03469],[153.19465,-25.03822],[153.19366,-25.04002],[153.19099,-25.04355],[153.18476,-25.05114],[153.18278,-25.05385],[153.1811,-25.05557],[153.17872,-25.05865],[153.17753,-25.06081],[153.17526,-25.06326],[153.17417,-25.06533],[153.17041,-25.07012],[153.168511,-25.073199],[153.168539,-25.073923],[153.165778,-25.077504],[153.16219,-25.08133],[153.161351,-25.082543],[153.158587,-25.085167],[153.15308,-25.0901],[153.14971,-25.09281],[153.14456,-25.09779],[153.14159,-25.1005],[153.1399,-25.10167],[153.13465,-25.10665],[153.132798,-25.107808],[153.132893,-25.108464],[153.13105,-25.109983],[153.12851,-25.11279],[153.12782,-25.11388],[153.124827,-25.116297],[153.12157,-25.11849],[153.11979,-25.1193],[153.11761,-25.1212],[153.11414,-25.1231],[153.11166,-25.12545],[153.106016,-25.130114],[153.101844,-25.132909],[153.08996,-25.141988],[153.087727,-25.144136],[153.08419,-25.14687],[153.081199,-25.149547],[153.076841,-25.152851],[153.072756,-25.155583],[153.07071,-25.15654],[153.067677,-25.158865],[153.059682,-25.163772],[153.056929,-25.165237],[153.051799,-25.167699],[153.047423,-25.169612],[153.045881,-25.170451],[153.04153,-25.172132],[153.037601,-25.173357],[153.035115,-25.17441],[153.030724,-25.175517],[153.029533,-25.176303],[153.028209,-25.178151],[153.026557,-25.179915],[153.025386,-25.180629],[153.021957,-25.183922],[153.019298,-25.186943],[153.017566,-25.188401],[153.014809,-25.192019],[153.014392,-25.193197],[153.012366,-25.195921],[153.0091,-25.19882],[153.00642,-25.20207],[153.002233,-25.205389],[152.999518,-25.208491],[152.997642,-25.211625],[152.996615,-25.212957],[152.993686,-25.21772],[152.992301,-25.220705],[152.9912,-25.22225],[152.9906,-25.22394],[152.99061,-25.22642],[152.99148,-25.22845],[152.99398,-25.2307],[152.99509,-25.23104],[152.995457,-25.229808],[152.994184,-25.22824],[152.994951,-25.226937],[152.99793,-25.22855],[153.00106,-25.22886],[153.00444,-25.22962],[153.00861,-25.23106],[153.01248,-25.23097],[153.01704,-25.23034],[153.01912,-25.22934],[153.021355,-25.227847],[153.020775,-25.227252],[153.022926,-25.225071],[153.02411,-25.224885],[153.02593,-25.223076],[153.02746,-25.22356],[153.030012,-25.223738],[153.031532,-25.223298],[153.03262,-25.22564],[153.03388,-25.225894],[153.03739,-25.22392],[153.03839,-25.22627],[153.03957,-25.22726],[153.03987,-25.2306],[153.04157,-25.23214],[153.04197,-25.23521],[153.04246,-25.2362],[153.04424,-25.2381],[153.04762,-25.23936],[153.04841,-25.24026],[153.04891,-25.2427],[153.0503,-25.24351],[153.050774,-25.24517],[153.049798,-25.245312],[153.04901,-25.24406],[153.04573,-25.24659],[153.04515,-25.24785],[153.04613,-25.25002],[153.04782,-25.2511],[153.048156,-25.255407],[153.047443,-25.257186],[153.04942,-25.25815],[153.050825,-25.258234],[153.0515,-25.259034],[153.050116,-25.259673],[153.050075,-25.262659],[153.048342,-25.262794],[153.047132,-25.262397],[153.045206,-25.26312],[153.04435,-25.26429],[153.04396,-25.26573],[153.04138,-25.27016],[153.04108,-25.27169],[153.0397,-25.27404],[153.0394,-25.27693],[153.04089,-25.28072],[153.04128,-25.28443],[153.04257,-25.28686],[153.04506,-25.28912],[153.04515,-25.29057],[153.046135,-25.291607],[153.04507,-25.29228],[153.04437,-25.29364],[153.044463,-25.29556],[153.043226,-25.296841],[153.042248,-25.297081],[153.04198,-25.29815],[153.04477,-25.30122],[153.04506,-25.30763],[153.04786,-25.31468],[153.04786,-25.31811],[153.04825,-25.31883],[153.050137,-25.319284],[153.04816,-25.32163],[153.04815,-25.32615],[153.04856,-25.32976],[153.04935,-25.33265],[153.04895,-25.33391],[153.04995,-25.33924],[153.05005,-25.34258],[153.051451,-25.344965],[153.04956,-25.34565],[153.04737,-25.34773],[153.04588,-25.35044],[153.04568,-25.35514],[153.04767,-25.35938],[153.046385,-25.359734],[153.04509,-25.36164],[153.0433,-25.36363],[153.04261,-25.36633],[153.04032,-25.36986],[153.03943,-25.37212],[153.03456,-25.38088],[153.03426,-25.38169],[153.034165,-25.384709],[153.03198,-25.38566],[153.015423,-25.392415],[152.938394,-25.424003],[152.929485,-25.431709],[152.926832,-25.431933],[152.92243,-25.431514],[152.915407,-25.426535],[152.911949,-25.422029],[152.909328,-25.41988],[152.906341,-25.419618],[152.900158,-25.421924],[152.889758,-25.425552],[152.889863,-25.426966],[152.893078,-25.42545],[152.894498,-25.425413],[152.897435,-25.426226],[152.902467,-25.426334],[152.907229,-25.42531],[152.908864,-25.426211],[152.908967,-25.427422],[152.908245,-25.429336],[152.905269,-25.430822],[152.899525,-25.432416],[152.896387,-25.433779],[152.893164,-25.436692],[152.889244,-25.439189],[152.886688,-25.440339],[152.881687,-25.443196],[152.88033,-25.44352],[152.879242,-25.442998],[152.876046,-25.442428],[152.87369,-25.442564],[152.871024,-25.444044],[152.869532,-25.445765],[152.86885,-25.447048],[152.868898,-25.448962],[152.86736,-25.453635],[152.866758,-25.457792],[152.86587,-25.460501],[152.864616,-25.461678],[152.862766,-25.461974],[152.860504,-25.463402],[152.860329,-25.464649],[152.857917,-25.466852],[152.856155,-25.468889],[152.855202,-25.470445],[152.854298,-25.472753],[152.852632,-25.479433],[152.851173,-25.484163],[152.849943,-25.485526],[152.848902,-25.485972],[152.843836,-25.486063],[152.840762,-25.485199],[152.839476,-25.485272],[152.83661,-25.486142],[152.835284,-25.486888],[152.833053,-25.488868],[152.830139,-25.490605],[152.8284,-25.491179],[152.8257,-25.490852],[152.823736,-25.494003],[152.8176,-25.492354],[152.814387,-25.491269],[152.809471,-25.488588],[152.805881,-25.487352],[152.803757,-25.48743],[152.801434,-25.488144],[152.798622,-25.489801],[152.795712,-25.491898],[152.792686,-25.494648],[152.791579,-25.496191],[152.790133,-25.500968],[152.787014,-25.50417],[152.778729,-25.508605],[152.77349,-25.510504],[152.767977,-25.509971],[152.764228,-25.509739],[152.759646,-25.507397],[152.756841,-25.505242],[152.753735,-25.503198],[152.751773,-25.501069],[152.75109,-25.498509],[152.749542,-25.49473],[152.748766,-25.491836],[152.747651,-25.484814],[152.746434,-25.481388],[152.744792,-25.477953],[152.743876,-25.475479],[152.742606,-25.470984],[152.741707,-25.469153],[152.739454,-25.467277],[152.736887,-25.466316],[152.733845,-25.466521],[152.730582,-25.467392],[152.72976,-25.470069],[152.727836,-25.471992],[152.726347,-25.473973],[152.725526,-25.474065],[152.723024,-25.472675],[152.72174,-25.472675],[152.718027,-25.475317],[152.716145,-25.476226],[152.71485,-25.475625],[152.714853,-25.474618],[152.715627,-25.472929],[152.715696,-25.471096],[152.713887,-25.471217],[152.713548,-25.473466],[152.710895,-25.4749],[152.708987,-25.473057],[152.706176,-25.472768],[152.702776,-25.471412],[152.701903,-25.471528],[152.70062,-25.473625],[152.700286,-25.475722],[152.700902,-25.476811],[152.698028,-25.476707],[152.696681,-25.477425],[152.694538,-25.476938],[152.694692,-25.475351],[152.693165,-25.471911],[152.690971,-25.471366],[152.689187,-25.471632],[152.687057,-25.473312],[152.688224,-25.475004],[152.687673,-25.476417],[152.687596,-25.478514],[152.684619,-25.479278],[152.684272,-25.47819],[152.686017,-25.476336],[152.685632,-25.475096],[152.684247,-25.474088],[152.682437,-25.473718],[152.679909,-25.472652],[152.679178,-25.470961],[152.675213,-25.470034],[152.674058,-25.470659],[152.672727,-25.467953],[152.668601,-25.468791],[152.666234,-25.470039],[152.663954,-25.469419],[152.663187,-25.468564],[152.659712,-25.466455],[152.658095,-25.467424],[152.656013,-25.467258],[152.655468,-25.465766],[152.654297,-25.466308],[152.651521,-25.465246],[152.650137,-25.467095],[152.64899,-25.466279],[152.646895,-25.46403],[152.645327,-25.462975],[152.64449,-25.463687],[152.643148,-25.46353],[152.641656,-25.462468],[152.640983,-25.460778],[152.638943,-25.46073],[152.636462,-25.462813],[152.635361,-25.463221],[152.634991,-25.464414],[152.633933,-25.465018],[152.633691,-25.466368],[152.63259,-25.466796],[152.631422,-25.468183],[152.630494,-25.468494],[152.630942,-25.469924],[152.630081,-25.470936],[152.628763,-25.471603],[152.627476,-25.473294],[152.624077,-25.473169],[152.623471,-25.47215],[152.62116,-25.470966],[152.619046,-25.471446],[152.618682,-25.472714],[152.618931,-25.474296],[152.618563,-25.475368],[152.61698,-25.476324],[152.616177,-25.478475],[152.613819,-25.480326],[152.609273,-25.48054],[152.6081,-25.480201],[152.607255,-25.481085],[152.605631,-25.481176],[152.60554,-25.482443],[152.602675,-25.481144],[152.573972,-25.467412],[152.54173,-25.462489],[152.529423,-25.460633],[152.529394,-25.460282],[152.510262,-25.457858],[152.511006,-25.454585],[152.509849,-25.454261],[152.508325,-25.454793],[152.505495,-25.454385],[152.501104,-25.454629],[152.497553,-25.455667],[152.495431,-25.458405],[152.494298,-25.461993],[152.492847,-25.464471],[152.491937,-25.464672],[152.490134,-25.464082],[152.488172,-25.462828],[152.485826,-25.461834],[152.484215,-25.462266],[152.483911,-25.46303],[152.482156,-25.464125],[152.481007,-25.465422],[152.475024,-25.466978],[152.472343,-25.466531],[152.466232,-25.467136],[152.464365,-25.467713],[152.463552,-25.469009],[152.462467,-25.471631],[152.460807,-25.473072],[152.461493,-25.475752],[152.460536,-25.476545],[152.457409,-25.475983],[152.455382,-25.474672],[152.451649,-25.477265],[152.451058,-25.480291],[152.450228,-25.480766],[152.445713,-25.480824],[152.442474,-25.480017],[152.440894,-25.477265],[152.440527,-25.475767],[152.43898,-25.474715],[152.437783,-25.475349],[152.436682,-25.477481],[152.435485,-25.478418],[152.434082,-25.47872],[152.427907,-25.477697],[152.426551,-25.477006],[152.42462,-25.477265],[152.423439,-25.475997],[152.421987,-25.476112],[152.419131,-25.479008],[152.418094,-25.479772],[152.414424,-25.481429],[152.411648,-25.484109],[152.411393,-25.484944],[152.410052,-25.485737],[152.408949,-25.485369],[152.408455,-25.483805],[152.4076,-25.483381],[152.405511,-25.483303],[152.405584,-25.478674],[152.406064,-25.478326],[152.405105,-25.475023],[152.405757,-25.473639],[152.405857,-25.467313],[152.401014,-25.46491],[152.404295,-25.44301],[152.407228,-25.443412],[152.408326,-25.440266],[152.410968,-25.438373],[152.41201,-25.43409],[152.411951,-25.432215],[152.413136,-25.430981],[152.41356,-25.429849],[152.416121,-25.412754],[152.415313,-25.412265],[152.410984,-25.410647],[152.403532,-25.403269],[152.402337,-25.405918],[152.402438,-25.407041],[152.401841,-25.408898],[152.400515,-25.409464],[152.398811,-25.409578],[152.395735,-25.409031],[152.395473,-25.407917],[152.39338,-25.406485],[152.39146,-25.403881],[152.391593,-25.402428],[152.390869,-25.401239],[152.389752,-25.400716],[152.386902,-25.401958],[152.385936,-25.402958],[152.381812,-25.404016],[152.380768,-25.40239],[152.379128,-25.401968],[152.376469,-25.401861],[152.375466,-25.402297],[152.372867,-25.402107],[152.371647,-25.402377],[152.369578,-25.40188],[152.368032,-25.402789],[152.364741,-25.402425],[152.364258,-25.406171],[152.327752,-25.401749],[152.32699,-25.40227],[152.324109,-25.402195],[152.321212,-25.404717],[152.32091,-25.407084],[152.319957,-25.407976],[152.315677,-25.407821],[152.312296,-25.405826],[152.311397,-25.407059],[152.307996,-25.407424],[152.306624,-25.407121],[152.299163,-25.408514],[152.298613,-25.410233],[152.292467,-25.415559],[152.290578,-25.415982],[152.290353,-25.417391],[152.273093,-25.432342],[152.272063,-25.433234],[152.261132,-25.459167],[152.261235,-25.460353],[152.260376,-25.461914],[152.261606,-25.46376],[152.263781,-25.470471],[152.262603,-25.471266],[152.262079,-25.47656],[152.263865,-25.477668],[152.265151,-25.479536],[152.268459,-25.481738],[152.271608,-25.481602],[152.27339,-25.483131],[152.273385,-25.484089],[152.274361,-25.486009],[152.274434,-25.487712],[152.276367,-25.490581],[152.270826,-25.489849],[152.268637,-25.5035],[152.274245,-25.504241],[152.273569,-25.505691],[152.272674,-25.506328],[152.273275,-25.508038],[152.272391,-25.508564],[152.272514,-25.511207],[152.271958,-25.51275],[152.270526,-25.513484],[152.270781,-25.514728],[152.26935,-25.515397],[152.269817,-25.517163],[152.269507,-25.518999],[152.26976,-25.521904],[152.268419,-25.522313],[152.266874,-25.521972],[152.264717,-25.522131],[152.263565,-25.521437],[152.260929,-25.522288],[152.258019,-25.522232],[152.255467,-25.521029],[152.254217,-25.52135],[152.251173,-25.521076],[152.249077,-25.519989],[152.247694,-25.518786],[152.247733,-25.517445],[152.24629,-25.516507],[152.24501,-25.517303],[152.243021,-25.51726],[152.240954,-25.516263],[152.239401,-25.514977],[152.237597,-25.51654],[152.236055,-25.517251],[152.23533,-25.515829],[152.233079,-25.515],[152.230253,-25.519231],[152.228903,-25.518642],[152.228733,-25.517238],[152.227059,-25.514538],[152.214937,-25.512918],[152.21547,-25.513997],[152.214814,-25.516133],[152.215758,-25.520186],[152.213221,-25.520433],[152.212732,-25.519242],[152.210422,-25.51984],[152.210011,-25.521069],[152.208627,-25.520235],[152.207062,-25.518728],[152.205742,-25.518668],[152.204383,-25.519535],[152.20123,-25.519766],[152.198409,-25.518543],[152.193459,-25.519325],[152.191266,-25.521471],[152.188357,-25.52218],[152.187261,-25.521059],[152.186477,-25.521063],[152.183079,-25.52236],[152.181008,-25.522463],[152.179305,-25.523068],[152.179481,-25.52573],[152.178693,-25.526778],[152.179166,-25.529428],[152.177798,-25.530546],[152.177353,-25.531997],[152.176056,-25.532151],[152.175057,-25.534748],[152.175423,-25.535857],[152.173105,-25.538855],[152.170903,-25.53987],[152.170279,-25.54115],[152.168551,-25.542118],[152.166518,-25.545929],[152.165411,-25.547505],[152.165852,-25.549469],[152.163622,-25.553165],[152.162723,-25.559592],[152.163728,-25.560597],[152.162985,-25.563561],[152.163821,-25.565156],[152.163594,-25.567093],[152.163766,-25.570115],[152.163531,-25.572674],[152.164418,-25.574584],[152.161107,-25.578196],[152.158204,-25.580019],[152.15706,-25.581103],[152.154652,-25.582461],[152.153939,-25.583333],[152.151829,-25.584177],[152.148293,-25.583787],[152.145742,-25.584483],[152.143401,-25.582728],[152.142447,-25.583764],[152.140177,-25.585458],[152.139631,-25.587167],[152.137778,-25.586698],[152.135901,-25.587397],[152.132976,-25.587015],[152.131284,-25.587922],[152.129338,-25.587721],[152.129856,-25.591178],[152.128872,-25.591804],[152.124917,-25.592363],[152.124926,-25.5937],[152.124061,-25.595915],[152.121376,-25.595302],[152.121049,-25.596044],[152.119107,-25.597477],[152.117193,-25.597713],[152.115299,-25.596802],[152.112295,-25.598242],[152.111252,-25.59843],[152.110297,-25.602824],[152.109701,-25.603509],[152.110302,-25.605825],[152.111612,-25.607334],[152.111315,-25.608348],[152.112095,-25.611014],[152.114366,-25.613065],[152.115812,-25.615454],[152.114495,-25.617321],[152.114912,-25.620012],[152.115527,-25.622091],[152.11529,-25.623473],[152.112134,-25.62701],[152.108207,-25.625993],[152.104191,-25.628876],[152.101692,-25.628819],[152.096343,-25.630306],[152.095391,-25.631327],[152.092612,-25.632195],[152.091922,-25.634276],[152.090661,-25.636328],[152.087336,-25.635571],[152.08416,-25.633125],[152.082287,-25.632384],[152.080261,-25.63101],[152.07317,-25.624364],[152.071361,-25.623282],[152.067675,-25.622905],[152.0661,-25.621286],[152.065241,-25.621063],[152.061606,-25.621239],[152.058075,-25.620692],[152.05569,-25.62193],[152.054434,-25.623785],[152.053248,-25.624404],[152.05187,-25.623777],[152.049136,-25.620197],[152.04747,-25.617584],[152.045746,-25.615897],[152.044132,-25.615126],[152.04224,-25.618679],[152.041155,-25.619681],[152.041061,-25.623485],[152.041495,-25.625602],[152.041114,-25.627525],[152.040005,-25.629145],[152.039367,-25.632152],[152.039365,-25.634191],[152.038657,-25.636252],[152.038732,-25.637641],[152.038145,-25.639686],[152.038053,-25.642759],[152.036355,-25.643894],[152.034893,-25.643823],[152.033254,-25.642929],[152.02956,-25.642241],[152.027989,-25.644339],[152.027238,-25.64931],[152.026702,-25.650555],[152.025015,-25.650952],[152.023431,-25.652589],[152.022702,-25.654369],[152.021571,-25.654879],[152.018725,-25.657273],[152.018653,-25.658988],[152.014795,-25.663089],[152.013847,-25.662944],[152.012517,-25.66508],[152.011165,-25.665006],[152.01145,-25.666697],[152.010987,-25.667617],[152.011399,-25.669978],[152.012064,-25.671466],[152.012062,-25.672591],[152.010788,-25.673948],[152.012236,-25.676373],[152.014552,-25.677624],[152.017406,-25.680358],[152.016753,-25.683061],[152.015094,-25.686058],[152.015236,-25.688291],[152.016262,-25.689889],[152.014916,-25.692448],[152.015733,-25.694339],[152.014848,-25.702142],[152.015502,-25.703861],[152.014005,-25.707479],[152.013929,-25.708884],[152.012826,-25.710202],[152.011822,-25.712082],[152.006669,-25.71626],[152.006668,-25.717003],[152.005169,-25.717545],[152.003286,-25.717589],[151.998757,-25.712388],[151.996997,-25.711224],[151.994705,-25.711748],[151.99176,-25.713147],[151.989359,-25.713174],[151.98857,-25.714327],[151.987252,-25.714213],[151.98556,-25.713219],[151.983036,-25.712537],[151.981241,-25.712752],[151.982369,-25.714891],[151.982193,-25.716195],[151.982214,-25.721316],[151.982643,-25.723512],[151.983497,-25.723897],[151.982429,-25.72562],[151.982451,-25.728582],[151.980421,-25.729093],[151.980125,-25.729946],[151.980888,-25.731619],[151.980272,-25.732958],[151.984098,-25.734309],[151.990046,-25.735998],[151.990683,-25.735125],[151.992848,-25.736512],[151.995299,-25.736844],[151.996542,-25.739561],[151.996134,-25.741611],[151.997348,-25.744997],[151.997517,-25.746418],[151.998903,-25.747713],[151.997653,-25.748806],[151.996302,-25.750568],[151.996031,-25.752943],[151.996442,-25.755059],[151.995453,-25.757201],[151.997343,-25.760758],[151.997179,-25.762676],[151.997477,-25.764585],[151.996354,-25.766634],[151.997389,-25.771044],[151.994917,-25.773732],[151.992831,-25.773881],[151.99177,-25.773043],[151.990273,-25.773895],[151.988958,-25.777652],[151.987729,-25.77749],[151.986326,-25.778887],[151.987416,-25.780351],[151.987418,-25.781264],[151.988309,-25.783269],[151.988981,-25.783486],[151.985526,-25.789003],[151.984929,-25.790903],[151.984733,-25.793916],[151.985971,-25.796217],[151.985471,-25.79797],[151.986207,-25.801285],[151.984314,-25.802774],[151.983849,-25.803595],[151.983712,-25.806367],[151.982807,-25.808212],[151.980291,-25.808906],[151.980345,-25.811079],[151.978909,-25.8137],[151.977212,-25.813595],[151.974709,-25.811379],[151.973338,-25.810871],[151.972092,-25.812642],[151.972078,-25.814236],[151.971567,-25.815034],[151.972121,-25.8166],[151.970806,-25.818136],[151.970846,-25.818857],[151.968886,-25.823065],[151.970181,-25.824084],[151.970095,-25.825045],[151.968727,-25.826395],[151.970225,-25.829428],[151.97037,-25.830597],[151.967769,-25.831817],[151.966435,-25.831856],[151.964095,-25.833014],[151.963119,-25.834045],[151.961194,-25.833123],[151.959502,-25.83317],[151.957855,-25.837473],[151.957057,-25.838575],[151.95715,-25.839701],[151.955426,-25.842617],[151.953604,-25.844243],[151.952332,-25.844496],[151.951031,-25.84557],[151.95013,-25.848604],[151.948406,-25.850825],[151.944529,-25.850898],[151.943802,-25.851627],[151.940615,-25.853657],[151.939836,-25.855244],[151.937907,-25.856158],[151.937194,-25.858084],[151.93573,-25.860853],[151.934963,-25.862831],[151.930618,-25.863003],[151.928602,-25.867609],[151.921471,-25.867975],[151.917832,-25.869654],[151.912883,-25.872474],[151.909948,-25.871384],[151.903426,-25.870296],[151.901243,-25.869509],[151.899596,-25.867418],[151.897292,-25.866473],[151.896252,-25.865138],[151.89515,-25.861556],[151.893385,-25.860324],[151.892421,-25.858635],[151.892908,-25.85504],[151.891458,-25.851681],[151.892811,-25.848651],[151.891921,-25.84648],[151.891722,-25.844269],[151.889405,-25.842047],[151.887113,-25.842161],[151.884403,-25.84316],[151.882501,-25.841783],[151.881662,-25.839839],[151.881919,-25.837496],[151.880871,-25.834456],[151.879667,-25.833645],[151.87727,-25.83287],[151.879217,-25.830818],[151.879307,-25.828021],[151.876545,-25.827325],[151.875175,-25.825565],[151.874449,-25.823348],[151.872573,-25.820062],[151.870922,-25.818498],[151.87252,-25.818389],[151.874725,-25.814909],[151.873806,-25.813425],[151.869203,-25.811296],[151.867219,-25.809644],[151.86489,-25.809448],[151.863756,-25.810341],[151.861085,-25.809894],[151.860751,-25.809044],[151.863018,-25.805697],[151.862783,-25.803477],[151.86105,-25.80204],[151.860285,-25.802768],[151.859627,-25.80525],[151.855631,-25.803963],[151.853211,-25.806568],[151.850643,-25.804711],[151.849462,-25.805306],[151.847804,-25.803979],[151.84581,-25.803676],[151.844448,-25.802047],[151.842009,-25.800157],[151.840231,-25.798076],[151.836314,-25.796154],[151.834198,-25.796849],[151.831598,-25.796477],[151.831407,-25.795805],[151.829022,-25.794416],[151.828602,-25.793021],[151.829509,-25.792109],[151.828813,-25.78473],[151.826505,-25.782806],[151.818568,-25.786835],[151.813167,-25.784971],[151.812719,-25.782464],[151.813737,-25.780079],[151.812764,-25.778112],[151.81287,-25.775866],[151.812087,-25.77495],[151.811388,-25.770963],[151.809443,-25.768892],[151.808315,-25.766762],[151.810575,-25.763555],[151.810398,-25.762454],[151.809308,-25.762068],[151.805787,-25.759486],[151.804321,-25.759827],[151.802736,-25.75822],[151.800312,-25.757007],[151.799094,-25.759098],[151.798163,-25.759301],[151.794462,-25.757868],[151.791987,-25.757567],[151.790428,-25.758676],[151.789786,-25.760914],[151.789836,-25.76493],[151.79111,-25.767795],[151.790617,-25.770581],[151.789831,-25.77171],[151.787343,-25.772811],[151.781063,-25.77367],[151.778267,-25.774487],[151.776704,-25.775876],[151.775457,-25.77761],[151.775824,-25.780048],[151.780541,-25.786844],[151.780524,-25.788526],[151.779896,-25.789362],[151.777722,-25.789905],[151.775013,-25.789742],[151.773471,-25.789168],[151.76842,-25.787998],[151.767396,-25.788156],[151.76617,-25.789521],[151.765789,-25.790697],[151.764942,-25.795344],[151.762195,-25.799748],[151.758021,-25.801669],[151.756923,-25.80341],[151.75905,-25.805896],[151.760409,-25.806262],[151.762728,-25.805879],[151.764372,-25.806895],[151.765061,-25.81012],[151.765987,-25.811131],[151.76918,-25.811891],[151.772574,-25.811825],[151.774541,-25.814303],[151.774437,-25.815397],[151.771977,-25.820751],[151.771063,-25.82177],[151.767072,-25.822848],[151.765168,-25.82541],[151.764944,-25.82768],[151.766489,-25.831825],[151.766512,-25.834765],[151.76711,-25.838898],[151.769275,-25.84128],[151.769795,-25.842634],[151.771034,-25.842451],[151.772839,-25.852184],[151.772318,-25.853488],[151.76998,-25.854451],[151.767893,-25.855666],[151.767435,-25.856983],[151.768132,-25.858398],[151.772647,-25.862541],[151.773624,-25.863985],[151.77436,-25.869554],[151.775253,-25.871742],[151.775496,-25.874766],[151.774684,-25.876725],[151.774649,-25.880135],[151.774274,-25.885075],[151.774578,-25.886957],[151.775812,-25.889241],[151.777691,-25.889825],[151.779648,-25.892505],[151.780763,-25.896673],[151.779803,-25.89837],[151.780107,-25.899368],[151.777368,-25.903616],[151.77645,-25.906423],[151.776567,-25.911913],[151.777444,-25.913842],[151.779312,-25.915563],[151.780569,-25.915574],[151.783096,-25.914316],[151.784669,-25.914187],[151.785453,-25.915374],[151.784831,-25.916996],[151.78295,-25.917745],[151.779773,-25.918549],[151.777117,-25.918201],[151.776544,-25.919022],[151.77769,-25.920382],[151.777931,-25.922086],[151.777162,-25.923327],[151.773941,-25.924986],[151.771565,-25.927537],[151.770274,-25.929496],[151.768798,-25.930197],[151.765312,-25.931169],[151.762977,-25.933098],[151.762671,-25.936681],[151.761797,-25.937302],[151.758639,-25.938087],[151.754075,-25.937075],[151.75276,-25.937299],[151.755829,-25.944522],[151.755723,-25.946057],[151.753637,-25.947136],[151.750852,-25.946878],[151.749988,-25.94726],[151.748728,-25.949238],[151.749486,-25.950683],[151.750444,-25.950924],[151.753243,-25.950559],[151.754988,-25.951527],[151.756208,-25.952814],[151.756629,-25.954262],[151.755123,-25.956471],[151.749501,-25.959494],[151.74845,-25.960573],[151.748131,-25.962301],[151.748175,-25.966273],[151.747978,-25.969258],[151.747418,-25.972752],[151.747401,-25.974423],[151.747767,-25.982619],[151.746945,-25.985742],[151.746125,-25.987592],[151.745511,-25.990229],[151.746425,-25.991502],[151.748062,-25.992828],[151.748256,-25.994017],[151.747883,-25.995871],[151.746015,-26.001129],[151.74491,-26.003645],[151.744533,-26.00618],[151.745639,-26.007579],[151.749353,-26.007988],[151.751244,-26.009302],[151.751177,-26.010761],[151.749759,-26.013074],[151.748113,-26.016463],[151.74703,-26.017771],[151.745981,-26.018228],[151.744535,-26.017934],[151.742071,-26.02045],[151.742216,-26.021206],[151.7444,-26.026596],[151.746409,-26.029345],[151.747918,-26.030155],[151.749691,-26.030467],[151.750834,-26.031666],[151.752566,-26.034705],[151.752123,-26.035685],[151.749993,-26.037728],[151.746171,-26.040368],[151.741932,-26.042285],[151.738073,-26.043402],[151.733873,-26.044145],[151.729856,-26.045128],[151.726632,-26.0451],[151.723279,-26.046065],[151.722655,-26.047354],[151.723864,-26.049582],[151.726104,-26.054756],[151.726911,-26.056142],[151.7249,-26.060511],[151.725094,-26.062244],[151.726321,-26.063467],[151.728892,-26.064413],[151.730334,-26.064507],[151.732701,-26.065509],[151.73445,-26.066782],[151.734661,-26.067384],[151.733222,-26.070512],[151.731295,-26.071453],[151.727231,-26.071429],[151.726316,-26.071005],[151.725143,-26.071872],[151.723618,-26.07471],[151.725203,-26.075797],[151.726957,-26.07549],[151.729104,-26.076674],[151.729404,-26.078489],[151.730443,-26.080484],[151.729929,-26.082238],[151.72279,-26.086058],[151.72316,-26.088658],[151.72104,-26.088648],[151.72028,-26.090908],[151.7194,-26.091698],[151.72065,-26.092598],[151.72377,-26.093968],[151.72702,-26.093518],[151.73065,-26.094208],[151.731019,-26.095908],[151.731759,-26.096698],[151.73451,-26.097948],[151.733999,-26.100198],[151.7275,-26.101658],[151.72599,-26.102888],[151.72536,-26.104468],[151.72546,-26.111918],[151.72446,-26.114408],[151.72369,-26.118918],[151.72406,-26.119478],[151.72656,-26.120508],[151.72706,-26.121298],[151.73218,-26.123338],[151.73381,-26.123118],[151.73581,-26.124028],[151.73856,-26.124258],[151.74069,-26.122688],[151.74407,-26.122128],[151.74519,-26.123488],[151.74468,-26.125968],[151.74505,-26.127888],[151.74592,-26.129358],[151.74592,-26.130718],[151.74416,-26.131388],[151.74441,-26.132968],[151.74578,-26.133758],[151.74453,-26.134778],[151.74315,-26.134438],[151.7424,-26.134888],[151.74214,-26.138498],[151.74327,-26.139178],[151.74452,-26.137708],[151.74615,-26.138168],[151.74563,-26.143588],[151.7465,-26.145388],[151.74838,-26.144038],[151.75201,-26.144498],[151.75264,-26.143258],[151.75414,-26.142697],[151.75502,-26.140217],[151.75715,-26.140227],[151.7584,-26.139207],[151.762399,-26.142157],[151.76327,-26.143857],[151.76451,-26.144987],[151.76451,-26.146787],[151.76588,-26.148147],[151.767759,-26.148717],[151.76963,-26.150747],[151.771379,-26.151657],[151.772619,-26.153697],[151.77287,-26.154827],[151.774489,-26.155957],[151.773739,-26.157307],[151.77373,-26.158327],[151.77461,-26.159567],[151.776609,-26.159917],[151.779109,-26.159017],[151.781489,-26.160147],[151.781099,-26.162407],[151.781849,-26.163537],[151.783979,-26.164787],[151.784219,-26.166027],[151.786219,-26.167727],[151.786459,-26.171117],[151.787209,-26.172127],[151.788959,-26.172247],[151.789959,-26.171237],[151.790709,-26.171687],[151.791959,-26.174177],[151.792709,-26.174287],[151.793089,-26.172367],[151.793589,-26.172147],[151.795709,-26.174287],[151.797959,-26.176107],[151.799339,-26.175657],[151.800719,-26.174417],[151.802339,-26.173967],[151.801849,-26.171707],[151.804349,-26.171037],[151.805479,-26.170137],[151.807989,-26.169017],[151.808489,-26.167767],[151.809869,-26.167207],[151.811119,-26.168337],[151.812489,-26.168337],[151.812749,-26.166877],[151.814999,-26.167217],[151.815999,-26.168917],[151.814739,-26.170267],[151.814859,-26.171167],[151.815989,-26.172307],[151.817739,-26.172877],[151.820859,-26.174797],[151.821859,-26.176267],[151.823109,-26.176377],[151.824158,-26.177689],[151.823966,-26.179294],[151.822936,-26.181243],[151.82311,-26.18228],[151.821235,-26.183967],[151.820908,-26.18651],[151.821455,-26.187986],[151.824136,-26.189573],[151.826295,-26.190486],[151.826938,-26.191292],[151.827331,-26.193037],[151.828154,-26.193568],[151.828449,-26.195137],[151.827189,-26.196717],[151.829819,-26.198067],[151.829819,-26.198857],[151.828439,-26.199757],[151.828429,-26.200667],[151.829429,-26.201797],[151.829549,-26.203487],[151.832059,-26.201577],[151.831439,-26.200557],[151.832439,-26.199427],[151.833689,-26.199767],[151.834439,-26.200897],[151.834309,-26.203387],[151.833309,-26.204057],[151.833929,-26.204857],[151.839439,-26.203397],[151.842569,-26.203857],[151.843699,-26.203067],[151.846199,-26.203637],[151.848449,-26.203637],[151.850709,-26.201157],[151.850589,-26.199917],[151.848709,-26.199007],[151.849219,-26.197987],[151.851089,-26.198447],[151.858849,-26.198237],[151.860358,-26.197337],[151.863488,-26.197337],[151.865238,-26.197007],[151.866618,-26.196217],[151.867868,-26.196327],[151.869118,-26.194747],[151.874118,-26.197017],[151.875998,-26.198597],[151.877748,-26.198487],[151.879868,-26.200527],[151.877738,-26.205147],[151.874478,-26.207517],[151.873728,-26.208867],[151.872218,-26.210447],[151.874468,-26.211807],[151.877968,-26.214867],[151.879718,-26.215767],[151.884838,-26.220517],[151.885718,-26.221986],[151.885838,-26.224807],[151.887088,-26.226386],[151.889452,-26.230393],[151.890452,-26.231276],[151.893622,-26.236],[151.894463,-26.237798],[151.89426,-26.240583],[151.894449,-26.241852],[151.893537,-26.242751],[151.895258,-26.244526],[151.895743,-26.24674],[151.894741,-26.246634],[151.894645,-26.248117],[151.893228,-26.252664],[151.893311,-26.258234],[151.893703,-26.258799],[151.897011,-26.259893],[151.899758,-26.260061],[151.904627,-26.259486],[151.907515,-26.260096],[151.909797,-26.263594],[151.911112,-26.264069],[151.912521,-26.26578],[151.91423,-26.265571],[151.914694,-26.26824],[151.916935,-26.27167],[151.91769,-26.273954],[151.917658,-26.276183],[151.916903,-26.279589],[151.915559,-26.280795],[151.914307,-26.280856],[151.910766,-26.279383],[151.906736,-26.276562],[151.905567,-26.275997],[151.903687,-26.276217],[151.901911,-26.277693],[151.90072,-26.27996],[151.900383,-26.282857],[151.899288,-26.287287],[151.898704,-26.292026],[151.898126,-26.293282],[151.896662,-26.294054],[151.892937,-26.294757],[151.89115,-26.295353],[151.889525,-26.29654],[151.887707,-26.298468],[151.886447,-26.301401],[151.887749,-26.302294],[151.96736,-26.311697],[151.967231,-26.313083],[151.969211,-26.318702],[151.972205,-26.317428],[151.973744,-26.316196],[151.976015,-26.315769],[151.977969,-26.313946],[151.977879,-26.312937],[151.981362,-26.313347],[151.976569,-26.34617],[152.008945,-26.349807],[152.009031,-26.351395],[152.010028,-26.352474],[152.011461,-26.351634],[152.013199,-26.351828],[152.013785,-26.35287],[152.012645,-26.355588],[152.009154,-26.357541],[152.007846,-26.357827],[152.007178,-26.358882],[152.005167,-26.359755],[152.004998,-26.361048],[152.0038,-26.360878],[152.002784,-26.361991],[152.001028,-26.362593],[152.001176,-26.363489],[152.004573,-26.367569],[152.003705,-26.368346],[152.004106,-26.369442],[152.003573,-26.372249],[152.004079,-26.375493],[152.005966,-26.375762],[152.007196,-26.375335],[152.010464,-26.373062],[152.012364,-26.37401],[152.011798,-26.375274],[152.021806,-26.37622],[152.066278,-26.381612],[152.068957,-26.383207],[152.072527,-26.359419],[152.074762,-26.360681],[152.075794,-26.360575],[152.0773,-26.361437],[152.078397,-26.361165],[152.07937,-26.363168],[152.08198,-26.362831],[152.08414,-26.363399],[152.085438,-26.364954],[152.088317,-26.365849],[152.091295,-26.369539],[152.094886,-26.3715],[152.096439,-26.373543],[152.099887,-26.373124],[152.10745,-26.374935],[152.110228,-26.378193],[152.111968,-26.377293],[152.116682,-26.377784],[152.121081,-26.37728],[152.120144,-26.378695],[152.120324,-26.380552],[152.119899,-26.38393],[152.122307,-26.383552],[152.123319,-26.384578],[152.121649,-26.388846],[152.121249,-26.392641],[152.121875,-26.393533],[152.123658,-26.394231],[152.124971,-26.395517],[152.128478,-26.396572],[152.130484,-26.397607],[152.133582,-26.396853],[152.134343,-26.396983],[152.136488,-26.399612],[152.139009,-26.400409],[152.140217,-26.401569],[152.140712,-26.406529],[152.142535,-26.406768],[152.144501,-26.405188],[152.146074,-26.403289],[152.148731,-26.401357],[152.14941,-26.401934],[152.149963,-26.404252],[152.151818,-26.404977],[152.152972,-26.408905],[152.15459,-26.410106],[152.156737,-26.410842],[152.157844,-26.411831],[152.158107,-26.413671],[152.159427,-26.415523],[152.162559,-26.416329],[152.16719,-26.416696],[152.167711,-26.417863],[152.166855,-26.419996],[152.166972,-26.422337],[152.167738,-26.42383],[152.169289,-26.425035],[152.16956,-26.426402],[152.17112,-26.427302],[152.172116,-26.430106],[152.170797,-26.431291],[152.170905,-26.432101],[152.172434,-26.433692],[152.171817,-26.436282],[152.172631,-26.437416],[152.173777,-26.438091],[152.173178,-26.442307],[152.167652,-26.475419],[152.168769,-26.47735],[152.170038,-26.477903],[152.171804,-26.47781],[152.172642,-26.478314],[152.173613,-26.48046],[152.174343,-26.481202],[152.176948,-26.482526],[152.179927,-26.484641],[152.182078,-26.484073],[152.183345,-26.485202],[152.184288,-26.485256],[152.185698,-26.486946],[152.186925,-26.487789],[152.187787,-26.490068],[152.189728,-26.491706],[152.191689,-26.492696],[152.192639,-26.494043],[152.195163,-26.495239],[152.195224,-26.496416],[152.197208,-26.498172],[152.198013,-26.50046],[152.199986,-26.500832],[152.20073,-26.502744],[152.20226,-26.503796],[152.203905,-26.50641],[152.2063,-26.508644],[152.206779,-26.511236],[152.207409,-26.51182],[152.210519,-26.511911],[152.213607,-26.513101],[152.215393,-26.512068],[152.215732,-26.510728],[152.217307,-26.508793],[152.217896,-26.506702],[152.219235,-26.505065],[152.221272,-26.503888],[152.223202,-26.505697],[152.225665,-26.506593],[152.227893,-26.506764],[152.22904,-26.507971],[152.23124,-26.507415],[152.23267,-26.504191],[152.231822,-26.500476],[152.232979,-26.497943],[152.233591,-26.497918],[152.23404,-26.495501],[152.231871,-26.495119],[152.229209,-26.492748],[152.231509,-26.49156],[152.232435,-26.490698],[152.233257,-26.491897],[152.235099,-26.490792],[152.240997,-26.487828],[152.243623,-26.487944],[152.245803,-26.48568],[152.249505,-26.48451],[152.2517,-26.485482],[152.253135,-26.484574],[152.253832,-26.482903],[152.253821,-26.481715],[152.255243,-26.479226],[152.25926,-26.476504],[152.259783,-26.475165],[152.258847,-26.470152],[152.259361,-26.469561],[152.263436,-26.468443],[152.267106,-26.469196],[152.271306,-26.464931],[152.272484,-26.461982],[152.272419,-26.46093],[152.273292,-26.45913],[152.27318,-26.454072],[152.276043,-26.453892],[152.277249,-26.452787],[152.279296,-26.453106],[152.281797,-26.451923],[152.283717,-26.452212],[152.285647,-26.453439],[152.28579,-26.45482],[152.287132,-26.454951],[152.288317,-26.455975],[152.288298,-26.456924],[152.28955,-26.457559],[152.290972,-26.457647],[152.292211,-26.458797],[152.293839,-26.45933],[152.294568,-26.460516],[152.296305,-26.462147],[152.296741,-26.46474],[152.297684,-26.465127],[152.299686,-26.464518],[152.300867,-26.465517],[152.302419,-26.465366],[152.304117,-26.467091],[152.303707,-26.468967],[152.304948,-26.469884],[152.306443,-26.469746],[152.309864,-26.471658],[152.310826,-26.473118],[152.311191,-26.475232],[152.312374,-26.476499],[152.315719,-26.481963],[152.317739,-26.481315],[152.319138,-26.479549],[152.319366,-26.478005],[152.320905,-26.477449],[152.323296,-26.477853],[152.325218,-26.476143],[152.32914,-26.47571],[152.330231,-26.476067],[152.334002,-26.473604],[152.337321,-26.472232],[152.339111,-26.472243],[152.340068,-26.471241],[152.340519,-26.469829],[152.343773,-26.468365],[152.344917,-26.469198],[152.350103,-26.469302],[152.351156,-26.467697],[152.354839,-26.466218],[152.356095,-26.465181],[152.358115,-26.465236],[152.360624,-26.466264],[152.362428,-26.464221],[152.364403,-26.463141],[152.367054,-26.463229],[152.370763,-26.462442],[152.371912,-26.463302],[152.372643,-26.465068],[152.372678,-26.468532],[152.376112,-26.470287],[152.376622,-26.472418],[152.379349,-26.472609],[152.381789,-26.471952],[152.386235,-26.472227],[152.390065,-26.476111],[152.392414,-26.473748],[152.398917,-26.470945],[152.40117,-26.472186],[152.402705,-26.474046],[152.407193,-26.471291],[152.40763,-26.468781],[152.409127,-26.467118],[152.409902,-26.465745],[152.412067,-26.46449],[152.420683,-26.467534],[152.423389,-26.465963],[152.424636,-26.464515],[152.429712,-26.464083],[152.431074,-26.464886],[152.433036,-26.463666],[152.43465,-26.463224],[152.436165,-26.460188],[152.440739,-26.46051],[152.442847,-26.460453],[152.438608,-26.486246],[152.444737,-26.487111],[152.44463,-26.485382],[152.446019,-26.48405],[152.447604,-26.484156],[152.444132,-26.505895],[152.442087,-26.507275],[152.439378,-26.511612],[152.439045,-26.513239],[152.440006,-26.517563],[152.439339,-26.519939],[152.437313,-26.520381],[152.435708,-26.523785],[152.435338,-26.528525],[152.43644,-26.532102],[152.435984,-26.533272],[152.436135,-26.537588],[152.437982,-26.538032],[152.438589,-26.535558],[152.439304,-26.534775],[152.441713,-26.533909],[152.44314,-26.532794],[152.442637,-26.530943],[152.443045,-26.528342],[152.444228,-26.527905],[152.446672,-26.528793],[152.449616,-26.530914],[152.448483,-26.537929],[152.446951,-26.538183],[152.445168,-26.544207],[152.4431,-26.544445],[152.442029,-26.545353],[152.442836,-26.546165],[152.442119,-26.550629],[152.441496,-26.551532],[152.441109,-26.553366],[152.441026,-26.556189],[152.440343,-26.557075],[152.450857,-26.55842],[152.449059,-26.569788],[152.458536,-26.570989],[152.456971,-26.580891],[152.473482,-26.58247],[152.485642,-26.584031],[152.500354,-26.585831],[152.519817,-26.588308],[152.522265,-26.586301],[152.521399,-26.584862],[152.520222,-26.584133],[152.519203,-26.581441],[152.518425,-26.581259],[152.515122,-26.57748],[152.514597,-26.574059],[152.512672,-26.571516],[152.51149,-26.567389],[152.553989,-26.572576],[152.554397,-26.573615],[152.556844,-26.575545],[152.560405,-26.581838],[152.562483,-26.583222],[152.564966,-26.583693],[152.567394,-26.583253],[152.569462,-26.582475],[152.571941,-26.583752],[152.573584,-26.583603],[152.575195,-26.584007]]]},"bbox":[151.7194,-26.597709,153.360338,-24.696996]}]}