{"type":"FeatureCollection","features":[
{"properties":{"electorateShortName":"wright","electorateName":"Wright","area":7576.982814,"state":"QLD"},"type":"Feature","geometry":{"type":"Polygon","coordinates":[[[153.296863,-28.234233],[153.358489,-28.157291],[153.370122,-28.106398],[153.355703,-28.0495],[153.324398,-28.013614],[153.344164,-27.9768],[153.292184,-27.903982],[153.180683,-27.895079],[153.18894,-27.855104],[153.158532,-27.76934],[153.119709,-27.743978],[153.08568,-27.770095],[153.0126,-27.777425],[153.030239,-27.725726],[153.016596,-27.678932],[153.019347,-27.657394],[152.940729,-27.628657],[152.927745,-27.685328],[152.890651,-27.70359],[152.882789,-27.747358],[152.757806,-27.767276],[152.52928,-27.717604],[152.519312,-27.761203],[152.451324,-27.802114],[152.440491,-27.859868],[152.40235,-27.863703],[152.411128,-27.681393],[152.454721,-27.66096],[152.497013,-27.582952],[152.499344,-27.511697],[152.373374,-27.40198],[152.191723,-27.386849],[152.136975,-27.423638],[152.070838,-27.402759],[152.029058,-27.416256],[151.966858,-27.473577],[151.955189,-27.514264],[152.000524,-27.55692],[151.985241,-27.64869],[152.010483,-27.699779],[152.131541,-27.771666],[152.148272,-27.862854],[152.188454,-27.924176],[152.276931,-27.969723],[152.382276,-27.965632],[152.374893,-28.012336],[152.442049,-28.176017],[152.473234,-28.20436],[152.458952,-28.226581],[152.482353,-28.229506],[152.492287,-28.243468],[152.486992,-28.247982],[152.487704,-28.2526],[152.48764,-28.253379],[152.487617,-28.253908],[152.497673,-28.25379],[152.508643,-28.249249],[152.515661,-28.25182],[152.5161,-28.256845],[152.518726,-28.256831],[152.52211,-28.260992],[152.534221,-28.262631],[152.533192,-28.279307],[152.528997,-28.287],[152.529013,-28.298687],[152.525022,-28.302471],[152.525981,-28.30625],[152.543554,-28.318452],[152.548142,-28.321019],[152.551598,-28.320446],[152.55526,-28.316795],[152.556437,-28.323355],[152.568635,-28.323575],[152.572472,-28.326185],[152.574388,-28.333393],[152.57879,-28.338821],[152.582968,-28.334696],[152.585055,-28.329201],[152.592422,-28.323998],[152.597846,-28.314779],[152.597642,-28.314618],[152.627857,-28.303031],[152.634355,-28.306184],[152.638288,-28.310997],[152.656128,-28.309697],[152.667228,-28.311752],[152.673369,-28.317837],[152.673641,-28.325981],[152.679339,-28.330416],[152.686418,-28.329075],[152.692385,-28.336667],[152.699344,-28.335469],[152.707351,-28.343675],[152.712679,-28.341471],[152.72288,-28.344096],[152.730435,-28.352464],[152.736809,-28.354795],[152.740972,-28.360123],[152.747508,-28.361057],[152.751062,-28.363914],[152.758139,-28.362872],[152.761584,-28.359815],[152.762535,-28.357797],[152.758764,-28.354459],[152.760338,-28.352235],[152.775455,-28.346625],[152.782472,-28.347456],[152.787386,-28.351626],[152.793451,-28.353987],[152.804226,-28.353594],[152.808546,-28.350216],[152.808904,-28.342765],[152.817713,-28.335876],[152.831138,-28.320265],[152.849593,-28.311214],[152.866337,-28.313036],[152.882507,-28.312472],[152.893361,-28.31779],[152.899532,-28.325214],[152.909002,-28.326605],[152.923628,-28.331766],[152.933971,-28.338335],[152.941254,-28.334525],[152.94542,-28.335632],[152.963474,-28.331925],[152.972614,-28.331853],[152.978385,-28.33376],[152.98371,-28.338167],[153.008199,-28.341717],[153.021147,-28.338638],[153.038472,-28.343247],[153.049015,-28.342055],[153.051421,-28.341229],[153.053737,-28.343118],[153.065283,-28.344234],[153.074607,-28.352296],[153.080537,-28.354162],[153.089615,-28.353487],[153.101349,-28.357843],[153.1094,-28.35744],[153.113064,-28.353483],[153.116927,-28.343028],[153.124161,-28.339771],[153.12989,-28.330665],[153.124253,-28.322914],[153.124665,-28.318641],[153.13331,-28.316801],[153.135447,-28.311987],[153.143405,-28.311993],[153.142654,-28.305302],[153.15227,-28.301878],[153.154794,-28.295691],[153.164098,-28.297666],[153.168773,-28.29262],[153.171691,-28.260516],[153.177674,-28.247667],[153.185558,-28.246449],[153.197766,-28.256209],[153.207189,-28.253342],[153.217328,-28.26228],[153.232793,-28.265143],[153.235582,-28.256693],[153.243881,-28.247515],[153.264137,-28.243548],[153.269065,-28.23862],[153.274442,-28.238056],[153.278679,-28.233676],[153.286626,-28.235248],[153.296863,-28.234233]]]},"bbox":[151.955189,-28.363914,153.370122,-27.386849]}]}