{"type":"FeatureCollection","features":[
{"properties":{"electorateShortName":"wright","electorateName":"Wright","area":7576.982814,"state":"QLD"},"type":"Feature","geometry":{"type":"MultiPolygon","coordinates":[[[[153.2966325017184,-28.23425585393727],[153.30376251377052,-28.239315966083122],[153.296863,-28.234233],[153.294263,-28.230486],[153.296474,-28.219145],[153.301409,-28.222594],[153.311844,-28.211353],[153.317285,-28.207015],[153.313149,-28.204046],[153.315303,-28.199882],[153.31954,-28.197365],[153.319658,-28.187666],[153.321594,-28.185691],[153.326534,-28.185578],[153.329567,-28.180981],[153.337392,-28.173312],[153.340592,-28.173369],[153.348018,-28.168213],[153.348522,-28.160563],[153.358489,-28.157291],[153.360091,-28.148253],[153.361652,-28.147692],[153.361995,-28.139638],[153.365224,-28.132919],[153.358115,-28.127555],[153.360592,-28.125727],[153.363684,-28.113269],[153.367009,-28.111599],[153.370122,-28.106398],[153.367083,-28.098251],[153.368958,-28.09674],[153.363423,-28.086206],[153.360375,-28.085423],[153.353015,-28.087664],[153.348923,-28.086145],[153.339545,-28.088116],[153.33826,-28.084667],[153.34409,-28.080921],[153.350612,-28.080139],[153.354112,-28.070074],[153.354361,-28.063424],[153.355743,-28.059406],[153.354437,-28.051343],[153.355703,-28.0495],[153.353421,-28.042577],[153.351808,-28.031335],[153.343628,-28.028421],[153.342366,-28.025439],[153.338298,-28.022589],[153.331341,-28.021439],[153.32395,-28.022228],[153.324398,-28.013614],[153.307263,-28.010939],[153.304534,-28.013101],[153.285815,-28.01028],[153.294176,-28.003216],[153.298986,-28.001975],[153.303107,-27.997846],[153.309189,-27.995228],[153.316512,-27.990357],[153.317486,-27.98446],[153.322889,-27.982192],[153.328884,-27.98298],[153.332663,-27.986056],[153.336732,-27.985127],[153.337352,-27.981984],[153.344164,-27.9768],[153.335924,-27.975739],[153.336927,-27.970413],[153.32178,-27.96819],[153.324225,-27.955069],[153.320853,-27.953834],[153.317956,-27.956341],[153.299348,-27.953586],[153.298491,-27.948964],[153.304698,-27.940473],[153.303641,-27.931879],[153.300777,-27.926659],[153.306788,-27.92438],[153.307078,-27.91605],[153.29307,-27.914009],[153.300634,-27.903096],[153.296566,-27.90058],[153.292184,-27.903982],[153.289683,-27.906382],[153.284123,-27.902494],[153.278465,-27.904317],[153.27689,-27.907255],[153.280869,-27.913532],[153.27752,-27.916827],[153.271175,-27.915996],[153.267795,-27.919121],[153.258917,-27.916809],[153.254116,-27.912237],[153.255129,-27.906965],[153.251264,-27.905307],[153.252286,-27.902181],[153.249015,-27.898937],[153.244033,-27.897263],[153.235448,-27.898952],[153.230595,-27.901645],[153.228073,-27.89929],[153.221605,-27.899398],[153.215463,-27.90276],[153.212092,-27.900125],[153.180683,-27.895079],[153.183339,-27.891358],[153.186268,-27.88124],[153.185418,-27.873759],[153.18894,-27.855104],[153.181072,-27.85393],[153.182017,-27.848552],[153.180507,-27.840872],[153.175692,-27.839428],[153.172902,-27.834416],[153.17554,-27.829638],[153.183308,-27.820082],[153.175742,-27.808042],[153.169108,-27.803398],[153.168628,-27.80618],[153.159667,-27.804962],[153.162763,-27.787652],[153.155757,-27.786607],[153.158473,-27.774443],[153.158532,-27.76934],[153.147393,-27.767228],[153.146985,-27.764833],[153.1389,-27.763586],[153.140559,-27.755163],[153.138328,-27.752629],[153.130948,-27.751483],[153.12314,-27.749219],[153.119709,-27.743978],[153.112099,-27.750058],[153.103585,-27.754965],[153.101439,-27.757582],[153.10281,-27.768617],[153.097098,-27.771794],[153.095687,-27.767901],[153.092268,-27.765598],[153.08568,-27.770095],[153.075651,-27.766723],[153.064425,-27.758644],[153.064601,-27.750703],[153.057844,-27.752946],[153.055301,-27.760966],[153.051914,-27.768059],[153.043787,-27.774472],[153.035463,-27.761783],[153.033155,-27.761951],[153.03172,-27.767353],[153.032436,-27.772741],[153.02955,-27.778236],[153.023369,-27.780611],[153.023199,-27.787354],[153.018153,-27.788382],[153.015979,-27.782685],[153.011622,-27.782543],[153.0126,-27.777425],[153.019512,-27.761992],[153.021958,-27.759667],[153.025355,-27.752565],[153.026194,-27.741368],[153.030239,-27.725726],[153.018448,-27.723412],[153.012582,-27.724302],[152.987116,-27.720468],[153.002367,-27.707205],[153.006149,-27.686779],[153.008382,-27.684244],[153.016596,-27.678932],[153.020652,-27.669803],[153.018628,-27.662697],[153.019347,-27.657394],[153.007417,-27.656522],[152.997202,-27.654362],[152.989261,-27.65151],[152.978697,-27.646284],[152.973372,-27.639051],[152.965692,-27.635277],[152.955689,-27.63462],[152.949859,-27.633032],[152.944415,-27.629247],[152.940729,-27.628657],[152.938592,-27.640178],[152.935829,-27.645403],[152.924719,-27.657731],[152.927635,-27.662798],[152.931556,-27.666146],[152.927745,-27.685328],[152.923663,-27.707283],[152.922871,-27.708124],[152.890651,-27.70359],[152.886758,-27.726384],[152.882789,-27.747358],[152.87465,-27.746286],[152.873325,-27.753449],[152.857944,-27.751123],[152.856789,-27.757269],[152.843445,-27.7553],[152.835997,-27.755743],[152.833939,-27.752668],[152.834579,-27.747577],[152.829258,-27.746787],[152.828243,-27.752728],[152.823019,-27.752039],[152.822257,-27.756387],[152.811391,-27.754908],[152.808032,-27.758656],[152.8033,-27.785586],[152.809519,-27.786521],[152.80601,-27.793692],[152.79089,-27.793757],[152.784822,-27.788828],[152.760611,-27.785257],[152.762682,-27.772949],[152.757806,-27.767276],[152.737689,-27.764432],[152.737543,-27.76345],[152.721267,-27.760999],[152.707541,-27.758344],[152.704356,-27.749604],[152.68639,-27.746861],[152.684323,-27.752489],[152.663456,-27.749382],[152.663415,-27.742417],[152.655368,-27.741368],[152.655971,-27.738306],[152.639126,-27.736556],[152.638217,-27.741605],[152.607643,-27.737099],[152.60866,-27.731635],[152.60463,-27.731341],[152.605764,-27.724987],[152.59863,-27.723927],[152.598213,-27.726267],[152.579835,-27.723599],[152.580665,-27.719118],[152.561905,-27.716461],[152.56177,-27.721024],[152.542178,-27.718284],[152.542118,-27.719374],[152.52928,-27.717604],[152.524962,-27.721075],[152.522957,-27.726932],[152.523713,-27.736351],[152.519312,-27.761203],[152.499085,-27.758374],[152.494497,-27.783426],[152.481975,-27.78176],[152.481302,-27.785237],[152.467491,-27.783239],[152.467385,-27.78926],[152.463952,-27.793809],[152.462144,-27.803649],[152.451324,-27.802114],[152.450249,-27.806309],[152.440491,-27.859868],[152.430816,-27.860174],[152.426885,-27.862257],[152.420019,-27.861369],[152.41928,-27.865469],[152.40235,-27.863703],[152.400925,-27.85669],[152.401438,-27.853191],[152.399389,-27.847352],[152.398424,-27.840068],[152.394753,-27.834164],[152.394859,-27.830898],[152.400711,-27.824761],[152.398649,-27.818619],[152.391951,-27.817693],[152.393344,-27.809737],[152.384992,-27.808556],[152.382786,-27.80723],[152.385769,-27.803015],[152.40086,-27.805152],[152.407051,-27.805512],[152.40876,-27.796118],[152.402588,-27.795283],[152.402662,-27.789459],[152.395397,-27.781917],[152.389499,-27.769572],[152.39187,-27.75685],[152.395467,-27.761134],[152.397298,-27.751143],[152.402909,-27.751943],[152.40512,-27.749128],[152.410124,-27.720814],[152.406768,-27.720318],[152.409057,-27.707771],[152.412246,-27.708224],[152.413491,-27.70095],[152.390738,-27.697781],[152.392075,-27.690005],[152.396486,-27.68639],[152.403064,-27.68499],[152.411128,-27.681393],[152.412038,-27.677144],[152.416192,-27.675141],[152.417663,-27.67122],[152.422631,-27.663687],[152.412549,-27.661447],[152.413277,-27.657391],[152.418438,-27.657949],[152.421459,-27.654289],[152.431032,-27.656969],[152.430862,-27.651199],[152.439592,-27.649609],[152.440382,-27.652769],[152.448002,-27.654929],[152.451132,-27.653079],[152.453633,-27.656323],[152.454721,-27.66096],[152.457808,-27.662807],[152.459413,-27.653958],[152.462888,-27.654456],[152.465415,-27.647256],[152.463944,-27.643504],[152.469036,-27.63862],[152.472369,-27.626758],[152.478565,-27.619374],[152.481029,-27.613547],[152.487524,-27.606811],[152.487956,-27.603311],[152.504438,-27.595918],[152.497013,-27.582952],[152.50309,-27.580251],[152.507792,-27.581107],[152.509329,-27.572541],[152.512467,-27.574398],[152.514941,-27.559658],[152.517375,-27.559983],[152.518658,-27.55202],[152.502196,-27.55069],[152.492425,-27.551174],[152.499344,-27.511697],[152.474862,-27.508147],[152.475073,-27.50256],[152.477546,-27.496266],[152.472112,-27.486869],[152.480304,-27.482996],[152.472109,-27.472978],[152.46322,-27.467667],[152.461202,-27.468834],[152.457613,-27.464453],[152.451829,-27.463731],[152.451274,-27.467523],[152.44454,-27.463543],[152.445377,-27.459098],[152.435751,-27.457892],[152.436826,-27.450997],[152.434922,-27.445358],[152.435551,-27.441566],[152.431687,-27.439803],[152.40878,-27.43673],[152.413348,-27.43476],[152.414132,-27.430202],[152.399496,-27.428407],[152.401603,-27.414978],[152.390696,-27.412183],[152.379434,-27.40443],[152.373374,-27.40198],[152.36468,-27.402177],[152.343855,-27.399339],[152.342604,-27.402308],[152.315421,-27.39879],[152.310355,-27.4293],[152.304029,-27.425634],[152.294252,-27.427353],[152.291301,-27.400216],[152.283088,-27.401516],[152.278751,-27.409448],[152.272365,-27.411859],[152.270286,-27.414052],[152.262864,-27.416149],[152.259124,-27.412476],[152.258174,-27.409055],[152.260969,-27.392627],[152.227584,-27.388151],[152.223816,-27.390134],[152.214765,-27.390674],[152.208739,-27.390122],[152.201796,-27.386466],[152.192821,-27.385228],[152.191723,-27.386849],[152.197391,-27.399978],[152.196014,-27.406138],[152.192986,-27.408752],[152.188574,-27.406967],[152.179524,-27.407605],[152.177275,-27.420898],[152.164533,-27.425698],[152.16576,-27.429861],[152.163289,-27.433963],[152.16071,-27.444473],[152.155728,-27.445896],[152.156303,-27.438489],[152.147967,-27.437285],[152.145531,-27.441257],[152.141098,-27.441445],[152.140244,-27.437152],[152.14073,-27.43049],[152.13611,-27.429809],[152.136975,-27.423638],[152.117929,-27.420963],[152.11874,-27.416387],[152.107461,-27.414813],[152.105477,-27.412703],[152.099625,-27.411863],[152.100664,-27.405902],[152.093335,-27.404847],[152.093985,-27.401106],[152.083755,-27.399808],[152.083408,-27.404658],[152.070838,-27.402759],[152.069879,-27.403724],[152.058741,-27.402088],[152.060387,-27.392978],[152.053805,-27.392031],[152.05213,-27.399836],[152.056657,-27.402324],[152.054796,-27.412586],[152.038499,-27.409741],[152.029058,-27.416256],[152.027535,-27.42704],[152.025331,-27.428062],[152.018325,-27.423614],[152.016,-27.426974],[152.015997,-27.431494],[152.023519,-27.432436],[152.020873,-27.439156],[152.019457,-27.44871],[152.006251,-27.44693],[152.003934,-27.462002],[151.991597,-27.460284],[151.991158,-27.46332],[151.987062,-27.463182],[151.979874,-27.466066],[151.97613,-27.465364],[151.975256,-27.46867],[151.966858,-27.473577],[151.963701,-27.480417],[151.964751,-27.48319],[151.961282,-27.486385],[151.965845,-27.487734],[151.966099,-27.497211],[151.964918,-27.502012],[151.967905,-27.503047],[151.966314,-27.508198],[151.955189,-27.514264],[151.958792,-27.522389],[151.964745,-27.524524],[151.963979,-27.529421],[151.96797,-27.529981],[151.970055,-27.51802],[151.976491,-27.518787],[151.979473,-27.520696],[151.985954,-27.521429],[151.990335,-27.524325],[151.998367,-27.525833],[151.999284,-27.528536],[151.991329,-27.530712],[151.992094,-27.533358],[151.988238,-27.535978],[151.994675,-27.541002],[151.993477,-27.548668],[152.004706,-27.548544],[152.003096,-27.557397],[152.000524,-27.55692],[151.996195,-27.580749],[152.003692,-27.577182],[152.016756,-27.579718],[152.016021,-27.584415],[152.011997,-27.583909],[151.997215,-27.585977],[151.99489,-27.599562],[151.990855,-27.599036],[151.989393,-27.608061],[151.982997,-27.608029],[151.982656,-27.610237],[151.974244,-27.609262],[151.973513,-27.615225],[151.97883,-27.615894],[151.978014,-27.621227],[151.967261,-27.619695],[151.966738,-27.62263],[151.95569,-27.618601],[151.948144,-27.617572],[151.94694,-27.62407],[151.942624,-27.623457],[151.942079,-27.632077],[151.945435,-27.635798],[151.948908,-27.636259],[151.95081,-27.641985],[151.956116,-27.649607],[151.961981,-27.649861],[151.964558,-27.646621],[151.967453,-27.647204],[151.971927,-27.644311],[151.976363,-27.647043],[151.982625,-27.646438],[151.985241,-27.64869],[151.983145,-27.654415],[151.989223,-27.661018],[151.988788,-27.663926],[151.992031,-27.673378],[151.986933,-27.677154],[151.987395,-27.682563],[151.999002,-27.683953],[151.997659,-27.691628],[152.003211,-27.692413],[152.001501,-27.702563],[152.009696,-27.70458],[152.010483,-27.699779],[152.034048,-27.702933],[152.031828,-27.716262],[152.048812,-27.718189],[152.04917,-27.719249],[152.060601,-27.722567],[152.061897,-27.724451],[152.07399,-27.731172],[152.07497,-27.737745],[152.083995,-27.739006],[152.083323,-27.742579],[152.078049,-27.741815],[152.07679,-27.748779],[152.084346,-27.749842],[152.086637,-27.757258],[152.08531,-27.759983],[152.093444,-27.761118],[152.096454,-27.744469],[152.104764,-27.745642],[152.101253,-27.765203],[152.106926,-27.768082],[152.131541,-27.771666],[152.130316,-27.778441],[152.139359,-27.779706],[152.136052,-27.787851],[152.1415,-27.789133],[152.145986,-27.795078],[152.147384,-27.799067],[152.14738,-27.807467],[152.140029,-27.807292],[152.137935,-27.813955],[152.13996,-27.817199],[152.139585,-27.821262],[152.144478,-27.824627],[152.145834,-27.830488],[152.151635,-27.834216],[152.15251,-27.836934],[152.151349,-27.843537],[152.149136,-27.846157],[152.150758,-27.849393],[152.147211,-27.859692],[152.148272,-27.862854],[152.150104,-27.869268],[152.152404,-27.872686],[152.151221,-27.876634],[152.160761,-27.878772],[152.164064,-27.88316],[152.168574,-27.882231],[152.171109,-27.887217],[152.175895,-27.887407],[152.175232,-27.897351],[152.175651,-27.904488],[152.178708,-27.909194],[152.184809,-27.912513],[152.188454,-27.924176],[152.199066,-27.929341],[152.203453,-27.927042],[152.207635,-27.931513],[152.210196,-27.931862],[152.209105,-27.937754],[152.216011,-27.938764],[152.2149,-27.945139],[152.221645,-27.946201],[152.222675,-27.94834],[152.230426,-27.949535],[152.235031,-27.951952],[152.241024,-27.952714],[152.254436,-27.956114],[152.256571,-27.960783],[152.260514,-27.96203],[152.270221,-27.968547],[152.276931,-27.969723],[152.280492,-27.966319],[152.284196,-27.965859],[152.28603,-27.962908],[152.293576,-27.961037],[152.293521,-27.955983],[152.298687,-27.956378],[152.308386,-27.962841],[152.316313,-27.965551],[152.321938,-27.964625],[152.327654,-27.96661],[152.334308,-27.964717],[152.343058,-27.961016],[152.347352,-27.965377],[152.357008,-27.962269],[152.365903,-27.964222],[152.372832,-27.964321],[152.377519,-27.96622],[152.382276,-27.965632],[152.38776,-27.971873],[152.382812,-27.978804],[152.383625,-27.983728],[152.378003,-27.990558],[152.377993,-27.99926],[152.374893,-28.012336],[152.381316,-28.020832],[152.382843,-28.024454],[152.390311,-28.030865],[152.388469,-28.03629],[152.394293,-28.043771],[152.395034,-28.04899],[152.389954,-28.059093],[152.399421,-28.06271],[152.402357,-28.065336],[152.410643,-28.068756],[152.41631,-28.069754],[152.414721,-28.078669],[152.418451,-28.088486],[152.412425,-28.09239],[152.409408,-28.095775],[152.408544,-28.100114],[152.411901,-28.107601],[152.411431,-28.112637],[152.413931,-28.116323],[152.419,-28.118702],[152.421529,-28.124445],[152.426143,-28.1291],[152.434044,-28.131009],[152.432048,-28.142626],[152.434886,-28.147509],[152.435536,-28.156308],[152.438442,-28.160181],[152.446688,-28.166427],[152.442049,-28.176017],[152.4473,-28.18664],[152.455831,-28.195629],[152.470858,-28.194963],[152.470863,-28.200545],[152.473234,-28.20436],[152.467588,-28.212366],[152.465601,-28.216753],[152.460205,-28.218372],[152.458243,-28.220999],[152.458952,-28.226581],[152.469918,-28.228872],[152.473759,-28.228095],[152.482353,-28.229506],[152.482928,-28.234833],[152.487507,-28.238936],[152.491844,-28.240707],[152.492287,-28.243468],[152.486992,-28.247982],[152.487704,-28.2526],[152.48764,-28.253379],[152.487617,-28.253908],[152.497673,-28.25379],[152.50847429331677,-28.249318835647095],[152.51311915876553,-28.250888812508723],[152.515661,-28.25182],[152.5160197903622,-28.25592688284766],[152.51609839644496,-28.256826644956625],[152.5164348076554,-28.256843215039154],[152.52193019768018,-28.260770913282265],[152.53001720738607,-28.262062094369234],[152.533975,-28.262694],[152.536487,-28.265894],[152.532898,-28.272311],[152.532802,-28.279583],[152.528879,-28.286644],[152.52900101813302,-28.28993499503899],[152.52901239048475,-28.298241787215577],[152.5256027693422,-28.301920353247073],[152.5270623645612,-28.306690016561916],[152.533545,-28.310727],[152.53836467579964,-28.311289024437077],[152.53911237156157,-28.31159326828816],[152.5419496289834,-28.314563004655767],[152.54398214077386,-28.318691546069427],[152.54757700990066,-28.320702886315377],[152.5483240229901,-28.320988820841052],[152.5508444056272,-28.320570944900354],[152.55187689791322,-28.32016793984678],[152.554946,-28.31897],[152.554675,-28.325536],[152.556799,-28.324022],[152.564036,-28.323534],[152.572299,-28.326754],[152.5743334883855,-28.333187927078576],[152.57440494025832,-28.333413888623827],[152.57682168458967,-28.336393917753906],[152.5789725582788,-28.338640757563425],[152.58071543253928,-28.33691999252645],[152.585055,-28.329201],[152.592422,-28.323998],[152.59571093137117,-28.318407908128556],[152.5971561823964,-28.31595146100439],[152.597846,-28.314779],[152.597642,-28.314618],[152.597362,-28.312818],[152.60163022924425,-28.307468446657207],[152.60082189255684,-28.303746005014595],[152.597996,-28.292048],[152.600225,-28.284023],[152.60793786012323,-28.276215159231537],[152.61328886456994,-28.27079825940402],[152.61439768420422,-28.2696757851199],[152.61473597530215,-28.2701077315515],[152.61643548463564,-28.274397587171904],[152.61751242247018,-28.28247763334449],[152.6211146482011,-28.284380968896837],[152.6230267100583,-28.28797475929103],[152.62293672593353,-28.290693227060586],[152.622146,-28.293183],[152.62494033171703,-28.298820845154935],[152.62829938278486,-28.303245655728013],[152.63502781005067,-28.307007349802664],[152.63881200843278,-28.31111929546527],[152.64314518628484,-28.312130592170316],[152.6482412653104,-28.3131925570841],[152.65839361566532,-28.31011644506236],[152.667228,-28.311752],[152.673369,-28.317837],[152.67395911379418,-28.32622860173344],[152.679494,-28.330585],[152.686374,-28.329145],[152.688397,-28.334837],[152.692407,-28.336801],[152.698575,-28.335668],[152.7028563280391,-28.337791741774346],[152.70435031273092,-28.33877973054283],[152.707637,-28.344287],[152.7126478232657,-28.341483896682124],[152.71613585498744,-28.343161360518792],[152.719913,-28.345226],[152.72294612177146,-28.344169237191725],[152.72445134170275,-28.345836435124884],[152.731107,-28.353949],[152.73334256275632,-28.35352730856369],[152.73483582824917,-28.354073402360974],[152.74001759262214,-28.358901505282436],[152.74694821208766,-28.360977005827703],[152.7510157859353,-28.36387684930139],[152.751455067429,-28.36385612572262],[152.7577622878996,-28.362927466159192],[152.762535,-28.357797],[152.758764,-28.354459],[152.76031343926408,-28.352269703352373],[152.77556685514554,-28.34663824663331],[152.782472,-28.347456],[152.787386,-28.351626],[152.7930300281381,-28.353823122907517],[152.80100095529306,-28.353711628080728],[152.80425655689945,-28.35357010620224],[152.809072,-28.350635],[152.8092995490205,-28.34245566441117],[152.817713,-28.335876],[152.82219035599655,-28.3353936526089],[152.82319905489246,-28.335284985064657],[152.82343744102505,-28.334746202954374],[152.824052292363,-28.330264005785143],[152.824256,-28.328779],[152.831138,-28.320265],[152.83323794896063,-28.32008071617987],[152.83598981105163,-28.320685459438984],[152.84016561928092,-28.32160312602054],[152.84025674048138,-28.321568681008674],[152.847433,-28.315972],[152.84958374433828,-28.31123438816596],[152.85740008053332,-28.3120635282329],[152.8631789485854,-28.312692356326004],[152.865772,-28.313577],[152.875501,-28.312428],[152.88026557792608,-28.3098971506649],[152.88108816404906,-28.3108421022456],[152.882688,-28.313321],[152.893429,-28.317929],[152.8944770085621,-28.319132610203383],[152.89980742782035,-28.32525445618776],[152.90299337079378,-28.325722423101812],[152.90896835972526,-28.32660005875162],[152.915417,-28.330405],[152.9203083094624,-28.331136451006262],[152.923628,-28.331766],[152.933971,-28.338335],[152.94044390598273,-28.334948789400766],[152.94531818068165,-28.33560494431459],[152.9579584450079,-28.333057500407424],[152.97265029860984,-28.331864994706105],[152.97397867749993,-28.33230395130694],[152.98362939455643,-28.338100290480785],[152.98614515373112,-28.337501569713037],[152.98932164019254,-28.336745603707996],[152.99508436070474,-28.33942872768373],[152.99651698417318,-28.340005460196874],[153.008199,-28.341717],[153.00999888779248,-28.341288991464854],[153.01077829289133,-28.341103651003056],[153.021147,-28.338638],[153.03225256161608,-28.341592431947383],[153.03334759230594,-28.34188374487377],[153.03731333758148,-28.342938759013737],[153.0384118795887,-28.34323100606201],[153.0459287599052,-28.33952058545592],[153.04639961265454,-28.339753813164723],[153.0502142120475,-28.341643300435887],[153.053254,-28.343149],[153.0652872380933,-28.344237664468935],[153.0656553759412,-28.34455597499335],[153.0744702774585,-28.352177782804645],[153.08023109772748,-28.354065741375962],[153.08542297767454,-28.35379870027205],[153.08960197279802,-28.353487968645226],[153.09949418532506,-28.357154439174696],[153.10314217891872,-28.3577532408267],[153.10806193000346,-28.35750697828948],[153.1094,-28.35744],[153.1103697866492,-28.35639266218045],[153.1124916135302,-28.354101158641086],[153.116927,-28.343028],[153.11950250716134,-28.341868416529646],[153.12525009010673,-28.338039937945165],[153.12968718368342,-28.33098736784408],[153.12592641927415,-28.325214988609897],[153.12483698372122,-28.32371699056648],[153.1249821528757,-28.318573497247968],[153.1293736880734,-28.31763880381087],[153.132961,-28.317536],[153.1361386685493,-28.31198752148923],[153.14216958248744,-28.311992068546736],[153.14325767759954,-28.311992888925058],[153.14382423704856,-28.30488530993612],[153.152918,-28.301918],[153.15678172190167,-28.29611294225664],[153.16382007146197,-28.297607002916745],[153.167736,-28.295477],[153.1687680685543,-28.292648392614527],[153.16542249907644,-28.28885989518168],[153.1653145774769,-28.284377232111616],[153.16151093690857,-28.280299882499744],[153.16131672225845,-28.279732960687777],[153.1748122794307,-28.2743397782488],[153.17176868179703,-28.26034917175161],[153.17241203407906,-28.258967518154467],[153.17595292309437,-28.25136315864289],[153.17676315868036,-28.249623108994832],[153.17978,-28.250254],[153.18725895410805,-28.24780887156739],[153.197766,-28.256209],[153.19899193348147,-28.25615893236726],[153.20046887883456,-28.256098613305387],[153.20277496997085,-28.255051690553813],[153.2063613318207,-28.253423548561976],[153.21575907847466,-28.260896922714913],[153.218217,-28.263224],[153.23154942673779,-28.26491278013258],[153.232816032379,-28.265073217424657],[153.23601138308808,-28.25621813821153],[153.243881,-28.247515],[153.24962,-28.247658],[153.264137,-28.243548],[153.269065,-28.23862],[153.2755932615334,-28.236865883050196],[153.2792472537707,-28.233788406559395],[153.28424355412537,-28.23477672720335],[153.28915971118707,-28.234996782176918],[153.2966325017184,-28.23425585393727]]],[[[153.45439,-28.089031],[153.45826409573,-28.090291454905064],[153.4580883327019,-28.08425866223316],[153.4532160395226,-28.065108010245883],[153.44526461064854,-28.048447761680322],[153.44491305908696,-28.037601875874575],[153.4416466325597,-28.023823819975878],[153.44078976742898,-28.017835182771094],[153.43635570681604,-28.000485603374646],[153.43244208444833,-27.992373736764637],[153.43357217112836,-27.987104316352152],[153.43388831917954,-27.969761069131874],[153.43087150592984,-27.95267929488122],[153.42947679626252,-27.949060266413493],[153.431074,-27.998905],[153.437734,-28.040372],[153.447581,-28.076061],[153.452174,-28.086693],[153.45439,-28.089031]]],[[[152.412754,-28.301853],[152.41617140969618,-28.297274145138076],[152.414625,-28.298037],[152.412754,-28.301853]]],[[[152.4169590630036,-28.296885590179723],[152.42016599547887,-28.297923290777135],[152.417165,-28.296784],[152.4169590630036,-28.296885590179723]]],[[[152.42964552992262,-28.297831584267392],[152.435654,-28.299493],[152.43841776575422,-28.29840372068026],[152.42964552992262,-28.297831584267392]]],[[[152.44386884028913,-28.29469564463816],[152.44326480971924,-28.28976262952256],[152.442877,-28.290442],[152.44386884028913,-28.29469564463816]]],[[[152.4456998238222,-28.28549693784003],[152.449262,-28.280688],[152.455141,-28.278408],[152.45897314736322,-28.271565021375586],[152.457726,-28.272539],[152.454982,-28.277769],[152.448252,-28.281026],[152.4456998238222,-28.28549693784003]]],[[[152.46173422703043,-28.26074944316497],[152.4634603411033,-28.259955120760743],[152.461791,-28.260594],[152.46173422703043,-28.26074944316497]]],[[[152.46916094989857,-28.257773421284686],[152.48237,-28.257887],[152.471174,-28.257003],[152.46916094989857,-28.257773421284686]]],[[[153.33667021467508,-28.249055163106355],[153.339104,-28.250546],[153.34585,-28.248454],[153.3509777329543,-28.248821740162892],[153.346223,-28.248172],[153.33958,-28.250311],[153.33667021467508,-28.249055163106355]]],[[[153.37282616644623,-28.24329544833248],[153.3894973752793,-28.234945507249815],[153.382281,-28.237505],[153.37282616644623,-28.24329544833248]]],[[[153.43181336662894,-28.19085678423487],[153.435757,-28.187173],[153.44072458601482,-28.185620410654735],[153.4356,-28.187207],[153.43181336662894,-28.19085678423487]]]]},"bbox":[151.942079,-28.36387684930139,153.45826409573,-27.385228]}]}