{"type":"FeatureCollection","features":[
{"properties":{"electorateShortName":"wright","electorateName":"Wright","area":7576.982814,"state":"QLD"},"type":"Feature","geometry":{"type":"MultiPolygon","coordinates":[[[[153.2966325017184,-28.23425585393727],[153.30376251377052,-28.239315966083122],[153.296863,-28.234233],[153.294263,-28.230486],[153.317285,-28.207015],[153.319658,-28.187666],[153.326534,-28.185578],[153.337392,-28.173312],[153.348018,-28.168213],[153.348522,-28.160563],[153.358489,-28.157291],[153.365224,-28.132919],[153.360592,-28.125727],[153.363684,-28.113269],[153.370122,-28.106398],[153.363423,-28.086206],[153.353015,-28.087664],[153.355703,-28.0495],[153.351808,-28.031335],[153.338298,-28.022589],[153.32395,-28.022228],[153.324398,-28.013614],[153.285815,-28.01028],[153.294176,-28.003216],[153.316512,-27.990357],[153.322889,-27.982192],[153.332663,-27.986056],[153.344164,-27.9768],[153.336927,-27.970413],[153.32178,-27.96819],[153.317956,-27.956341],[153.299348,-27.953586],[153.304698,-27.940473],[153.300777,-27.926659],[153.307078,-27.91605],[153.29307,-27.914009],[153.292184,-27.903982],[153.284123,-27.902494],[153.280869,-27.913532],[153.267795,-27.919121],[153.258917,-27.916809],[153.255129,-27.906965],[153.244033,-27.897263],[153.212092,-27.900125],[153.180683,-27.895079],[153.186268,-27.88124],[153.18894,-27.855104],[153.181072,-27.85393],[153.180507,-27.840872],[153.172902,-27.834416],[153.183308,-27.820082],[153.175742,-27.808042],[153.159667,-27.804962],[153.162763,-27.787652],[153.155757,-27.786607],[153.158532,-27.76934],[153.1389,-27.763586],[153.138328,-27.752629],[153.12314,-27.749219],[153.119709,-27.743978],[153.08568,-27.770095],[153.075651,-27.766723],[153.057844,-27.752946],[153.051914,-27.768059],[153.043787,-27.774472],[153.035463,-27.761783],[153.02955,-27.778236],[153.018153,-27.788382],[153.0126,-27.777425],[153.025355,-27.752565],[153.030239,-27.725726],[152.987116,-27.720468],[153.002367,-27.707205],[153.006149,-27.686779],[153.016596,-27.678932],[153.020652,-27.669803],[153.019347,-27.657394],[152.997202,-27.654362],[152.978697,-27.646284],[152.973372,-27.639051],[152.940729,-27.628657],[152.935829,-27.645403],[152.924719,-27.657731],[152.931556,-27.666146],[152.927745,-27.685328],[152.922871,-27.708124],[152.890651,-27.70359],[152.882789,-27.747358],[152.873325,-27.753449],[152.857944,-27.751123],[152.856789,-27.757269],[152.835997,-27.755743],[152.808032,-27.758656],[152.8033,-27.785586],[152.80601,-27.793692],[152.79089,-27.793757],[152.784822,-27.788828],[152.760611,-27.785257],[152.762682,-27.772949],[152.757806,-27.767276],[152.707541,-27.758344],[152.704356,-27.749604],[152.68639,-27.746861],[152.684323,-27.752489],[152.663456,-27.749382],[152.655971,-27.738306],[152.639126,-27.736556],[152.638217,-27.741605],[152.607643,-27.737099],[152.598213,-27.726267],[152.52928,-27.717604],[152.522957,-27.726932],[152.523713,-27.736351],[152.519312,-27.761203],[152.499085,-27.758374],[152.494497,-27.783426],[152.481302,-27.785237],[152.467491,-27.783239],[152.462144,-27.803649],[152.451324,-27.802114],[152.440491,-27.859868],[152.40235,-27.863703],[152.394859,-27.830898],[152.400711,-27.824761],[152.391951,-27.817693],[152.393344,-27.809737],[152.407051,-27.805512],[152.40876,-27.796118],[152.395397,-27.781917],[152.389499,-27.769572],[152.39187,-27.75685],[152.40512,-27.749128],[152.410124,-27.720814],[152.409057,-27.707771],[152.413491,-27.70095],[152.390738,-27.697781],[152.396486,-27.68639],[152.411128,-27.681393],[152.422631,-27.663687],[152.421459,-27.654289],[152.430862,-27.651199],[152.448002,-27.654929],[152.454721,-27.66096],[152.465415,-27.647256],[152.472369,-27.626758],[152.487956,-27.603311],[152.504438,-27.595918],[152.497013,-27.582952],[152.507792,-27.581107],[152.512467,-27.574398],[152.518658,-27.55202],[152.492425,-27.551174],[152.499344,-27.511697],[152.474862,-27.508147],[152.477546,-27.496266],[152.472112,-27.486869],[152.480304,-27.482996],[152.472109,-27.472978],[152.457613,-27.464453],[152.44454,-27.463543],[152.435751,-27.457892],[152.435551,-27.441566],[152.399496,-27.428407],[152.401603,-27.414978],[152.390696,-27.412183],[152.373374,-27.40198],[152.343855,-27.399339],[152.342604,-27.402308],[152.315421,-27.39879],[152.310355,-27.4293],[152.294252,-27.427353],[152.291301,-27.400216],[152.278751,-27.409448],[152.262864,-27.416149],[152.258174,-27.409055],[152.260969,-27.392627],[152.227584,-27.388151],[152.208739,-27.390122],[152.191723,-27.386849],[152.197391,-27.399978],[152.196014,-27.406138],[152.179524,-27.407605],[152.177275,-27.420898],[152.164533,-27.425698],[152.156303,-27.438489],[152.147967,-27.437285],[152.136975,-27.423638],[152.117929,-27.420963],[152.11874,-27.416387],[152.099625,-27.411863],[152.093985,-27.401106],[152.083408,-27.404658],[152.070838,-27.402759],[152.056657,-27.402324],[152.054796,-27.412586],[152.038499,-27.409741],[152.029058,-27.416256],[152.019457,-27.44871],[152.006251,-27.44693],[152.003934,-27.462002],[151.991597,-27.460284],[151.966858,-27.473577],[151.963701,-27.480417],[151.967905,-27.503047],[151.955189,-27.514264],[151.958792,-27.522389],[151.970055,-27.51802],[151.998367,-27.525833],[151.988238,-27.535978],[152.000524,-27.55692],[151.996195,-27.580749],[151.99489,-27.599562],[151.989393,-27.608061],[151.974244,-27.609262],[151.978014,-27.621227],[151.948144,-27.617572],[151.942079,-27.632077],[151.948908,-27.636259],[151.956116,-27.649607],[151.971927,-27.644311],[151.985241,-27.64869],[151.992031,-27.673378],[151.987395,-27.682563],[151.999002,-27.683953],[152.010483,-27.699779],[152.034048,-27.702933],[152.031828,-27.716262],[152.048812,-27.718189],[152.07399,-27.731172],[152.086637,-27.757258],[152.093444,-27.761118],[152.096454,-27.744469],[152.104764,-27.745642],[152.101253,-27.765203],[152.131541,-27.771666],[152.139359,-27.779706],[152.147384,-27.799067],[152.140029,-27.807292],[152.139585,-27.821262],[152.151635,-27.834216],[152.148272,-27.862854],[152.152404,-27.872686],[152.171109,-27.887217],[152.175651,-27.904488],[152.184809,-27.912513],[152.188454,-27.924176],[152.203453,-27.927042],[152.216011,-27.938764],[152.2149,-27.945139],[152.254436,-27.956114],[152.256571,-27.960783],[152.276931,-27.969723],[152.298687,-27.956378],[152.308386,-27.962841],[152.327654,-27.96661],[152.343058,-27.961016],[152.382276,-27.965632],[152.38776,-27.971873],[152.378003,-27.990558],[152.374893,-28.012336],[152.390311,-28.030865],[152.388469,-28.03629],[152.395034,-28.04899],[152.389954,-28.059093],[152.41631,-28.069754],[152.418451,-28.088486],[152.409408,-28.095775],[152.411431,-28.112637],[152.426143,-28.1291],[152.434044,-28.131009],[152.432048,-28.142626],[152.435536,-28.156308],[152.446688,-28.166427],[152.442049,-28.176017],[152.455831,-28.195629],[152.470858,-28.194963],[152.473234,-28.20436],[152.458952,-28.226581],[152.482353,-28.229506],[152.492287,-28.243468],[152.486992,-28.247982],[152.487704,-28.2526],[152.48764,-28.253379],[152.487617,-28.253908],[152.497673,-28.25379],[152.50847429331677,-28.249318835647095],[152.51311915876553,-28.250888812508723],[152.5160197903622,-28.25592688284766],[152.51609839644496,-28.256826644956625],[152.5164348076554,-28.256843215039154],[152.52193019768018,-28.260770913282265],[152.53001720738607,-28.262062094369234],[152.536487,-28.265894],[152.532898,-28.272311],[152.532802,-28.279583],[152.52900101813302,-28.28993499503899],[152.52901239048475,-28.298241787215577],[152.5256027693422,-28.301920353247073],[152.5270623645612,-28.306690016561916],[152.53836467579964,-28.311289024437077],[152.53911237156157,-28.31159326828816],[152.5419496289834,-28.314563004655767],[152.54398214077386,-28.318691546069427],[152.54757700990066,-28.320702886315377],[152.5483240229901,-28.320988820841052],[152.5508444056272,-28.320570944900354],[152.55187689791322,-28.32016793984678],[152.556799,-28.324022],[152.564036,-28.323534],[152.572299,-28.326754],[152.5743334883855,-28.333187927078576],[152.57440494025832,-28.333413888623827],[152.57682168458967,-28.336393917753906],[152.5789725582788,-28.338640757563425],[152.58071543253928,-28.33691999252645],[152.59571093137117,-28.318407908128556],[152.5971561823964,-28.31595146100439],[152.597846,-28.314779],[152.597642,-28.314618],[152.60163022924425,-28.307468446657207],[152.60082189255684,-28.303746005014595],[152.597996,-28.292048],[152.60793786012323,-28.276215159231537],[152.61328886456994,-28.27079825940402],[152.61439768420422,-28.2696757851199],[152.61473597530215,-28.2701077315515],[152.61643548463564,-28.274397587171904],[152.61751242247018,-28.28247763334449],[152.6211146482011,-28.284380968896837],[152.6230267100583,-28.28797475929103],[152.62293672593353,-28.290693227060586],[152.62494033171703,-28.298820845154935],[152.62829938278486,-28.303245655728013],[152.63502781005067,-28.307007349802664],[152.63881200843278,-28.31111929546527],[152.64314518628484,-28.312130592170316],[152.6482412653104,-28.3131925570841],[152.65839361566532,-28.31011644506236],[152.673369,-28.317837],[152.67395911379418,-28.32622860173344],[152.688397,-28.334837],[152.692407,-28.336801],[152.698575,-28.335668],[152.7028563280391,-28.337791741774346],[152.70435031273092,-28.33877973054283],[152.7126478232657,-28.341483896682124],[152.71613585498744,-28.343161360518792],[152.719913,-28.345226],[152.72294612177146,-28.344169237191725],[152.72445134170275,-28.345836435124884],[152.73334256275632,-28.35352730856369],[152.73483582824917,-28.354073402360974],[152.74001759262214,-28.358901505282436],[152.74694821208766,-28.360977005827703],[152.7510157859353,-28.36387684930139],[152.751455067429,-28.36385612572262],[152.7577622878996,-28.362927466159192],[152.76031343926408,-28.352269703352373],[152.77556685514554,-28.34663824663331],[152.7930300281381,-28.353823122907517],[152.80100095529306,-28.353711628080728],[152.80425655689945,-28.35357010620224],[152.8092995490205,-28.34245566441117],[152.82219035599655,-28.3353936526089],[152.82319905489246,-28.335284985064657],[152.82343744102505,-28.334746202954374],[152.824052292363,-28.330264005785143],[152.83323794896063,-28.32008071617987],[152.83598981105163,-28.320685459438984],[152.84016561928092,-28.32160312602054],[152.84025674048138,-28.321568681008674],[152.84958374433828,-28.31123438816596],[152.85740008053332,-28.3120635282329],[152.8631789485854,-28.312692356326004],[152.88026557792608,-28.3098971506649],[152.88108816404906,-28.3108421022456],[152.8944770085621,-28.319132610203383],[152.89980742782035,-28.32525445618776],[152.90299337079378,-28.325722423101812],[152.90896835972526,-28.32660005875162],[152.9203083094624,-28.331136451006262],[152.933971,-28.338335],[152.94044390598273,-28.334948789400766],[152.94531818068165,-28.33560494431459],[152.9579584450079,-28.333057500407424],[152.97265029860984,-28.331864994706105],[152.97397867749993,-28.33230395130694],[152.98362939455643,-28.338100290480785],[152.98614515373112,-28.337501569713037],[152.98932164019254,-28.336745603707996],[152.99508436070474,-28.33942872768373],[152.99651698417318,-28.340005460196874],[153.00999888779248,-28.341288991464854],[153.01077829289133,-28.341103651003056],[153.021147,-28.338638],[153.03225256161608,-28.341592431947383],[153.03334759230594,-28.34188374487377],[153.03731333758148,-28.342938759013737],[153.0384118795887,-28.34323100606201],[153.0459287599052,-28.33952058545592],[153.04639961265454,-28.339753813164723],[153.0502142120475,-28.341643300435887],[153.0652872380933,-28.344237664468935],[153.0656553759412,-28.34455597499335],[153.0744702774585,-28.352177782804645],[153.08023109772748,-28.354065741375962],[153.08542297767454,-28.35379870027205],[153.08960197279802,-28.353487968645226],[153.09949418532506,-28.357154439174696],[153.10314217891872,-28.3577532408267],[153.10806193000346,-28.35750697828948],[153.1094,-28.35744],[153.1103697866492,-28.35639266218045],[153.1124916135302,-28.354101158641086],[153.11950250716134,-28.341868416529646],[153.12525009010673,-28.338039937945165],[153.12968718368342,-28.33098736784408],[153.12592641927415,-28.325214988609897],[153.12483698372122,-28.32371699056648],[153.1249821528757,-28.318573497247968],[153.1293736880734,-28.31763880381087],[153.1361386685493,-28.31198752148923],[153.14216958248744,-28.311992068546736],[153.14325767759954,-28.311992888925058],[153.14382423704856,-28.30488530993612],[153.15678172190167,-28.29611294225664],[153.16382007146197,-28.297607002916745],[153.1687680685543,-28.292648392614527],[153.16542249907644,-28.28885989518168],[153.1653145774769,-28.284377232111616],[153.16151093690857,-28.280299882499744],[153.16131672225845,-28.279732960687777],[153.1748122794307,-28.2743397782488],[153.17176868179703,-28.26034917175161],[153.17241203407906,-28.258967518154467],[153.17595292309437,-28.25136315864289],[153.17676315868036,-28.249623108994832],[153.18725895410805,-28.24780887156739],[153.19899193348147,-28.25615893236726],[153.20046887883456,-28.256098613305387],[153.20277496997085,-28.255051690553813],[153.2063613318207,-28.253423548561976],[153.21575907847466,-28.260896922714913],[153.23154942673779,-28.26491278013258],[153.232816032379,-28.265073217424657],[153.23601138308808,-28.25621813821153],[153.243881,-28.247515],[153.264137,-28.243548],[153.2755932615334,-28.236865883050196],[153.2792472537707,-28.233788406559395],[153.28424355412537,-28.23477672720335],[153.28915971118707,-28.234996782176918],[153.2966325017184,-28.23425585393727]]],[[[153.45439,-28.089031],[153.4580883327019,-28.08425866223316],[153.4532160395226,-28.065108010245883],[153.44526461064854,-28.048447761680322],[153.44491305908696,-28.037601875874575],[153.43635570681604,-28.000485603374646],[153.431074,-27.998905],[153.437734,-28.040372],[153.447581,-28.076061],[153.45439,-28.089031]]],[[[152.412754,-28.301853],[152.41617140969618,-28.297274145138076],[152.414625,-28.298037],[152.412754,-28.301853]]],[[[152.4169590630036,-28.296885590179723],[152.42016599547887,-28.297923290777135],[152.417165,-28.296784],[152.4169590630036,-28.296885590179723]]],[[[152.44386884028913,-28.29469564463816],[152.44326480971924,-28.28976262952256],[152.442877,-28.290442],[152.44386884028913,-28.29469564463816]]],[[[152.4456998238222,-28.28549693784003],[152.45897314736322,-28.271565021375586],[152.457726,-28.272539],[152.448252,-28.281026],[152.4456998238222,-28.28549693784003]]],[[[152.46173422703043,-28.26074944316497],[152.4634603411033,-28.259955120760743],[152.461791,-28.260594],[152.46173422703043,-28.26074944316497]]],[[[152.46916094989857,-28.257773421284686],[152.48237,-28.257887],[152.471174,-28.257003],[152.46916094989857,-28.257773421284686]]]]},"bbox":[151.942079,-28.36387684930139,153.4580883327019,-27.386849]}]}