{"type":"FeatureCollection","features":[
{"properties":{"electorateShortName":"barker","electorateName":"Barker","area":65204.13,"state":null},"type":"Feature","geometry":{"type":"Polygon","coordinates":[[[140.973283,-37.358326],[140.973019,-37.310127],[140.971275,-37.228803],[140.971979,-37.06655],[140.970594,-36.911125],[140.96932,-36.793047],[140.968905,-36.664933],[140.968196,-36.551331],[140.96735,-36.373918],[140.965659,-36.17579],[140.963888,-35.996066],[140.963103,-35.748535],[140.964953,-35.536085],[140.966225,-35.389142],[140.965949,-35.237705],[140.965621,-35.008257],[140.96534,-34.84046],[140.964809,-34.637679],[140.964347,-34.438654],[140.962593,-34.214158],[140.961682,-34.095818],[140.962516,-34.095833],[140.963616,-33.980648],[140.969513,-33.985386],[140.968271,-33.996052],[140.980375,-33.999637],[140.984758,-34.009207],[140.980453,-34.016013],[140.985698,-34.027525],[140.994503,-34.02943],[141.002956,-34.021892],[141.002681,-33.832058],[141.002682,-33.678602],[141.002563,-33.529101],[141.002258,-33.329008],[141.00215,-33.227123],[141.002239,-33.311159],[140.373676,-33.310387],[140.374777,-34.004683],[140.2161,-34.005623],[140.215927,-33.945289],[140.053206,-33.944663],[139.857232,-33.943622],[139.857077,-33.875317],[139.699228,-33.875194],[139.699984,-33.800595],[139.527676,-33.801764],[139.355934,-33.803013],[139.35627,-33.970702],[139.35672,-34.126099],[139.358038,-34.175439],[139.351096,-34.209184],[139.350784,-34.319345],[139.26424,-34.319365],[139.264374,-34.295832],[139.215427,-34.310227],[139.199639,-34.312121],[139.191445,-34.320657],[139.171574,-34.326907],[139.162756,-34.327119],[139.155835,-34.3352],[139.105038,-34.330029],[139.113225,-34.319959],[139.127389,-34.315023],[139.034166,-34.306653],[139.035832,-34.297145],[139.043339,-34.282236],[139.04152,-34.27468],[139.048663,-34.267331],[139.048545,-34.244786],[139.030259,-34.242279],[139.01295,-34.245984],[139.004986,-34.244545],[138.997786,-34.255946],[138.978141,-34.252767],[138.972809,-34.218296],[138.96583,-34.201831],[138.965402,-34.19339],[138.926944,-34.198011],[138.909126,-34.197818],[138.902944,-34.187563],[138.864812,-34.188302],[138.864763,-34.193541],[138.838376,-34.193493],[138.835813,-34.212423],[138.840806,-34.221068],[138.839001,-34.231692],[138.827879,-34.231227],[138.827813,-34.241123],[138.83833,-34.266202],[138.840843,-34.284004],[138.837019,-34.300597],[138.779426,-34.298285],[138.786482,-34.317968],[138.784659,-34.341442],[138.774445,-34.350491],[138.75529,-34.374515],[138.749334,-34.429217],[138.744114,-34.445325],[138.753088,-34.513687],[138.747465,-34.558248],[138.758125,-34.56222],[138.761748,-34.571745],[138.77279,-34.56093],[138.781158,-34.560706],[138.793161,-34.552199],[138.804228,-34.551324],[138.82127,-34.564057],[138.824788,-34.590962],[138.815425,-34.600873],[138.800443,-34.601906],[138.800976,-34.609536],[138.816113,-34.639045],[138.809727,-34.649441],[138.795767,-34.653842],[138.790293,-34.661118],[138.836713,-34.673433],[138.847549,-34.680538],[138.859883,-34.702896],[138.887929,-34.700579],[138.896334,-34.707484],[138.909409,-34.708276],[138.917484,-34.725582],[138.917461,-34.734708],[138.926642,-34.73471],[138.928028,-34.755628],[138.948565,-34.765403],[138.948101,-34.773129],[138.972456,-34.773414],[138.989422,-34.76976],[138.988073,-34.781386],[139.00478,-34.794065],[139.004581,-34.79914],[139.032714,-34.81089],[139.043574,-34.817193],[139.037326,-34.823293],[139.025074,-34.823358],[139.01913,-34.829347],[139.001475,-34.834427],[139.006916,-34.841273],[139.00191,-34.850872],[139.009075,-34.863681],[138.998926,-34.872736],[138.980761,-34.882973],[138.975208,-34.8949],[139.034957,-34.928687],[139.020385,-34.948833],[139.028227,-34.956885],[139.027696,-34.963022],[139.041161,-34.976666],[139.031236,-35.001844],[139.037553,-35.013434],[139.036571,-35.024544],[139.031084,-35.033321],[139.032892,-35.042781],[139.029078,-35.060404],[139.031967,-35.073983],[139.039187,-35.089417],[139.037744,-35.096167],[139.04403,-35.111613],[139.027421,-35.13878],[139.066687,-35.165936],[139.066437,-35.214865],[139.086072,-35.216629],[139.107617,-35.232366],[139.158312,-35.253485],[139.144709,-35.471704],[139.046729,-35.500949],[139.03377,-35.51312],[139.006917,-35.512766],[138.981025,-35.518259],[138.965952,-35.528807],[138.966274,-35.541346],[138.954046,-35.551104],[138.93579,-35.555499],[138.931535,-35.562441],[138.899397,-35.554881],[138.880768,-35.555786],[138.878089,-35.558867],[138.817882,-35.536615],[138.79334218880655,-35.5289301481881],[138.7888392823741,-35.54727010801552],[138.7882866640717,-35.56482858215787],[138.7911554637826,-35.58215992340473],[138.79733638186653,-35.59860381749451],[138.80659392885377,-35.61353376139846],[138.81857539746008,-35.626380932730385],[138.83282430053413,-35.636655861556555],[138.8487977629586,-35.64396707892232],[138.8584527704596,-35.64729030866464],[138.90223684597484,-35.667776064933584],[138.94378206357044,-35.68939162017536],[139.00864906396876,-35.726566233190304],[139.07375148715886,-35.76823997421395],[139.15876484719573,-35.82719485778896],[139.21189479216028,-35.86824519832943],[139.27145131545072,-35.91848356946072],[139.31583057867246,-35.958250290037576],[139.35010983264928,-35.99111309246177],[139.4182322018654,-36.06119554684764],[139.45465465441063,-36.10206522074157],[139.48891366300035,-36.143686431891865],[139.52117936626186,-36.185799648355115],[139.5733920956549,-36.261063878424366],[139.63038579677288,-36.35583635322287],[139.70567389600896,-36.50649150637245],[139.71696654587194,-36.5334158250058],[139.7596586333953,-36.65562457221817],[139.772263594926,-36.70344639392751],[139.77344385361525,-36.72054205336491],[139.77266222363224,-36.75326221452115],[139.7655577469785,-36.79093085592045],[139.7532793544444,-36.8045596230622],[139.73516219302846,-36.818934762551876],[139.71992852804573,-36.823965529156524],[139.68995369928976,-36.83744174994035],[139.67675084439531,-36.8464844317653],[139.6360496390114,-36.86136379875614],[139.62145349459905,-36.870399891177875],[139.60883857860668,-36.88204301328775],[139.59866385344583,-36.895869558982916],[139.58543950124047,-36.92753748371205],[139.58114201236378,-36.9442331682843],[139.58010679849454,-36.961441963309696],[139.58237184486225,-36.97853242436062],[139.58785403984265,-36.9948774490525],[139.60240522458253,-37.01851228738856],[139.62308457731027,-37.04048350709676],[139.63944197381915,-37.05298608874938],[139.63341725370483,-37.0699657329804],[139.6309214693058,-37.08761973760806],[139.63195482622544,-37.10541931604792],[139.63647676931012,-37.122665905562926],[139.64430983025917,-37.13868264603433],[139.65360100472859,-37.15082162383506],[139.6499767379971,-37.18070890146952],[139.65140269024425,-37.19796880856655],[139.65610815832028,-37.214636030980465],[139.6639189018021,-37.23009339230348],[139.67454569393772,-37.24376851649727],[139.68885260146038,-37.25588297189958],[139.69225273818827,-37.263285350770396],[139.71308468727364,-37.29275524265662],[139.7272172564312,-37.3183262587082],[139.7707534615323,-37.3787640629142],[139.79021527658324,-37.39920001929564],[139.80753573031777,-37.41183321398619],[139.824110167472,-37.43670343905827],[139.84913938426303,-37.45648121144198],[139.8633641759512,-37.47849863190822],[139.8875543376259,-37.50737038323811],[139.90735900527739,-37.52151849863178],[139.92553238710167,-37.545354696746124],[139.94224831202737,-37.560296718602345],[139.977915224512,-37.580132950631715],[139.9939759930809,-37.58470846562195],[140.0201804231165,-37.585334218907555],[140.0277252360833,-37.608262938341355],[140.036046528085,-37.62555776881113],[140.04703713237734,-37.639953009067945],[140.06317033626513,-37.65361529678957],[140.0968594348948,-37.67287933333712],[140.1268027201251,-37.69175659066785],[140.1403736521032,-37.7042317571083],[140.18015710431183,-37.74552636854381],[140.20219227453902,-37.77314871573617],[140.23850103022613,-37.831778496369886],[140.2431514288588,-37.848071197888984],[140.25111032368278,-37.86425337874749],[140.27622131330048,-37.89601551152583],[140.28744393048956,-37.924372703364405],[140.3041839115057,-37.95223831281351],[140.33355457229555,-37.984473443300296],[140.34765487837092,-37.99562880100288],[140.38095726955757,-38.011508693328736],[140.41078999043845,-38.02006006477763],[140.43399993658113,-38.033507523640885],[140.44242087917834,-38.04499621185286],[140.45715674448886,-38.0579219192104],[140.47803709716771,-38.07108597988344],[140.50748721608517,-38.08477526810441],[140.53011604561493,-38.1050174665515],[140.5451473528295,-38.11293430773332],[140.56139860477512,-38.117885406710116],[140.57936926603185,-38.11960531484933],[140.6023196122475,-38.12823446663536],[140.6182785159154,-38.139893300389055],[140.6348242940569,-38.14713182111658],[140.65248214160025,-38.15092119794748],[140.6705410381589,-38.15110884579615],[140.6856213110955,-38.14845683521793],[140.7117997894619,-38.14856043075076],[140.723485104755,-38.14553915226499],[140.74228502637553,-38.14852387955958],[140.76893051671473,-38.14969469510257],[140.7864647561963,-38.14827675084543],[140.81317926877412,-38.13847392229081],[140.8381329662366,-38.13352745690855],[140.85176449736144,-38.13845510998439],[140.87097207645408,-38.140989475104355],[140.89027701237006,-38.13935437558428],[140.92291605767164,-38.14312000706316],[140.93560543775348,-38.142684590963526],[140.95343421246176,-38.145144429593145],[140.9702747270851,-38.14587443195642],[140.98695599489963,-38.143451388347614],[141.00289286208064,-38.13796029549785],[141.0175262872598,-38.129593772698314],[141.03034295185688,-38.11864530500481],[141.0408932665246,-38.10549894822272],[141.0515999816571,-38.08162386381632],[141.028512,-38.071588],[140.990804,-38.059799],[140.965735,-38.055989],[140.96811,-37.939664],[140.968887,-37.875991],[140.971091,-37.791453],[140.972925,-37.654266],[140.972393,-37.643462],[140.973872,-37.462093],[140.973283,-37.358326]]]},"bbox":[138.744114,-38.15110884579615,141.0515999816571,-33.227123]}]}