{"type":"FeatureCollection","features":[
{"properties":{"electorateShortName":"barton","electorateName":"Barton","area":39.65,"state":null},"type":"Feature","geometry":{"type":"MultiPolygon","coordinates":[[[[151.17424,-33.924966],[151.16932,-33.921334],[151.166192,-33.918275],[151.164642,-33.915716],[151.162196,-33.916147],[151.153244,-33.913783],[151.147941,-33.911488],[151.145287,-33.911127],[151.143116,-33.911263],[151.140231,-33.91078],[151.137741,-33.909503],[151.135829,-33.909122],[151.133864,-33.909449],[151.128422,-33.912171],[151.126075,-33.912728],[151.122132,-33.91316],[151.12088,-33.913012],[151.119054,-33.9122],[151.117625,-33.913164],[151.115605,-33.913645],[151.099015,-33.920441],[151.094878,-33.922206],[151.09708,-33.925836],[151.098558,-33.929307],[151.100666,-33.938766],[151.098248,-33.93958],[151.095719,-33.940053],[151.090045,-33.94049],[151.087433,-33.940268],[151.085254,-33.940361],[151.083622,-33.940823],[151.079565,-33.942511],[151.076976,-33.943251],[151.078815,-33.947256],[151.084878,-33.954199],[151.091769,-33.962455],[151.094384,-33.965427],[151.096964,-33.965227],[151.100109,-33.966104],[151.103522,-33.967854],[151.105766,-33.968473],[151.108701,-33.968343],[151.110349,-33.968488],[151.114276,-33.969656],[151.115829,-33.969846],[151.117637,-33.969615],[151.124418,-33.968255],[151.126986,-33.971463],[151.129671,-33.973631],[151.135644,-33.969474],[151.136197,-33.968706],[151.137127,-33.964309],[151.153808,-33.966749],[151.154842,-33.966669],[151.155626,-33.964514],[151.15715,-33.961178],[151.157771,-33.959321],[151.161105,-33.955054],[151.161831,-33.953642],[151.164315,-33.951768],[151.165221,-33.950632],[151.168033,-33.949774],[151.165327,-33.947371],[151.161627,-33.945944],[151.159989,-33.944801],[151.159903,-33.943429],[151.160919,-33.939507],[151.161219,-33.937339],[151.160456,-33.934009],[151.162069,-33.933737],[151.163227,-33.931577],[151.165099,-33.929719],[151.169234,-33.927328],[151.173594,-33.926541],[151.17424,-33.924966]]],[[[151.25946,-33.937314],[151.26268796272285,-33.93945440910213],[151.26372833332346,-33.93454922487424],[151.26380860318437,-33.916164561276844],[151.26366854681314,-33.91547458676209],[151.261402,-33.914886],[151.262888,-33.917735],[151.257682,-33.922042],[151.261377,-33.927516],[151.259779,-33.929651],[151.261772,-33.935191],[151.25946,-33.937314]]],[[[151.256967,-33.951596],[151.25953311330576,-33.953717168214794],[151.25991383353872,-33.95253399315833],[151.2614965837498,-33.94507157412461],[151.258558,-33.945658],[151.256967,-33.951596]]],[[[151.251886,-33.964671],[151.25575857332333,-33.96946253566078],[151.2560644817509,-33.96849452939259],[151.25646870393186,-33.96493207163083],[151.251886,-33.964671]]],[[[151.251185,-33.978936],[151.2524763188337,-33.97984879060905],[151.2529985390592,-33.978196294613156],[151.251185,-33.978936]]],[[[151.158404,-34.058437],[151.1664693263121,-34.05576432563964],[151.16689718842684,-34.05552335279048],[151.1782164315323,-34.053580656010816],[151.19384623845548,-34.04777799692703],[151.2053309000526,-34.040878183257206],[151.2032,-34.040228],[151.201143,-34.03786],[151.200842,-34.040671],[151.198776,-34.041682],[151.194148,-34.036629],[151.185918,-34.034563],[151.175625,-34.036214],[151.16529,-34.040893],[151.158281,-34.048053],[151.154915,-34.055118],[151.158404,-34.058437]]]]},"bbox":[151.076976,-34.058437,151.26380860318437,-33.909122]}]}