{"type":"FeatureCollection","features":[
{"properties":{"electorateShortName":"barton","electorateName":"Barton","area":39.65,"state":null},"type":"Feature","geometry":{"type":"MultiPolygon","coordinates":[[[[151.17424,-33.924966],[151.164642,-33.915716],[151.133864,-33.909449],[151.119054,-33.9122],[151.094878,-33.922206],[151.100666,-33.938766],[151.076976,-33.943251],[151.094384,-33.965427],[151.129671,-33.973631],[151.137127,-33.964309],[151.154842,-33.966669],[151.165221,-33.950632],[151.159989,-33.944801],[151.162069,-33.933737],[151.17424,-33.924966]]],[[[151.25946,-33.937314],[151.26372833332346,-33.93454922487424],[151.26380860318437,-33.916164561276844],[151.261402,-33.914886],[151.257682,-33.922042],[151.25946,-33.937314]]],[[[151.158404,-34.058437],[151.19384623845548,-34.04777799692703],[151.2032,-34.040228],[151.198776,-34.041682],[151.194148,-34.036629],[151.185918,-34.034563],[151.16529,-34.040893],[151.154915,-34.055118],[151.158404,-34.058437]]]]},"bbox":[151.076976,-34.058437,151.26380860318437,-33.909449]}]}