{"type":"FeatureCollection","features":[
{"properties":{"electorateShortName":"bean","electorateName":"Bean","area":1913.8,"state":null},"type":"Feature","geometry":{"type":"MultiPolygon","coordinates":[[[[148.961731,-35.218467],[148.810134,-35.307449],[148.80866,-35.382455],[148.76279,-35.495499],[148.768896,-35.604262],[148.798521,-35.666979],[148.788443,-35.697807],[148.834726,-35.740511],[148.889403,-35.722723],[148.912654,-35.85546],[148.958406,-35.891788],[149.048811,-35.92041],[149.101088,-35.805063],[149.109418,-35.696586],[149.078148,-35.586417],[149.140486,-35.588292],[149.146391,-35.415303],[149.206345,-35.345905],[149.069556,-35.34837],[149.03396,-35.265887],[148.979653,-35.25937],[148.961731,-35.218467]]],[[[167.82914756990164,-29.03761620986369],[167.85698028875942,-29.15094162022373],[167.93247987763982,-29.221112516789887],[167.99912819946843,-29.20884773723631],[168.0439068720894,-29.16360639736982],[168.08435949541587,-29.05796224602058],[168.08666362691164,-29.013321594575746],[168.04872476902204,-28.953015319262146],[167.9190038618016,-28.905293081763933],[167.8535358886041,-28.93418929071207],[167.8281946453923,-28.980280815231556],[167.82914756990164,-29.03761620986369]]]]},"bbox":[148.76279,-35.92041,168.08666362691164,-28.905293081763933]}]}