{"type":"FeatureCollection","features":[
{"properties":{"electorateShortName":"bean","electorateName":"Bean","area":1913.8,"state":null},"type":"Feature","geometry":{"type":"MultiPolygon","coordinates":[[[[148.961731,-35.218467],[148.896603,-35.256742],[148.810134,-35.307449],[148.807961,-35.309786],[148.801069,-35.321771],[148.801712,-35.329175],[148.798505,-35.33209],[148.793547,-35.339122],[148.796904,-35.346391],[148.798729,-35.34815],[148.799397,-35.353388],[148.796698,-35.358414],[148.799553,-35.358972],[148.801488,-35.36261],[148.805696,-35.365156],[148.804431,-35.368355],[148.804064,-35.376204],[148.80866,-35.382455],[148.804788,-35.385111],[148.80361,-35.38882],[148.795688,-35.393003],[148.795976,-35.406637],[148.785795,-35.408911],[148.786287,-35.412791],[148.790158,-35.41565],[148.788926,-35.418006],[148.788917,-35.426495],[148.783555,-35.432727],[148.781028,-35.433339],[148.77771,-35.440042],[148.774841,-35.441835],[148.773014,-35.449498],[148.775985,-35.454888],[148.771684,-35.463477],[148.767152,-35.465494],[148.766846,-35.471196],[148.770561,-35.475607],[148.770842,-35.480061],[148.774381,-35.486145],[148.765185,-35.490897],[148.76279,-35.495499],[148.765188,-35.50527],[148.76832,-35.508278],[148.76605,-35.510901],[148.768008,-35.521585],[148.767972,-35.52498],[148.772248,-35.529852],[148.769797,-35.538141],[148.769997,-35.545581],[148.773238,-35.548875],[148.777949,-35.55852],[148.778524,-35.563531],[148.77294,-35.567798],[148.782148,-35.579237],[148.786124,-35.582473],[148.788773,-35.58834],[148.783191,-35.595406],[148.773614,-35.598565],[148.768896,-35.604262],[148.772666,-35.609442],[148.778174,-35.613428],[148.780388,-35.617621],[148.77949,-35.622615],[148.783442,-35.62851],[148.78038,-35.633003],[148.770858,-35.640034],[148.771746,-35.64486],[148.767498,-35.647413],[148.772828,-35.650047],[148.773502,-35.655502],[148.781722,-35.655818],[148.790554,-35.65932],[148.798521,-35.666979],[148.797293,-35.672452],[148.798388,-35.676148],[148.79657,-35.682657],[148.791376,-35.689646],[148.791397,-35.693321],[148.788443,-35.697807],[148.791098,-35.703425],[148.796282,-35.709352],[148.805274,-35.714012],[148.808558,-35.717215],[148.814138,-35.719859],[148.818749,-35.718718],[148.822495,-35.720971],[148.823575,-35.724213],[148.827871,-35.726148],[148.830182,-35.732159],[148.832873,-35.735021],[148.834726,-35.740511],[148.840738,-35.746444],[148.847093,-35.750469],[148.854026,-35.751082],[148.856132,-35.753518],[148.854938,-35.759197],[148.859648,-35.760626],[148.862456,-35.75755],[148.860737,-35.752874],[148.863899,-35.748104],[148.864863,-35.742375],[148.867477,-35.738702],[148.86407,-35.733869],[148.867246,-35.731907],[148.871608,-35.725564],[148.872491,-35.721422],[148.877693,-35.714936],[148.883614,-35.717122],[148.889403,-35.722723],[148.892479,-35.730487],[148.888368,-35.733671],[148.888087,-35.737026],[148.890855,-35.740469],[148.894087,-35.751288],[148.898777,-35.751215],[148.903348,-35.757798],[148.902312,-35.763202],[148.899418,-35.767601],[148.895221,-35.770611],[148.894956,-35.784627],[148.897776,-35.79465],[148.88946,-35.807193],[148.886623,-35.810063],[148.89104,-35.813846],[148.892426,-35.816626],[148.896577,-35.817924],[148.897596,-35.82472],[148.903561,-35.826134],[148.907065,-35.829563],[148.903249,-35.834182],[148.905268,-35.839639],[148.903936,-35.842505],[148.907842,-35.847863],[148.907788,-35.850765],[148.912654,-35.85546],[148.920059,-35.85729],[148.919783,-35.86079],[148.924983,-35.863808],[148.932237,-35.870567],[148.932719,-35.87365],[148.940614,-35.875839],[148.944562,-35.881391],[148.95277,-35.888208],[148.958406,-35.891788],[148.959133,-35.895456],[148.966288,-35.897268],[148.967855,-35.893972],[148.97314,-35.892363],[148.977311,-35.892423],[148.98951,-35.895988],[148.993326,-35.895225],[148.997983,-35.896887],[148.997398,-35.900995],[148.999379,-35.902625],[149.003487,-35.901203],[149.00882,-35.901306],[149.012198,-35.899697],[149.022681,-35.906086],[149.027606,-35.912892],[149.0337,-35.911196],[149.036133,-35.913922],[149.041232,-35.914611],[149.044564,-35.919537],[149.048811,-35.92041],[149.054498,-35.91453],[149.057133,-35.907397],[149.051698,-35.903534],[149.054224,-35.898895],[149.058908,-35.896001],[149.061738,-35.891448],[149.06014,-35.888293],[149.062377,-35.884516],[149.061711,-35.879879],[149.067644,-35.870859],[149.070254,-35.869394],[149.076789,-35.860646],[149.079685,-35.859055],[149.082121,-35.853208],[149.086574,-35.848248],[149.095682,-35.845716],[149.091978,-35.835416],[149.093658,-35.833978],[149.094725,-35.828766],[149.093517,-35.824221],[149.095931,-35.817612],[149.100583,-35.814811],[149.100457,-35.810044],[149.098237,-35.807904],[149.101088,-35.805063],[149.097099,-35.799674],[149.097047,-35.796833],[149.100201,-35.7941],[149.100232,-35.789757],[149.093498,-35.787226],[149.093144,-35.783159],[149.097371,-35.777442],[149.091631,-35.773946],[149.093271,-35.770777],[149.090709,-35.765617],[149.093635,-35.76186],[149.092925,-35.759119],[149.0964,-35.752824],[149.095064,-35.750401],[149.096983,-35.747372],[149.096228,-35.74365],[149.100686,-35.736304],[149.099098,-35.729288],[149.103674,-35.726039],[149.103887,-35.72329],[149.100677,-35.719018],[149.099349,-35.714659],[149.10111,-35.712868],[149.101966,-35.707776],[149.107476,-35.702307],[149.109418,-35.696586],[149.103799,-35.689771],[149.104382,-35.684869],[149.09942,-35.683883],[149.095893,-35.680382],[149.09496,-35.676823],[149.097271,-35.673605],[149.095686,-35.666988],[149.096218,-35.660363],[149.098535,-35.657213],[149.096037,-35.654339],[149.09748,-35.647295],[149.095629,-35.640335],[149.087562,-35.639652],[149.088585,-35.634092],[149.087873,-35.627905],[149.08419,-35.621677],[149.084525,-35.614644],[149.082571,-35.613639],[149.079234,-35.607749],[149.07952,-35.602471],[149.07818,-35.598819],[149.078726,-35.592556],[149.078148,-35.586417],[149.082923,-35.584593],[149.084615,-35.580814],[149.108345,-35.58398],[149.109228,-35.587619],[149.113145,-35.585804],[149.125617,-35.587489],[149.126035,-35.591852],[149.130345,-35.590979],[149.142635,-35.592783],[149.140486,-35.588292],[149.131945,-35.5572],[149.132454,-35.549503],[149.150468,-35.510338],[149.15137,-35.505812],[149.15161,-35.493201],[149.144984,-35.476557],[149.138601,-35.468311],[149.137996,-35.463582],[149.136131,-35.46073],[149.135179,-35.453685],[149.137053,-35.451816],[149.141888,-35.451391],[149.144163,-35.446384],[149.151463,-35.443914],[149.155016,-35.436676],[149.152899,-35.433531],[149.145395,-35.433181],[149.140324,-35.433978],[149.138058,-35.429371],[149.144503,-35.423141],[149.146391,-35.415303],[149.149009,-35.412681],[149.156562,-35.408065],[149.182191,-35.380848],[149.187118,-35.374614],[149.204403,-35.347787],[149.206345,-35.345905],[149.203401,-35.343707],[149.190353,-35.343839],[149.176195,-35.337632],[149.171421,-35.339607],[149.15875,-35.341648],[149.147553,-35.34524],[149.143322,-35.345642],[149.137366,-35.3442],[149.13131,-35.344908],[149.124421,-35.347919],[149.114291,-35.345143],[149.109315,-35.346368],[149.100461,-35.350697],[149.098612,-35.343853],[149.088741,-35.336927],[149.085354,-35.337028],[149.082634,-35.339486],[149.082422,-35.343827],[149.084113,-35.34887],[149.078092,-35.347702],[149.069556,-35.34837],[149.064803,-35.337577],[149.063437,-35.331451],[149.064189,-35.324535],[149.062856,-35.320152],[149.061822,-35.309408],[149.065156,-35.301945],[149.069311,-35.298035],[149.072333,-35.293584],[149.083611,-35.285805],[149.086465,-35.28063],[149.076551,-35.276641],[149.068487,-35.275708],[149.053062,-35.269817],[149.049226,-35.268997],[149.040692,-35.269908],[149.035415,-35.267985],[149.03396,-35.265887],[149.023903,-35.276835],[149.019616,-35.280406],[149.017752,-35.278043],[149.018645,-35.274176],[149.016765,-35.271791],[149.007625,-35.272079],[149.00516,-35.270187],[149.002417,-35.261831],[148.996516,-35.257991],[148.994524,-35.262659],[148.987715,-35.262346],[148.979653,-35.25937],[148.977272,-35.255386],[148.972791,-35.253794],[148.968735,-35.248642],[148.963887,-35.24718],[148.962525,-35.243979],[148.96807,-35.241726],[148.974483,-35.240724],[148.976254,-35.238837],[148.973616,-35.235218],[148.968677,-35.231135],[148.967251,-35.227354],[148.962972,-35.221707],[148.961731,-35.218467]]],[[[167.82914756990164,-29.03761620986369],[167.82870358005982,-29.048577551544675],[167.82984709693642,-29.065947428589343],[167.8343130963962,-29.082772264642607],[167.8419345058077,-29.098422644126057],[167.85255346412376,-29.112451408624246],[167.8518637343273,-29.11783085226875],[167.852867686966,-29.13462642355679],[167.85698028875942,-29.15094162022373],[167.86405780217507,-29.166206217815663],[167.8730027649234,-29.18044772047671],[167.88365332688306,-29.193214185615254],[167.88722632688308,-29.196770185615254],[167.90064049264836,-29.207762981316222],[167.91591406331108,-29.215978785580727],[167.93247987763982,-29.221112516789887],[167.94972278886488,-29.222973541503833],[167.96700250723484,-29.221492753349754],[167.98367737621982,-29.216725139183794],[167.99912819946843,-29.20884773723631],[168.02138460608876,-29.191596220030274],[168.03405654928528,-29.178736529987475],[168.0439068720894,-29.16360639736982],[168.05305227139004,-29.139585720925098],[168.05583687325833,-29.121733972412688],[168.05544765249275,-29.113342941975763],[168.06228759879104,-29.10559436561158],[168.07230719913642,-29.091774872265056],[168.07953736667508,-29.076312160187346],[168.08435949541587,-29.05796224602058],[168.0862397676211,-29.047101304750612],[168.0880212764648,-29.03054463863631],[168.08666362691164,-29.013321594575746],[168.08120810591058,-28.99451128830157],[168.07320973660038,-28.97861173875662],[168.06223894474832,-28.96459705668768],[168.04872476902204,-28.953015319262146],[168.033195713109,-28.944319457613982],[168.01766631842509,-28.93930403129126],[168.00813592297402,-28.932089780245715],[167.99103340408757,-28.923607952708444],[167.98418093817386,-28.921543930335446],[167.97820203521363,-28.9182887247318],[167.96435198691987,-28.914031974069676],[167.96133637642203,-28.912374516629537],[167.94384237032241,-28.90698573228509],[167.9256198618016,-28.905248081763933],[167.9190038618016,-28.905293081763933],[167.9007462027807,-28.907291393450294],[167.88327440177042,-28.912954566763432],[167.86731609535434,-28.922046751256122],[167.8535358886041,-28.93418929071207],[167.8425076767098,-28.948876492791864],[167.8350263340455,-28.964570491214403],[167.8281946453923,-28.980280815231556],[167.8244635974756,-28.99700102850835],[167.8239683768712,-29.014125309723372],[167.82672692684307,-29.03103319701395],[167.82914756990164,-29.03761620986369]]]]},"bbox":[148.76279,-35.92041,168.0880212764648,-28.905248081763933]}]}