{"type":"FeatureCollection","features":[
{"properties":{"electorateShortName":"bendigo","electorateName":"Bendigo","area":5285.02,"state":null},"type":"Feature","geometry":{"type":"Polygon","coordinates":[[[144.415258,-37.382483],[144.446388,-37.386072],[144.444728,-37.379436],[144.446929,-37.367592],[144.455827,-37.364842],[144.46057,-37.338599],[144.466342,-37.335679],[144.480389,-37.33282],[144.480165,-37.329932],[144.486745,-37.323049],[144.485855,-37.318181],[144.492835,-37.31651],[144.501005,-37.307087],[144.491109,-37.299802],[144.496657,-37.294795],[144.494115,-37.292216],[144.54363,-37.297913],[144.543993,-37.295816],[144.562193,-37.298048],[144.564596,-37.299494],[144.569456,-37.273566],[144.579827,-37.275313],[144.583938,-37.262406],[144.591429,-37.26607],[144.595125,-37.262937],[144.597332,-37.255465],[144.590931,-37.253573],[144.594923,-37.242743],[144.602527,-37.243912],[144.608059,-37.241057],[144.617372,-37.240913],[144.623462,-37.236731],[144.625818,-37.230053],[144.637439,-37.222746],[144.647049,-37.221896],[144.648905,-37.217707],[144.654887,-37.213795],[144.659884,-37.214469],[144.659956,-37.208274],[144.671683,-37.213235],[144.683184,-37.223566],[144.683571,-37.228204],[144.689948,-37.22887],[144.691325,-37.220226],[144.703932,-37.212984],[144.703811,-37.212958],[144.709534,-37.212412],[144.716098,-37.208796],[144.716091,-37.183585],[144.711807,-37.176441],[144.710095,-37.168791],[144.710247,-37.159705],[144.719255,-37.160505],[144.725513,-37.157879],[144.725709,-37.143886],[144.731133,-37.144451],[144.735218,-37.126514],[144.728005,-37.125614],[144.716263,-37.117971],[144.717061,-37.111068],[144.71371,-37.104874],[144.717095,-37.089982],[144.725294,-37.082571],[144.728304,-37.065894],[144.727657,-37.060316],[144.72297,-37.049033],[144.723715,-37.040781],[144.727101,-37.029653],[144.725916,-37.018769],[144.714624,-37.003326],[144.714611,-36.997883],[144.743035,-36.99772],[144.74307,-36.983881],[144.75089,-36.977909],[144.757877,-36.977602],[144.770973,-36.971261],[144.796573,-36.965539],[144.791267,-36.95203],[144.799017,-36.955789],[144.806316,-36.955643],[144.800207,-36.939435],[144.804267,-36.925888],[144.816576,-36.911633],[144.822386,-36.899709],[144.837236,-36.892729],[144.847871,-36.885142],[144.852979,-36.875031],[144.844182,-36.872213],[144.840617,-36.867501],[144.830215,-36.859699],[144.831189,-36.85547],[144.821439,-36.85549],[144.812177,-36.843414],[144.81108,-36.839844],[144.803618,-36.839857],[144.798547,-36.832621],[144.787314,-36.80533],[144.78675,-36.799701],[144.792005,-36.799704],[144.791703,-36.780037],[144.784767,-36.780526],[144.784806,-36.770658],[144.794741,-36.770671],[144.794685,-36.750723],[144.775124,-36.750609],[144.766927,-36.747257],[144.757416,-36.750121],[144.750316,-36.757557],[144.740896,-36.755786],[144.734508,-36.758591],[144.728822,-36.758204],[144.72295,-36.760988],[144.679141,-36.761229],[144.666159,-36.762612],[144.666165,-36.725853],[144.667106,-36.725403],[144.519165,-36.72529],[144.519957,-36.711034],[144.526528,-36.702414],[144.522547,-36.693033],[144.526191,-36.689271],[144.531425,-36.690656],[144.529942,-36.680088],[144.531031,-36.672308],[144.525364,-36.660015],[144.537795,-36.655182],[144.539702,-36.649121],[144.545924,-36.646431],[144.543758,-36.641761],[144.548672,-36.632869],[144.563645,-36.621058],[144.560386,-36.61692],[144.563269,-36.612817],[144.570091,-36.611967],[144.57109,-36.607929],[144.578967,-36.602489],[144.581281,-36.596831],[144.586818,-36.597962],[144.58989,-36.59418],[144.583412,-36.585238],[144.588799,-36.58401],[144.598159,-36.575156],[144.594014,-36.566828],[144.586843,-36.562048],[144.587219,-36.557899],[144.605353,-36.554595],[144.608044,-36.545225],[144.615127,-36.542677],[144.61631,-36.534518],[144.610066,-36.532648],[144.608767,-36.528789],[144.626439,-36.52491],[144.617862,-36.51983],[144.612913,-36.520727],[144.611411,-36.512855],[144.61953,-36.509057],[144.621608,-36.501844],[144.613027,-36.502672],[144.611792,-36.49749],[144.623922,-36.489731],[144.621537,-36.482321],[144.623823,-36.478574],[144.629855,-36.477852],[144.633859,-36.480634],[144.643088,-36.472459],[144.653526,-36.47121],[144.653515,-36.465458],[144.659235,-36.463762],[144.661307,-36.45919],[144.671547,-36.457118],[144.670074,-36.448936],[144.671931,-36.443104],[144.659184,-36.439144],[144.66145,-36.43274],[144.669259,-36.424317],[144.674261,-36.4255],[144.669052,-36.412704],[144.668178,-36.406593],[144.505004,-36.406867],[144.430099,-36.406686],[144.429245,-36.410901],[144.415702,-36.396324],[144.399754,-36.407523],[144.369399,-36.407849],[144.368371,-36.395673],[144.358997,-36.394424],[144.358321,-36.385183],[144.344316,-36.385219],[144.344022,-36.416417],[144.344104,-36.48726],[144.284005,-36.487183],[144.209671,-36.487542],[144.204641,-36.516458],[144.199219,-36.516474],[144.199219,-36.524491],[144.170608,-36.524435],[144.162897,-36.565367],[144.174367,-36.582323],[144.181678,-36.610848],[144.184375,-36.618189],[144.140417,-36.618181],[144.140447,-36.647427],[144.125668,-36.647488],[144.125626,-36.662021],[144.068462,-36.662011],[144.068498,-36.720178],[144.062071,-36.719392],[144.05984,-36.730752],[144.067743,-36.734611],[144.075655,-36.743138],[144.071279,-36.766439],[144.062312,-36.766689],[144.059324,-36.78155],[144.047937,-36.792249],[144.049513,-36.799059],[144.033109,-36.885483],[144.027295,-36.890662],[144.025899,-36.897897],[143.939213,-36.887562],[143.891801,-36.881611],[143.888066,-36.89549],[143.877762,-36.894428],[143.87643,-36.902256],[143.866395,-36.901256],[143.867209,-36.906659],[143.863281,-36.909562],[143.863049,-36.9154],[143.8567,-36.917113],[143.854159,-36.922276],[143.846647,-36.927861],[143.850019,-36.931148],[143.855675,-36.944096],[143.859695,-36.948891],[143.851398,-36.957538],[143.846916,-36.957627],[143.845159,-36.963003],[143.836834,-36.962987],[143.835031,-36.966355],[143.833607,-36.980546],[143.848393,-36.982641],[143.884244,-36.986326],[143.882318,-36.998499],[143.899697,-37.000556],[143.895699,-37.023573],[143.89967,-37.021318],[143.973445,-37.029378],[143.9817,-37.03739],[143.983947,-37.043048],[143.990419,-37.04903],[143.991895,-37.054314],[144.006415,-37.059033],[144.012588,-37.066759],[144.012053,-37.076825],[143.999802,-37.078703],[143.993572,-37.085054],[143.986778,-37.086435],[143.981451,-37.092307],[143.977855,-37.099453],[143.972168,-37.092005],[143.96734,-37.099818],[143.961761,-37.116063],[143.961221,-37.125167],[143.962881,-37.12932],[143.955934,-37.13897],[143.962941,-37.148573],[143.96356,-37.163511],[143.958877,-37.168369],[143.96265,-37.176534],[143.954157,-37.185859],[143.955016,-37.188437],[143.948997,-37.194623],[143.948948,-37.197919],[143.958868,-37.220495],[143.970575,-37.228181],[143.991947,-37.233214],[144.00053,-37.241324],[143.994979,-37.244293],[144.001345,-37.25084],[144.002785,-37.255481],[144.018637,-37.262559],[144.029017,-37.261748],[144.037602,-37.263917],[144.042235,-37.25587],[144.051002,-37.250475],[144.0627,-37.25211],[144.06434,-37.244239],[144.060778,-37.236051],[144.066071,-37.224877],[144.065127,-37.217229],[144.067534,-37.210418],[144.060083,-37.20773],[144.064009,-37.202349],[144.065895,-37.192911],[144.067699,-37.175205],[144.069988,-37.162994],[144.071948,-37.159882],[144.074341,-37.14766],[144.122341,-37.153302],[144.121406,-37.158831],[144.156637,-37.16286],[144.173281,-37.164063],[144.180566,-37.166649],[144.190446,-37.166139],[144.185148,-37.195358],[144.275316,-37.205545],[144.27663,-37.209063],[144.284252,-37.208014],[144.292162,-37.16357],[144.327757,-37.166871],[144.331223,-37.169598],[144.337815,-37.165796],[144.345296,-37.169747],[144.37447,-37.173176],[144.378373,-37.177671],[144.375538,-37.180883],[144.362987,-37.1794],[144.360333,-37.194048],[144.37535,-37.195819],[144.376123,-37.202242],[144.36836,-37.206739],[144.361373,-37.20814],[144.356759,-37.214645],[144.343986,-37.226226],[144.337969,-37.245472],[144.333028,-37.253799],[144.325098,-37.257986],[144.319684,-37.273159],[144.321399,-37.277184],[144.3104,-37.292786],[144.316131,-37.298205],[144.330245,-37.302261],[144.340335,-37.309668],[144.360409,-37.318383],[144.369093,-37.32009],[144.373607,-37.326069],[144.38026,-37.329751],[144.394957,-37.332105],[144.391623,-37.350299],[144.392765,-37.358149],[144.419031,-37.360507],[144.415258,-37.382483]]]},"bbox":[143.833607,-37.386072,144.852979,-36.385183]}]}