{"type":"FeatureCollection","features":[
{"properties":{"electorateShortName":"blair","electorateName":"Blair","area":6471.4,"state":null},"type":"Feature","geometry":{"type":"Polygon","coordinates":[[[152.927755,-27.685268],[152.914247,-27.685092],[152.905149,-27.674512],[152.899751,-27.674741],[152.892916,-27.667715],[152.887251,-27.668993],[152.876065,-27.666763],[152.870763,-27.672121],[152.867205,-27.672548],[152.871629,-27.646639],[152.856419,-27.644506],[152.852921,-27.642325],[152.854983,-27.636885],[152.860382,-27.607079],[152.858207,-27.603233],[152.860812,-27.597965],[152.856385,-27.59605],[152.855651,-27.582519],[152.848981,-27.564656],[152.84952,-27.554765],[152.852671,-27.542705],[152.845988,-27.528148],[152.849311,-27.525852],[152.841179,-27.515698],[152.844804,-27.506726],[152.842765,-27.496515],[152.837836,-27.492503],[152.828778,-27.49113],[152.809419,-27.478471],[152.80679,-27.492879],[152.801724,-27.492222],[152.799222,-27.497421],[152.79526,-27.497085],[152.791098,-27.49141],[152.780348,-27.492206],[152.777441,-27.489091],[152.767394,-27.488307],[152.756765,-27.494319],[152.748793,-27.495279],[152.744286,-27.491962],[152.739728,-27.482626],[152.742635,-27.479825],[152.737839,-27.464647],[152.738264,-27.459326],[152.744119,-27.460133],[152.747202,-27.443026],[152.746039,-27.43686],[152.74272,-27.436379],[152.744195,-27.427849],[152.747525,-27.423266],[152.745824,-27.415228],[152.747224,-27.407082],[152.741365,-27.406172],[152.740376,-27.400201],[152.743365,-27.394722],[152.737241,-27.392933],[152.732946,-27.39599],[152.736847,-27.373346],[152.732179,-27.372667],[152.733235,-27.366633],[152.72201,-27.365085],[152.723898,-27.353974],[152.707818,-27.351805],[152.706927,-27.356992],[152.700336,-27.356146],[152.699521,-27.360994],[152.692252,-27.360015],[152.690506,-27.370119],[152.686401,-27.373217],[152.679693,-27.372265],[152.684185,-27.348788],[152.690832,-27.343576],[152.695663,-27.342857],[152.710194,-27.332553],[152.717298,-27.330624],[152.719551,-27.323462],[152.7249,-27.322219],[152.739167,-27.323338],[152.748503,-27.318755],[152.749119,-27.313224],[152.755955,-27.309791],[152.756843,-27.300663],[152.752239,-27.295442],[152.745602,-27.293382],[152.739271,-27.293707],[152.735071,-27.296989],[152.717556,-27.292751],[152.71308,-27.289594],[152.707174,-27.292227],[152.704612,-27.276974],[152.690511,-27.274448],[152.683571,-27.271608],[152.681553,-27.26379],[152.681754,-27.254029],[152.687408,-27.248988],[152.692733,-27.240367],[152.690867,-27.235953],[152.700217,-27.230227],[152.702225,-27.226351],[152.700464,-27.219799],[152.704162,-27.208798],[152.701735,-27.204329],[152.703542,-27.199205],[152.71227,-27.18874],[152.72297,-27.180468],[152.729013,-27.173255],[152.733396,-27.170662],[152.729063,-27.163772],[152.739334,-27.150934],[152.735072,-27.142791],[152.730528,-27.125867],[152.730318,-27.108751],[152.733514,-27.107431],[152.734461,-27.102345],[152.726207,-27.103222],[152.718064,-27.102224],[152.707961,-27.096277],[152.695806,-27.094877],[152.689753,-27.092795],[152.679315,-27.094771],[152.676139,-27.089025],[152.686905,-27.08333],[152.683881,-27.066417],[152.67273,-27.061917],[152.671328,-27.057816],[152.677677,-27.056959],[152.695152,-27.059037],[152.690713,-27.052733],[152.692305,-27.046696],[152.697986,-27.039623],[152.697463,-27.033468],[152.702502,-27.030798],[152.700235,-27.022727],[152.700802,-27.018279],[152.692763,-27.012456],[152.696709,-27.008746],[152.691055,-27.004542],[152.683276,-26.992162],[152.686968,-26.981351],[152.68105,-26.979822],[152.680333,-26.971953],[152.684976,-26.965488],[152.680689,-26.964164],[152.671446,-26.965262],[152.667724,-26.959074],[152.65177,-26.953824],[152.653266,-26.949052],[152.663073,-26.948173],[152.670042,-26.937133],[152.669575,-26.928163],[152.67298,-26.922605],[152.676444,-26.922358],[152.682187,-26.915165],[152.660813,-26.90992],[152.666678,-26.906261],[152.667396,-26.896242],[152.67859,-26.897787],[152.688613,-26.896925],[152.689337,-26.888891],[152.68729,-26.886407],[152.686637,-26.877573],[152.68021,-26.869377],[152.677618,-26.863591],[152.670009,-26.854815],[152.670834,-26.845],[152.666475,-26.839476],[152.667269,-26.835858],[152.678456,-26.830408],[152.671966,-26.818928],[152.679024,-26.816434],[152.679214,-26.799877],[152.67906,-26.796863],[152.671717,-26.793647],[152.668978,-26.789814],[152.667303,-26.773009],[152.661478,-26.769161],[152.653191,-26.768669],[152.645682,-26.773659],[152.639082,-26.761777],[152.63249,-26.764392],[152.619462,-26.762054],[152.617242,-26.759476],[152.602456,-26.75788],[152.600099,-26.751798],[152.596139,-26.748142],[152.590822,-26.747213],[152.583307,-26.740432],[152.582291,-26.735813],[152.58682,-26.733463],[152.58326,-26.730844],[152.579365,-26.7162],[152.565078,-26.707218],[152.552933,-26.706037],[152.551472,-26.697519],[152.55744,-26.69189],[152.555738,-26.6805],[152.55219,-26.680864],[152.57228,-26.659256],[152.571461,-26.657969],[152.583203,-26.645384],[152.587784,-26.613991],[152.585366,-26.612037],[152.581473,-26.599678],[152.574012,-26.595474],[152.576093,-26.591106],[152.575195,-26.584007],[152.560405,-26.581838],[152.553989,-26.572576],[152.51149,-26.567389],[152.515122,-26.57748],[152.522265,-26.586301],[152.519817,-26.588308],[152.456971,-26.580891],[152.458536,-26.570989],[152.449059,-26.569788],[152.450857,-26.55842],[152.440343,-26.557075],[152.4431,-26.544445],[152.448483,-26.537929],[152.449616,-26.530914],[152.44314,-26.532794],[152.436135,-26.537588],[152.435708,-26.523785],[152.440006,-26.517563],[152.439045,-26.513239],[152.444132,-26.505895],[152.444737,-26.487111],[152.438608,-26.486246],[152.442847,-26.460453],[152.436165,-26.460188],[152.43465,-26.463224],[152.424636,-26.464515],[152.420683,-26.467534],[152.412067,-26.46449],[152.407193,-26.471291],[152.402705,-26.474046],[152.398917,-26.470945],[152.390065,-26.476111],[152.386235,-26.472227],[152.376622,-26.472418],[152.372678,-26.468532],[152.370763,-26.462442],[152.364403,-26.463141],[152.360624,-26.466264],[152.356095,-26.465181],[152.350103,-26.469302],[152.340519,-26.469829],[152.339111,-26.472243],[152.329718,-26.47534],[152.324737,-26.475429],[152.314662,-26.479876],[152.310182,-26.471452],[152.305258,-26.466806],[152.289087,-26.456652],[152.284392,-26.452367],[152.273908,-26.453728],[152.271306,-26.464931],[152.267106,-26.469196],[152.258847,-26.470152],[152.25926,-26.476504],[152.255243,-26.479226],[152.253135,-26.484574],[152.245803,-26.48568],[152.233257,-26.491897],[152.23124,-26.507415],[152.223202,-26.505697],[152.217896,-26.506702],[152.213607,-26.513101],[152.207409,-26.51182],[152.2063,-26.508644],[152.195163,-26.495239],[152.187787,-26.490068],[152.182078,-26.484073],[152.174343,-26.481202],[152.167652,-26.475419],[152.149888,-26.482675],[152.144722,-26.479577],[152.135867,-26.480062],[152.132775,-26.487651],[152.136728,-26.493722],[152.133912,-26.500414],[152.125717,-26.50656],[152.127697,-26.510913],[152.12739,-26.518582],[152.13184,-26.521801],[152.126421,-26.531617],[152.13004,-26.548448],[152.135963,-26.566372],[152.130947,-26.574919],[152.131749,-26.579017],[152.137204,-26.582683],[152.138635,-26.58951],[152.142607,-26.591691],[152.137788,-26.596578],[152.130321,-26.600406],[152.13585,-26.614219],[152.12831,-26.62712],[152.129998,-26.631667],[152.126748,-26.637973],[152.119629,-26.637398],[152.118975,-26.642662],[152.10729,-26.647757],[152.098647,-26.653751],[152.090124,-26.653923],[152.081061,-26.657986],[152.075016,-26.663425],[152.073393,-26.66841],[152.075769,-26.678508],[152.076002,-26.685856],[152.082892,-26.689309],[152.083102,-26.693998],[152.088977,-26.699799],[152.10099,-26.703282],[152.10431,-26.709541],[152.112249,-26.706196],[152.119166,-26.714286],[152.123683,-26.717402],[152.134298,-26.730599],[152.129985,-26.734437],[152.13311,-26.741272],[152.143562,-26.738355],[152.146295,-26.734692],[152.140862,-26.730749],[152.142926,-26.726944],[152.152989,-26.727605],[152.150971,-26.740517],[152.163898,-26.742123],[152.155643,-26.754269],[152.155782,-26.76882],[152.163952,-26.775587],[152.168249,-26.772971],[152.176618,-26.779782],[152.174165,-26.784712],[152.174557,-26.791989],[152.170741,-26.796468],[152.176386,-26.809059],[152.174117,-26.821439],[152.190081,-26.823612],[152.187702,-26.837936],[152.182543,-26.837268],[152.181029,-26.846573],[152.183441,-26.853411],[152.184254,-26.871025],[152.188649,-26.877378],[152.172646,-26.875247],[152.169502,-26.872136],[152.154591,-26.873643],[152.146979,-26.879117],[152.141423,-26.887791],[152.138715,-26.894653],[152.143172,-26.90062],[152.147094,-26.899066],[152.14987,-26.904617],[152.143715,-26.911229],[152.143012,-26.924869],[152.145223,-26.92669],[152.134697,-26.935478],[152.128066,-26.944418],[152.125438,-26.954225],[152.130703,-26.960417],[152.138717,-26.96477],[152.150392,-26.966065],[152.1641,-26.972712],[152.168667,-26.977794],[152.175243,-26.976058],[152.182664,-26.97723],[152.182749,-26.984912],[152.175,-26.991992],[152.188751,-26.993928],[152.186586,-27.006662],[152.198108,-27.008236],[152.198569,-27.0136],[152.205259,-27.014435],[152.220958,-27.022207],[152.219005,-27.026119],[152.193015,-27.022877],[152.192396,-27.027024],[152.199179,-27.027755],[152.194896,-27.056745],[152.227387,-27.060991],[152.221932,-27.066613],[152.214332,-27.069944],[152.214305,-27.075087],[152.191318,-27.072344],[152.185236,-27.061433],[152.181248,-27.08612],[152.174357,-27.097601],[152.157889,-27.111778],[152.148476,-27.121896],[152.141842,-27.126549],[152.140758,-27.133273],[152.134036,-27.141624],[152.141922,-27.146316],[152.188492,-27.169149],[152.185497,-27.176236],[152.176832,-27.18183],[152.173272,-27.18196],[152.169476,-27.187161],[152.161754,-27.189325],[152.158854,-27.206431],[152.166034,-27.207228],[152.168821,-27.210733],[152.174034,-27.211087],[152.179789,-27.205384],[152.186779,-27.205147],[152.215077,-27.208955],[152.220465,-27.201307],[152.236149,-27.203708],[152.233115,-27.222092],[152.225508,-27.228679],[152.218414,-27.232553],[152.208693,-27.235591],[152.201326,-27.240251],[152.200941,-27.243403],[152.190906,-27.242078],[152.188728,-27.254851],[152.182029,-27.252194],[152.172394,-27.253795],[152.178709,-27.260551],[152.165074,-27.256601],[152.158259,-27.259283],[152.151987,-27.269404],[152.154173,-27.274818],[152.158462,-27.276346],[152.162347,-27.282286],[152.161415,-27.285919],[152.170448,-27.286666],[152.182785,-27.273575],[152.184076,-27.270474],[152.196438,-27.272163],[152.194461,-27.275415],[152.199343,-27.28847],[152.206186,-27.292046],[152.203016,-27.299195],[152.192367,-27.311241],[152.1901,-27.320353],[152.201485,-27.322022],[152.199278,-27.341242],[152.195973,-27.340833],[152.19148,-27.365797],[152.201494,-27.359692],[152.198344,-27.377657],[152.190833,-27.382083],[152.191723,-27.386849],[152.201796,-27.386466],[152.208739,-27.390122],[152.223816,-27.390134],[152.227584,-27.388151],[152.260969,-27.392627],[152.258174,-27.409055],[152.262864,-27.416149],[152.270286,-27.414052],[152.278751,-27.409448],[152.283088,-27.401516],[152.291301,-27.400216],[152.294252,-27.427353],[152.304029,-27.425634],[152.310346,-27.429318],[152.315421,-27.39879],[152.342604,-27.402308],[152.343855,-27.399339],[152.36468,-27.402177],[152.373374,-27.40198],[152.379434,-27.40443],[152.390696,-27.412183],[152.401603,-27.414978],[152.399496,-27.428407],[152.414132,-27.430202],[152.413348,-27.43476],[152.408819,-27.436735],[152.431687,-27.439803],[152.435551,-27.441566],[152.436826,-27.450997],[152.435751,-27.457892],[152.445377,-27.459098],[152.44454,-27.463543],[152.457613,-27.464453],[152.472109,-27.472978],[152.480304,-27.482996],[152.472112,-27.486869],[152.477546,-27.496266],[152.474862,-27.508147],[152.499344,-27.511697],[152.492425,-27.551174],[152.502196,-27.55069],[152.518658,-27.55202],[152.514941,-27.559658],[152.512467,-27.574398],[152.507792,-27.581107],[152.50309,-27.580251],[152.497013,-27.582952],[152.504438,-27.595918],[152.487956,-27.603311],[152.487524,-27.606811],[152.481813,-27.61237],[152.480447,-27.617032],[152.472568,-27.626867],[152.46905,-27.638382],[152.46365,-27.643415],[152.465328,-27.647353],[152.462743,-27.654303],[152.459338,-27.653839],[152.457828,-27.662455],[152.450279,-27.653147],[152.447793,-27.655937],[152.438849,-27.650097],[152.431093,-27.65163],[152.430301,-27.656735],[152.422454,-27.654351],[152.412555,-27.661435],[152.422643,-27.663671],[152.416192,-27.675141],[152.411168,-27.68141],[152.395452,-27.686865],[152.391562,-27.690828],[152.390646,-27.697768],[152.413497,-27.700939],[152.409063,-27.70776],[152.406774,-27.720307],[152.410129,-27.720802],[152.405126,-27.749117],[152.397298,-27.751143],[152.39187,-27.75685],[152.389505,-27.76956],[152.395398,-27.781918],[152.402662,-27.789459],[152.402588,-27.795283],[152.40876,-27.796118],[152.407052,-27.805512],[152.385769,-27.803015],[152.384992,-27.808556],[152.393345,-27.809738],[152.391951,-27.817693],[152.398663,-27.818621],[152.400717,-27.82475],[152.394865,-27.830887],[152.39843,-27.840056],[152.401444,-27.85318],[152.40235,-27.863703],[152.41928,-27.865469],[152.420019,-27.861369],[152.426885,-27.862257],[152.430816,-27.860174],[152.440491,-27.859868],[152.451178,-27.802002],[152.462254,-27.802491],[152.463855,-27.793778],[152.467165,-27.789237],[152.467405,-27.783134],[152.481219,-27.785133],[152.481892,-27.781657],[152.494397,-27.783406],[152.499101,-27.758285],[152.519325,-27.761172],[152.523708,-27.736325],[152.522957,-27.726932],[152.524962,-27.721075],[152.529456,-27.71763],[152.542127,-27.718277],[152.561781,-27.721026],[152.562006,-27.716476],[152.580652,-27.719137],[152.579835,-27.723599],[152.598213,-27.726267],[152.605764,-27.724987],[152.60463,-27.731341],[152.607643,-27.737099],[152.638217,-27.741605],[152.639126,-27.736556],[152.655971,-27.738306],[152.655368,-27.741368],[152.663415,-27.742497],[152.663456,-27.749382],[152.684323,-27.752489],[152.686602,-27.746898],[152.704356,-27.749604],[152.707541,-27.758344],[152.757806,-27.767276],[152.762702,-27.772943],[152.76072,-27.785307],[152.784855,-27.78883],[152.791428,-27.794437],[152.80601,-27.793692],[152.809519,-27.786521],[152.8033,-27.785586],[152.808032,-27.758656],[152.811391,-27.754908],[152.822257,-27.756387],[152.828243,-27.752728],[152.829258,-27.746787],[152.834579,-27.747577],[152.835997,-27.755743],[152.843445,-27.7553],[152.856789,-27.757269],[152.857944,-27.751123],[152.873325,-27.753449],[152.87465,-27.746286],[152.882789,-27.747358],[152.890651,-27.70359],[152.917237,-27.707332],[152.923663,-27.707283],[152.927755,-27.685268]]]},"bbox":[152.073393,-27.865469,152.927755,-26.452367]}]}