{"type":"FeatureCollection","features":[
{"properties":{"electorateShortName":"blair","electorateName":"Blair","area":6471.4,"state":null},"type":"Feature","geometry":{"type":"Polygon","coordinates":[[[152.927755,-27.685268],[152.854983,-27.636885],[152.860812,-27.597965],[152.842765,-27.496515],[152.748793,-27.495279],[152.747224,-27.407082],[152.707818,-27.351805],[152.748503,-27.318755],[152.683571,-27.271608],[152.703542,-27.199205],[152.733396,-27.170662],[152.733514,-27.107431],[152.686905,-27.08333],[152.702502,-27.030798],[152.663073,-26.948173],[152.688613,-26.896925],[152.670009,-26.854815],[152.679214,-26.799877],[152.667303,-26.773009],[152.602456,-26.75788],[152.58682,-26.733463],[152.552933,-26.706037],[152.583203,-26.645384],[152.575195,-26.584007],[152.456971,-26.580891],[152.440343,-26.557075],[152.442847,-26.460453],[152.370763,-26.462442],[152.314662,-26.479876],[152.284392,-26.452367],[152.2063,-26.508644],[152.167652,-26.475419],[152.125717,-26.50656],[152.135963,-26.566372],[152.126748,-26.637973],[152.073393,-26.66841],[152.088977,-26.699799],[152.150971,-26.740517],[152.176618,-26.779782],[152.184254,-26.871025],[152.154591,-26.873643],[152.125438,-26.954225],[152.198108,-27.008236],[152.191318,-27.072344],[152.134036,-27.141624],[152.188492,-27.169149],[152.158854,-27.206431],[152.233115,-27.222092],[152.151987,-27.269404],[152.206186,-27.292046],[152.191723,-27.386849],[152.373374,-27.40198],[152.499344,-27.511697],[152.497013,-27.582952],[152.457828,-27.662455],[152.422454,-27.654351],[152.391951,-27.817693],[152.40235,-27.863703],[152.440491,-27.859868],[152.451178,-27.802002],[152.519325,-27.761172],[152.529456,-27.71763],[152.757806,-27.767276],[152.882789,-27.747358],[152.890651,-27.70359],[152.927755,-27.685268]]]},"bbox":[152.073393,-27.863703,152.927755,-26.452367]}]}