{"type":"FeatureCollection","features":[
{"properties":{"electorateShortName":"blaxland","electorateName":"Blaxland","area":61.16,"state":null},"type":"Feature","geometry":{"type":"Polygon","coordinates":[[[151.042278,-33.861729],[151.037245,-33.851238],[151.044364,-33.842384],[151.030078,-33.835178],[151.017763,-33.838896],[151.017749,-33.850504],[151.011589,-33.85369],[150.996472,-33.851322],[150.985518,-33.870492],[150.968663,-33.896735],[150.979445,-33.906353],[150.973705,-33.916751],[150.978874,-33.927779],[150.968598,-33.931074],[150.966197,-33.943616],[150.970677,-33.946946],[150.998648,-33.943456],[151.010442,-33.939792],[151.035641,-33.940462],[151.042239,-33.913377],[151.036703,-33.902488],[151.042473,-33.870255],[151.042278,-33.861729]]]},"bbox":[150.966197,-33.946946,151.044364,-33.835178]}]}