{"type":"FeatureCollection","features":[
{"properties":{"electorateShortName":"bonner","electorateName":"Bonner","area":373.73,"state":null},"type":"Feature","geometry":{"type":"Polygon","coordinates":[[[153.453271,-27.388101],[153.416577,-27.256637],[153.427925,-27.15485],[153.46821,-27.027783],[153.403674,-27.033263],[153.361762,-27.060281],[153.166192,-27.365349],[153.153136,-27.397989],[153.099932,-27.445258],[153.094642,-27.531143],[153.055774,-27.525627],[153.111147,-27.593945],[153.175762,-27.606707],[153.188111,-27.484049],[153.21773,-27.448402],[153.453271,-27.388101]]]},"bbox":[153.055774,-27.606707,153.46821,-27.027783]}]}