{"type":"FeatureCollection","features":[
{"properties":{"electorateShortName":"bowman","electorateName":"Bowman","area":537.28,"state":null},"type":"Feature","geometry":{"type":"Polygon","coordinates":[[[153.449354,-27.732333],[153.470604,-27.615842],[153.501971,-27.522495],[153.542108,-27.437102],[153.453271,-27.388101],[153.21773,-27.448402],[153.188111,-27.484049],[153.175762,-27.606707],[153.173841,-27.634252],[153.279909,-27.658423],[153.286674,-27.694354],[153.358758,-27.690982],[153.418063,-27.741407],[153.449354,-27.732333]]]},"bbox":[153.173841,-27.741407,153.542108,-27.388101]}]}