{"type":"FeatureCollection","features":[
{"properties":{"electorateShortName":"bowman","electorateName":"Bowman","area":537.28,"state":null},"type":"Feature","geometry":{"type":"MultiPolygon","coordinates":[[[[153.449354,-27.732333],[153.447907,-27.74855],[153.442026,-27.772872],[153.43270735516134,-27.830335224879672],[153.4477946801003,-27.82835318080557],[153.49043922966308,-27.8124079892509],[153.50890436335854,-27.800068458202226],[153.52120636413738,-27.788615341840796],[153.5311642259475,-27.775074511522],[153.53843063688944,-27.75991824649483],[153.54275215791841,-27.743675169398806],[153.5436645086766,-27.711629593152573],[153.54731250440744,-27.686705849435008],[153.55787462688906,-27.63807001005223],[153.56645506808127,-27.608777525207],[153.5859049916311,-27.55504086563162],[153.60767250248537,-27.50246475166943],[153.62277584705245,-27.484608100064122],[153.63044867801793,-27.46913352065134],[153.63502410433583,-27.452478178654356],[153.6366481120789,-27.431544281730353],[153.63439831295722,-27.41456844591866],[153.62454475813374,-27.386568741668224],[153.6157621430329,-27.371931113930618],[153.6043737007236,-27.359215066763255],[153.59078912616317,-27.348878055212197],[153.57549711934615,-27.341291949406028],[153.5590478045046,-27.336729656666904],[153.5396384841564,-27.334497491792536],[153.53123461028315,-27.331921609874733],[153.52663514473326,-27.331615978041313],[153.50430241600242,-27.312627313123663],[153.48501694623616,-27.30388582976583],[153.46546782403917,-27.298931288307305],[153.4453062772328,-27.29845411945616],[153.42343410798543,-27.30200133698718],[153.43445,-27.317881],[153.437221,-27.34178],[153.429513,-27.364644],[153.453271,-27.388101],[153.444361,-27.389399],[153.21773,-27.448402],[153.216586,-27.468238],[153.201,-27.468066],[153.196521,-27.481567],[153.188111,-27.484049],[153.185784,-27.498236],[153.191098,-27.508623],[153.185837,-27.528054],[153.172351,-27.535044],[153.182638,-27.54132],[153.191323,-27.560891],[153.181914,-27.562327],[153.177625,-27.586712],[153.171846,-27.591092],[153.175762,-27.606707],[153.183562,-27.612825],[153.1816,-27.624202],[153.173841,-27.634252],[153.18229,-27.634084],[153.187548,-27.640749],[153.206997,-27.64122],[153.208512,-27.645174],[153.239064,-27.649316],[153.254923,-27.649579],[153.26285,-27.656076],[153.279909,-27.658423],[153.282657,-27.674098],[153.280976,-27.683177],[153.286674,-27.694354],[153.298606,-27.707077],[153.308392,-27.709089],[153.322851,-27.703258],[153.325374,-27.69712],[153.339458,-27.696813],[153.352995,-27.690266],[153.358758,-27.690982],[153.36534,-27.704792],[153.385366,-27.709591],[153.390257,-27.706368],[153.401383,-27.717705],[153.40566,-27.733184],[153.418063,-27.741407],[153.429763,-27.740013],[153.449354,-27.732333]]],[[[153.160637,-27.381531],[153.1483774124387,-27.391088414308857],[153.153136,-27.397989],[153.160637,-27.381531]]]]},"bbox":[153.1483774124387,-27.830335224879672,153.6366481120789,-27.29845411945616]}]}