{"type":"FeatureCollection","features":[
{"properties":{"electorateShortName":"braddon","electorateName":"Braddon","area":21368.37,"state":null},"type":"Feature","geometry":{"type":"MultiPolygon","coordinates":[[[[146.661412,-41.096121],[146.678012,-41.101042],[146.696812,-41.089844],[146.719432,-41.070753],[146.730552,-41.077387],[146.740613,-41.077898],[146.744522,-41.084775],[146.76151,-41.078406],[146.76138093781506,-41.07142828248071],[146.74077091709978,-41.05460251018737],[146.72557188624123,-41.03300595426987],[146.71197336649135,-41.021665991984904],[146.6964178441827,-41.01320784740611],[146.67127281181436,-41.00440675472065],[146.65402830163876,-41.00250403107627],[146.63673911430703,-41.00394538109362],[146.6239039008846,-41.00685824493302],[146.60662499399763,-41.01343132299558],[146.5894222799549,-41.02384110608865],[146.573728186797,-41.0388649344172],[146.55886661518323,-41.03256586454492],[146.54189297610773,-41.0289861664313],[146.52454787054924,-41.028729310022314],[146.50747567702106,-41.031804837649666],[146.4913106352312,-41.03809849207154],[146.47665328379045,-41.047376461180775],[146.44899168568054,-41.06972763452139],[146.39242439558802,-41.075802890284564],[146.37613447188644,-41.07056614224748],[146.35090741485405,-41.06880404648962],[146.3252862468231,-41.064090284823166],[146.29257457247724,-41.068141920003335],[146.2736473428498,-41.06368528767308],[146.254337776809,-41.06182649492096],[146.23079490656193,-41.065644458259165],[146.2002851025648,-41.060192179976454],[146.18217229567463,-41.053870893953345],[146.16592366081616,-41.04175147441367],[146.1498647321469,-41.03416927329291],[146.13262960611428,-41.02988798908382],[146.11553974467628,-41.02910414767086],[146.0959916128273,-41.01845058428744],[146.05866208590763,-41.007853726708156],[146.0434308634518,-40.998246775557455],[146.0020572456329,-40.9812692068086],[145.96702799080552,-40.97375298319512],[145.95006004188508,-40.9648719338033],[145.89269332556603,-40.94822107189648],[145.87413619736105,-40.946906452172435],[145.85555216238646,-40.94949000400558],[145.84858432397772,-40.94724941424058],[145.818630821074,-40.92247320042027],[145.80531590866866,-40.89498388975395],[145.7941009859467,-40.88229680583215],[145.77816107725064,-40.86934444471558],[145.76389114087146,-40.86184833783953],[145.74171591180118,-40.85553593690119],[145.68939778465523,-40.84860214407131],[145.66648122814632,-40.84877165500836],[145.64305189802178,-40.83837208642196],[145.6292245920614,-40.83597023461337],[145.600767792193,-40.82585986710979],[145.58556352480628,-40.799798233112675],[145.5613810372298,-40.77859367800458],[145.54629046481972,-40.7705268179082],[145.520974861881,-40.76359388333273],[145.50252883891906,-40.761704054627344],[145.48408702512728,-40.763634525999244],[145.4664322350103,-40.76930335317723],[145.45231675294534,-40.777330865262115],[145.41390509957674,-40.76244735418257],[145.3982231057992,-40.76014755432487],[145.39458219696732,-40.73734965750279],[145.3747558321395,-40.694423961809086],[145.36218822332253,-40.67770582238351],[145.349749453905,-40.66649362658762],[145.3336393185559,-40.65633085136315],[145.31164923489624,-40.638330867209206],[145.29605726509092,-40.62969177544785],[145.27906846908238,-40.624295087662645],[145.26134927628988,-40.62235250287596],[145.24359476783377,-40.623940223995355],[145.21867141018257,-40.632184968557524],[145.20270819411598,-40.640644333763525],[145.18875610702608,-40.6521214585216],[145.1773773407295,-40.66615387828601],[145.16903039647087,-40.682176164278346],[145.16203184731066,-40.71317119935794],[145.15747461572462,-40.71230013669034],[145.15616224194946,-40.69689473564526],[145.15144529836832,-40.68014454584468],[145.13472257989037,-40.65322829947385],[145.12500341364586,-40.631657036769745],[145.11440875226722,-40.6181996867143],[145.10145656683738,-40.60699308094654],[145.08661592973866,-40.59844307447014],[145.07042430494084,-40.592859311702114],[145.03982657695283,-40.59103935209548],[145.0288151758837,-40.57672212175188],[145.03037783924475,-40.549956833765826],[145.02704665963557,-40.53345196734784],[145.02069949850372,-40.51785642572112],[145.0319229125593,-40.50063837392461],[145.03799695990216,-40.48525184763553],[145.05129338618178,-40.464692685887506],[145.05739065403864,-40.44736319073277],[145.0598420651069,-40.42915663528121],[145.05854548086694,-40.4108315992118],[145.04722995081121,-40.37246973268756],[145.03980418433954,-40.356182935297284],[145.0257234535862,-40.33600874284964],[145.01336285027173,-40.32302516433134],[144.99867419398439,-40.31274891978819],[144.9822402396184,-40.3055877069486],[144.9647129846846,-40.301825638378695],[144.9391941289769,-40.3030534471725],[144.89967366605532,-40.298610719723484],[144.86972597383817,-40.300379150609956],[144.85208077699554,-40.30579048065571],[144.82632185193452,-40.32030791904488],[144.80089233858826,-40.31133048076996],[144.78256839886612,-40.30977175783226],[144.76431016114566,-40.311970198070256],[144.74687995505377,-40.317834010800105],[144.73317808581558,-40.32584772387635],[144.7256370524375,-40.314839676935],[144.71235703827375,-40.30208487613226],[144.69675913546817,-40.29229972678367],[144.67949622932775,-40.285893808325405],[144.66129089761927,-40.28313525488367],[144.64137555406572,-40.28381437369884],[144.6247198142704,-40.28785833926133],[144.60913274145997,-40.29498648676271],[144.5951796409052,-40.30494029560695],[144.58336655767198,-40.31735876532445],[144.57412192359592,-40.331791508182256],[144.56778101910035,-40.34771508365316],[144.56323480190596,-40.36764656153793],[144.56499731696576,-40.40026129790081],[144.5713375687725,-40.418173025981254],[144.57967923696938,-40.432967004091545],[144.59065165954547,-40.44593045885664],[144.60386410282086,-40.456601754903936],[144.6229097085179,-40.46586425345209],[144.61503888899418,-40.49905332503415],[144.60484654904772,-40.51095997036925],[144.5963031429421,-40.52605863100828],[144.59081528625674,-40.54251593242679],[144.58858688290914,-40.5597203957866],[144.58970073028235,-40.5770327810933],[144.59411544284904,-40.59380983846139],[144.58979483845314,-40.61599209509593],[144.58941102105518,-40.631284265848926],[144.58043410472266,-40.65933636993502],[144.57989591754023,-40.67747704123148],[144.58300812846315,-40.69535685509238],[144.58875745600508,-40.7099916140536],[144.58880692382294,-40.72588202723889],[144.59913209471608,-40.769893226181196],[144.60791744680236,-40.79140393672056],[144.60834000399925,-40.82033702202569],[144.58970178852536,-40.83261874100686],[144.5717511339417,-40.855110708182124],[144.55377058405765,-40.86687852823835],[144.54173017006408,-40.879169289827736],[144.53224869304717,-40.8935267263385],[144.52567267686624,-40.90942610999861],[144.5222424581801,-40.92628635879122],[144.5234667665976,-40.959407169673185],[144.52632358367885,-40.96999511567255],[144.51963212687465,-40.988599606885415],[144.5173759966902,-41.00623678714537],[144.51863135315526,-41.02397331248368],[144.52334919703344,-41.04111688854215],[144.53134538083034,-41.05699836503576],[144.56852543787647,-41.102480519157496],[144.57579195050397,-41.10894115307449],[144.57575417328337,-41.1350688060868],[144.58308759564642,-41.15781238222364],[144.58459587085744,-41.178356034982365],[144.5968117303257,-41.211899126229454],[144.5935441721286,-41.233437126848436],[144.59495247170534,-41.25063223824221],[144.6069260347717,-41.28481703431757],[144.62610244814837,-41.30961142779363],[144.6433695072817,-41.3490883390049],[144.65819538500068,-41.36664190747193],[144.66578556278887,-41.37915686081965],[144.6581247856118,-41.399668397340356],[144.65594944946042,-41.41755203110682],[144.65713205433312,-41.43640943221208],[144.66146283422086,-41.4526768979748],[144.6687472727276,-41.46785329584843],[144.67873051694028,-41.48140766531983],[144.6910632936971,-41.49286579406074],[144.71570075997172,-41.50946065680323],[144.73320998408215,-41.53062414441587],[144.7508360893795,-41.55674877130361],[144.7686947754986,-41.573283700435724],[144.8005689623488,-41.618159145999925],[144.80770133186135,-41.63352427779964],[144.80881289917448,-41.656892164293765],[144.81394960877967,-41.67390303891288],[144.82147879489938,-41.68798417615636],[144.8230198314315,-41.70913694370118],[144.8364499548617,-41.74905239252246],[144.8572152418354,-41.778729491314564],[144.87107993577808,-41.791435463316695],[144.89822798687533,-41.8071035493278],[144.92142055541999,-41.813275257301356],[144.9321760252701,-41.834267961845754],[144.9575552293476,-41.868469663347625],[144.96934449105498,-41.88086189014506],[144.99071464329384,-41.89421331658831],[144.9999731913455,-41.909389565677316],[145.01115044690383,-41.92151587567603],[145.0486728187909,-41.9492888233391],[145.06692838307998,-41.969730416354246],[145.09448987500372,-41.987673241021014],[145.1234659031066,-42.0084972107108],[145.136745577373,-42.02960180870491],[145.15438227135,-42.06295530499741],[145.17095650700523,-42.103608141022235],[145.1598659603122,-42.10475242902392],[145.1281707872382,-42.11481222010897],[145.11254404464339,-42.12433474463707],[145.09494511966054,-42.141288527093685],[145.08566815800177,-42.1555207789513],[145.07923102361707,-42.171242811627465],[145.07586308432832,-42.187894418021564],[145.07568434646944,-42.20488226848402],[145.07923717882366,-42.22351505232446],[145.08553226303798,-42.23974863736981],[145.10177305094123,-42.264116108527574],[145.10914358945178,-42.283207090453445],[145.10401767800673,-42.313456828606334],[145.10701420956,-42.34042682770026],[145.11121736004148,-42.357668092356505],[145.1187218717396,-42.373749447557145],[145.1279971077952,-42.38636114879637],[145.13429557203068,-42.404530668351214],[145.13311098513182,-42.4277308706107],[145.1365092794433,-42.44509644974741],[145.1463299779081,-42.4663941994465],[145.14664688956285,-42.4829743184076],[145.15053354393893,-42.5004709525244],[145.16322221733287,-42.525082516026124],[145.16652145083773,-42.547612983719866],[145.1808155765234,-42.57616320196338],[145.1751691263234,-42.593025019863],[145.17228018792804,-42.6132750106992],[145.1728178448659,-42.63040589626588],[145.1765932822837,-42.64712422116958],[145.18411986223938,-42.66505253715153],[145.19351665937242,-42.67888807608185],[145.2175489369443,-42.70247759969406],[145.23740460010103,-42.71334340707772],[145.2726255119452,-42.72331256473945],[145.29085393795796,-42.738185231438266],[145.2881018021381,-42.76876751872185],[145.288639974408,-42.78633103146917],[145.29258064133126,-42.80345521768683],[145.3009425873072,-42.82153131479245],[145.31143439576164,-42.83622756796747],[145.33273536150128,-42.8534788125072],[145.34106022324795,-42.87872350426397],[145.34775239031651,-42.88907666023533],[145.35663050047663,-42.915829550979566],[145.38246929909144,-42.95499909137152],[145.40408381016073,-42.97669033433636],[145.40535160652803,-43.00073417897545],[145.40892199607316,-43.018194960481416],[145.41586303111492,-43.034609850211545],[145.42590253175595,-43.049335168516485],[145.4386468174807,-43.06179348917657],[145.4535961446112,-43.071496282106885],[145.47016430283455,-43.07806307016417],[145.4877016023599,-43.081236348856876],[145.50552035030628,-43.08089168390918],[145.53233007014262,-43.07288576928209],[145.54590876223602,-43.07202151550713],[145.56266215763446,-43.08583555820612],[145.57475028860466,-43.10208407141391],[145.58228862946467,-43.13184099524472],[145.59093031601464,-43.147442100764984],[145.60714383446089,-43.16766385459556],[145.62080195754754,-43.179774724538184],[145.67025727192367,-43.21012028932848],[145.6761751006859,-43.226393818762745],[145.68925792451142,-43.24684282065607],[145.6991769963476,-43.257317134175544],[145.70989130099574,-43.27773225687437],[145.72332673020463,-43.29216922702283],[145.7332500300804,-43.330774988126784],[145.74267534680033,-43.348535472203075],[145.75580841377734,-43.363760252716176],[145.7863181458014,-43.38715891514626],[145.80131261152323,-43.3959463034366],[145.8266739236697,-43.40395583378425],[145.83394074792102,-43.4045372363466],[145.84628606171646,-43.40928517163375],[145.86297063142652,-43.41229538082462],[145.87992370094221,-43.412123160678796],[145.89654367442193,-43.40877462259241],[145.92268417598365,-43.400229342307185],[145.9613915141658,-43.38443400913913],[145.948061,-43.38129],[145.938057,-43.39024],[145.924789,-43.38591],[145.935622,-43.369677],[145.94634,-43.371779],[145.953241,-43.359387],[145.970756,-43.369699],[145.981592,-43.357624],[145.975078,-43.349155],[145.981797,-43.333342],[146.00672,-43.339682],[146.00601,-43.320746],[145.983475,-43.322635],[145.984152,-43.31058],[145.96079,-43.295028],[145.970346,-43.276138],[145.966548,-43.265709],[145.971156,-43.258537],[145.972103,-43.241183],[145.9757841577109,-43.235327617928476],[145.965056,-43.228409],[145.946408,-43.230004],[145.928791,-43.211742],[145.928127,-43.204659],[145.915252,-43.194875],[145.927708,-43.185034],[145.929895,-43.177472],[145.921258,-43.172591],[145.921338,-43.163191],[145.940454,-43.150439],[145.945505,-43.143615],[145.966528,-43.131295],[145.979595,-43.128207],[145.992701,-43.100646],[145.98856,-43.091251],[145.979982,-43.090356],[145.973915,-43.077692],[145.982004,-43.072402],[145.974613,-43.060139],[145.978141,-43.039171],[145.978159,-43.017499],[145.991437,-43.004516],[145.992963,-42.978703],[145.988974,-42.978725],[145.977021,-42.96246],[145.961426,-42.950561],[145.951378,-42.938445],[145.94052,-42.930574],[145.933796,-42.907494],[145.947531,-42.902228],[145.854263,-42.742966],[145.842663,-42.72503],[145.844064,-42.719136],[145.858025,-42.713874],[145.873548,-42.713155],[145.866864,-42.698597],[145.869925,-42.690263],[145.887098,-42.699675],[145.902245,-42.693196],[145.909128,-42.681768],[145.928044,-42.682029],[145.934281,-42.669417],[145.954701,-42.665621],[145.967088,-42.648574],[145.960544,-42.643339],[145.963868,-42.635821],[145.979887,-42.627636],[145.98845,-42.612069],[145.995532,-42.608562],[145.99276,-42.59866],[146.00694,-42.580351],[146.018229,-42.572246],[146.016433,-42.566126],[146.032682,-42.547628],[146.029295,-42.538241],[146.042004,-42.530639],[146.053361,-42.528553],[146.059467,-42.520712],[146.073511,-42.511211],[146.089743,-42.489986],[146.08183,-42.487353],[146.080732,-42.477066],[146.093617,-42.467809],[146.109093,-42.450845],[146.108732,-42.445467],[146.12571,-42.436789],[146.124075,-42.431623],[146.133106,-42.4136],[146.129849,-42.407313],[146.118229,-42.404357],[146.105573,-42.407766],[146.099548,-42.402409],[146.11245,-42.388647],[146.110305,-42.375474],[146.099125,-42.369677],[146.096186,-42.341178],[146.102667,-42.326899],[146.10695,-42.305306],[146.09069,-42.283916],[146.075328,-42.21047],[145.999753,-42.0669],[146.023422,-42.039447],[146.014916,-42.005321],[146.050484,-41.974556],[146.013454,-41.866776],[145.951331,-41.684662],[145.853526,-41.582863],[145.852831,-41.465863],[145.954065,-41.451806],[146.082866,-41.456594],[146.092537,-41.443355],[146.090306,-41.429678],[146.092996,-41.406962],[146.102339,-41.402284],[146.112479,-41.385429],[146.11467,-41.37119],[146.128718,-41.368729],[146.153993,-41.357323],[146.176291,-41.341565],[146.185555,-41.320484],[146.200302,-41.316092],[146.205314,-41.310799],[146.203298,-41.287246],[146.216538,-41.275955],[146.226703,-41.271646],[146.232486,-41.2777],[146.248055,-41.277936],[146.251022,-41.272052],[146.265684,-41.265593],[146.321033,-41.271849],[146.323461,-41.254969],[146.349472,-41.242148],[146.370102,-41.266802],[146.357527,-41.272633],[146.358921,-41.284202],[146.398708,-41.288963],[146.400508,-41.295266],[146.41424,-41.293029],[146.444449,-41.297836],[146.447,-41.315195],[146.459758,-41.319725],[146.46206,-41.336042],[146.459497,-41.344207],[146.46856,-41.354709],[146.479025,-41.360698],[146.484519,-41.375631],[146.494373,-41.37673],[146.528035,-41.365072],[146.54558,-41.367394],[146.548216,-41.355006],[146.557269,-41.357945],[146.589922,-41.361746],[146.583073,-41.353196],[146.589574,-41.334794],[146.617472,-41.3379],[146.619945,-41.324477],[146.654646,-41.328772],[146.703586,-41.33269],[146.706567,-41.320062],[146.700694,-41.316447],[146.708894,-41.302783],[146.728315,-41.296748],[146.749477,-41.29752],[146.751637,-41.287515],[146.76206,-41.287177],[146.695626,-41.17027],[146.699257,-41.157781],[146.695565,-41.13299],[146.664641,-41.11102],[146.658419,-41.110296],[146.661412,-41.096121]]],[[[143.73235802303296,-39.65069051376161],[143.7292180840326,-39.67487301277297],[143.7310858412304,-39.69323668503669],[143.73666073053835,-39.71083309333962],[143.7587954347143,-39.74816277514061],[143.76032286387792,-39.77501511478514],[143.76322094746604,-39.79339066131003],[143.7694417922799,-39.809744321619796],[143.76964745205976,-39.821576942937114],[143.7611180945442,-39.8422749848801],[143.74692996851678,-39.88515643189614],[143.7434447355181,-39.92059499042378],[143.74718135249861,-39.94592037691785],[143.7579486039221,-39.97615397466386],[143.76711742720272,-39.9908909456963],[143.78536612476003,-40.00981666324445],[143.7716546270271,-40.0372660405282],[143.7684506116617,-40.054234787666985],[143.76883440456135,-40.07432710888365],[143.77270821216274,-40.09280139991599],[143.7803501423672,-40.11006137434325],[143.79367465161772,-40.15472955206884],[143.8028382370113,-40.17017668920133],[143.81577411564976,-40.184386571728936],[143.83009816717217,-40.194936104919634],[143.85164758910145,-40.21438805101267],[143.86344932558072,-40.2276742942253],[143.87747695923434,-40.23826591668423],[143.89329574388228,-40.24592901165265],[143.91030230621473,-40.250371286955335],[143.9278479677124,-40.2514233016136],[143.94709280032714,-40.24928432256242],[143.9763987924923,-40.23716465154227],[143.98899609433357,-40.22743213164654],[144.00084661955904,-40.21409140674053],[144.01068049106425,-40.197652278351455],[144.03431647260433,-40.18481148953079],[144.0574056615797,-40.17955369363316],[144.07387146547538,-40.17166449685763],[144.09818724730135,-40.151377238943006],[144.11946857018376,-40.13851209736573],[144.13686492353284,-40.13133281200121],[144.1642162657296,-40.11254646537165],[144.17647786802127,-40.09965642821515],[144.18596439610525,-40.084606320788076],[144.19453563061174,-40.06253265585041],[144.21347917564853,-40.02144819136641],[144.22253291140888,-39.98676363361273],[144.2223957482586,-39.97332387601833],[144.2277744449915,-39.94293291348721],[144.22792479169382,-39.92648330334119],[144.22157742442747,-39.89830018757037],[144.23955366413824,-39.877632807793496],[144.24902667863293,-39.85832555759274],[144.25334428045036,-39.84037676052978],[144.25390880995803,-39.82192459784092],[144.2506965150298,-39.803745429467334],[144.24384255039763,-39.78660412933339],[144.2336352911245,-39.77122190388996],[144.2205041994552,-39.75824594793159],[144.20500175553678,-39.74822221439476],[144.19106905250703,-39.74284236677841],[144.19888035801222,-39.69139975688796],[144.19960320853326,-39.66686779918851],[144.19732012434858,-39.64960311647446],[144.19175474076695,-39.63310135147187],[144.18311543794033,-39.61798036640867],[144.17172569029051,-39.60480632408732],[144.15801195491812,-39.59407248950936],[144.12354688160926,-39.57211709918345],[144.10711542582138,-39.55471967286857],[144.094069889887,-39.54617813710311],[144.0733531011507,-39.53790162146718],[144.05908176655385,-39.52441428702827],[144.0438199173691,-39.515259037671996],[144.0270549125578,-39.50928599447853],[144.0065342530386,-39.506885575741165],[143.97900891714573,-39.49414567918483],[143.96083225825373,-39.489944431647906],[143.9421799316723,-39.48958094513899],[143.92385339197315,-39.49307083797375],[143.904613089844,-39.5004185482797],[143.87246915696335,-39.52057483055965],[143.85715705299657,-39.53525337273118],[143.84614314174115,-39.55050171475682],[143.83681066792312,-39.575946682520595],[143.81391548723516,-39.57593454975338],[143.79759803187955,-39.57986642773613],[143.7822944160634,-39.58675978371897],[143.76102644050636,-39.601570010766714],[143.74800802651907,-39.615752816014655],[143.7383038766859,-39.63237991869255],[143.73235802303296,-39.65069051376161]]]]},"bbox":[143.7292180840326,-43.41229538082462,146.76206,-39.48958094513899]}]}