{"type":"FeatureCollection","features":[
{"properties":{"electorateShortName":"brand","electorateName":"Brand","area":377.75,"state":null},"type":"Feature","geometry":{"type":"Polygon","coordinates":[[[115.774924,-32.181389],[115.770443,-32.167104],[115.767328,-32.167131],[115.766508,-32.160572],[115.764835,-32.156921],[115.765939,-32.15329],[115.761673,-32.150867],[115.760232,-32.14482],[115.766082,-32.143592],[115.765381,-32.139611],[115.7554,-32.135494],[115.747773,-32.134755],[115.749868,-32.132801],[115.755948,-32.129549],[115.761982,-32.117234],[115.762165,-32.106388],[115.756912,-32.102611],[115.755312,-32.097876],[115.758589,-32.095537],[115.757070891268,-32.09322837827462],[115.75149998821901,-32.09457800435169],[115.74540787143772,-32.07886178338176],[115.73661930278857,-32.064760697684484],[115.7265525247006,-32.05378487403239],[115.724328,-32.05389],[115.72538830592332,-32.052515524506624],[115.71072167696991,-32.041697627056],[115.69549192864156,-32.03421206907693],[115.67912775964697,-32.029718430738136],[115.66221096430135,-32.02837647409298],[115.64534298441127,-32.03023390964528],[115.62912352625037,-32.03522470010067],[115.62451052625036,-32.03713670010067],[115.60930640431383,-32.04522183479467],[115.59592046476217,-32.05605471756891],[115.5848427564755,-32.06923876497464],[115.57647882577497,-32.08429131924686],[115.571134869686,-32.10066131803123],[115.56900652630235,-32.117749468350155],[115.57017171262694,-32.13493018625454],[115.57204655990277,-32.14199656400674],[115.57062072409248,-32.15227496005364],[115.57114602570911,-32.16276486989272],[115.570062049592,-32.1749082619889],[115.57223404826361,-32.19332544347547],[115.58079644236041,-32.21883486421295],[115.58259999957573,-32.22948293322867],[115.58925963329366,-32.25012983549703],[115.5908956665396,-32.25367063281114],[115.5948756360775,-32.270791191961735],[115.5977328789466,-32.29030241081277],[115.60023865532108,-32.29825010383312],[115.59997572210146,-32.311073241817404],[115.60204596738572,-32.32834746643694],[115.60740116555188,-32.344900611284494],[115.61584120094221,-32.36011411036765],[115.62334477109958,-32.36902064305106],[115.62327610681807,-32.3788391263084],[115.62696520530088,-32.39705201738921],[115.63447202625397,-32.41529315708736],[115.64434961944033,-32.42983363420364],[115.6568651823348,-32.44217677024595],[115.65818709183377,-32.44747851465621],[115.65843080851837,-32.466144787647494],[115.66252017569356,-32.48435923853995],[115.6702792550789,-32.50133822061484],[115.68137422507654,-32.516351241162305],[115.69389310238256,-32.52747735712387],[115.695266,-32.524941],[115.701747,-32.517842],[115.707706,-32.521412],[115.718237,-32.520128],[115.719444,-32.52134],[115.727917,-32.516497],[115.739374,-32.49873],[115.746323,-32.475558],[115.747816,-32.455643],[115.801425,-32.455616],[115.801423,-32.452576],[115.827484,-32.458152],[115.831507,-32.444579],[115.857725,-32.444576],[115.857654,-32.406225],[115.830186,-32.406383],[115.831865,-32.40022],[115.835566,-32.395648],[115.835589,-32.378901],[115.841261,-32.374292],[115.846865,-32.372723],[115.852208,-32.368682],[115.853311,-32.363508],[115.851798,-32.3541],[115.855165,-32.346348],[115.863705,-32.341193],[115.875213,-32.332602],[115.88973,-32.292138],[115.884523,-32.290749],[115.876778,-32.281802],[115.881765,-32.275546],[115.879544,-32.27042],[115.880829,-32.267947],[115.885737,-32.265131],[115.887099,-32.25873],[115.887074,-32.244585],[115.884522,-32.240671],[115.884179,-32.208789],[115.882806,-32.204785],[115.885334,-32.203956],[115.892917,-32.205118],[115.896977,-32.202241],[115.898678,-32.19413],[115.900736,-32.193107],[115.900676,-32.182019],[115.898546,-32.180241],[115.847437,-32.180738],[115.794246,-32.180787],[115.774924,-32.181389]]]},"bbox":[115.56900652630235,-32.52747735712387,115.900736,-32.02837647409298]}]}