{"type":"FeatureCollection","features":[
{"properties":{"electorateShortName":"bruce","electorateName":"Bruce","area":114.62,"state":null},"type":"Feature","geometry":{"type":"Polygon","coordinates":[[[145.335344,-38.074511],[145.341473,-38.000437],[145.360992,-37.972054],[145.29336,-37.963976],[145.205647,-37.924401],[145.195486,-37.923128],[145.192957,-37.978964],[145.248989,-38.017011],[145.286755,-38.021634],[145.298203,-38.069901],[145.335344,-38.074511]]]},"bbox":[145.192957,-38.074511,145.360992,-37.923128]}]}