{"type":"FeatureCollection","features":[
{"properties":{"electorateShortName":"burt","electorateName":"Burt","area":189.91,"state":null},"type":"Feature","geometry":{"type":"Polygon","coordinates":[[[115.898628,-32.18024],[115.978086,-32.179564],[115.978422,-32.18166],[115.990098,-32.181625],[115.995663,-32.185907],[116.015818,-32.186556],[116.015132,-32.170899],[116.018571,-32.153281],[116.025828,-32.148005],[116.034737,-32.137758],[116.043483,-32.130356],[116.05014,-32.130348],[116.050119,-32.121282],[116.042089,-32.116168],[116.038632,-32.112008],[116.048477,-32.095522],[116.032995,-32.093215],[116.015802,-32.093325],[116.018056,-32.089827],[116.016499,-32.075306],[116.017835,-32.06966],[116.014991,-32.060945],[116.015001,-32.054802],[116.02032,-32.050241],[116.028481,-32.053874],[116.036369,-32.060509],[116.043068,-32.059786],[116.052427,-32.050579],[116.056273,-32.050567],[116.056138,-32.040448],[116.049445,-32.03929],[116.04026,-32.031436],[116.03907,-32.028243],[116.033161,-32.023189],[116.029442,-32.026335],[116.021436,-32.019454],[116.014399,-32.013494],[116.002525,-32.02361],[115.994652,-32.009457],[115.989391,-32.013952],[115.977194,-32.00452],[115.968043,-32.006839],[115.941156,-32.02962],[115.9358,-32.034098],[115.931036,-32.05132],[115.932686,-32.056687],[115.93818,-32.06222],[115.941724,-32.07354],[115.951618,-32.082767],[115.930735,-32.100217],[115.927638,-32.105376],[115.916173,-32.115337],[115.904825,-32.125188],[115.897381,-32.136348],[115.89784,-32.177146],[115.898628,-32.18024]]]},"bbox":[115.897381,-32.186556,116.056273,-32.00452]}]}