{"type":"FeatureCollection","features":[
{"properties":{"electorateShortName":"burt","electorateName":"Burt","area":189.91,"state":null},"type":"Feature","geometry":{"type":"Polygon","coordinates":[[[115.898628,-32.18024],[116.015818,-32.186556],[116.050119,-32.121282],[116.018056,-32.089827],[116.03907,-32.028243],[116.021436,-32.019454],[115.977194,-32.00452],[115.941156,-32.02962],[115.951618,-32.082767],[115.916173,-32.115337],[115.898628,-32.18024]]]},"bbox":[115.898628,-32.186556,116.050119,-32.00452]}]}