{"type":"FeatureCollection","features":[
{"properties":{"electorateShortName":"canberra","electorateName":"Canberra","area":312.39,"state":null},"type":"Feature","geometry":{"type":"Polygon","coordinates":[[[149.206345,-35.345905],[149.217912,-35.341563],[149.230915,-35.342577],[149.243802,-35.335109],[149.249308,-35.330127],[149.26262,-35.331368],[149.268373,-35.335067],[149.284469,-35.337938],[149.291858,-35.333912],[149.299606,-35.333082],[149.30497,-35.335922],[149.31402,-35.33604],[149.336346,-35.339884],[149.347266,-35.350155],[149.352134,-35.351317],[149.363983,-35.348171],[149.367987,-35.339552],[149.374455,-35.337981],[149.39018,-35.331056],[149.39718,-35.324254],[149.397281,-35.311003],[149.39479,-35.303157],[149.389676,-35.302698],[149.383697,-35.306471],[149.374174,-35.304695],[149.370172,-35.30824],[149.361666,-35.309025],[149.361991,-35.303089],[149.350553,-35.299358],[149.347872,-35.291587],[149.343211,-35.292048],[149.337698,-35.286971],[149.327561,-35.282402],[149.322477,-35.28674],[149.316264,-35.281788],[149.3153,-35.276231],[149.298462,-35.272156],[149.289293,-35.275699],[149.285433,-35.271631],[149.271628,-35.270805],[149.273179,-35.259179],[149.257329,-35.257203],[149.250324,-35.247987],[149.240608,-35.245811],[149.23455,-35.24047],[149.241242,-35.236755],[149.246794,-35.22915],[149.238697,-35.222227],[149.228775,-35.221687],[149.22351,-35.219135],[149.213785,-35.219605],[149.209763,-35.22649],[149.202456,-35.224625],[149.207555,-35.216047],[149.200699,-35.205565],[149.195544,-35.206559],[149.179534,-35.219513],[149.158113,-35.22677],[149.151283,-35.230968],[149.142117,-35.225562],[149.12512,-35.231391],[149.119028,-35.219613],[149.108536,-35.20946],[149.09268,-35.201952],[149.089731,-35.204749],[149.086463,-35.214146],[149.074179,-35.225857],[149.080283,-35.231015],[149.07339,-35.241107],[149.075773,-35.250452],[149.058658,-35.244142],[149.04812,-35.243333],[149.030149,-35.239596],[149.026108,-35.253528],[149.02762,-35.258563],[149.03396,-35.265887],[149.040692,-35.269908],[149.049226,-35.268997],[149.068487,-35.275708],[149.076551,-35.276641],[149.086465,-35.28063],[149.083611,-35.285805],[149.072333,-35.293584],[149.065156,-35.301945],[149.061822,-35.309408],[149.064189,-35.324535],[149.064803,-35.337577],[149.069556,-35.34837],[149.084113,-35.34887],[149.082634,-35.339486],[149.088741,-35.336927],[149.098612,-35.343853],[149.100461,-35.350697],[149.114291,-35.345143],[149.124421,-35.347919],[149.137366,-35.3442],[149.147553,-35.34524],[149.15875,-35.341648],[149.176195,-35.337632],[149.190353,-35.343839],[149.203401,-35.343707],[149.206345,-35.345905]]]},"bbox":[149.026108,-35.351317,149.397281,-35.201952]}]}