{"type":"FeatureCollection","features":[
{"properties":{"electorateShortName":"capricornia","electorateName":"Capricornia","area":90896.59,"state":null},"type":"Feature","geometry":{"type":"Polygon","coordinates":[[[152.908736,-23.165072],[152.720898,-22.364034],[152.738751,-22.287197],[152.766709,-22.242979],[152.766439,-22.145206],[152.734242,-21.999951],[152.67615,-21.900725],[152.652276,-21.816026],[152.603968,-21.753499],[152.560039,-21.667342],[152.554383,-21.557566],[152.567229,-21.537375],[152.589327,-21.394643],[152.588945,-21.315206],[152.653539,-21.236472],[151.836784,-21.24469],[150.09178,-21.248983],[149.751162,-21.247711],[149.257767,-21.224197],[149.149293,-21.196304],[149.147331,-21.144351],[148.990512,-21.13737],[148.905695,-21.079514],[148.781871,-21.066458],[148.739443,-21.074736],[148.580652,-21.059257],[148.643049,-21.008182],[148.570546,-20.834989],[148.484894,-20.803627],[148.431496,-20.705719],[148.373612,-20.674192],[148.329999,-20.608572],[148.22731,-20.558863],[148.194687,-20.568431],[148.152612,-20.531724],[148.101027,-20.564314],[148.059037,-20.507459],[147.991579,-20.532791],[147.987332,-20.493415],[147.936097,-20.469194],[147.868277,-20.403765],[147.819529,-20.437105],[147.722445,-20.30853],[147.638212,-20.302557],[147.574466,-20.334256],[147.552523,-20.38],[147.467416,-20.374603],[147.456961,-20.465184],[147.389015,-20.442909],[147.397251,-20.409653],[147.341334,-20.387472],[147.338812,-20.426919],[147.297819,-20.447431],[147.279528,-20.55239],[147.178723,-20.606456],[147.148618,-20.651831],[147.073275,-20.648893],[147.011894,-20.606059],[146.976003,-20.619695],[146.960118,-20.74182],[146.909893,-20.78672],[146.851807,-20.812892],[146.865953,-20.885978],[146.853461,-20.919202],[146.882281,-21.005834],[146.848807,-21.100944],[146.885653,-21.217748],[146.949719,-21.239578],[146.963275,-21.294753],[146.882787,-21.36212],[146.873668,-21.393704],[146.909744,-21.441144],[146.834724,-21.574405],[146.833884,-21.643224],[146.756055,-21.636697],[146.651612,-21.609274],[146.656718,-21.582545],[146.492307,-21.566479],[146.483889,-21.680292],[146.395972,-21.66319],[146.340708,-21.570118],[146.346695,-21.518123],[146.150511,-21.500057],[146.093438,-21.509941],[146.069187,-21.808809],[146.126718,-21.813565],[146.118452,-21.900853],[146.211379,-21.908495],[146.201384,-22.007584],[146.072068,-21.997239],[146.039479,-22.02335],[146.031455,-22.104814],[146.074055,-22.123377],[146.070664,-22.226622],[146.052132,-22.338502],[146.122071,-22.347422],[146.108921,-22.445663],[146.283188,-22.463379],[146.311092,-22.493311],[146.387628,-22.519329],[146.428595,-22.487942],[146.401429,-22.755504],[146.548396,-22.76889],[146.526585,-22.81233],[146.559193,-22.877335],[146.646063,-22.883208],[146.702277,-22.96222],[146.779435,-23.021589],[146.788875,-23.126644],[146.853726,-23.167071],[146.88446,-23.220274],[146.854576,-23.304746],[146.932705,-23.315483],[146.939723,-23.260355],[147.079057,-23.279834],[147.074854,-23.306916],[147.161882,-23.33971],[147.286615,-23.351236],[147.26075,-23.210132],[147.351258,-23.186534],[147.486973,-23.078755],[147.484001,-23.046347],[147.553034,-23.009169],[147.605208,-22.892413],[147.640506,-22.926287],[147.69977,-22.908772],[147.794069,-22.800503],[147.907405,-22.749165],[147.929003,-22.718738],[147.993769,-22.693531],[148.060759,-22.709873],[148.063937,-22.739495],[148.176142,-22.79034],[148.235372,-22.771757],[148.239066,-22.739765],[148.343134,-22.725418],[148.368575,-22.795246],[148.280482,-22.885819],[148.325051,-22.949835],[148.458068,-22.86749],[148.541899,-22.877303],[148.561538,-22.998657],[148.603569,-22.999462],[148.579188,-23.117531],[148.624423,-23.14898],[148.512161,-23.289023],[148.502667,-23.330327],[148.550342,-23.34683],[148.550383,-23.406916],[148.572977,-23.468959],[148.522879,-23.505184],[148.525498,-23.550323],[148.618668,-23.535828],[148.678514,-23.449371],[148.680399,-23.406066],[148.747531,-23.37911],[148.824323,-23.379128],[148.868587,-23.351642],[148.84566,-23.2906],[148.880456,-23.247974],[148.914246,-23.265127],[148.98544,-23.194509],[149.005738,-23.15022],[148.9796,-23.092321],[149.039604,-23.061738],[149.125102,-23.062709],[149.202604,-23.046849],[149.234149,-22.982527],[149.286321,-22.940571],[149.328337,-22.877677],[149.368591,-22.877874],[149.414489,-22.916572],[149.411298,-22.988103],[149.485786,-23.057813],[149.502879,-23.124087],[149.672626,-23.082061],[149.731223,-23.025897],[149.826492,-22.981597],[149.933171,-23.013746],[149.925217,-23.055259],[150.001067,-23.086839],[150.032639,-23.044771],[150.067954,-23.086117],[150.122531,-23.090106],[150.163031,-23.145759],[150.215837,-23.108256],[150.392683,-23.161213],[150.380008,-23.206863],[150.42666,-23.253756],[150.460435,-23.337474],[150.493211,-23.358567],[150.433543,-23.405685],[150.46756,-23.426791],[150.544677,-23.425671],[150.551909,-23.377622],[150.625494,-23.457245],[150.648302,-23.518221],[150.728743,-23.491588],[150.772836,-23.506628],[150.968222,-23.49908],[151.001072,-23.431756],[151.251067,-23.165086],[152.048,-23.167255],[152.908736,-23.165072]]]},"bbox":[146.031455,-23.550323,152.908736,-20.302557]}]}