{"type":"FeatureCollection","features":[
{"properties":{"electorateShortName":"cooper","electorateName":"Cooper","area":59.41,"state":null},"type":"Feature","geometry":{"type":"MultiPolygon","coordinates":[[[[144.986865,-37.774378],[144.992114,-37.782632],[145.008478,-37.788892],[145.001945,-37.796659],[145.007696,-37.800819],[145.019378,-37.79286],[145.01537,-37.785737],[145.040426,-37.789768],[145.040197,-37.784222],[145.034707,-37.778566],[145.027924,-37.76251],[145.036096,-37.746858],[145.03199,-37.73776],[145.038601,-37.727324],[145.060837,-37.729779],[145.061527,-37.724211],[145.074949,-37.708789],[145.051325,-37.708384],[145.058219,-37.699983],[144.972061,-37.690999],[144.982519,-37.702957],[144.977189,-37.710371],[144.9785,-37.719436],[144.969026,-37.721753],[144.966873,-37.732604],[144.975574,-37.733644],[144.981817,-37.752105],[144.980269,-37.75771],[144.986865,-37.774378]]],[[[144.927165,-37.841327],[144.93096175765638,-37.85198873257106],[144.9429407198713,-37.864618509463305],[144.94638271676195,-37.867066044942234],[144.9486076154758,-37.86947023351966],[144.94876761547582,-37.86960523351966],[144.96620019807702,-37.881138168634834],[144.96638019807702,-37.88122916863484],[144.97931756835888,-37.885604099674616],[144.975658,-37.882121],[144.975503,-37.878642],[144.975607,-37.870261],[144.969681,-37.864589],[144.963316,-37.855467],[144.935592,-37.842548],[144.927165,-37.841327]]]]},"bbox":[144.927165,-37.885604099674616,145.074949,-37.690999]}]}