{"type":"FeatureCollection","features":[
{"properties":{"electorateShortName":"cooper","electorateName":"Cooper","area":59.41,"state":null},"type":"Feature","geometry":{"type":"MultiPolygon","coordinates":[[[[144.986865,-37.774378],[144.988667,-37.775346],[144.988806,-37.776925],[144.989734,-37.777878],[144.990105,-37.77966],[144.991728,-37.780129],[144.992114,-37.782632],[144.994179,-37.783532],[144.996459,-37.785242],[144.998988,-37.785416],[145.000351,-37.784566],[145.001684,-37.783137],[145.003525,-37.783484],[145.005077,-37.785459],[145.008094,-37.786908],[145.008478,-37.788892],[145.007463,-37.790197],[145.005786,-37.79102],[145.005109,-37.792339],[145.001151,-37.794742],[145.001945,-37.796659],[145.00239,-37.796],[145.003993,-37.79614],[145.004442,-37.798008],[145.005337,-37.797956],[145.007863,-37.79638],[145.009189,-37.797321],[145.006904,-37.79853],[145.006518,-37.800506],[145.007696,-37.800819],[145.011405,-37.799015],[145.0134,-37.799347],[145.014798,-37.800107],[145.01573,-37.802574],[145.01726,-37.803269],[145.019333,-37.803662],[145.020683,-37.803196],[145.020988,-37.802489],[145.018513,-37.80024],[145.020861,-37.798802],[145.020453,-37.798128],[145.017703,-37.797306],[145.01742,-37.79534],[145.01423,-37.794254],[145.01393,-37.792322],[145.019378,-37.79286],[145.019352,-37.79191],[145.016399,-37.788607],[145.013398,-37.786372],[145.013331,-37.785594],[145.01537,-37.785737],[145.019784,-37.786572],[145.02094,-37.786962],[145.022512,-37.786488],[145.024388,-37.786499],[145.026261,-37.786978],[145.028536,-37.787065],[145.029414,-37.788499],[145.032113,-37.789962],[145.035847,-37.789752],[145.040426,-37.789768],[145.041192,-37.789449],[145.04172,-37.788221],[145.041049,-37.787049],[145.041902,-37.78601],[145.043125,-37.786962],[145.045165,-37.784556],[145.043808,-37.784465],[145.040947,-37.785462],[145.040197,-37.784222],[145.037966,-37.783304],[145.036994,-37.78153],[145.038063,-37.781279],[145.038582,-37.779332],[145.037418,-37.779629],[145.034707,-37.778566],[145.035128,-37.777614],[145.035455,-37.774732],[145.034122,-37.772711],[145.034495,-37.772356],[145.036812,-37.772571],[145.037108,-37.771418],[145.03658,-37.770501],[145.035251,-37.77027],[145.032436,-37.770686],[145.031436,-37.768536],[145.031626,-37.767327],[145.030538,-37.764913],[145.02804,-37.76411],[145.027924,-37.76251],[145.028726,-37.761136],[145.029958,-37.760039],[145.029029,-37.758038],[145.03123,-37.757474],[145.032244,-37.756454],[145.030733,-37.754989],[145.030728,-37.7543],[145.031798,-37.752734],[145.031474,-37.750836],[145.033019,-37.74906],[145.034887,-37.748388],[145.036096,-37.746858],[145.035283,-37.7458],[145.033611,-37.745917],[145.033744,-37.744836],[145.035103,-37.744084],[145.033971,-37.741839],[145.033029,-37.741391],[145.032894,-37.740091],[145.03199,-37.73776],[145.033792,-37.736555],[145.034172,-37.735065],[145.037154,-37.735142],[145.038095,-37.733905],[145.039998,-37.732738],[145.040076,-37.73191],[145.038234,-37.730339],[145.039923,-37.730412],[145.040525,-37.729944],[145.039711,-37.728552],[145.038137,-37.728003],[145.038601,-37.727324],[145.043529,-37.727944],[145.050236,-37.728601],[145.060837,-37.729779],[145.060668,-37.729175],[145.061527,-37.724211],[145.067494,-37.724862],[145.064675,-37.720224],[145.067841,-37.716602],[145.069279,-37.715572],[145.074526,-37.716134],[145.075398,-37.71105],[145.074571,-37.71096],[145.074949,-37.708789],[145.069579,-37.708209],[145.064584,-37.709457],[145.051325,-37.708384],[145.057451,-37.702473],[145.058219,-37.699983],[145.044784,-37.698685],[145.043053,-37.699453],[145.040806,-37.698274],[145.022835,-37.696299],[145.022682,-37.696148],[145.011402,-37.694852],[144.982127,-37.691918],[144.972061,-37.690999],[144.97035,-37.692207],[144.970599,-37.692757],[144.973622,-37.692961],[144.974323,-37.693921],[144.97635,-37.695064],[144.977404,-37.694012],[144.978926,-37.694564],[144.978313,-37.696144],[144.978651,-37.697105],[144.980483,-37.697581],[144.980667,-37.698282],[144.979436,-37.699877],[144.979849,-37.701027],[144.980783,-37.701026],[144.982519,-37.702957],[144.981836,-37.703925],[144.980268,-37.703889],[144.978488,-37.704812],[144.980819,-37.707207],[144.980563,-37.707702],[144.978765,-37.708017],[144.977189,-37.710371],[144.978762,-37.711327],[144.979008,-37.712489],[144.977562,-37.713172],[144.9775,-37.713995],[144.980516,-37.714336],[144.980458,-37.716144],[144.979616,-37.716673],[144.97811,-37.716699],[144.978815,-37.718575],[144.9785,-37.719436],[144.975883,-37.719352],[144.972718,-37.720193],[144.971762,-37.721488],[144.969026,-37.721753],[144.968706,-37.723592],[144.967994,-37.724319],[144.968937,-37.726233],[144.966219,-37.728713],[144.967549,-37.729859],[144.967839,-37.730646],[144.96651,-37.731359],[144.966873,-37.732604],[144.968492,-37.733092],[144.970882,-37.734975],[144.972818,-37.734858],[144.973882,-37.733957],[144.975574,-37.733644],[144.976522,-37.735324],[144.976485,-37.736308],[144.977458,-37.737302],[144.97811,-37.738881],[144.979727,-37.740127],[144.979742,-37.741048],[144.978967,-37.742735],[144.980019,-37.74394],[144.981557,-37.74486],[144.982012,-37.745756],[144.980306,-37.746141],[144.98055,-37.747619],[144.981381,-37.748961],[144.980596,-37.749898],[144.981817,-37.752105],[144.979751,-37.753358],[144.979291,-37.754007],[144.980269,-37.75771],[144.982096,-37.760634],[144.983161,-37.761563],[144.98139,-37.762388],[144.981697,-37.763204],[144.983897,-37.764116],[144.985571,-37.766425],[144.984479,-37.767335],[144.984165,-37.770105],[144.984453,-37.771236],[144.986804,-37.773719],[144.986865,-37.774378]]],[[[144.927165,-37.841327],[144.9257096464555,-37.84409481783193],[144.92872257276318,-37.849029577480344],[144.93096175765638,-37.85198873257106],[144.9429407198713,-37.864618509463305],[144.94638271676195,-37.867066044942234],[144.9486076154758,-37.86947023351966],[144.94876761547582,-37.86960523351966],[144.96620019807702,-37.881138168634834],[144.96638019807702,-37.88122916863484],[144.97931756835888,-37.885604099674616],[144.975658,-37.882121],[144.975741,-37.879136],[144.975503,-37.878642],[144.973113,-37.872488],[144.975607,-37.870261],[144.969681,-37.864589],[144.971138,-37.863254],[144.970308,-37.860787],[144.963316,-37.855467],[144.935592,-37.842548],[144.931891,-37.843299],[144.929856,-37.847323],[144.93073,-37.84231],[144.927165,-37.841327]]],[[[144.926912,-37.840035],[144.92313552094012,-37.839878753638516],[144.9256013765978,-37.84391748666935],[144.926912,-37.840035]]]]},"bbox":[144.92313552094012,-37.885604099674616,145.075398,-37.690999]}]}