{"type":"FeatureCollection","features":[
{"properties":{"electorateShortName":"corangamite","electorateName":"Corangamite","area":1506.29,"state":null},"type":"Feature","geometry":{"type":"Polygon","coordinates":[[[143.823154,-38.055792],[143.82326,-38.055895],[143.818592,-38.08015],[143.824563,-38.080964],[143.82841,-38.092194],[143.824335,-38.091887],[143.82186,-38.104345],[143.820631,-38.10513],[143.810923,-38.120598],[143.809865,-38.127699],[143.825547,-38.129525],[143.825739,-38.12973],[143.857459,-38.133413],[143.900686,-38.138542],[143.89964,-38.14446],[143.90121,-38.144996],[143.902672,-38.145952],[143.902176,-38.148889],[143.902435,-38.150399],[143.903426,-38.151072],[143.904075,-38.152816],[143.905608,-38.154291],[143.906944,-38.153393],[143.908711,-38.153857],[143.90948,-38.153561],[143.909535,-38.151584],[143.911283,-38.15058],[143.91207,-38.151814],[143.913762,-38.153085],[143.914302,-38.155468],[143.912958,-38.156111],[143.912978,-38.157497],[143.912218,-38.159473],[143.912709,-38.160034],[143.91514,-38.159891],[143.918655,-38.161015],[143.918941,-38.159291],[143.953282,-38.163035],[143.978314,-38.166058],[143.978528,-38.166148],[143.993628,-38.167981],[143.993589,-38.168176],[144.00246,-38.169183],[144.003127,-38.165543],[144.062407,-38.172399],[144.059818,-38.186712],[144.055041,-38.186261],[144.049767,-38.214733],[144.055812,-38.224276],[144.05239,-38.225474],[144.046101,-38.258943],[144.050496,-38.259459],[144.047713,-38.273544],[144.045496,-38.272136],[144.043787,-38.271897],[144.04095,-38.272479],[144.038912,-38.274546],[144.034544,-38.276817],[144.030487,-38.279195],[144.029286,-38.280381],[144.027384,-38.281066],[144.029784,-38.285036],[144.026961,-38.28585],[144.025606,-38.293709],[144.016147,-38.295393],[144.012777,-38.31374],[144.026775,-38.315319],[144.040017,-38.316983],[144.058572,-38.3189],[144.057907,-38.322598],[144.082648,-38.325416],[144.080998,-38.335077],[144.080349,-38.336754],[144.081635,-38.337464],[144.08298,-38.3374],[144.084493,-38.336114],[144.084647,-38.335296],[144.088935,-38.332999],[144.095416,-38.331357],[144.096538,-38.331732],[144.099659,-38.330796],[144.101215,-38.330866],[144.103559,-38.329866],[144.104242,-38.330432],[144.107719,-38.331615],[144.10874,-38.324617],[144.128053,-38.330855],[144.136101,-38.326177],[144.1409,-38.322179],[144.150532,-38.321459],[144.152294,-38.324143],[144.152246,-38.326792],[144.149358,-38.330977],[144.149295,-38.332266],[144.149934,-38.332777],[144.153397,-38.33363],[144.156481,-38.335379],[144.158815,-38.336133],[144.161456,-38.338284],[144.161635,-38.340433],[144.16537,-38.342721],[144.166709,-38.336515],[144.184747,-38.338788],[144.194095,-38.33972],[144.203102,-38.34093],[144.202358,-38.345385],[144.200479,-38.348992],[144.198989,-38.351433],[144.196061,-38.359567],[144.196539,-38.360263],[144.20545,-38.369923],[144.205269,-38.372635],[144.204071,-38.380812],[144.205459,-38.381098],[144.208135,-38.37971],[144.228128,-38.372656],[144.230216,-38.372425],[144.234254,-38.372947],[144.229339,-38.398384],[144.200022,-38.406675],[144.194617,-38.410043],[144.192903,-38.414663],[144.188193,-38.414244],[144.18288,-38.416861],[144.180115,-38.419565],[144.179072,-38.425193],[144.18073,-38.427891],[144.184016,-38.428699],[144.147794,-38.430383],[144.13262617981428,-38.435197108691796],[144.1418536103957,-38.44584273450938],[144.15500526101073,-38.456261010977194],[144.16619565272907,-38.46213315817505],[144.17603196650646,-38.470898551506004],[144.1905205025221,-38.47958205572524],[144.20637641254615,-38.48540537425612],[144.2230411752381,-38.488163381838305],[144.2399277775799,-38.487758928192214],[144.2646247775799,-38.48483292819221],[144.2820698933804,-38.48098051646167],[144.29841035908007,-38.47375816766416],[144.3130022934727,-38.4634504718928],[144.32527071463986,-38.45046359453527],[144.32623406069902,-38.44892061667383],[144.33428240579428,-38.44376116920685],[144.3404704057943,-38.439015169206854],[144.3500123423989,-38.42983840435833],[144.3522414302141,-38.4291871936436],[144.3675959600606,-38.421261182794865],[144.37094521050136,-38.41861417999587],[144.3743250362814,-38.41700257150575],[144.38904341527575,-38.405793400676096],[144.3964131104508,-38.39728835258437],[144.39819272410426,-38.39672155435075],[144.41166817797352,-38.39119270713422],[144.4240753038139,-38.38356255399635],[144.4255571816357,-38.382476704371186],[144.428208829425,-38.381851914257076],[144.43862074492566,-38.37679768450655],[144.44467717554855,-38.37517842673465],[144.44748321842957,-38.373827113707385],[144.4869677427759,-38.379557040624974],[144.50597593932628,-38.38028419719087],[144.52471240099433,-38.37700009960855],[144.54234013928928,-38.36985145390651],[144.5441761392893,-38.36886945390651],[144.5491822287554,-38.36553984482068],[144.58538478569557,-38.37762325097289],[144.60317422380493,-38.381614108803625],[144.62140294238927,-38.3819379501919],[144.63932290898043,-38.37858148600431],[144.6561987610363,-38.371682451879195],[144.6689724289289,-38.363111254621664],[144.6801857752732,-38.36156723985078],[144.69586766563654,-38.35635829568137],[144.71033288908743,-38.34837004836148],[144.71642189888473,-38.34336069243515],[144.7173674724296,-38.34274963313034],[144.690343,-38.328856],[144.688186,-38.32557],[144.684739,-38.324815],[144.678128,-38.319735],[144.674759,-38.319897],[144.673386,-38.317168],[144.669801,-38.316606],[144.666036,-38.312161],[144.66211,-38.311805],[144.661932,-38.310258],[144.651908,-38.304077],[144.651537,-38.301779],[144.652968,-38.301587],[144.65523,-38.30516],[144.666925,-38.308117],[144.675802,-38.305586],[144.681755,-38.305611],[144.70485,-38.315237],[144.707343,-38.317795],[144.71559,-38.318813],[144.71891,-38.317751],[144.723124,-38.320614],[144.739005,-38.32461],[144.73933742319838,-38.327295163774835],[144.74891687326016,-38.322273455289626],[144.7650051091947,-38.308120805670335],[144.7692031091947,-38.30342980567033],[144.77945635030787,-38.28947411098035],[144.78684695828687,-38.273813035624364],[144.79110130694113,-38.25702640745987],[144.792061885384,-38.23973572625119],[144.79175101093955,-38.23748436780733],[144.7930849244268,-38.23431762043232],[144.7970518666645,-38.22004280311701],[144.80095738029658,-38.21180281846916],[144.80683546918968,-38.19550922770764],[144.80948337029744,-38.17839135258651],[144.8088030024113,-38.16108325828128],[144.8087105465531,-38.16069200123858],[144.81018876598804,-38.14805296903933],[144.8086567280576,-38.13003560119955],[144.80355395755933,-38.11268813979056],[144.79508643801995,-38.096710849753],[144.7835959777841,-38.08274868632243],[144.78189172997315,-38.08127593678923],[144.76956600081974,-38.0661283490529],[144.75426301963648,-38.05399608709156],[144.75096889715675,-38.052392951115074],[144.74375364373162,-38.04631965021211],[144.73099462254558,-38.03876279528224],[144.71716790850675,-38.03340362958733],[144.69091090850677,-38.02564562958733],[144.675975192197,-38.022579398877255],[144.66040722558742,-38.02209549110815],[144.656475195163,-38.020953920193534],[144.6382512871268,-38.01764753349704],[144.61973645798176,-38.01814161732598],[144.60171482906756,-38.022415246741176],[144.58494963420588,-38.030287429307],[144.57649950291957,-38.03664688997299],[144.55229623210974,-38.04952784934665],[144.5401873744432,-38.057272390181055],[144.52418129835542,-38.06941382013093],[144.5185625263819,-38.070400238877006],[144.51341112626173,-38.07050568207256],[144.511644,-38.073191],[144.510226,-38.087795],[144.508247,-38.088432],[144.506846,-38.091508],[144.503729,-38.088496],[144.49448,-38.085023],[144.487723,-38.078414],[144.485583,-38.0782],[144.485169,-38.079607],[144.483014,-38.077922],[144.482994,-38.079897],[144.478739,-38.076697],[144.470912,-38.083542],[144.46689,-38.081151],[144.465995,-38.077184],[144.458759,-38.077241],[144.45675,-38.08029],[144.457831,-38.082285],[144.453894,-38.081928],[144.450675,-38.083992],[144.444942,-38.091816],[144.441475,-38.08959],[144.443489,-38.088479],[144.443259,-38.086266],[144.41352,-38.084488],[144.406845,-38.081434],[144.397943,-38.073816],[144.388751,-38.07713],[144.383197,-38.084083],[144.384524,-38.085418],[144.382571,-38.086498],[144.383237,-38.092254],[144.381575,-38.097352],[144.376319,-38.100997],[144.371958,-38.101203],[144.367352,-38.104775],[144.361606,-38.105136],[144.36097,-38.106703],[144.365191,-38.107949],[144.366582,-38.109905],[144.360078,-38.115209],[144.359908,-38.122211],[144.358296,-38.122865],[144.355617,-38.137201],[144.360416,-38.142016],[144.368573,-38.146523],[144.373929,-38.146697],[144.3848,-38.143255],[144.388768,-38.148685],[144.394561,-38.149598],[144.40264,-38.155458],[144.40667,-38.154661],[144.406714,-38.156343],[144.40535,-38.157658],[144.404662,-38.161954],[144.401999,-38.17611],[144.399218,-38.191342],[144.395024,-38.214568],[144.393431,-38.212112],[144.391775,-38.210115],[144.389162,-38.209352],[144.387942,-38.208718],[144.386291,-38.205982],[144.385027,-38.201228],[144.384444,-38.197944],[144.383762,-38.196315],[144.382803,-38.195048],[144.380248,-38.193155],[144.378551,-38.192618],[144.376434,-38.192638],[144.373789,-38.193587],[144.372193,-38.193666],[144.36854,-38.192944],[144.366693,-38.191684],[144.365478,-38.190041],[144.364316,-38.186043],[144.362825,-38.185474],[144.36069,-38.186106],[144.359155,-38.185428],[144.358381,-38.184479],[144.356773,-38.185828],[144.353941,-38.186194],[144.352124,-38.18764],[144.352682,-38.18904],[144.351212,-38.188932],[144.350036,-38.189342],[144.349389,-38.19021],[144.349136,-38.192768],[144.345788,-38.191851],[144.343165,-38.190176],[144.341349,-38.191733],[144.340737,-38.191186],[144.338328,-38.190598],[144.33691,-38.191829],[144.334972,-38.191398],[144.332988,-38.192358],[144.331619,-38.192103],[144.32949,-38.19238],[144.329554,-38.193254],[144.325506,-38.196181],[144.320571,-38.195553],[144.313683,-38.199796],[144.312685,-38.196387],[144.311045,-38.192244],[144.309094,-38.18883],[144.308768,-38.189107],[144.306418,-38.18628],[144.303567,-38.183641],[144.296962,-38.179006],[144.295129,-38.177305],[144.293864,-38.175718],[144.293127,-38.173977],[144.292782,-38.171805],[144.290649,-38.171742],[144.293263,-38.158268],[144.293676,-38.156445],[144.291012,-38.157029],[144.289434,-38.156813],[144.288778,-38.156012],[144.288542,-38.150842],[144.2875,-38.149276],[144.288486,-38.147764],[144.285397,-38.145908],[144.283677,-38.145456],[144.282605,-38.146512],[144.280614,-38.145683],[144.278486,-38.145645],[144.276949,-38.146052],[144.275868,-38.145295],[144.273907,-38.145902],[144.273182,-38.146892],[144.270745,-38.145802],[144.269265,-38.146364],[144.268519,-38.14611],[144.266339,-38.144269],[144.264156,-38.142874],[144.262376,-38.141269],[144.263261,-38.140784],[144.265116,-38.131467],[144.261105,-38.130341],[144.261597,-38.128101],[144.268149,-38.092832],[144.27258,-38.093342],[144.271861,-38.091798],[144.274074,-38.088005],[144.27785,-38.089194],[144.279463,-38.088455],[144.280041,-38.087379],[144.278629,-38.086921],[144.280458,-38.085046],[144.279548,-38.083989],[144.280928,-38.083503],[144.282361,-38.0836],[144.283996,-38.083189],[144.284504,-38.0814],[144.283872,-38.080355],[144.28602,-38.079431],[144.285941,-38.077968],[144.283984,-38.077486],[144.284134,-38.075093],[144.283047,-38.075435],[144.281298,-38.073038],[144.279166,-38.072533],[144.278359,-38.070522],[144.276671,-38.069993],[144.276861,-38.068204],[144.275641,-38.067276],[144.274873,-38.067594],[144.272878,-38.065738],[144.271456,-38.066053],[144.270452,-38.067592],[144.265505,-38.067343],[144.265283,-38.066492],[144.262072,-38.066644],[144.261147,-38.065938],[144.259637,-38.065755],[144.259281,-38.064659],[144.259305,-38.062632],[144.259718,-38.061877],[144.258315,-38.059803],[144.258671,-38.058828],[144.255482,-38.058692],[144.254554,-38.057644],[144.253581,-38.058172],[144.253175,-38.05937],[144.251773,-38.05897],[144.250622,-38.059972],[144.248616,-38.059661],[144.248474,-38.057708],[144.247577,-38.056644],[144.245784,-38.056473],[144.245208,-38.055527],[144.243777,-38.056502],[144.242877,-38.057764],[144.241268,-38.057951],[144.240985,-38.057204],[144.239095,-38.056907],[144.238358,-38.054921],[144.239562,-38.054666],[144.240266,-38.055447],[144.242355,-38.05477],[144.24206,-38.053681],[144.240107,-38.053906],[144.24037,-38.051704],[144.239394,-38.051009],[144.237462,-38.051135],[144.235661,-38.049556],[144.236993,-38.048424],[144.236694,-38.04682],[144.235156,-38.046437],[144.23434,-38.044996],[144.2365,-38.043456],[144.235678,-38.042713],[144.234091,-38.043617],[144.233204,-38.042133],[144.234293,-38.042055],[144.234863,-38.041267],[144.233004,-38.040798],[144.230215,-38.039397],[144.228798,-38.039075],[144.226897,-38.039293],[144.225904,-38.041506],[144.224868,-38.042697],[144.223652,-38.042871],[144.222844,-38.042144],[144.223426,-38.040066],[144.220305,-38.040836],[144.219685,-38.041536],[144.217843,-38.041195],[144.216388,-38.040021],[144.215909,-38.037522],[144.216381,-38.036025],[144.215044,-38.035146],[144.215041,-38.034013],[144.21372,-38.033194],[144.212919,-38.033851],[144.211345,-38.032581],[144.212126,-38.031051],[144.214926,-38.028546],[144.213454,-38.02713],[144.211136,-38.026572],[144.211692,-38.025746],[144.210777,-38.024359],[144.208937,-38.023158],[144.207692,-38.022996],[144.206441,-38.023546],[144.20383,-38.022939],[144.203635,-38.022122],[144.201201,-38.019897],[144.199554,-38.019162],[144.196524,-38.019969],[144.19355,-38.019828],[144.192787,-38.020439],[144.18973,-38.018894],[144.193314,-37.99977],[144.196968,-37.998819],[144.197373,-37.996669],[144.193993,-37.996224],[144.19534,-37.98888],[144.177189,-37.986705],[144.177218,-37.985877],[144.178384,-37.979633],[144.165986,-37.978118],[144.164812,-37.977122],[144.163507,-37.976627],[144.162573,-37.978704],[144.162633,-37.979478],[144.163788,-37.980118],[144.162655,-37.981721],[144.163408,-37.983084],[144.161925,-37.982928],[144.160148,-37.982173],[144.158243,-37.982393],[144.15862,-37.984822],[144.15996,-37.985069],[144.144124,-37.9894],[144.145534,-37.99119],[144.140245,-37.993282],[144.139975,-37.995635],[144.137713,-37.996598],[144.134727,-37.999032],[144.134822,-38.002109],[144.134143,-38.002604],[144.127109,-38.001825],[144.113334,-38.000157],[144.110988,-38.012749],[144.099707,-38.011471],[144.097165,-38.009768],[144.093845,-38.026838],[144.092621,-38.033612],[144.100989,-38.035959],[144.095631,-38.064297],[144.093779,-38.065483],[144.086994,-38.063761],[144.087929,-38.058763],[144.080586,-38.059517],[144.078337,-38.057646],[144.06298,-38.05932],[144.054581,-38.061741],[144.048655,-38.054606],[144.046016,-38.051564],[144.015751,-38.048219],[144.017141,-38.052675],[144.008768,-38.054009],[144.005708,-38.054705],[144.001121,-38.054906],[144.000469,-38.054012],[144.001153,-38.052092],[144.000999,-38.051146],[143.999096,-38.051798],[143.997508,-38.049233],[143.996527,-38.048835],[143.996451,-38.047761],[143.994924,-38.046707],[143.992983,-38.048485],[143.992017,-38.048242],[143.99055,-38.048647],[143.989729,-38.048071],[143.987868,-38.049108],[143.986452,-38.047842],[143.984585,-38.04677],[143.982811,-38.046261],[143.977294,-38.045739],[143.977407,-38.047036],[143.978871,-38.0484],[143.965581,-38.04702],[143.96532,-38.04694],[143.918973,-38.041879],[143.919609,-38.037673],[143.899432,-38.035306],[143.884867,-38.033522],[143.856907,-38.030336],[143.857635,-38.050044],[143.856795,-38.052992],[143.857904,-38.056633],[143.858,-38.05978],[143.823154,-38.055792]]]},"bbox":[143.809865,-38.488163381838305,144.81018876598804,-37.976627]}]}