{"type":"FeatureCollection","features":[
{"properties":{"electorateShortName":"corio","electorateName":"Corio","area":773.26,"state":null},"type":"Feature","geometry":{"type":"Polygon","coordinates":[[[144.40667,-38.154661],[144.40264,-38.155458],[144.394561,-38.149598],[144.388768,-38.148685],[144.3848,-38.143255],[144.373929,-38.146697],[144.368573,-38.146523],[144.360416,-38.142016],[144.355617,-38.137201],[144.358296,-38.122865],[144.359908,-38.122211],[144.360078,-38.115209],[144.366582,-38.109905],[144.365191,-38.107949],[144.36097,-38.106703],[144.361606,-38.105136],[144.367352,-38.104775],[144.371958,-38.101203],[144.376319,-38.100997],[144.381575,-38.097352],[144.383237,-38.092254],[144.382571,-38.086498],[144.383197,-38.084083],[144.388751,-38.07713],[144.397943,-38.073816],[144.406845,-38.081434],[144.41352,-38.084488],[144.443259,-38.086266],[144.443489,-38.088479],[144.441475,-38.08959],[144.444942,-38.091816],[144.450675,-38.083992],[144.453894,-38.081928],[144.457831,-38.082285],[144.45675,-38.08029],[144.458759,-38.077241],[144.465995,-38.077184],[144.46689,-38.081151],[144.470912,-38.083542],[144.478739,-38.076697],[144.482994,-38.079897],[144.487723,-38.078414],[144.49448,-38.085023],[144.503729,-38.088496],[144.506846,-38.091508],[144.508247,-38.088432],[144.510226,-38.087795],[144.511644,-38.073191],[144.514119,-38.06943],[144.515631,-38.061008],[144.513995,-38.06129],[144.512013,-38.059008],[144.513909,-38.054868],[144.512443,-38.051807],[144.515169,-38.046055],[144.519994,-38.044119],[144.534374,-38.042974],[144.539349,-38.039441],[144.53429,-38.044514],[144.517194,-38.04848],[144.519247,-38.049097],[144.533681,-38.045005],[144.538912,-38.040196],[144.550731,-38.036062],[144.558663,-38.037541],[144.558764,-38.035132],[144.562033,-38.032934],[144.562933,-38.029123],[144.566775,-38.02609],[144.567493,-38.022783],[144.575427,-38.020483],[144.576688,-38.016421],[144.580975,-38.011522],[144.591578,-38.004446],[144.58348,-38.002568],[144.580212,-38.002477],[144.577308,-38.001598],[144.572046,-37.997893],[144.573373,-37.994329],[144.566652,-37.986267],[144.563759,-37.986549],[144.560842,-37.984712],[144.554588,-37.984748],[144.552201,-37.982352],[144.550989,-37.979515],[144.549617,-37.978813],[144.550488,-37.975864],[144.547735,-37.973537],[144.541643,-37.971302],[144.536462,-37.97248],[144.533633,-37.971246],[144.531527,-37.971312],[144.526477,-37.973993],[144.523961,-37.973407],[144.522712,-37.976677],[144.523235,-37.978496],[144.522121,-37.980452],[144.517519,-37.981034],[144.516108,-37.9795],[144.513332,-37.97956],[144.511676,-37.977792],[144.508389,-37.977349],[144.508481,-37.974609],[144.505966,-37.97389],[144.50187,-37.975722],[144.497335,-37.973979],[144.495417,-37.973762],[144.494621,-37.970522],[144.495337,-37.965498],[144.496435,-37.964359],[144.493946,-37.96241],[144.488646,-37.960451],[144.488264,-37.957143],[144.48438,-37.953323],[144.479886,-37.949947],[144.480038,-37.949139],[144.477137,-37.945976],[144.479611,-37.94438],[144.479619,-37.94235],[144.476925,-37.941966],[144.476667,-37.940106],[144.478848,-37.93883],[144.476778,-37.936548],[144.474606,-37.936542],[144.474146,-37.934156],[144.476819,-37.933099],[144.477168,-37.931455],[144.475576,-37.927824],[144.478995,-37.927597],[144.482503,-37.92273],[144.480889,-37.921429],[144.477166,-37.922274],[144.476717,-37.920081],[144.477483,-37.918022],[144.476418,-37.916456],[144.478509,-37.914865],[144.478112,-37.910793],[144.481416,-37.909062],[144.484671,-37.909155],[144.484078,-37.902448],[144.481072,-37.899385],[144.481362,-37.896994],[144.479552,-37.895035],[144.480797,-37.890329],[144.479984,-37.888794],[144.474615,-37.886681],[144.47314,-37.888121],[144.471497,-37.886701],[144.472887,-37.88319],[144.469323,-37.884197],[144.463522,-37.877052],[144.462941,-37.875132],[144.460571,-37.873695],[144.458322,-37.873965],[144.456039,-37.871973],[144.456188,-37.870913],[144.453032,-37.867078],[144.447337,-37.86768],[144.44719,-37.864929],[144.444061,-37.864034],[144.442171,-37.863238],[144.441879,-37.860515],[144.433797,-37.854594],[144.430411,-37.858093],[144.428913,-37.856092],[144.428014,-37.851949],[144.425437,-37.850784],[144.425021,-37.849372],[144.422676,-37.8479],[144.421646,-37.846218],[144.421999,-37.842551],[144.421886,-37.836896],[144.423149,-37.835885],[144.423,-37.833904],[144.419886,-37.832134],[144.419989,-37.829384],[144.417972,-37.827045],[144.420435,-37.825811],[144.419823,-37.823531],[144.420317,-37.820586],[144.416909,-37.819239],[144.414797,-37.816425],[144.416826,-37.814754],[144.417018,-37.812686],[144.416092,-37.809763],[144.413189,-37.809192],[144.411519,-37.809932],[144.408986,-37.808336],[144.407834,-37.809191],[144.40545,-37.807265],[144.404504,-37.805453],[144.406365,-37.804583],[144.405934,-37.801384],[144.403365,-37.804891],[144.399119,-37.815232],[144.361988,-37.81083],[144.361372,-37.812449],[144.358744,-37.826038],[144.357864,-37.82798],[144.354938,-37.843099],[144.352354,-37.843506],[144.346698,-37.841996],[144.345273,-37.844088],[144.34232,-37.843807],[144.339256,-37.844919],[144.337577,-37.843139],[144.330448,-37.846289],[144.327127,-37.843912],[144.322734,-37.844655],[144.321287,-37.841427],[144.316383,-37.839842],[144.314843,-37.837056],[144.312205,-37.836392],[144.30521,-37.83657],[144.296968,-37.828409],[144.294405,-37.82811],[144.296016,-37.819565],[144.291025,-37.8194],[144.274474,-37.817522],[144.265158,-37.815968],[144.26361,-37.811659],[144.248103,-37.809664],[144.247058,-37.81259],[144.238087,-37.811472],[144.238436,-37.809492],[144.23349,-37.809063],[144.232501,-37.811291],[144.222446,-37.810201],[144.220707,-37.814079],[144.217498,-37.81904],[144.215974,-37.820237],[144.211288,-37.822188],[144.210676,-37.824994],[144.218586,-37.830029],[144.22492,-37.832368],[144.228973,-37.832837],[144.231391,-37.83611],[144.232252,-37.845161],[144.23381,-37.848391],[144.233463,-37.856598],[144.232553,-37.860951],[144.234211,-37.866659],[144.236521,-37.869941],[144.244126,-37.871819],[144.24846,-37.873783],[144.243105,-37.874831],[144.240758,-37.876545],[144.233319,-37.885532],[144.232139,-37.887823],[144.228156,-37.890491],[144.223793,-37.897328],[144.22124,-37.898337],[144.217677,-37.898755],[144.217029,-37.899877],[144.213431,-37.901447],[144.212359,-37.907053],[144.212176,-37.910623],[144.208101,-37.912827],[144.206788,-37.91626],[144.20252,-37.938258],[144.236834,-37.942383],[144.235012,-37.944091],[144.234803,-37.94746],[144.237332,-37.949154],[144.236087,-37.950555],[144.235125,-37.954313],[144.236519,-37.95644],[144.23574,-37.957741],[144.23632,-37.966424],[144.240317,-37.970304],[144.24152,-37.974014],[144.239819,-37.976575],[144.241828,-37.978241],[144.240143,-37.983346],[144.243546,-37.983605],[144.245098,-37.986044],[144.247361,-37.986936],[144.245376,-37.989046],[144.246967,-37.989888],[144.245441,-37.993281],[144.24682,-37.997061],[144.242878,-37.99804],[144.24358,-37.999623],[144.242749,-38.004453],[144.24074,-38.00806],[144.242814,-38.009802],[144.242987,-38.011738],[144.244955,-38.011932],[144.246857,-38.016265],[144.247082,-38.018476],[144.249912,-38.019363],[144.251748,-38.020956],[144.249687,-38.025285],[144.251108,-38.028419],[144.251436,-38.031667],[144.253897,-38.033834],[144.255579,-38.033435],[144.258353,-38.035319],[144.25851,-38.037825],[144.25667,-38.039251],[144.260491,-38.040908],[144.260594,-38.043946],[144.262737,-38.04549],[144.26103,-38.0476],[144.263098,-38.050387],[144.262632,-38.055398],[144.25957,-38.059529],[144.258315,-38.059803],[144.259718,-38.061877],[144.259637,-38.065755],[144.265505,-38.067343],[144.270452,-38.067592],[144.272878,-38.065738],[144.274873,-38.067594],[144.276861,-38.068204],[144.279166,-38.072533],[144.281298,-38.073038],[144.283984,-38.077486],[144.28602,-38.079431],[144.283872,-38.080355],[144.283996,-38.083189],[144.280928,-38.083503],[144.278629,-38.086921],[144.27785,-38.089194],[144.274074,-38.088005],[144.271861,-38.091798],[144.27258,-38.093342],[144.268149,-38.092832],[144.261597,-38.128101],[144.261105,-38.130341],[144.265116,-38.131467],[144.263261,-38.140784],[144.262376,-38.141269],[144.268519,-38.14611],[144.270745,-38.145802],[144.273182,-38.146892],[144.275868,-38.145295],[144.276949,-38.146052],[144.280614,-38.145683],[144.282605,-38.146512],[144.285397,-38.145908],[144.288486,-38.147764],[144.2875,-38.149276],[144.288542,-38.150842],[144.288778,-38.156012],[144.291012,-38.157029],[144.293676,-38.156445],[144.290649,-38.171742],[144.292782,-38.171805],[144.293864,-38.175718],[144.296962,-38.179006],[144.303567,-38.183641],[144.306418,-38.18628],[144.311045,-38.192244],[144.313683,-38.199796],[144.320571,-38.195553],[144.325506,-38.196181],[144.329554,-38.193254],[144.334972,-38.191398],[144.33691,-38.191829],[144.338328,-38.190598],[144.341349,-38.191733],[144.343165,-38.190176],[144.345788,-38.191851],[144.349136,-38.192768],[144.350036,-38.189342],[144.353941,-38.186194],[144.356773,-38.185828],[144.358381,-38.184479],[144.36069,-38.186106],[144.364316,-38.186043],[144.365478,-38.190041],[144.36854,-38.192944],[144.372193,-38.193666],[144.376434,-38.192638],[144.380248,-38.193155],[144.382803,-38.195048],[144.384444,-38.197944],[144.386291,-38.205982],[144.387942,-38.208718],[144.391775,-38.210115],[144.395024,-38.214568],[144.40535,-38.157658],[144.40667,-38.154661]]]},"bbox":[144.20252,-38.214568,144.591578,-37.801384]}]}