{"type":"FeatureCollection","features":[
{"properties":{"electorateShortName":"cowan","electorateName":"Cowan","area":94.61,"state":null},"type":"Feature","geometry":{"type":"MultiPolygon","coordinates":[[[[115.955944,-31.887658],[115.955819,-31.869898],[115.952647,-31.860522],[115.924876,-31.862226],[115.917501,-31.866518],[115.917304,-31.841348],[115.905538,-31.836847],[115.879047,-31.821094],[115.820852,-31.820103],[115.784171,-31.82341],[115.795193,-31.841429],[115.800987,-31.858072],[115.801175,-31.86798],[115.802373,-31.891239],[115.820655,-31.901762],[115.828265,-31.896573],[115.828304,-31.888892],[115.877537,-31.890496],[115.888222,-31.887581],[115.931832,-31.889001],[115.955944,-31.887658]]],[[[115.727398,-31.759632],[115.7174863305401,-31.75580386018506],[115.70670802489016,-31.769864145118106],[115.69889282206643,-31.785763393210562],[115.69434355006823,-31.80288553120113],[115.69323648671829,-31.82056710058343],[115.69716865392647,-31.846783541903925],[115.71049060149045,-31.875649277096013],[115.7130228996011,-31.904457992227428],[115.71742170286274,-31.92098010516631],[115.72135866737248,-31.930439483529142],[115.72315535998524,-31.933986178954214],[115.72830094974212,-31.942568401015013],[115.72878494974212,-31.943282401015015],[115.73230053280649,-31.94811500985919],[115.73940008277407,-31.95628575154065],[115.74437189640287,-31.961063392614093],[115.74812565422897,-31.964256064357123],[115.74854065422898,-31.96459006435712],[115.75431563882002,-31.968843489759404],[115.755236,-31.902835],[115.750917,-31.876067],[115.751811,-31.873396],[115.751671,-31.848348],[115.750257,-31.83981],[115.727443,-31.806066],[115.733117,-31.78543],[115.729467,-31.7652],[115.727398,-31.759632]]]]},"bbox":[115.69323648671829,-31.968843489759404,115.955944,-31.75580386018506]}]}