{"type":"FeatureCollection","features":[
{"properties":{"electorateShortName":"cowper","electorateName":"Cowper","area":7288.1,"state":null},"type":"Feature","geometry":{"type":"Polygon","coordinates":[[[152.349587,-31.117004],[152.385897,-31.166653],[152.455832,-31.155831],[152.539697,-31.162886],[152.597606,-31.123699],[152.64048,-31.14974],[152.706943,-31.151512],[152.679693,-31.227203],[152.736674,-31.340141],[152.785939,-31.343094],[152.824844,-31.413747],[152.81498,-31.476781],[152.915196,-31.492814],[152.84532692977479,-31.573271875028873],[152.9314844218849,-31.581327769056003],[152.96259644986364,-31.569320191597313],[152.97595020139235,-31.559213751604798],[152.98010054534552,-31.555416285104027],[152.9930800903177,-31.547220929104103],[153.02334716607183,-31.50400165474551],[153.01427211311966,-31.409017800402548],[153.06638046976363,-31.316739852444222],[153.0738075201467,-31.183920025432855],[153.1338591774662,-31.1232967377639],[153.15634894321533,-31.049895083534526],[153.1414990714044,-30.9983059734123],[153.1774986193648,-30.94540476674883],[153.15915214511574,-30.84239845960212],[153.0927555450887,-30.78916277830022],[153.08342919966285,-30.712212919632304],[153.10848932642756,-30.66584701754086],[153.10417513322315,-30.596904281217356],[153.12026759856033,-30.519237607989783],[153.15082014099042,-30.484892456873173],[153.192954918278,-30.391663262411736],[153.24223110174984,-30.32190122789952],[153.24398188106747,-30.304842578633263],[153.2424653734997,-30.287761508766152],[153.23710647905327,-30.26991627238354],[153.23844510160416,-30.226956680489042],[153.232349342164,-30.20320084789413],[153.19844912080353,-30.159693507737426],[153.1494270451918,-30.24079020308918],[153.1494270451918,-30.240790203089176],[153.148938,-30.240568],[153.092125,-30.241608],[153.063319,-30.287125],[152.952152,-30.215507],[152.82954,-30.222078],[152.803453,-30.189567],[152.692987,-30.189015],[152.655376,-30.255316],[152.559647,-30.243719],[152.547091,-30.28865],[152.474912,-30.356637],[152.478585,-30.396993],[152.428078,-30.418897],[152.389645,-30.453052],[152.386854,-30.528965],[152.316055,-30.602971],[152.369291,-30.658905],[152.375309,-30.745347],[152.315673,-30.793799],[152.28951,-30.844152],[152.29117,-30.975444],[152.269825,-30.999147],[152.34517,-31.050618],[152.349587,-31.117004]]]},"bbox":[152.269825,-31.581327769056003,153.24398188106747,-30.159693507737426]}]}