{"type":"FeatureCollection","features":[
{"properties":{"electorateShortName":"curtin","electorateName":"Curtin","area":97.95,"state":null},"type":"Feature","geometry":{"type":"Polygon","coordinates":[[[115.838086,-31.991159],[115.827252,-31.972849],[115.818139,-31.973694],[115.819685,-31.962606],[115.843989,-31.941421],[115.824917,-31.920735],[115.820655,-31.901762],[115.802373,-31.891239],[115.801175,-31.86798],[115.79075,-31.86867],[115.790701,-31.859448],[115.769118,-31.858308],[115.765525,-31.873991],[115.751811,-31.873396],[115.751671,-31.848348],[115.750257,-31.83981],[115.727443,-31.806066],[115.733117,-31.78543],[115.73157815211403,-31.776900988292308],[115.71230159554398,-31.78850903020324],[115.70152185802962,-31.799098539195],[115.6986029554249,-31.800808783546312],[115.68493539987841,-31.81316598996865],[115.67407086183832,-31.82804767127003],[115.66557071651276,-31.84750107808393],[115.66121579028808,-31.868739450872322],[115.662066124057,-31.890403033069237],[115.66513536233143,-31.909425346134725],[115.66436033826201,-31.965010228963955],[115.66148106281382,-31.980668364473786],[115.65999830502406,-31.99646033245428],[115.66119569470501,-32.0108800559025],[115.66092796473369,-32.01840137430625],[115.6619663845159,-32.03560190515806],[115.66626394407857,-32.05228925243178],[115.67366309988748,-32.067851677388816],[115.68389260749818,-32.08171867963411],[115.69657746506168,-32.0933819109969],[115.71125266045607,-32.102413810983315],[115.72053330478528,-32.105906502839815],[115.72448645102487,-32.108087476887405],[115.74058985159151,-32.113346291310656],[115.76201173424427,-32.11547171796007],[115.762165,-32.106388],[115.758589,-32.095537],[115.750337,-32.082988],[115.75073,-32.071679],[115.738303,-32.062867],[115.740672,-32.056798],[115.724328,-32.05389],[115.735008,-32.041053],[115.741786,-32.03951],[115.749752,-32.026033],[115.750871,-32.021603],[115.760353,-32.025543],[115.775886,-32.026464],[115.786641,-32.007172],[115.817888,-32.014201],[115.82296,-32.001451],[115.838086,-31.991159]]]},"bbox":[115.65999830502406,-32.11547171796007,115.843989,-31.776900988292308]}]}