{"type":"FeatureCollection","features":[
{"properties":{"electorateShortName":"dickson","electorateName":"Dickson","area":724.44,"state":null},"type":"Feature","geometry":{"type":"MultiPolygon","coordinates":[[[[152.999425,-27.357035],[152.98074,-27.349829],[152.981309,-27.342427],[152.994092,-27.33396],[153.002537,-27.316819],[152.996983,-27.302554],[153.007163,-27.301165],[153.019237,-27.291221],[153.018296,-27.249001],[153.009433,-27.242859],[152.992652,-27.240485],[152.992007,-27.245721],[152.975439,-27.243411],[152.976753,-27.233465],[152.962625,-27.204719],[152.944639,-27.204148],[152.945766,-27.197649],[152.887349,-27.189182],[152.886556,-27.193335],[152.862381,-27.189422],[152.863477,-27.182449],[152.853701,-27.180277],[152.844535,-27.182806],[152.847117,-27.166639],[152.855088,-27.169994],[152.857616,-27.154395],[152.84831,-27.15438],[152.851059,-27.139664],[152.828644,-27.130746],[152.828929,-27.115855],[152.82021,-27.110088],[152.807294,-27.108099],[152.81431,-27.089853],[152.805697,-27.088822],[152.799937,-27.0965],[152.783544,-27.086482],[152.780251,-27.104155],[152.766858,-27.102155],[152.765358,-27.110865],[152.733514,-27.107431],[152.730528,-27.125867],[152.739334,-27.150934],[152.729063,-27.163772],[152.733396,-27.170662],[152.71227,-27.18874],[152.703542,-27.199205],[152.704162,-27.208798],[152.700217,-27.230227],[152.681754,-27.254029],[152.683571,-27.271608],[152.704612,-27.276974],[152.707174,-27.292227],[152.735071,-27.296989],[152.739271,-27.293707],[152.752239,-27.295442],[152.755955,-27.309791],[152.748503,-27.318755],[152.748845,-27.332301],[152.759483,-27.33027],[152.76759,-27.334987],[152.771761,-27.35005],[152.762898,-27.354608],[152.762318,-27.371757],[152.775638,-27.389108],[152.775615,-27.401686],[152.798652,-27.405106],[152.802716,-27.399937],[152.814155,-27.402116],[152.820849,-27.410698],[152.836792,-27.418856],[152.861148,-27.422375],[152.872683,-27.413756],[152.897229,-27.41728],[152.899311,-27.403572],[152.91504,-27.40572],[152.916946,-27.394183],[152.928228,-27.39441],[152.944568,-27.406007],[152.95258,-27.405869],[152.965853,-27.396862],[152.976999,-27.400782],[152.975285,-27.392036],[152.983895,-27.384699],[152.986275,-27.375665],[152.997816,-27.3682],[152.999425,-27.357035]]],[[[153.093196,-27.204013],[153.09374991713096,-27.19994280609122],[153.08317919375784,-27.18662976329764],[153.06889919998116,-27.174346058947147],[153.04659386851662,-27.160856363539068],[153.039471,-27.159209],[153.035202,-27.163609],[153.029516,-27.181069],[153.033037,-27.190912],[153.038025,-27.196934],[153.048153,-27.194122],[153.070957,-27.201068],[153.093196,-27.204013]]],[[[153.093608,-27.338916],[153.09741203950978,-27.335815430119098],[153.10447464579912,-27.32010947068689],[153.10959913592802,-27.298883172597932],[153.1105899741344,-27.285496766509546],[153.1105889741344,-27.284177766509547],[153.11054906156946,-27.281502387887905],[153.11049708628465,-27.27991587654069],[153.10984586270618,-27.27212696533717],[153.108013,-27.261472],[153.103742,-27.263441],[153.093147,-27.255971],[153.078751,-27.263167],[153.069523,-27.276801],[153.064066,-27.283548],[153.064951,-27.301376],[153.071824,-27.316929],[153.075354,-27.320609],[153.087776,-27.326976],[153.087822,-27.329247],[153.084035,-27.33127],[153.093608,-27.338916]]],[[[153.003899,-27.47611],[153.003037,-27.476914],[153.006586,-27.473604],[153.003899,-27.47611]]]]},"bbox":[152.681754,-27.476914,153.1105899741344,-27.086482]}]}