{"type":"FeatureCollection","features":[
{"properties":{"electorateShortName":"dobell","electorateName":"Dobell","area":720,"state":null},"type":"Feature","geometry":{"type":"Polygon","coordinates":[[[151.449605,-33.429352],[151.468196,-33.410269],[151.4764,-33.40752],[151.479228,-33.402519],[151.485003,-33.398629],[151.487178,-33.390914],[151.483409,-33.384339],[151.489404,-33.371634],[151.499447,-33.364883],[151.502582,-33.354171],[151.502814,-33.344011],[151.509143,-33.331355],[151.527994,-33.312872],[151.55034,-33.299767],[151.562559,-33.294352],[151.570336,-33.289529],[151.571714,-33.285655],[151.579025,-33.282227],[151.57654,-33.27939],[151.567509,-33.278539],[151.563591,-33.271727],[151.561813,-33.262433],[151.565085,-33.247326],[151.549461,-33.240454],[151.538012,-33.245949],[151.527986,-33.244476],[151.513245,-33.220786],[151.508896,-33.216175],[151.514821,-33.211567],[151.516367,-33.205833],[151.5227,-33.199574],[151.519071,-33.195038],[151.51218,-33.194307],[151.50294,-33.192448],[151.490526,-33.186818],[151.488004,-33.189099],[151.474832,-33.189586],[151.464382,-33.193886],[151.461136,-33.199749],[151.455115,-33.202843],[151.443243,-33.20103],[151.4447,-33.193356],[151.438643,-33.195382],[151.418526,-33.19214],[151.410957,-33.194141],[151.411069,-33.187461],[151.398625,-33.185747],[151.400568,-33.175853],[151.397477,-33.165259],[151.393007,-33.158897],[151.392312,-33.152037],[151.388489,-33.150296],[151.387441,-33.143349],[151.383068,-33.139816],[151.3837,-33.129183],[151.381047,-33.126862],[151.380152,-33.119225],[151.382327,-33.109643],[151.37894,-33.099711],[151.372522,-33.094448],[151.363189,-33.093981],[151.356018,-33.088134],[151.35748,-33.083085],[151.348037,-33.0761],[151.33887,-33.073234],[151.333025,-33.069337],[151.331542,-33.062234],[151.326263,-33.060143],[151.323272,-33.055273],[151.315283,-33.048252],[151.31077,-33.048127],[151.305915,-33.043917],[151.300625,-33.047559],[151.296928,-33.054257],[151.289266,-33.055201],[151.281592,-33.058352],[151.27775,-33.056723],[151.266703,-33.058556],[151.266181,-33.069001],[151.262408,-33.077517],[151.2644,-33.079602],[151.260164,-33.100473],[151.25077,-33.099827],[151.244454,-33.102881],[151.238143,-33.108688],[151.230745,-33.109931],[151.232215,-33.114063],[151.225718,-33.117494],[151.213652,-33.129335],[151.20488,-33.134654],[151.202626,-33.13886],[151.204188,-33.147347],[151.208787,-33.152269],[151.20323,-33.161335],[151.20214,-33.16857],[151.207084,-33.172822],[151.20922,-33.17913],[151.203362,-33.186523],[151.199234,-33.199734],[151.204118,-33.211376],[151.213221,-33.217578],[151.22353,-33.219062],[151.221683,-33.226976],[151.216675,-33.233363],[151.216733,-33.248361],[151.228891,-33.249994],[151.226105,-33.264112],[151.233442,-33.265118],[151.232467,-33.270269],[151.239042,-33.271337],[151.236333,-33.285381],[151.247133,-33.286869],[151.251492,-33.289008],[151.250464,-33.294355],[151.266561,-33.296632],[151.263872,-33.310595],[151.281261,-33.313005],[151.279948,-33.319933],[151.296322,-33.322193],[151.298491,-33.32784],[151.302527,-33.328444],[151.300129,-33.340321],[151.293104,-33.339319],[151.290931,-33.350176],[151.295728,-33.351467],[151.302593,-33.36238],[151.325034,-33.366797],[151.329939,-33.364503],[151.376638,-33.371292],[151.371765,-33.38088],[151.365867,-33.383223],[151.354362,-33.383311],[151.350671,-33.389574],[151.343542,-33.395501],[151.343612,-33.399409],[151.348346,-33.404232],[151.34508,-33.412419],[151.363073,-33.414984],[151.370613,-33.418764],[151.379307,-33.418728],[151.38581,-33.42299],[151.390708,-33.422519],[151.39507,-33.427578],[151.405028,-33.424945],[151.414406,-33.427199],[151.420909,-33.426961],[151.427531,-33.424141],[151.438677,-33.422679],[151.449605,-33.429352]]]},"bbox":[151.199234,-33.429352,151.579025,-33.043917]}]}