{"type":"FeatureCollection","features":[
{"properties":{"electorateShortName":"dobell","electorateName":"Dobell","area":720,"state":null},"type":"Feature","geometry":{"type":"Polygon","coordinates":[[[151.449605,-33.429352],[151.45963,-33.419528],[151.462406,-33.418854],[151.462956,-33.415253],[151.468196,-33.410269],[151.4764,-33.40752],[151.479228,-33.402519],[151.485003,-33.398629],[151.484475,-33.394819],[151.48661,-33.394159],[151.487178,-33.390914],[151.483409,-33.384339],[151.488672,-33.381832],[151.48608,-33.37907],[151.489404,-33.371634],[151.499447,-33.364883],[151.501059,-33.361923],[151.500244,-33.359158],[151.502582,-33.354171],[151.504939,-33.354148],[151.503193,-33.34893],[151.504285,-33.345398],[151.502814,-33.344011],[151.509143,-33.331355],[151.527994,-33.312872],[151.55034,-33.299767],[151.557885,-33.296603],[151.564012,-33.296576],[151.562559,-33.294352],[151.56418,-33.291816],[151.570336,-33.289529],[151.571714,-33.285655],[151.579025,-33.282227],[151.57654,-33.27939],[151.573976,-33.280665],[151.572228,-33.278741],[151.567509,-33.278539],[151.567402,-33.276246],[151.563591,-33.271727],[151.561813,-33.262433],[151.565085,-33.247326],[151.562581,-33.246046],[151.549461,-33.240454],[151.538012,-33.245949],[151.527986,-33.244476],[151.520805,-33.233144],[151.513245,-33.220786],[151.509745,-33.218635],[151.507566,-33.218025],[151.508896,-33.216175],[151.514821,-33.211567],[151.51656,-33.208755],[151.516367,-33.205833],[151.520224,-33.203425],[151.5227,-33.199574],[151.519071,-33.195038],[151.51218,-33.194307],[151.50294,-33.192448],[151.490526,-33.186818],[151.488004,-33.189099],[151.484423,-33.188669],[151.481901,-33.189962],[151.474832,-33.189586],[151.472179,-33.190763],[151.468636,-33.19324],[151.464382,-33.193886],[151.462775,-33.195687],[151.461136,-33.199749],[151.459547,-33.20105],[151.455115,-33.202843],[151.447346,-33.201216],[151.443243,-33.20103],[151.4447,-33.193356],[151.438643,-33.195382],[151.436276,-33.197345],[151.435442,-33.199876],[151.43146,-33.199307],[151.432158,-33.19573],[151.43317,-33.194209],[151.418526,-33.19214],[151.417933,-33.195151],[151.410957,-33.194141],[151.412386,-33.189345],[151.411069,-33.187461],[151.398625,-33.185747],[151.400568,-33.175853],[151.403517,-33.176262],[151.404056,-33.173599],[151.399372,-33.172938],[151.397806,-33.170178],[151.392869,-33.169819],[151.396156,-33.167187],[151.397477,-33.165259],[151.393007,-33.158897],[151.392175,-33.156158],[151.392312,-33.152037],[151.388489,-33.150296],[151.387511,-33.147327],[151.387441,-33.143349],[151.384638,-33.141938],[151.383068,-33.139816],[151.38303,-33.134097],[151.3837,-33.129183],[151.381047,-33.126862],[151.381317,-33.122904],[151.380079,-33.12104],[151.380152,-33.119225],[151.382308,-33.115779],[151.38035,-33.113107],[151.382327,-33.109643],[151.379138,-33.104155],[151.37894,-33.099711],[151.377415,-33.098157],[151.374041,-33.096862],[151.372522,-33.094448],[151.369313,-33.095562],[151.367928,-33.09391],[151.363189,-33.093981],[151.360404,-33.09071],[151.356616,-33.090045],[151.356018,-33.088134],[151.35748,-33.083085],[151.357101,-33.081809],[151.353888,-33.079317],[151.348037,-33.0761],[151.33887,-33.073234],[151.333025,-33.069337],[151.33194,-33.066247],[151.331542,-33.062234],[151.326263,-33.060143],[151.323272,-33.055273],[151.319182,-33.053025],[151.317397,-33.049907],[151.315283,-33.048252],[151.31077,-33.048127],[151.308291,-33.046758],[151.305915,-33.043917],[151.30355,-33.043733],[151.301733,-33.045257],[151.300625,-33.047559],[151.299838,-33.051594],[151.296928,-33.054257],[151.294132,-33.054611],[151.29185,-33.055911],[151.289266,-33.055201],[151.283656,-33.056852],[151.281592,-33.058352],[151.27775,-33.056723],[151.275903,-33.057781],[151.272555,-33.056975],[151.266703,-33.058556],[151.266578,-33.061398],[151.267284,-33.063614],[151.266181,-33.069001],[151.264317,-33.073257],[151.262303,-33.074641],[151.262408,-33.077517],[151.2644,-33.079602],[151.262305,-33.087064],[151.263999,-33.089813],[151.262187,-33.090987],[151.259939,-33.095132],[151.262461,-33.097273],[151.260164,-33.100473],[151.255614,-33.101636],[151.25077,-33.099827],[151.244454,-33.102881],[151.244185,-33.105701],[151.240883,-33.107953],[151.238143,-33.108688],[151.235641,-33.107224],[151.232514,-33.108489],[151.230745,-33.109931],[151.232215,-33.114063],[151.229779,-33.114873],[151.225718,-33.117494],[151.220687,-33.121583],[151.218492,-33.124764],[151.218179,-33.129495],[151.213652,-33.129335],[151.21092,-33.130782],[151.208779,-33.133076],[151.206492,-33.133337],[151.20488,-33.134654],[151.205196,-33.136663],[151.202626,-33.13886],[151.204188,-33.147347],[151.208787,-33.152269],[151.208985,-33.154045],[151.206571,-33.155911],[151.202478,-33.15641],[151.201548,-33.15766],[151.20323,-33.161335],[151.201141,-33.165191],[151.20214,-33.16857],[151.207084,-33.172822],[151.208877,-33.176362],[151.20922,-33.17913],[151.206739,-33.182008],[151.205084,-33.185095],[151.203362,-33.186523],[151.200987,-33.191716],[151.199595,-33.195676],[151.199234,-33.199734],[151.200818,-33.204998],[151.202502,-33.206993],[151.202831,-33.209647],[151.204118,-33.211376],[151.207004,-33.212381],[151.208911,-33.215122],[151.213221,-33.217578],[151.22353,-33.219062],[151.222427,-33.224971],[151.221683,-33.226976],[151.219253,-33.228948],[151.216675,-33.233363],[151.21687,-33.241503],[151.216465,-33.243904],[151.216733,-33.248361],[151.228891,-33.249994],[151.226105,-33.264112],[151.233442,-33.265118],[151.232467,-33.270269],[151.239042,-33.271337],[151.236333,-33.285381],[151.247133,-33.286869],[151.246856,-33.288387],[151.251492,-33.289008],[151.250464,-33.294355],[151.266561,-33.296632],[151.263872,-33.310595],[151.281261,-33.313005],[151.279948,-33.319933],[151.296322,-33.322193],[151.296881,-33.319423],[151.300126,-33.319908],[151.298491,-33.32784],[151.302527,-33.328444],[151.300129,-33.340321],[151.293104,-33.339319],[151.292768,-33.34203],[151.290931,-33.350176],[151.295728,-33.351467],[151.299425,-33.356064],[151.299982,-33.360495],[151.302593,-33.36238],[151.306936,-33.362828],[151.309064,-33.364063],[151.312153,-33.364762],[151.314743,-33.364351],[151.316843,-33.365101],[151.321805,-33.365557],[151.32275,-33.36676],[151.325034,-33.366797],[151.329939,-33.364503],[151.366269,-33.369596],[151.376638,-33.371292],[151.376567,-33.373395],[151.374883,-33.377343],[151.371765,-33.38088],[151.3687,-33.382809],[151.365867,-33.383223],[151.358641,-33.382049],[151.354362,-33.383311],[151.350671,-33.389574],[151.347849,-33.392352],[151.343542,-33.395501],[151.342708,-33.397275],[151.343612,-33.399409],[151.348346,-33.404232],[151.34925,-33.40633],[151.348734,-33.408066],[151.34508,-33.412419],[151.363073,-33.414984],[151.370613,-33.418764],[151.373135,-33.418679],[151.376485,-33.420062],[151.379307,-33.418728],[151.383522,-33.422005],[151.38581,-33.42299],[151.390708,-33.422519],[151.393183,-33.423761],[151.39507,-33.427578],[151.398257,-33.426043],[151.405028,-33.424945],[151.41098,-33.425376],[151.414406,-33.427199],[151.417037,-33.426756],[151.420909,-33.426961],[151.422506,-33.425673],[151.427531,-33.424141],[151.433947,-33.423938],[151.438677,-33.422679],[151.441659,-33.423735],[151.444679,-33.42653],[151.445688,-33.425939],[151.448497,-33.429238],[151.449605,-33.429352]]]},"bbox":[151.199234,-33.429352,151.579025,-33.043733]}]}