{"type":"FeatureCollection","features":[
{"properties":{"electorateShortName":"fadden","electorateName":"Fadden","area":388.99,"state":null},"type":"Feature","geometry":{"type":"Polygon","coordinates":[[[153.433728,-27.933812],[153.429548,-27.935752],[153.430373,-27.939315],[153.429372,-27.974545],[153.431074,-27.998905],[153.437734,-28.040372],[153.43878126610812,-28.044167661636283],[153.44024804117666,-28.043794146315175],[153.44238191391912,-28.04288206421742],[153.4518853953868,-28.03948888279941],[153.4675138471542,-28.02998103933819],[153.48089690252354,-28.017509414708247],[153.48901690252356,-28.008229414708246],[153.49543003567553,-27.999274040688757],[153.5065500364649,-27.986698208080263],[153.5152974742911,-27.971843840132635],[153.52105232029083,-27.955594173577094],[153.52360344272333,-27.938545370393832],[153.5228572469172,-27.921322911003084],[153.51884110903848,-27.904558646862178],[153.5155301110665,-27.897281034861074],[153.51580398143045,-27.889028388408487],[153.52399359251652,-27.82634465265086],[153.52991608876147,-27.79271686249648],[153.53380406883758,-27.778657883290002],[153.53620997516416,-27.767009256408475],[153.53705697516415,-27.760890256408477],[153.5373722843691,-27.753628947854995],[153.53935279677717,-27.731867619872933],[153.53750429801417,-27.714180177629498],[153.53221399196912,-27.697201507989583],[153.52368843737503,-27.681594539044436],[153.5122605124699,-27.667968641160087],[153.49837641784575,-27.656855834257268],[153.4825782546532,-27.648690015221007],[153.46455107176305,-27.64371416736409],[153.458708,-27.67062],[153.45353,-27.705997],[153.453997,-27.728758],[153.449354,-27.732333],[153.440311,-27.734314],[153.434491,-27.7368],[153.429763,-27.740013],[153.424549,-27.741407],[153.418063,-27.741407],[153.409576,-27.738194],[153.40566,-27.733184],[153.404739,-27.723613],[153.401383,-27.717705],[153.390257,-27.706368],[153.385366,-27.709591],[153.369561,-27.706579],[153.36534,-27.704792],[153.361964,-27.699439],[153.358758,-27.690982],[153.352995,-27.690266],[153.345937,-27.692482],[153.339458,-27.696813],[153.331717,-27.695313],[153.325374,-27.69712],[153.322851,-27.703258],[153.317702,-27.706327],[153.308392,-27.709089],[153.302084,-27.708646],[153.298606,-27.707077],[153.293286,-27.698245],[153.29311,-27.692943],[153.29135,-27.691836],[153.286674,-27.694354],[153.278047,-27.695801],[153.273455,-27.697999],[153.266232,-27.692749],[153.258991,-27.692863],[153.256511,-27.691889],[153.252434,-27.697457],[153.243282,-27.698319],[153.239448,-27.695058],[153.233903,-27.694326],[153.233885,-27.699392],[153.236213,-27.703083],[153.232104,-27.707035],[153.233319,-27.711168],[153.229157,-27.712509],[153.226954,-27.715386],[153.221083,-27.714255],[153.213631,-27.71434],[153.215455,-27.718178],[153.221618,-27.718651],[153.230587,-27.721589],[153.232595,-27.723849],[153.228721,-27.727321],[153.227573,-27.723721],[153.225116,-27.723438],[153.220795,-27.726245],[153.230453,-27.739164],[153.239354,-27.756074],[153.247923,-27.764123],[153.251229,-27.771308],[153.252497,-27.779661],[153.259489,-27.792444],[153.26139,-27.799036],[153.267887,-27.808414],[153.275427,-27.813812],[153.292549,-27.82223],[153.299156,-27.827599],[153.301934,-27.833014],[153.304278,-27.842722],[153.308982,-27.857811],[153.313158,-27.86882],[153.314466,-27.876863],[153.30932,-27.878443],[153.303868,-27.882581],[153.296,-27.885739],[153.293353,-27.892469],[153.285651,-27.895297],[153.287355,-27.89943],[153.289748,-27.900415],[153.293839,-27.897067],[153.295778,-27.899441],[153.29536,-27.901615],[153.292111,-27.903996],[153.293253,-27.90439],[153.296566,-27.90058],[153.30054,-27.900293],[153.300634,-27.903096],[153.29307,-27.914009],[153.307078,-27.91605],[153.307838,-27.920322],[153.306797,-27.924342],[153.3033,-27.926583],[153.304698,-27.940473],[153.299535,-27.944033],[153.299254,-27.953572],[153.317956,-27.956341],[153.321012,-27.953839],[153.324225,-27.955069],[153.32178,-27.96819],[153.336927,-27.970413],[153.336045,-27.975723],[153.344076,-27.976893],[153.347121,-27.971063],[153.345238,-27.96065],[153.370764,-27.964182],[153.376468,-27.964667],[153.377562,-27.960846],[153.383737,-27.953909],[153.413165,-27.958244],[153.421285,-27.948964],[153.421281,-27.940901],[153.424358,-27.936692],[153.433728,-27.933812]]]},"bbox":[153.213631,-28.044167661636283,153.53935279677717,-27.64371416736409]}]}