{"type":"FeatureCollection","features":[
{"properties":{"electorateShortName":"fairfax","electorateName":"Fairfax","area":1003.96,"state":null},"type":"Feature","geometry":{"type":"MultiPolygon","coordinates":[[[[152.58682,-26.733463],[152.589686,-26.731666],[152.591333,-26.73199],[152.592654,-26.733202],[152.593861,-26.732792],[152.596963,-26.733574],[152.597941,-26.731404],[152.598906,-26.730609],[152.600116,-26.730905],[152.602293,-26.730177],[152.606164,-26.732559],[152.608201,-26.733147],[152.608725,-26.731661],[152.611242,-26.7287],[152.610999,-26.727379],[152.611587,-26.725894],[152.613904,-26.723791],[152.61296,-26.722407],[152.613556,-26.720062],[152.615982,-26.717416],[152.616396,-26.716645],[152.61882,-26.716721],[152.619653,-26.716384],[152.620302,-26.715128],[152.621582,-26.714736],[152.621348,-26.712442],[152.624684,-26.710576],[152.625009,-26.709833],[152.62854,-26.710215],[152.630316,-26.709111],[152.632544,-26.708518],[152.631669,-26.704512],[152.630375,-26.702976],[152.63051,-26.699701],[152.630938,-26.696296],[152.632047,-26.694422],[152.632596,-26.692912],[152.63437,-26.691566],[152.637943,-26.691673],[152.64156,-26.690657],[152.642593,-26.691106],[152.645158,-26.690833],[152.647492,-26.692046],[152.648599,-26.691344],[152.651544,-26.69283],[152.652307,-26.69429],[152.654258,-26.695639],[152.653779,-26.698819],[152.65613,-26.699117],[152.658935,-26.680123],[152.660515,-26.669839],[152.652042,-26.668704],[152.652275,-26.669437],[152.651409,-26.670323],[152.651039,-26.672018],[152.651232,-26.672819],[152.634917,-26.670689],[152.635009,-26.672083],[152.634281,-26.674272],[152.634287,-26.675251],[152.633005,-26.675107],[152.629417,-26.675597],[152.62826,-26.675475],[152.625221,-26.673306],[152.624797,-26.672473],[152.627194,-26.671814],[152.629223,-26.670744],[152.629825,-26.66963],[152.62862,-26.668639],[152.628909,-26.666772],[152.629272,-26.662126],[152.629092,-26.661402],[152.629555,-26.658967],[152.631537,-26.65864],[152.6313,-26.657857],[152.634512,-26.6545],[152.635268,-26.652722],[152.636939,-26.651304],[152.639314,-26.650414],[152.640512,-26.650505],[152.641737,-26.652063],[152.643193,-26.652859],[152.644622,-26.651777],[152.64389,-26.649301],[152.645645,-26.648513],[152.645398,-26.64726],[152.645653,-26.645881],[152.646626,-26.644554],[152.649344,-26.645626],[152.650446,-26.644798],[152.649349,-26.643866],[152.648124,-26.641664],[152.646145,-26.640356],[152.646017,-26.638893],[152.647518,-26.638746],[152.647902,-26.635804],[152.649053,-26.634754],[152.650712,-26.634801],[152.651785,-26.63446],[152.652331,-26.633156],[152.65176,-26.631171],[152.65223,-26.629797],[152.653229,-26.629107],[152.654859,-26.628692],[152.656244,-26.627007],[152.657901,-26.626329],[152.659732,-26.626932],[152.659044,-26.629083],[152.659395,-26.630905],[152.660405,-26.630699],[152.660896,-26.629269],[152.661991,-26.628935],[152.663678,-26.629108],[152.663833,-26.627688],[152.665685,-26.616254],[152.666144,-26.616193],[152.669669,-26.617554],[152.671976,-26.617173],[152.675503,-26.615283],[152.676569,-26.615343],[152.677461,-26.616747],[152.677289,-26.617499],[152.673758,-26.618467],[152.673172,-26.619982],[152.673895,-26.62123],[152.675094,-26.622422],[152.679196,-26.622012],[152.681803,-26.622144],[152.682884,-26.623311],[152.683443,-26.625262],[152.684515,-26.626682],[152.685215,-26.626506],[152.686701,-26.625034],[152.688929,-26.623835],[152.691532,-26.623498],[152.692558,-26.622537],[152.694003,-26.621862],[152.695007,-26.621879],[152.696932,-26.622542],[152.697837,-26.623661],[152.698066,-26.625061],[152.699084,-26.627953],[152.70053,-26.629303],[152.701363,-26.62945],[152.700694,-26.63332],[152.703472,-26.634065],[152.705444,-26.635168],[152.706534,-26.636588],[152.707448,-26.637187],[152.70841,-26.634198],[152.7154,-26.635074],[152.715043,-26.636912],[152.715949,-26.639302],[152.719461,-26.642083],[152.721776,-26.642486],[152.723204,-26.643861],[152.723847,-26.646239],[152.725059,-26.647573],[152.726204,-26.650366],[152.727157,-26.652028],[152.727345,-26.653618],[152.727964,-26.654619],[152.727989,-26.655727],[152.729913,-26.657967],[152.730289,-26.659675],[152.736795,-26.660514],[152.737827,-26.654167],[152.735491,-26.653826],[152.734797,-26.653173],[152.734908,-26.651466],[152.735547,-26.649533],[152.734213,-26.648344],[152.741264,-26.649272],[152.742099,-26.64408],[152.7432,-26.642248],[152.74463,-26.640878],[152.745889,-26.637702],[152.746419,-26.636899],[152.76184,-26.639079],[152.760679,-26.639942],[152.761185,-26.640795],[152.762832,-26.64037],[152.763883,-26.64209],[152.764733,-26.642495],[152.767555,-26.641288],[152.768709,-26.642669],[152.768843,-26.64367],[152.770331,-26.644774],[152.770636,-26.646158],[152.773432,-26.647486],[152.774483,-26.641476],[152.782555,-26.642552],[152.782971,-26.640069],[152.783717,-26.640876],[152.785548,-26.640467],[152.788099,-26.638201],[152.789508,-26.638543],[152.790469,-26.640661],[152.792582,-26.642732],[152.794331,-26.64532],[152.792881,-26.653507],[152.793841,-26.654645],[152.793575,-26.657211],[152.792733,-26.657792],[152.794709,-26.659832],[152.79405,-26.661277],[152.794342,-26.662623],[152.795262,-26.663044],[152.794874,-26.663952],[152.796162,-26.667172],[152.796306,-26.668764],[152.795865,-26.669638],[152.796203,-26.670854],[152.795078,-26.673049],[152.793463,-26.673994],[152.792272,-26.676041],[152.791759,-26.67758],[152.806392,-26.679699],[152.80647,-26.679267],[152.814341,-26.680421],[152.815753,-26.672753],[152.845007,-26.677339],[152.844856,-26.676404],[152.843954,-26.675196],[152.843754,-26.673934],[152.84438,-26.673308],[152.845657,-26.673286],[152.847775,-26.672601],[152.848876,-26.671643],[152.848825,-26.670931],[152.850038,-26.669829],[152.853319,-26.668604],[152.854471,-26.668668],[152.863972,-26.669822],[152.871334,-26.670816],[152.873796,-26.671464],[152.874787,-26.671335],[152.879169,-26.671926],[152.879151,-26.670565],[152.88027,-26.668016],[152.882948,-26.66323],[152.885722,-26.661027],[152.885818,-26.660536],[152.892145,-26.661521],[152.900028,-26.662995],[152.901872,-26.662695],[152.901798,-26.659932],[152.90323,-26.658488],[152.903884,-26.65833],[152.901114,-26.655912],[152.900672,-26.654989],[152.907705,-26.655756],[152.908083,-26.653329],[152.919524,-26.654762],[152.919102,-26.654016],[152.924254,-26.654666],[152.923894,-26.656989],[152.925221,-26.656582],[152.92788,-26.656913],[152.928273,-26.654374],[152.938038,-26.655657],[152.93862,-26.652326],[152.941586,-26.654936],[152.941833,-26.65658],[152.94286,-26.65751],[152.946268,-26.65856],[152.946593,-26.659819],[152.948098,-26.660025],[152.947903,-26.661252],[152.956549,-26.66253],[152.956018,-26.663143],[152.955914,-26.670421],[152.96339,-26.67141],[152.963878,-26.672285],[152.964474,-26.676027],[152.968247,-26.676566],[152.969798,-26.676388],[152.972181,-26.675544],[152.973948,-26.675401],[152.974108,-26.67614],[152.976918,-26.676799],[152.976207,-26.678043],[152.976352,-26.679645],[152.978077,-26.679882],[152.978425,-26.677981],[152.981079,-26.67839],[152.980912,-26.679397],[152.987419,-26.680271],[152.987564,-26.679396],[152.991096,-26.679882],[152.994047,-26.679445],[152.993744,-26.676948],[152.995502,-26.677735],[152.996944,-26.676669],[152.998826,-26.679535],[153.00108,-26.679915],[153.001925,-26.679287],[153.002534,-26.680511],[153.003437,-26.684264],[153.003925,-26.688739],[153.005067,-26.690788],[153.006439,-26.692297],[153.008972,-26.694595],[153.011125,-26.696976],[153.016792,-26.702374],[153.018799,-26.70528],[153.0206,-26.708956],[153.022226,-26.711105],[153.023543,-26.712272],[153.025478,-26.713443],[153.031268,-26.71621],[153.036947,-26.718764],[153.04069,-26.720324],[153.042548,-26.721399],[153.044328,-26.723091],[153.048143,-26.716442],[153.050112,-26.714654],[153.051656,-26.713754],[153.054121,-26.712887],[153.059735,-26.711293],[153.062313,-26.710971],[153.064635,-26.710989],[153.079217,-26.712515],[153.085901,-26.713342],[153.087859,-26.713296],[153.088738,-26.714058],[153.094058,-26.714009],[153.103197,-26.714995],[153.105786,-26.715363],[153.113535,-26.713739],[153.113285,-26.712881],[153.113898,-26.71156],[153.115455,-26.710311],[153.118245,-26.708924],[153.119572,-26.707743],[153.119531,-26.7069],[153.116074,-26.705985],[153.115016,-26.705476],[153.114682,-26.704518],[153.114964,-26.703],[153.114849,-26.701188],[153.114347,-26.699738],[153.115383,-26.698214],[153.114628,-26.69647],[153.110597,-26.693587],[153.105561,-26.685935],[153.104293,-26.684677],[153.100313,-26.679867],[153.096741,-26.675215],[153.094967,-26.672657],[153.095918,-26.670937],[153.095541,-26.670001],[153.103458,-26.664915],[153.106212,-26.664523],[153.109009,-26.670712],[153.124802,-26.682724],[153.132592,-26.682962],[153.133846,-26.681676],[153.131948,-26.680144],[153.132341,-26.678448],[153.134679,-26.679706],[153.139398,-26.679196],[153.136756,-26.68737],[153.134576,-26.729017],[153.137298,-26.757962],[153.136998,-26.773419],[153.142068,-26.788559],[153.148634,-26.791311],[153.14858735800283,-26.79656821939496],[153.14917325805763,-26.796382297142713],[153.1648606565101,-26.787669216987446],[153.17850762417032,-26.776017070846997],[153.17904047767107,-26.775336653114838],[153.18587502631763,-26.768709282666297],[153.1872772151411,-26.767129187682755],[153.1987770373339,-26.750488617937695],[153.19981409812578,-26.74850089111783],[153.2068027692301,-26.72989684615649],[153.20763321726852,-26.72634861797849],[153.20900481128572,-26.718090519435425],[153.209651,-26.707325],[153.20903220211827,-26.696668157166748],[153.20613967575207,-26.68221866797123],[153.20092797539618,-26.66843488669791],[153.1987527694125,-26.66460261823653],[153.19710628425452,-26.660208075505185],[153.19540642660874,-26.6567790297812],[153.19492194521484,-26.649339271209637],[153.19204694521486,-26.632542271209637],[153.19160325760754,-26.630902006283343],[153.19199023072252,-26.619606506993485],[153.1892048119505,-26.594101384379275],[153.18783514333228,-26.588777408060956],[153.18782300910297,-26.583988089450816],[153.19152939829988,-26.560667703043105],[153.19248246163016,-26.541134477287038],[153.18919369683917,-26.52185652967069],[153.18476834916711,-26.51098867304531],[153.1851177597536,-26.50747304215232],[153.18521676796985,-26.490730785638394],[153.18221303125395,-26.474259886405306],[153.17621049853395,-26.458630345249208],[153.167416896685,-26.444383046476187],[153.15894953999754,-26.435096264721803],[153.15569416962705,-26.429542323854815],[153.14371487717503,-26.416158401297388],[153.12931636119097,-26.40541989264248],[153.11446685791054,-26.39841267240613],[153.102535,-26.45121],[153.095559,-26.498572],[153.09352,-26.498303],[153.092845,-26.498855],[153.091813,-26.498568],[153.089757,-26.497293],[153.084047,-26.496389],[153.080864,-26.494966],[153.082978,-26.482574],[153.070617,-26.480819],[153.065413,-26.478543],[153.063808,-26.479455],[153.059623,-26.478717],[153.05675,-26.477345],[153.04634,-26.468961],[153.038591,-26.463126],[153.037166,-26.461042],[153.036506,-26.459163],[153.036067,-26.455932],[153.034068,-26.44622],[153.030792,-26.443104],[153.029146,-26.443059],[153.025962,-26.444745],[153.02498,-26.444367],[153.023849,-26.442314],[153.007481,-26.440016],[153.006051,-26.436437],[153.00602,-26.43515],[153.004188,-26.434936],[153.003863,-26.43449],[152.996807,-26.433356],[152.995519,-26.432178],[152.99502,-26.433843],[152.99556,-26.434668],[152.985676,-26.433266],[152.986675,-26.434861],[152.966381,-26.432044],[152.964984,-26.440289],[152.964466,-26.439619],[152.946255,-26.437176],[152.945017,-26.4446],[152.936102,-26.443163],[152.935645,-26.445044],[152.921839,-26.443048],[152.920161,-26.4527],[152.919426,-26.451521],[152.918266,-26.450889],[152.91721,-26.449316],[152.913792,-26.447595],[152.912956,-26.44747],[152.912372,-26.450752],[152.908432,-26.449351],[152.908468,-26.451627],[152.905442,-26.451418],[152.903346,-26.45087],[152.89992,-26.454038],[152.89538,-26.455012],[152.892404,-26.455],[152.891927,-26.455969],[152.889099,-26.45878],[152.887692,-26.458801],[152.886989,-26.460085],[152.885273,-26.462241],[152.886245,-26.465162],[152.885429,-26.469829],[152.880123,-26.468997],[152.879558,-26.466709],[152.870848,-26.46547],[152.869335,-26.474206],[152.867192,-26.473272],[152.866481,-26.472302],[152.864959,-26.476138],[152.861887,-26.474733],[152.86104,-26.47625],[152.861246,-26.476937],[152.859794,-26.477903],[152.859442,-26.479065],[152.8565,-26.480547],[152.856036,-26.480317],[152.854258,-26.481395],[152.853292,-26.481507],[152.850613,-26.483197],[152.850347,-26.484707],[152.849134,-26.484746],[152.845951,-26.4867],[152.843807,-26.484049],[152.835832,-26.489271],[152.835067,-26.488172],[152.828162,-26.492727],[152.826966,-26.499405],[152.818136,-26.498227],[152.816921,-26.498763],[152.814092,-26.498097],[152.813331,-26.497322],[152.813155,-26.495837],[152.812247,-26.494557],[152.813436,-26.48893],[152.81183,-26.487858],[152.810567,-26.486023],[152.808517,-26.48182],[152.803308,-26.477365],[152.804297,-26.471508],[152.789208,-26.469451],[152.78861,-26.473046],[152.768006,-26.470265],[152.767206,-26.468398],[152.767514,-26.466052],[152.76857,-26.464617],[152.768092,-26.464174],[152.765466,-26.463611],[152.764424,-26.469363],[152.757617,-26.468445],[152.757384,-26.470031],[152.75811,-26.470633],[152.757946,-26.471806],[152.756589,-26.473323],[152.756492,-26.474256],[152.757652,-26.475388],[152.759061,-26.475533],[152.759876,-26.474736],[152.762082,-26.474455],[152.764195,-26.474944],[152.765382,-26.47578],[152.766666,-26.477757],[152.765354,-26.478986],[152.765107,-26.480464],[152.765607,-26.482028],[152.76482,-26.482867],[152.762466,-26.483052],[152.761627,-26.48373],[152.761444,-26.486885],[152.757833,-26.487664],[152.755561,-26.489459],[152.75242,-26.491441],[152.752171,-26.493339],[152.750615,-26.496017],[152.749273,-26.497801],[152.746805,-26.498761],[152.745302,-26.498678],[152.744811,-26.499361],[152.745198,-26.501536],[152.743925,-26.502749],[152.744835,-26.503653],[152.745016,-26.504819],[152.743516,-26.506265],[152.743706,-26.508173],[152.762079,-26.510649],[152.759691,-26.525015],[152.762737,-26.525382],[152.767395,-26.527314],[152.768249,-26.528166],[152.769516,-26.531222],[152.769394,-26.533715],[152.767966,-26.535741],[152.767154,-26.537338],[152.764851,-26.538605],[152.764296,-26.540006],[152.761991,-26.536434],[152.760954,-26.53609],[152.758494,-26.536387],[152.757175,-26.539368],[152.755493,-26.541227],[152.755101,-26.542151],[152.756257,-26.542593],[152.757579,-26.541921],[152.758701,-26.542891],[152.758211,-26.543946],[152.755694,-26.546421],[152.756142,-26.548003],[152.755722,-26.549057],[152.754549,-26.549709],[152.75273,-26.549767],[152.75101,-26.548718],[152.749825,-26.547251],[152.747975,-26.548305],[152.746473,-26.549855],[152.745131,-26.549627],[152.737645,-26.540255],[152.733389,-26.543001],[152.728448,-26.536977],[152.714697,-26.546348],[152.714409,-26.545725],[152.712443,-26.546208],[152.711564,-26.552646],[152.71047,-26.552512],[152.709555,-26.554166],[152.709924,-26.555776],[152.710558,-26.556582],[152.708437,-26.559901],[152.706587,-26.559836],[152.705047,-26.561609],[152.702611,-26.563836],[152.701461,-26.564176],[152.700754,-26.565206],[152.699349,-26.56543],[152.696917,-26.567026],[152.694935,-26.567879],[152.695619,-26.570418],[152.694723,-26.571779],[152.695415,-26.573847],[152.694712,-26.573902],[152.694959,-26.575566],[152.692019,-26.57653],[152.688443,-26.577089],[152.687361,-26.576625],[152.686019,-26.577021],[152.683649,-26.57879],[152.683315,-26.580694],[152.682611,-26.582056],[152.681268,-26.582509],[152.681006,-26.583942],[152.682395,-26.586645],[152.682892,-26.589286],[152.681416,-26.590886],[152.681534,-26.592722],[152.680436,-26.595242],[152.680811,-26.596792],[152.680487,-26.597709],[152.676723,-26.597521],[152.675385,-26.597057],[152.673278,-26.597277],[152.672964,-26.596301],[152.670472,-26.596806],[152.669965,-26.596116],[152.666835,-26.596791],[152.665434,-26.596269],[152.662939,-26.597348],[152.66026,-26.597107],[152.656316,-26.594681],[152.655746,-26.593818],[152.653582,-26.592833],[152.653461,-26.591685],[152.652639,-26.590247],[152.651045,-26.590068],[152.649649,-26.588628],[152.647612,-26.587701],[152.643663,-26.58625],[152.642003,-26.586529],[152.640285,-26.585604],[152.638434,-26.585653],[152.637993,-26.584561],[152.635757,-26.585125],[152.633144,-26.584539],[152.630534,-26.58338],[152.629447,-26.583777],[152.628175,-26.582968],[152.625629,-26.581981],[152.623638,-26.583125],[152.620766,-26.583975],[152.61866,-26.584313],[152.61713,-26.583964],[152.615985,-26.583215],[152.6142,-26.582865],[152.612222,-26.582973],[152.609757,-26.583898],[152.606318,-26.584297],[152.605873,-26.583032],[152.605874,-26.579699],[152.60461,-26.578378],[152.602516,-26.577936],[152.600776,-26.57965],[152.59974,-26.581083],[152.598461,-26.581418],[152.595499,-26.584102],[152.593898,-26.584724],[152.592181,-26.584366],[152.590984,-26.583149],[152.58889,-26.582269],[152.587941,-26.579747],[152.583077,-26.579823],[152.582318,-26.581081],[152.57928,-26.580884],[152.578826,-26.581148],[152.577834,-26.583136],[152.57651,-26.584148],[152.575195,-26.584007],[152.575761,-26.587255],[152.576093,-26.591106],[152.576513,-26.59225],[152.57501,-26.593003],[152.574012,-26.595474],[152.584142,-26.596691],[152.584005,-26.597691],[152.581473,-26.599678],[152.58137,-26.60052],[152.582013,-26.60434],[152.583173,-26.606368],[152.584232,-26.608787],[152.585366,-26.612037],[152.583944,-26.613555],[152.587784,-26.613991],[152.583203,-26.645384],[152.571461,-26.657969],[152.57228,-26.659256],[152.55219,-26.680864],[152.553715,-26.681848],[152.555738,-26.6805],[152.55643,-26.680943],[152.555563,-26.682368],[152.555815,-26.684632],[152.555603,-26.687422],[152.557879,-26.688797],[152.558042,-26.689754],[152.55744,-26.69189],[152.554337,-26.69588],[152.551472,-26.697519],[152.551862,-26.699108],[152.55175,-26.70164],[152.550871,-26.703583],[152.551462,-26.704847],[152.551312,-26.707041],[152.552933,-26.706037],[152.554128,-26.705998],[152.554757,-26.70751],[152.555573,-26.706006],[152.557069,-26.705047],[152.557665,-26.70545],[152.557873,-26.706896],[152.562174,-26.708002],[152.563343,-26.707321],[152.565078,-26.707218],[152.566511,-26.708127],[152.568523,-26.708701],[152.570221,-26.710669],[152.572925,-26.711393],[152.575,-26.713104],[152.576157,-26.71311],[152.577378,-26.71485],[152.577265,-26.715986],[152.579365,-26.7162],[152.58007,-26.717071],[152.580397,-26.718356],[152.58202,-26.720245],[152.581757,-26.721662],[152.580488,-26.722769],[152.58118,-26.723775],[152.581244,-26.725835],[152.582968,-26.727128],[152.582642,-26.728781],[152.583611,-26.729956],[152.58326,-26.730844],[152.585512,-26.733254],[152.58682,-26.733463]]],[[[153.093173,-26.386366],[153.09734821486538,-26.382462949742408],[153.09609519981544,-26.381007834853815],[153.09281919981544,-26.377891834853816],[153.0798965449103,-26.367680239359522],[153.06879707242106,-26.361824170454124],[153.071174,-26.367606],[153.080215,-26.380992],[153.091196,-26.386183],[153.093173,-26.386366]]]]},"bbox":[152.550871,-26.79656821939496,153.209651,-26.361824170454124]}]}