{"type":"FeatureCollection","features":[
{"properties":{"electorateShortName":"farrer","electorateName":"Farrer","area":126564.02,"state":null},"type":"Feature","geometry":{"type":"Polygon","coordinates":[[[147.689329,-35.937679],[147.691175,-35.886085],[147.714259,-35.838507],[147.760588,-35.839756],[147.819657,-35.744114],[147.801663,-35.678005],[147.833648,-35.641585],[147.89396,-35.62422],[147.845391,-35.554599],[147.685594,-35.534198],[147.607787,-35.539571],[147.525087,-35.483406],[147.480995,-35.54516],[147.283199,-35.500123],[147.226524,-35.473668],[147.087341,-35.450465],[146.871365,-35.57586],[146.796881,-35.574699],[146.662323,-35.547763],[146.669769,-35.520279],[146.540094,-35.487174],[146.428237,-35.471405],[146.354226,-35.387797],[146.364032,-35.337739],[146.403804,-35.304452],[146.413658,-35.250545],[146.389251,-35.231731],[146.563727,-35.119126],[146.615161,-35.114348],[146.688478,-35.067979],[146.761524,-35.076441],[146.7942,-35.058208],[146.807657,-34.986944],[146.784477,-34.924058],[146.84358,-34.899125],[146.843266,-34.83723],[146.911568,-34.482591],[146.795492,-34.470798],[146.823028,-34.310851],[146.718745,-34.298111],[146.729043,-34.236768],[146.623872,-34.224735],[146.635404,-34.151187],[146.458206,-34.13293],[146.492809,-33.919657],[146.417433,-33.910635],[146.437185,-33.794499],[146.0703,-33.753534],[146.095141,-33.603131],[146.053962,-33.475767],[146.066897,-33.359114],[146.095088,-33.276178],[146.058892,-33.211808],[146.093631,-33.189083],[146.03166,-33.093579],[145.645258,-33.080312],[145.668529,-32.935871],[145.651787,-32.935351],[145.671923,-32.805722],[145.586515,-32.796236],[145.504348,-32.770092],[145.510436,-32.727862],[145.467462,-32.722507],[145.412631,-32.775949],[145.330563,-32.766674],[145.344278,-32.682486],[145.257279,-32.671254],[145.249374,-32.724393],[145.164993,-32.71483],[145.127254,-32.954686],[145.107556,-33.033712],[145.027698,-33.021923],[144.991731,-33.033662],[144.979402,-33.083791],[144.908865,-33.074448],[144.913078,-33.049131],[144.798235,-33.036219],[144.777974,-33.163461],[144.741889,-33.173591],[144.733424,-33.231398],[144.645681,-33.222352],[144.577529,-33.288666],[144.546947,-33.300011],[144.262641,-33.272906],[144.236255,-33.249829],[144.251426,-33.15507],[143.905907,-33.115708],[143.898192,-33.161392],[143.720951,-33.140453],[143.66485,-33.178855],[143.637288,-33.149916],[143.55246,-33.140481],[143.57281,-33.012429],[143.653413,-33.012413],[143.671807,-32.940764],[143.585153,-32.93103],[143.591987,-32.885141],[143.505852,-32.876004],[143.499566,-32.918349],[143.416969,-32.907493],[143.432435,-32.808446],[143.269614,-32.791387],[143.271212,-32.780229],[142.964638,-32.748537],[142.94435,-32.890533],[142.515536,-32.847454],[142.549908,-32.991416],[142.547987,-33.01714],[142.382492,-33.005539],[142.28965,-33.081676],[142.27428,-33.123423],[142.105679,-33.11242],[142.107802,-33.090131],[142.022933,-33.0848],[142.038355,-33.143941],[141.560773,-33.096293],[141.573204,-33.005572],[141.40258,-32.98766],[141.348003,-33.366658],[141.002258,-33.329008],[141.002956,-34.021892],[141.008944,-34.044659],[141.153324,-34.064288],[141.207196,-34.061188],[141.261021,-34.078979],[141.333928,-34.130235],[141.357551,-34.110689],[141.452499,-34.161286],[141.49464,-34.154513],[141.517587,-34.206455],[141.567974,-34.19183],[141.635074,-34.12039],[141.704907,-34.095686],[141.877847,-34.136849],[141.899106,-34.111489],[141.983492,-34.112412],[142.074484,-34.130492],[142.082078,-34.172992],[142.220316,-34.181665],[142.249565,-34.266928],[142.238544,-34.30782],[142.3337,-34.339302],[142.396798,-34.338095],[142.351891,-34.394745],[142.368408,-34.527088],[142.434747,-34.576146],[142.471582,-34.666869],[142.51417,-34.690931],[142.501829,-34.732639],[142.526185,-34.759814],[142.63143,-34.784396],[142.616551,-34.737954],[142.696762,-34.720165],[142.678929,-34.680153],[142.699546,-34.603155],[142.763518,-34.596737],[142.861505,-34.628214],[142.874045,-34.673405],[142.924713,-34.649591],[142.96334,-34.676608],[143.012939,-34.671045],[143.040044,-34.702511],[143.104118,-34.694001],[143.196437,-34.728109],[143.273544,-34.777017],[143.351547,-34.796004],[143.359391,-34.817289],[143.323091,-34.884688],[143.342789,-34.932533],[143.319601,-34.968697],[143.338008,-35.010576],[143.346988,-35.104778],[143.374051,-35.122918],[143.396379,-35.193113],[143.446411,-35.189924],[143.471482,-35.219293],[143.563927,-35.202627],[143.584421,-35.278789],[143.563748,-35.316119],[143.642338,-35.401037],[143.665835,-35.382457],[143.746463,-35.388599],[143.866592,-35.480323],[143.948097,-35.500832],[143.989386,-35.553192],[144.04785,-35.556174],[144.104918,-35.590724],[144.117546,-35.625926],[144.24841,-35.7215],[144.296367,-35.737179],[144.375727,-35.801211],[144.36476,-35.819647],[144.408376,-35.898742],[144.51644,-35.995631],[144.583275,-36.039025],[144.692392,-36.069351],[144.717616,-36.112711],[144.805787,-36.123842],[144.874824,-36.057628],[144.986877,-36.064296],[144.923615,-35.988951],[144.971073,-35.860927],[145.020321,-35.856001],[145.072861,-35.827757],[145.168353,-35.842476],[145.246515,-35.830412],[145.284146,-35.856572],[145.352396,-35.865795],[145.442293,-35.835642],[145.471521,-35.811322],[145.533964,-35.805286],[145.684681,-35.930753],[145.721179,-35.935062],[145.793445,-35.982817],[145.84426,-35.983005],[145.908007,-35.953565],[145.989126,-36.013079],[146.032803,-35.994774],[146.108589,-36.007092],[146.177951,-36.033848],[146.242797,-36.028965],[146.299882,-36.047795],[146.387672,-36.035514],[146.414345,-35.975453],[146.517902,-35.960061],[146.607972,-35.985904],[146.679175,-36.021948],[146.72723,-36.02682],[146.760209,-36.058169],[146.836347,-36.082187],[147.016178,-36.089497],[147.137173,-36.028625],[147.204328,-36.049889],[147.352244,-36.032293],[147.360761,-35.988997],[147.404264,-35.943562],[147.456156,-35.957779],[147.498602,-35.946642],[147.555245,-36.00321],[147.689329,-35.937679]]]},"bbox":[141.002258,-36.123842,147.89396,-32.671254]}]}