{"type":"FeatureCollection","features":[
{"properties":{"electorateShortName":"fenner","electorateName":"Fenner","area":238.48,"state":null},"type":"Feature","geometry":{"type":"MultiPolygon","coordinates":[[[[149.200699,-35.205565],[149.190287,-35.194353],[149.197035,-35.185369],[149.183641,-35.175669],[149.189072,-35.165524],[149.162637,-35.15425],[149.164278,-35.141905],[149.149612,-35.138406],[149.140133,-35.130393],[149.120948,-35.124416],[148.961731,-35.218467],[148.976254,-35.238837],[148.962525,-35.243979],[148.979653,-35.25937],[149.002417,-35.261831],[149.007625,-35.272079],[149.019616,-35.280406],[149.03396,-35.265887],[149.026108,-35.253528],[149.030149,-35.239596],[149.058658,-35.244142],[149.07339,-35.241107],[149.080283,-35.231015],[149.074179,-35.225857],[149.086463,-35.214146],[149.09268,-35.201952],[149.108536,-35.20946],[149.119028,-35.219613],[149.12512,-35.231391],[149.142117,-35.225562],[149.151283,-35.230968],[149.179534,-35.219513],[149.200699,-35.205565]]],[[[150.593971,-35.185018],[150.608899,-35.173671],[150.632623,-35.166422],[150.654952,-35.163097],[150.682616,-35.165393],[150.691355,-35.172352],[150.695731,-35.190068],[150.707739,-35.19126],[150.724869,-35.172951],[150.737443,-35.180084],[150.760481,-35.16227],[150.765777,-35.127982],[150.753012,-35.124258],[150.7455,-35.13599],[150.721866,-35.135675],[150.708691,-35.122433],[150.701604,-35.122862],[150.661053,-35.117824],[150.66032,-35.125394],[150.637259,-35.146881],[150.627903,-35.149976],[150.607504,-35.143847],[150.59343,-35.146914],[150.604696,-35.1579],[150.601698,-35.168886],[150.591249,-35.172472],[150.593971,-35.185018]]]]},"bbox":[148.961731,-35.280406,150.765777,-35.117824]}]}