{"type":"FeatureCollection","features":[
{"properties":{"electorateShortName":"fisher","electorateName":"Fisher","area":1199.46,"state":null},"type":"Feature","geometry":{"type":"Polygon","coordinates":[[[153.133027,-26.812312],[153.13325,-26.821047],[153.128855,-26.845645],[153.130523,-26.872422],[153.13865,-26.908253],[153.161384,-26.98512],[153.16378697096582,-26.9818851267843],[153.16587451577237,-26.960253526189703],[153.1872676012532,-26.937504393770315],[153.1986455280639,-26.916514911510916],[153.20585052878727,-26.895151201894556],[153.21081044110588,-26.868944263611702],[153.21638390284775,-26.863910039574694],[153.22670613816567,-26.850925570467687],[153.2344701319101,-26.836267283354726],[153.2394121527349,-26.820433098496753],[153.24136432752644,-26.80396087965616],[153.240260343804,-26.78741016366289],[153.23203272035207,-26.757478272595378],[153.2266945795749,-26.74732288903735],[153.22479714590253,-26.727146100775748],[153.2261206731449,-26.70186126634282],[153.22881878067466,-26.689390311332126],[153.22906851945464,-26.67150198019665],[153.22577511297447,-26.653917662352985],[153.2190686933849,-26.63733216578039],[153.20921425099635,-26.62240083209979],[153.19660116373427,-26.609713642103987],[153.1817278116752,-26.59977190388589],[153.15661716481787,-26.58996215665925],[153.1421276214395,-26.581999863022453],[153.1264260589148,-26.57682241948773],[153.098090837158,-26.57519552913786],[153.097864,-26.600281],[153.102043,-26.616525],[153.101272,-26.63903],[153.106212,-26.664523],[153.094967,-26.672657],[153.114628,-26.69647],[153.113535,-26.713739],[153.105786,-26.715363],[153.064635,-26.710989],[153.050112,-26.714654],[153.044328,-26.723091],[153.022226,-26.711105],[153.005067,-26.690788],[153.002534,-26.680511],[152.980912,-26.679397],[152.96339,-26.67141],[152.956018,-26.663143],[152.941586,-26.654936],[152.908083,-26.653329],[152.900028,-26.662995],[152.885818,-26.660536],[152.879169,-26.671926],[152.853319,-26.668604],[152.845007,-26.677339],[152.815753,-26.672753],[152.814341,-26.680421],[152.791759,-26.67758],[152.796203,-26.670854],[152.792881,-26.653507],[152.794331,-26.64532],[152.746419,-26.636899],[152.737827,-26.654167],[152.730289,-26.659675],[152.723204,-26.643861],[152.7154,-26.635074],[152.705444,-26.635168],[152.694003,-26.621862],[152.681803,-26.622144],[152.665685,-26.616254],[152.647902,-26.635804],[152.644622,-26.651777],[152.636939,-26.651304],[152.629555,-26.658967],[152.634917,-26.670689],[152.651232,-26.672819],[152.660515,-26.669839],[152.65613,-26.699117],[152.648599,-26.691344],[152.63437,-26.691566],[152.630938,-26.696296],[152.632544,-26.708518],[152.616396,-26.716645],[152.611242,-26.7287],[152.596963,-26.733574],[152.58682,-26.733463],[152.583307,-26.740432],[152.600099,-26.751798],[152.602456,-26.75788],[152.617242,-26.759476],[152.63249,-26.764392],[152.639082,-26.761777],[152.645682,-26.773659],[152.653191,-26.768669],[152.667303,-26.773009],[152.668978,-26.789814],[152.679214,-26.799877],[152.698792,-26.802982],[152.696447,-26.809128],[152.709138,-26.81113],[152.720987,-26.808562],[152.732962,-26.814956],[152.739172,-26.808027],[152.74948,-26.816297],[152.753075,-26.797353],[152.761096,-26.792363],[152.779492,-26.797128],[152.777255,-26.809402],[152.784673,-26.811729],[152.786733,-26.822264],[152.793459,-26.827508],[152.805258,-26.824878],[152.812441,-26.829953],[152.824471,-26.849384],[152.832361,-26.856124],[152.84804,-26.858161],[152.857475,-26.871231],[152.869477,-26.872877],[152.866782,-26.888922],[152.855488,-26.887382],[152.855298,-26.901884],[152.859462,-26.911304],[152.875446,-26.913522],[152.872496,-26.930514],[152.861199,-26.936303],[152.858011,-26.956217],[152.874005,-26.958341],[152.885509,-26.955952],[152.891155,-26.96075],[152.903713,-26.953895],[152.919727,-26.955513],[152.932579,-26.963325],[152.951601,-26.96603],[152.966633,-26.978805],[153.002964,-26.984787],[153.016853,-26.979067],[153.018454,-26.966355],[153.042762,-26.969459],[153.057866,-26.97576],[153.066317,-26.98369],[153.074407,-26.971339],[153.069566,-26.955194],[153.075888,-26.947959],[153.079277,-26.935736],[153.07295,-26.922915],[153.077112,-26.905598],[153.109977,-26.89028],[153.118116,-26.875085],[153.121698,-26.859069],[153.11952,-26.843826],[153.124859,-26.831463],[153.128161,-26.814745],[153.133027,-26.812312]]]},"bbox":[152.583307,-26.98512,153.24136432752644,-26.57519552913786]}]}