{"type":"FeatureCollection","features":[
{"properties":{"electorateShortName":"flynn","electorateName":"Flynn","area":132847.37,"state":null},"type":"Feature","geometry":{"type":"Polygon","coordinates":[[[153.264621,-24.697089],[153.225558,-24.515998],[152.908736,-23.165072],[152.048,-23.167255],[151.647842,-23.166157],[151.251067,-23.165086],[151.04048,-23.389822],[151.001072,-23.431756],[150.990546,-23.448213],[150.977573,-23.474061],[150.968222,-23.49908],[150.920631,-23.502718],[150.867505,-23.503244],[150.842783,-23.509906],[150.816658,-23.509731],[150.786714,-23.505777],[150.772836,-23.506628],[150.762608,-23.503962],[150.749185,-23.497902],[150.728743,-23.491588],[150.722911,-23.492973],[150.714171,-23.502157],[150.705748,-23.505842],[150.691327,-23.499833],[150.682505,-23.497945],[150.678301,-23.498911],[150.668196,-23.504632],[150.654528,-23.515058],[150.648302,-23.518221],[150.640634,-23.518207],[150.636616,-23.515648],[150.637033,-23.508478],[150.641147,-23.505114],[150.650988,-23.502246],[150.660468,-23.497598],[150.66095,-23.490158],[150.655575,-23.487867],[150.637141,-23.485701],[150.627918,-23.474685],[150.625494,-23.457245],[150.61675,-23.450101],[150.608943,-23.448528],[150.601978,-23.442754],[150.59703,-23.434773],[150.593367,-23.423713],[150.578168,-23.410054],[150.561889,-23.385213],[150.551909,-23.377622],[150.548396,-23.379291],[150.546257,-23.385592],[150.541112,-23.390787],[150.530656,-23.394851],[150.544677,-23.425671],[150.545188,-23.432497],[150.547767,-23.436516],[150.546269,-23.44399],[150.541231,-23.44677],[150.536465,-23.445141],[150.519704,-23.42846],[150.511434,-23.427372],[150.506758,-23.432666],[150.46756,-23.426791],[150.460416,-23.421412],[150.458966,-23.41783],[150.433543,-23.405685],[150.429301,-23.40688],[150.435293,-23.371741],[150.440061,-23.378299],[150.446764,-23.383584],[150.451142,-23.384803],[150.45926,-23.380206],[150.467131,-23.378679],[150.47215,-23.372466],[150.484747,-23.363252],[150.493211,-23.358567],[150.494279,-23.343044],[150.491649,-23.333471],[150.481878,-23.319102],[150.476606,-23.317468],[150.47158,-23.32114],[150.460435,-23.337474],[150.456447,-23.340179],[150.449914,-23.339752],[150.446831,-23.336096],[150.447225,-23.331299],[150.452186,-23.322015],[150.451768,-23.313971],[150.447603,-23.305879],[150.436968,-23.292487],[150.433781,-23.285142],[150.431044,-23.270752],[150.42666,-23.253756],[150.426775,-23.250131],[150.420477,-23.244466],[150.416207,-23.24503],[150.408512,-23.240311],[150.40117,-23.240125],[150.393224,-23.243064],[150.381417,-23.252189],[150.373049,-23.26507],[150.366312,-23.266554],[150.356224,-23.262722],[150.350671,-23.253094],[150.34508,-23.2496],[150.341632,-23.244011],[150.345258,-23.237296],[150.355146,-23.233579],[150.36677,-23.22248],[150.373434,-23.212235],[150.380008,-23.206863],[150.392114,-23.202162],[150.400114,-23.194188],[150.401814,-23.190435],[150.395039,-23.18423],[150.386856,-23.182952],[150.38383,-23.178481],[150.382429,-23.168845],[150.392683,-23.161213],[150.391909,-23.154909],[150.385016,-23.143227],[150.365625,-23.146364],[150.358626,-23.143544],[150.348794,-23.144754],[150.337034,-23.143133],[150.333853,-23.140253],[150.326465,-23.140992],[150.296553,-23.137715],[150.274949,-23.128773],[150.250265,-23.112568],[150.231773,-23.109663],[150.215837,-23.108256],[150.207542,-23.111505],[150.188007,-23.132028],[150.174591,-23.140151],[150.163031,-23.145759],[150.156812,-23.143372],[150.142901,-23.13428],[150.134046,-23.122298],[150.134575,-23.11322],[150.13869,-23.103092],[150.136468,-23.097539],[150.122531,-23.090106],[150.117732,-23.092181],[150.113827,-23.089666],[150.104216,-23.093442],[150.097723,-23.09306],[150.067954,-23.086117],[150.065538,-23.080873],[150.067263,-23.074729],[150.077034,-23.053731],[150.077267,-23.045378],[150.070913,-23.038645],[150.064782,-23.035044],[150.058786,-23.036292],[150.032639,-23.044771],[150.031414,-23.046906],[150.02508,-23.071369],[150.0225,-23.074685],[150.010888,-23.077764],[150.001067,-23.086839],[149.994573,-23.086875],[149.985631,-23.080996],[149.964649,-23.078344],[149.950732,-23.071185],[149.942065,-23.062727],[149.93567,-23.06422],[149.925217,-23.055259],[149.927459,-23.047198],[149.930969,-23.042972],[149.932408,-23.035964],[149.928494,-23.029915],[149.927271,-23.024166],[149.933171,-23.013746],[149.920502,-23.006785],[149.910211,-23.008126],[149.904691,-23.002516],[149.902251,-22.997046],[149.891032,-22.995976],[149.877832,-22.988136],[149.866282,-22.994056],[149.861262,-22.989906],[149.850642,-22.986797],[149.848582,-22.988387],[149.846622,-22.998437],[149.841102,-23.000137],[149.833882,-22.996797],[149.835192,-22.990817],[149.828102,-22.987797],[149.826492,-22.981597],[149.821002,-22.981287],[149.814682,-22.984697],[149.808622,-22.991377],[149.802532,-22.992307],[149.792893,-23.000877],[149.789503,-23.005527],[149.784023,-23.006907],[149.778463,-23.014497],[149.769093,-23.017587],[149.761293,-23.017177],[149.752903,-23.021627],[149.744843,-23.019737],[149.737563,-23.026437],[149.731223,-23.025897],[149.723823,-23.033047],[149.719603,-23.041537],[149.722103,-23.052237],[149.719493,-23.060742],[149.672626,-23.082061],[149.655344,-23.076657],[149.648859,-23.07742],[149.645187,-23.072553],[149.641957,-23.075274],[149.636915,-23.074261],[149.621895,-23.084759],[149.617037,-23.093423],[149.502879,-23.124087],[149.494664,-23.116882],[149.481568,-23.113155],[149.478229,-23.108201],[149.480475,-23.098972],[149.486475,-23.099576],[149.490555,-23.095824],[149.491892,-23.084097],[149.488851,-23.070407],[149.486268,-23.066773],[149.485786,-23.057813],[149.46951,-23.047371],[149.453351,-23.040364],[149.442494,-23.033423],[149.42915,-23.020364],[149.42775,-23.016891],[149.427861,-23.005262],[149.425057,-23.001265],[149.416215,-22.999399],[149.412252,-22.993706],[149.411298,-22.988103],[149.415783,-22.974785],[149.421529,-22.961987],[149.421488,-22.95379],[149.417721,-22.946244],[149.416303,-22.928743],[149.414489,-22.916572],[149.405242,-22.903668],[149.401138,-22.896322],[149.391533,-22.895333],[149.383977,-22.896017],[149.376811,-22.890846],[149.368591,-22.877874],[149.363062,-22.876211],[149.353703,-22.876122],[149.346716,-22.878761],[149.336083,-22.877631],[149.331813,-22.875143],[149.328337,-22.877677],[149.327075,-22.883094],[149.33128,-22.893096],[149.330236,-22.898631],[149.321765,-22.904619],[149.314293,-22.905031],[149.308406,-22.911869],[149.305156,-22.918682],[149.305176,-22.923357],[149.301817,-22.928257],[149.294649,-22.93294],[149.286321,-22.940571],[149.283877,-22.946133],[149.288119,-22.948248],[149.287246,-22.95598],[149.28006,-22.961604],[149.27603,-22.961936],[149.267668,-22.966606],[149.250483,-22.974464],[149.240807,-22.972953],[149.237171,-22.975994],[149.234149,-22.982527],[149.234281,-22.987265],[149.229082,-23.002999],[149.224031,-23.011498],[149.214422,-23.022698],[149.210302,-23.032814],[149.202604,-23.046849],[149.199207,-23.049914],[149.192807,-23.050537],[149.1862,-23.04803],[149.179855,-23.048238],[149.173048,-23.051711],[149.147294,-23.058683],[149.130287,-23.060752],[149.125102,-23.062709],[149.117878,-23.060352],[149.111424,-23.056046],[149.096393,-23.059515],[149.081592,-23.061475],[149.065889,-23.060284],[149.0545,-23.058417],[149.044293,-23.058847],[149.039604,-23.061738],[149.034452,-23.07179],[149.025361,-23.081416],[149.005218,-23.085924],[149.00021,-23.088048],[148.9796,-23.092321],[148.972451,-23.098269],[148.97158,-23.106768],[148.97722,-23.113087],[148.97339,-23.124475],[148.978231,-23.128189],[148.984488,-23.127577],[148.990547,-23.129709],[148.989625,-23.137348],[148.987109,-23.142809],[148.990971,-23.146518],[149.005738,-23.15022],[149.006861,-23.153929],[149.006485,-23.166331],[148.997986,-23.174236],[148.992577,-23.185535],[148.98544,-23.194509],[148.977557,-23.193018],[148.967848,-23.195813],[148.970337,-23.202065],[148.958771,-23.203344],[148.952334,-23.209204],[148.947262,-23.21789],[148.952595,-23.224652],[148.949365,-23.232911],[148.948101,-23.24056],[148.944915,-23.243508],[148.927227,-23.244349],[148.921203,-23.251288],[148.926888,-23.255977],[148.925088,-23.261956],[148.914246,-23.265127],[148.898031,-23.261447],[148.886918,-23.255945],[148.880456,-23.247974],[148.873241,-23.252851],[148.874011,-23.25963],[148.865654,-23.260258],[148.855769,-23.265929],[148.852647,-23.281698],[148.846794,-23.284054],[148.84566,-23.2906],[148.856416,-23.309963],[148.867048,-23.315448],[148.869953,-23.32656],[148.868587,-23.351642],[148.864183,-23.357455],[148.851148,-23.368026],[148.844292,-23.371727],[148.838128,-23.371336],[148.824323,-23.379128],[148.817214,-23.371193],[148.799646,-23.362369],[148.796326,-23.358124],[148.796833,-23.352398],[148.777653,-23.352668],[148.777788,-23.365868],[148.77641,-23.372193],[148.770779,-23.378718],[148.764571,-23.380672],[148.75027,-23.380733],[148.747531,-23.37911],[148.744679,-23.367219],[148.736709,-23.348453],[148.729411,-23.348614],[148.721082,-23.352352],[148.716681,-23.3513],[148.711838,-23.353753],[148.704689,-23.364297],[148.705981,-23.374372],[148.712004,-23.382661],[148.711363,-23.387594],[148.700364,-23.396237],[148.695249,-23.401828],[148.685677,-23.403061],[148.680399,-23.406066],[148.678531,-23.418059],[148.673498,-23.419255],[148.674954,-23.42469],[148.690868,-23.430036],[148.704675,-23.431413],[148.706025,-23.434288],[148.699681,-23.440988],[148.678514,-23.449371],[148.654241,-23.476079],[148.642827,-23.477393],[148.636622,-23.475568],[148.633973,-23.478616],[148.635704,-23.49854],[148.634147,-23.509707],[148.631031,-23.511156],[148.625897,-23.520177],[148.6257,-23.525017],[148.618668,-23.535828],[148.606302,-23.541314],[148.602911,-23.540028],[148.592378,-23.543155],[148.58596,-23.534103],[148.57783,-23.532457],[148.574859,-23.537035],[148.574062,-23.544604],[148.577274,-23.546568],[148.569267,-23.552874],[148.558293,-23.553472],[148.550394,-23.556035],[148.546106,-23.552485],[148.537486,-23.555964],[148.53194,-23.554883],[148.525498,-23.550323],[148.522818,-23.537987],[148.524572,-23.525041],[148.522879,-23.505184],[148.572977,-23.468959],[148.550383,-23.406916],[148.570486,-23.379295],[148.550342,-23.34683],[148.506585,-23.33061],[148.502667,-23.330327],[148.512161,-23.289023],[148.582498,-23.233938],[148.565222,-23.221956],[148.624423,-23.14898],[148.579188,-23.117531],[148.562268,-23.115896],[148.585139,-23.076009],[148.584836,-23.070544],[148.603569,-22.999462],[148.561538,-22.998657],[148.57252,-22.969438],[148.562112,-22.975681],[148.554187,-22.974479],[148.550302,-22.957235],[148.544671,-22.954721],[148.542686,-22.950795],[148.549477,-22.947106],[148.552636,-22.942195],[148.546818,-22.930624],[148.540165,-22.923386],[148.541127,-22.919718],[148.541092,-22.884532],[148.541899,-22.877303],[148.458068,-22.86749],[148.406806,-22.900461],[148.375982,-22.919255],[148.325051,-22.949835],[148.304263,-22.918101],[148.297722,-22.909496],[148.288665,-22.907959],[148.287178,-22.904698],[148.290422,-22.899606],[148.280482,-22.885819],[148.279198,-22.878767],[148.284794,-22.868291],[148.290322,-22.86695],[148.29714,-22.854594],[148.299533,-22.854306],[148.309382,-22.846455],[148.31228,-22.841851],[148.322687,-22.83318],[148.326386,-22.832726],[148.330494,-22.827606],[148.332384,-22.81831],[148.338484,-22.811462],[148.346309,-22.808137],[148.353966,-22.809821],[148.357085,-22.808295],[148.359756,-22.802162],[148.368575,-22.795246],[148.371154,-22.78714],[148.373824,-22.767276],[148.370322,-22.765548],[148.343134,-22.725418],[148.330236,-22.724777],[148.312707,-22.729766],[148.298809,-22.728982],[148.297753,-22.732058],[148.280975,-22.730264],[148.277393,-22.73348],[148.269892,-22.733648],[148.263638,-22.739151],[148.253538,-22.739706],[148.248451,-22.738209],[148.243007,-22.741621],[148.239066,-22.739765],[148.235372,-22.771757],[148.230834,-22.777398],[148.212514,-22.782072],[148.196388,-22.781128],[148.184667,-22.78923],[148.176142,-22.79034],[148.169325,-22.78303],[148.149796,-22.779597],[148.146731,-22.776544],[148.143507,-22.764854],[148.132147,-22.768739],[148.11345,-22.766264],[148.109514,-22.766599],[148.091103,-22.756473],[148.086739,-22.751356],[148.070245,-22.741068],[148.063937,-22.739495],[148.060497,-22.717718],[148.060759,-22.709873],[148.050534,-22.699222],[148.044389,-22.696653],[148.023003,-22.693116],[148.02006,-22.683353],[148.016938,-22.680422],[148.014921,-22.673135],[148.016055,-22.663531],[148.013086,-22.654254],[148.008732,-22.661312],[148.000963,-22.666527],[147.99369,-22.677014],[147.995828,-22.685521],[147.993769,-22.693531],[147.984757,-22.70469],[147.975888,-22.701857],[147.970947,-22.702377],[147.965712,-22.705894],[147.955322,-22.706716],[147.941661,-22.713013],[147.936708,-22.713884],[147.929003,-22.718738],[147.919739,-22.717301],[147.912777,-22.718751],[147.910719,-22.723097],[147.914748,-22.72938],[147.911966,-22.738885],[147.908713,-22.742525],[147.907405,-22.749165],[147.899784,-22.754868],[147.895114,-22.761733],[147.88891,-22.763738],[147.876535,-22.764766],[147.870815,-22.767692],[147.855659,-22.780595],[147.849669,-22.781082],[147.844495,-22.78507],[147.83457,-22.783244],[147.825713,-22.78478],[147.820954,-22.782927],[147.794069,-22.800503],[147.788117,-22.807411],[147.784139,-22.819204],[147.773247,-22.826673],[147.763891,-22.841224],[147.759272,-22.843865],[147.756222,-22.854843],[147.744088,-22.860953],[147.736966,-22.861535],[147.719203,-22.874248],[147.714083,-22.876674],[147.709415,-22.881742],[147.702627,-22.886115],[147.703666,-22.890636],[147.700356,-22.894861],[147.70159,-22.901479],[147.69977,-22.908772],[147.69296,-22.914396],[147.684483,-22.911656],[147.663483,-22.913114],[147.661686,-22.920591],[147.650746,-22.9247],[147.640506,-22.926287],[147.630759,-22.918347],[147.626062,-22.918931],[147.618866,-22.906095],[147.621765,-22.901533],[147.617158,-22.893582],[147.605208,-22.892413],[147.607283,-22.900139],[147.606358,-22.907109],[147.598981,-22.909014],[147.596782,-22.923446],[147.587857,-22.922283],[147.582748,-22.960542],[147.568241,-22.961692],[147.555036,-22.977293],[147.560884,-22.988785],[147.553981,-22.991912],[147.554627,-22.99752],[147.553034,-23.009169],[147.504157,-22.985761],[147.497058,-23.000895],[147.519762,-23.028142],[147.511381,-23.028113],[147.506366,-23.030419],[147.498497,-23.039308],[147.484001,-23.046347],[147.485997,-23.052291],[147.482895,-23.057692],[147.486067,-23.060821],[147.484988,-23.069222],[147.486973,-23.078755],[147.476561,-23.092949],[147.468058,-23.091146],[147.464149,-23.092223],[147.460002,-23.098592],[147.447182,-23.107232],[147.442576,-23.114347],[147.441503,-23.119767],[147.434958,-23.122046],[147.42837,-23.129044],[147.422143,-23.12887],[147.41166,-23.13469],[147.405029,-23.143727],[147.400561,-23.146953],[147.394573,-23.147326],[147.39118,-23.156131],[147.383367,-23.16536],[147.372578,-23.170645],[147.371093,-23.17578],[147.351258,-23.186534],[147.339918,-23.182564],[147.33328,-23.185756],[147.325448,-23.187432],[147.315009,-23.193149],[147.311562,-23.192723],[147.298204,-23.195443],[147.287032,-23.193599],[147.277843,-23.196115],[147.269586,-23.206854],[147.26075,-23.210132],[147.259437,-23.218073],[147.260758,-23.244653],[147.270562,-23.257258],[147.270056,-23.261294],[147.273746,-23.270774],[147.282253,-23.273971],[147.287517,-23.2791],[147.283965,-23.283747],[147.282912,-23.291948],[147.280042,-23.298918],[147.282307,-23.304691],[147.287771,-23.30893],[147.295098,-23.322405],[147.285597,-23.327724],[147.283115,-23.331396],[147.286103,-23.336898],[147.286615,-23.351236],[147.282898,-23.36259],[147.275442,-23.366037],[147.265016,-23.384165],[147.26576,-23.388763],[147.264528,-23.40115],[147.263044,-23.40458],[147.264544,-23.413066],[147.262059,-23.421795],[147.259839,-23.43807],[147.250642,-23.447251],[147.249395,-23.451392],[147.251142,-23.45896],[147.260362,-23.469494],[147.266079,-23.463297],[147.273294,-23.469267],[147.280316,-23.484984],[147.282114,-23.500569],[147.278297,-23.513459],[147.279757,-23.521555],[147.283772,-23.524784],[147.274621,-23.535167],[147.264012,-23.539036],[147.255698,-23.543867],[147.250363,-23.542932],[147.246346,-23.546341],[147.2344,-23.551871],[147.229028,-23.55272],[147.221399,-23.550461],[147.218867,-23.561479],[147.21837,-23.57016],[147.212164,-23.576067],[147.220467,-23.588366],[147.218235,-23.59567],[147.205549,-23.60195],[147.199904,-23.606229],[147.198288,-23.612572],[147.202127,-23.621217],[147.200722,-23.625658],[147.203296,-23.631319],[147.211324,-23.636607],[147.211652,-23.639495],[147.207205,-23.647283],[147.20057,-23.654615],[147.203364,-23.658251],[147.20509,-23.668349],[147.20953,-23.675934],[147.195719,-23.6845],[147.198606,-23.691448],[147.19521,-23.700256],[147.197611,-23.708672],[147.194062,-23.712227],[147.193689,-23.718214],[147.200708,-23.727129],[147.200876,-23.733861],[147.198524,-23.7411],[147.195132,-23.745572],[147.200177,-23.754928],[147.199053,-23.765659],[147.199777,-23.773309],[147.211315,-23.778207],[147.218838,-23.783996],[147.223412,-23.784121],[147.229553,-23.787489],[147.227572,-23.791094],[147.230148,-23.797974],[147.235897,-23.804855],[147.237201,-23.810399],[147.231367,-23.819022],[147.231077,-23.826314],[147.22769,-23.832112],[147.229673,-23.838765],[147.236497,-23.847964],[147.234793,-23.854725],[147.238932,-23.862297],[147.237332,-23.864324],[147.235712,-23.876362],[147.233507,-23.881347],[147.236434,-23.89174],[147.241019,-23.89811],[147.241147,-23.9032],[147.234311,-23.912074],[147.215018,-23.924264],[147.210629,-23.933804],[147.203283,-23.93982],[147.19466,-23.941582],[147.180954,-23.941598],[147.177174,-23.944496],[147.174456,-23.950506],[147.168985,-23.955351],[147.168786,-23.965833],[147.162999,-23.972891],[147.163928,-23.975614],[147.173364,-23.978058],[147.183679,-24.006618],[147.178747,-24.012955],[147.179174,-24.019096],[147.184912,-24.026744],[147.18663,-24.036053],[147.183188,-24.043424],[147.176102,-24.050369],[147.174172,-24.060048],[147.177616,-24.0692],[147.18275,-24.073443],[147.183316,-24.085741],[147.165563,-24.092446],[147.15635,-24.09253],[147.148813,-24.085938],[147.141514,-24.085622],[147.133039,-24.091512],[147.121788,-24.094461],[147.118722,-24.092849],[147.110288,-24.093341],[147.095442,-24.100541],[147.089536,-24.104416],[147.081085,-24.114289],[147.073689,-24.117696],[147.062049,-24.116189],[147.05046,-24.118549],[147.037413,-24.125697],[147.037304,-24.132195],[147.028623,-24.137561],[147.028548,-24.140537],[146.999866,-24.156502],[146.994507,-24.155355],[146.989859,-24.161312],[146.983299,-24.162628],[146.973663,-24.160118],[146.964777,-24.167453],[146.956372,-24.163594],[146.957122,-24.16999],[146.952676,-24.179018],[146.949734,-24.18836],[146.949867,-24.196825],[146.952601,-24.198957],[146.953418,-24.206858],[146.948903,-24.21413],[146.940287,-24.219268],[146.943701,-24.229177],[146.93809,-24.237827],[146.936993,-24.243344],[146.928097,-24.253624],[146.926852,-24.278986],[146.934852,-24.284256],[146.935123,-24.290589],[146.923093,-24.29469],[146.913001,-24.31269],[146.912529,-24.317536],[146.906656,-24.320113],[146.899735,-24.328556],[146.889936,-24.330926],[146.88475,-24.330746],[146.873699,-24.337689],[146.875557,-24.341967],[146.874662,-24.347985],[146.865341,-24.360267],[146.864237,-24.368793],[146.853612,-24.372299],[146.847672,-24.368715],[146.834678,-24.373214],[146.830811,-24.371698],[146.819203,-24.374014],[146.814357,-24.376709],[146.812185,-24.394305],[146.805026,-24.405198],[146.790866,-24.409955],[146.778052,-24.404992],[146.766685,-24.405286],[146.759519,-24.403674],[146.74717,-24.406922],[146.729701,-24.418552],[146.721313,-24.39688],[146.721926,-24.384701],[146.712721,-24.377528],[146.701234,-24.377986],[146.697223,-24.380997],[146.690512,-24.374888],[146.686173,-24.375129],[146.681967,-24.380232],[146.679657,-24.388242],[146.669372,-24.390463],[146.663448,-24.401214],[146.655893,-24.404079],[146.652209,-24.399946],[146.641718,-24.39916],[146.63847,-24.405101],[146.630008,-24.405202],[146.627134,-24.403218],[146.61781,-24.411821],[146.60924,-24.413188],[146.595864,-24.417187],[146.587183,-24.415166],[146.581126,-24.411553],[146.572458,-24.412847],[146.573966,-24.416709],[146.585785,-24.42644],[146.589084,-24.432009],[146.589662,-24.443562],[146.595735,-24.445898],[146.596051,-24.453012],[146.601117,-24.453644],[146.611238,-24.458387],[146.620278,-24.457946],[146.620081,-24.467147],[146.626085,-24.49376],[146.631819,-24.497795],[146.639924,-24.500211],[146.648209,-24.518063],[146.645882,-24.523343],[146.649392,-24.529151],[146.658324,-24.539146],[146.664048,-24.54805],[146.6615,-24.552607],[146.667476,-24.562208],[146.679623,-24.572827],[146.680792,-24.578937],[146.670035,-24.586105],[146.666809,-24.590814],[146.674742,-24.597017],[146.682175,-24.600126],[146.682499,-24.605848],[146.689504,-24.611584],[146.699274,-24.615734],[146.713536,-24.618884],[146.721442,-24.626028],[146.727358,-24.628049],[146.737509,-24.627758],[146.740203,-24.633794],[146.737139,-24.642757],[146.740507,-24.65034],[146.750486,-24.652368],[146.751829,-24.657782],[146.75791,-24.663359],[146.768061,-24.664303],[146.774156,-24.662766],[146.776705,-24.656893],[146.779787,-24.636176],[146.787417,-24.62629],[146.800113,-24.620586],[146.807024,-24.637142],[146.813623,-24.636531],[146.819052,-24.626023],[146.833941,-24.624339],[146.848677,-24.608736],[146.852574,-24.603482],[146.856982,-24.593744],[146.856902,-24.589878],[146.866123,-24.585866],[146.869334,-24.58842],[146.868483,-24.593368],[146.87592,-24.597704],[146.878538,-24.60134],[146.883106,-24.600802],[146.885795,-24.606947],[146.884384,-24.612304],[146.890277,-24.615411],[146.891847,-24.623434],[146.894756,-24.628826],[146.893173,-24.636972],[146.899302,-24.646346],[146.908935,-24.647888],[146.912703,-24.652465],[146.912528,-24.658513],[146.919144,-24.660678],[146.920908,-24.663993],[146.934754,-24.677537],[146.936395,-24.688066],[146.940097,-24.691954],[146.942012,-24.704363],[146.933092,-24.706992],[146.930346,-24.7105],[146.920875,-24.716637],[146.91991,-24.723405],[146.913179,-24.732301],[146.913451,-24.736688],[146.909466,-24.74383],[146.900543,-24.745328],[146.898204,-24.752973],[146.893944,-24.758234],[146.882273,-24.762487],[146.880282,-24.773406],[146.889122,-24.778912],[146.892546,-24.788315],[146.903382,-24.805192],[147.001883,-24.809328],[147.091547,-24.814128],[147.089424,-24.846467],[147.138836,-24.848994],[147.136624,-24.882882],[147.296394,-24.895801],[147.29757,-24.892178],[147.304036,-24.889721],[147.30537,-24.884965],[147.316256,-24.88422],[147.319583,-24.882372],[147.318466,-24.872592],[147.325593,-24.873039],[147.341583,-24.871324],[147.349799,-24.875507],[147.361082,-24.875212],[147.369764,-24.876753],[147.372538,-24.871808],[147.380961,-24.870793],[147.396272,-24.876306],[147.419719,-24.88137],[147.43427,-24.880898],[147.456279,-24.878709],[147.476435,-24.878219],[147.485925,-24.875806],[147.491734,-24.865696],[147.496514,-24.847012],[147.501425,-24.844724],[147.504482,-24.838383],[147.508973,-24.834905],[147.506614,-24.82326],[147.518734,-24.830197],[147.523945,-24.828989],[147.534164,-24.823434],[147.540148,-24.82298],[147.542436,-24.817561],[147.550334,-24.821103],[147.558327,-24.81918],[147.559219,-24.833081],[147.560529,-24.834267],[147.578539,-24.836037],[147.582609,-24.831856],[147.582945,-24.827634],[147.592147,-24.818238],[147.607963,-24.811629],[147.617294,-24.804936],[147.630868,-24.803814],[147.639038,-24.801377],[147.647279,-24.796988],[147.65019,-24.790735],[147.645708,-24.787347],[147.644421,-24.77697],[147.651461,-24.771121],[147.673356,-24.770124],[147.680447,-24.773845],[147.686805,-24.76468],[147.693526,-24.76112],[147.702071,-24.760443],[147.704866,-24.753147],[147.710456,-24.753271],[147.716069,-24.750241],[147.719927,-24.742926],[147.724395,-24.740952],[147.730304,-24.73301],[147.736993,-24.729756],[147.74599,-24.728696],[147.751762,-24.730649],[147.756836,-24.728436],[147.763198,-24.728951],[147.770257,-24.73322],[147.771817,-24.737559],[147.776839,-24.738968],[147.78354,-24.733739],[147.791302,-24.73076],[147.801391,-24.734943],[147.803102,-24.733431],[147.81158,-24.737144],[147.817252,-24.734994],[147.824435,-24.735092],[147.828826,-24.742927],[147.828137,-24.751815],[147.8301,-24.754538],[147.837606,-24.75451],[147.839575,-24.758121],[147.848003,-24.765044],[147.854187,-24.779593],[147.864259,-24.785959],[147.87365,-24.787709],[147.886118,-24.793786],[147.892238,-24.801814],[147.898498,-24.806232],[147.900817,-24.814351],[147.909285,-24.815461],[147.919557,-24.824789],[147.914043,-24.83849],[147.915821,-24.846065],[147.925527,-24.852293],[147.934021,-24.860888],[147.937932,-24.861572],[147.94711,-24.872977],[147.946253,-24.876152],[147.951945,-24.883207],[147.961597,-24.88113],[147.969521,-24.882736],[147.973222,-24.881534],[147.984231,-24.889771],[147.989917,-24.896577],[147.995082,-24.899475],[148.004223,-24.896809],[148.013503,-24.898707],[148.029651,-24.911364],[148.034721,-24.912171],[148.044644,-24.909362],[148.052006,-24.910867],[148.057673,-24.915533],[148.063111,-24.924548],[148.066023,-24.935653],[148.075298,-24.943078],[148.076491,-24.947928],[148.073043,-24.956188],[148.077734,-24.966632],[148.075886,-24.976045],[148.077062,-24.981113],[148.085083,-25.002144],[148.091481,-25.008837],[148.09577,-25.01653],[148.098979,-25.018357],[148.112801,-25.020967],[148.116388,-25.02281],[148.121614,-25.042014],[148.125046,-25.043916],[148.134456,-25.043285],[148.145176,-25.061298],[148.150139,-25.061389],[148.16059,-25.084158],[148.175078,-25.084523],[148.18127,-25.079508],[148.187864,-25.081302],[148.199157,-25.081994],[148.206002,-25.079243],[148.210095,-25.080258],[148.213314,-25.086419],[148.234682,-25.100669],[148.236233,-25.11429],[148.241985,-25.120519],[148.251888,-25.127659],[148.255568,-25.133557],[148.261056,-25.13566],[148.266994,-25.141081],[148.268645,-25.14518],[148.276739,-25.148888],[148.27605,-25.153144],[148.284621,-25.159044],[148.29112,-25.161197],[148.294554,-25.166089],[148.291807,-25.175292],[148.292909,-25.181878],[148.306379,-25.204066],[148.305577,-25.212292],[148.312501,-25.213037],[148.326231,-25.210283],[148.337088,-25.21779],[148.34773,-25.220138],[148.352041,-25.229095],[148.362362,-25.232802],[148.368356,-25.231382],[148.376377,-25.23481],[148.380391,-25.241707],[148.387508,-25.244188],[148.394619,-25.243044],[148.400133,-25.24599],[148.409589,-25.259138],[148.414819,-25.259542],[148.420849,-25.250871],[148.426569,-25.249569],[148.435285,-25.253531],[148.446339,-25.254946],[148.453224,-25.254446],[148.466032,-25.247229],[148.476277,-25.245351],[148.487966,-25.246957],[148.502915,-25.24648],[148.518537,-25.243463],[148.532426,-25.244102],[148.538319,-25.245678],[148.54891,-25.252428],[148.55435,-25.254094],[148.566593,-25.249519],[148.58394,-25.257201],[148.592823,-25.262818],[148.60008,-25.272857],[148.62568,-25.279958],[148.633171,-25.279425],[148.643119,-25.284125],[148.648198,-25.289823],[148.653069,-25.298317],[148.666312,-25.310855],[148.670807,-25.308439],[148.67986,-25.295346],[148.682284,-25.283268],[148.685641,-25.281554],[148.693174,-25.284779],[148.699857,-25.284562],[148.70837,-25.277516],[148.715218,-25.28248],[148.727488,-25.287935],[148.735465,-25.283615],[148.737946,-25.278093],[148.745256,-25.279722],[148.752652,-25.297268],[148.75916,-25.310723],[148.752563,-25.312866],[148.747053,-25.318655],[148.747381,-25.324176],[148.738909,-25.327586],[148.733512,-25.333637],[148.733191,-25.33774],[148.726677,-25.342554],[148.718979,-25.386953],[148.7249,-25.390354],[148.725891,-25.400851],[148.737187,-25.409777],[148.74414,-25.41326],[148.761779,-25.417376],[148.765578,-25.424278],[148.774856,-25.431714],[148.775948,-25.434942],[148.783807,-25.435883],[148.791206,-25.439104],[148.798086,-25.445413],[148.804531,-25.440814],[148.810924,-25.441026],[148.814904,-25.451995],[148.825651,-25.455553],[148.833441,-25.459951],[148.863733,-25.464768],[148.87286,-25.461235],[148.876853,-25.469772],[148.900436,-25.472457],[148.904984,-25.471388],[148.907116,-25.467266],[148.919061,-25.467495],[148.927733,-25.463247],[148.934775,-25.465162],[148.938047,-25.458588],[148.972217,-25.499426],[149.024318,-25.559799],[148.983717,-25.588673],[148.987691,-25.590989],[148.98642,-25.598095],[148.985648,-25.613453],[148.992975,-25.61896],[148.995205,-25.615985],[148.990127,-25.606755],[148.994982,-25.601044],[149.019693,-25.604013],[149.02556,-25.608162],[149.023861,-25.612384],[149.014703,-25.609639],[149.014798,-25.614784],[149.027865,-25.620187],[149.032667,-25.627058],[149.038265,-25.631533],[149.032951,-25.638381],[149.035539,-25.64176],[149.040868,-25.636566],[149.044744,-25.625197],[149.047453,-25.623382],[149.059057,-25.62579],[149.060299,-25.632182],[149.050497,-25.638531],[149.049901,-25.648835],[149.052852,-25.650087],[149.059276,-25.646668],[149.059655,-25.652623],[149.053383,-25.665666],[149.056927,-25.669416],[149.040483,-25.675832],[149.031884,-25.672849],[149.019484,-25.682014],[149.016196,-25.682242],[149.008598,-25.695076],[149.002018,-25.697823],[148.996296,-25.697735],[148.981868,-25.708496],[148.973513,-25.713302],[148.969716,-25.711692],[148.967691,-25.704123],[148.957567,-25.693105],[148.949467,-25.692864],[148.942382,-25.685517],[148.938868,-25.685688],[148.940101,-25.69331],[148.936809,-25.69835],[148.930226,-25.699945],[148.925668,-25.703836],[148.928704,-25.708197],[148.924649,-25.716904],[148.928446,-25.720579],[148.926418,-25.725161],[148.92186,-25.725384],[148.921839,-25.734548],[148.923765,-25.740484],[148.90072,-25.760089],[148.909561,-25.761169],[148.911223,-25.767597],[148.94469,-25.770998],[148.961161,-25.789761],[148.977436,-25.787133],[148.986605,-25.782246],[148.995957,-25.782225],[149.003682,-25.778126],[149.012135,-25.776826],[149.02135,-25.770085],[149.031379,-25.769672],[149.031609,-25.77551],[149.025279,-25.798982],[149.03147,-25.808222],[149.043739,-25.8218],[149.044221,-25.827595],[149.05461,-25.82896],[149.065246,-25.838588],[149.068032,-25.842485],[149.075631,-25.842944],[149.084498,-25.853487],[149.091338,-25.858529],[149.096658,-25.860132],[149.104513,-25.866319],[149.110591,-25.876186],[149.11034,-25.88375],[149.104766,-25.885127],[149.097673,-25.894069],[149.093618,-25.895215],[149.091086,-25.906677],[149.087791,-25.907824],[149.082976,-25.915618],[149.079935,-25.924558],[149.083743,-25.93234],[149.085523,-25.941109],[149.094392,-25.940361],[149.097295,-25.947899],[149.101998,-25.945631],[149.121267,-25.949521],[149.124564,-25.951124],[149.138019,-25.945806],[149.168422,-25.949034],[149.22596,-25.957228],[149.3028,-25.966084],[149.327807,-25.92525],[149.33567,-25.919475],[149.342262,-25.920837],[149.348584,-25.914866],[149.363258,-25.904752],[149.365015,-25.898102],[149.374624,-25.890518],[149.382728,-25.888896],[149.398148,-25.876256],[149.401437,-25.882486],[149.483531,-25.891873],[149.476835,-25.933506],[149.525451,-25.939004],[149.575487,-25.944165],[149.584391,-25.886616],[149.584928,-25.88641],[149.649194,-25.894488],[149.663522,-25.883613],[149.671961,-25.87939],[149.681889,-25.872281],[149.692287,-25.869086],[149.736105,-25.849599],[149.767184,-25.904682],[149.7714,-25.905968],[149.783034,-25.890701],[149.766316,-25.859459],[149.770882,-25.852357],[149.787361,-25.857971],[149.797338,-25.848931],[149.81344,-25.852522],[149.823117,-25.849048],[149.827694,-25.843175],[149.821545,-25.839978],[149.823579,-25.828294],[149.827116,-25.828797],[149.838505,-25.837059],[149.850809,-25.837479],[149.882488,-25.829441],[149.886195,-25.821038],[149.892911,-25.823855],[149.89887,-25.818502],[149.906393,-25.817178],[149.914417,-25.821655],[149.918988,-25.826725],[149.927607,-25.83175],[149.932016,-25.839442],[149.95035,-25.839654],[149.95426,-25.841202],[149.961377,-25.850635],[149.967796,-25.850624],[149.973508,-25.847673],[149.990059,-25.847095],[149.999719,-25.852286],[150.013385,-25.857455],[150.021743,-25.865177],[150.028006,-25.834568],[150.036262,-25.836571],[150.040041,-25.832695],[150.044705,-25.834612],[150.045533,-25.839492],[150.051751,-25.838021],[150.055946,-25.81313],[150.085198,-25.812072],[150.091005,-25.806508],[150.096674,-25.794322],[150.104286,-25.79574],[150.114728,-25.811216],[150.128692,-25.81849],[150.140981,-25.82252],[150.153139,-25.819408],[150.159249,-25.819108],[150.164756,-25.814955],[150.173776,-25.811517],[150.18059,-25.805155],[150.18047,-25.794943],[150.174465,-25.780107],[150.207462,-25.784615],[150.214283,-25.784401],[150.223881,-25.786938],[150.236742,-25.788791],[150.243311,-25.794533],[150.248536,-25.795257],[150.249602,-25.788184],[150.257854,-25.788433],[150.273033,-25.796255],[150.279111,-25.796265],[150.28193,-25.778848],[150.295095,-25.780245],[150.336669,-25.790407],[150.341134,-25.814928],[150.345436,-25.817684],[150.361141,-25.818391],[150.370517,-25.815421],[150.388757,-25.814523],[150.386739,-25.80581],[150.392823,-25.801231],[150.395108,-25.79596],[150.404484,-25.790466],[150.417908,-25.789101],[150.426022,-25.773976],[150.42959,-25.737068],[150.434148,-25.733632],[150.422019,-25.694231],[150.422787,-25.686855],[150.418493,-25.67516],[150.426595,-25.665307],[150.436464,-25.661415],[150.442553,-25.621755],[150.436743,-25.606392],[150.446103,-25.59883],[150.481757,-25.605261],[150.483874,-25.606115],[150.495492,-25.628387],[150.503805,-25.635991],[150.517162,-25.640726],[150.524181,-25.645387],[150.540576,-25.641001],[150.552962,-25.641598],[150.570285,-25.638198],[150.585328,-25.643468],[150.591235,-25.652692],[150.611994,-25.654349],[150.654161,-25.659782],[150.655598,-25.672033],[150.663566,-25.684276],[150.65653,-25.69223],[150.656284,-25.697451],[150.651803,-25.698694],[150.646508,-25.705237],[150.643149,-25.715662],[150.649601,-25.726196],[150.664276,-25.732738],[150.662897,-25.744921],[150.663659,-25.757653],[150.666455,-25.763755],[150.659821,-25.77334],[150.65021,-25.774253],[150.646446,-25.778767],[150.644123,-25.786199],[150.656881,-25.800968],[150.649235,-25.803309],[150.657708,-25.813704],[150.670406,-25.820476],[150.671762,-25.827008],[150.678744,-25.830376],[150.695119,-25.850231],[150.698644,-25.856755],[150.694756,-25.864496],[150.69306,-25.872116],[150.687168,-25.879062],[150.680025,-25.882755],[150.678375,-25.889028],[150.679783,-25.898045],[150.685058,-25.905185],[150.684992,-25.913875],[150.680638,-25.922504],[150.679501,-25.928499],[150.66888,-25.942667],[150.669292,-25.949218],[150.674537,-25.96324],[150.672754,-25.969587],[150.681749,-25.970215],[150.702056,-25.97393],[150.714413,-25.984856],[150.719656,-25.985166],[150.725619,-25.981021],[150.756939,-25.980742],[150.763635,-25.981599],[150.766949,-25.991106],[150.773626,-25.99833],[150.777454,-26.008617],[150.775812,-26.012233],[150.783155,-26.015618],[150.785401,-26.022393],[150.780915,-26.028494],[150.789811,-26.048923],[150.849566,-26.056405],[150.903927,-26.019397],[150.905964,-26.008324],[150.914066,-26.004091],[150.920428,-26.005017],[150.926842,-26.011795],[150.933085,-26.013221],[150.949807,-26.010038],[150.96216,-26.013861],[150.983982,-26.007806],[150.983413,-26.011491],[150.989194,-26.015251],[150.993893,-26.031208],[151.003024,-26.04327],[151.002058,-26.049567],[151.008271,-26.058981],[151.009113,-26.068061],[151.015886,-26.07722],[151.032555,-26.085226],[151.040198,-26.087752],[151.054264,-26.088892],[151.067346,-26.0854],[151.073864,-26.095345],[151.084658,-26.1001],[151.088111,-26.105184],[151.092954,-26.106275],[151.097819,-26.11075],[151.111168,-26.112674],[151.115419,-26.118709],[151.12628,-26.114512],[151.134442,-26.105289],[151.13738,-26.107714],[151.142906,-26.103987],[151.149873,-26.105422],[151.151723,-26.111104],[151.159531,-26.120801],[151.156542,-26.133733],[151.160695,-26.141995],[151.162002,-26.149526],[151.158781,-26.154536],[151.150047,-26.159651],[151.147017,-26.157869],[151.139286,-26.159184],[151.125694,-26.15144],[151.120581,-26.14297],[151.115867,-26.140866],[151.098696,-26.149895],[151.099828,-26.16028],[151.093041,-26.159457],[151.076428,-26.161844],[151.073267,-26.172767],[151.027041,-26.19348],[151.02286,-26.19499],[151.013243,-26.191929],[151.016714,-26.256222],[151.065901,-26.254601],[151.135653,-26.263126],[151.133333,-26.272512],[151.114728,-26.379598],[151.076833,-26.462323],[151.076963,-26.462816],[151.207725,-26.478767],[151.207727,-26.469191],[151.200421,-26.460622],[151.200782,-26.449264],[151.238761,-26.423762],[151.284892,-26.393278],[151.29149,-26.393484],[151.297415,-26.397532],[151.297865,-26.401194],[151.306596,-26.403988],[151.319517,-26.399944],[151.327382,-26.404182],[151.333524,-26.405372],[151.344304,-26.403238],[151.365386,-26.400973],[151.370471,-26.402085],[151.377146,-26.392937],[151.38812,-26.38432],[151.388893,-26.37948],[151.428038,-26.433727],[151.429954,-26.426842],[151.435133,-26.422745],[151.441376,-26.422229],[151.450339,-26.415019],[151.454801,-26.415278],[151.461314,-26.407844],[151.475737,-26.400622],[151.483858,-26.393493],[151.48591,-26.389125],[151.484065,-26.382817],[151.507509,-26.375876],[151.515538,-26.379025],[151.522533,-26.37955],[151.529666,-26.382224],[151.537849,-26.376519],[151.577562,-26.382058],[151.582001,-26.380851],[151.592715,-26.383564],[151.647576,-26.390682],[151.6715,-26.394175],[151.670869,-26.402049],[151.678427,-26.403042],[151.689134,-26.395779],[151.699503,-26.39734],[151.7062,-26.392379],[151.72096,-26.394326],[151.717187,-26.389125],[151.719506,-26.373923],[151.768432,-26.380312],[151.767239,-26.387785],[151.783161,-26.38985],[151.78543,-26.37526],[151.830557,-26.381094],[151.829064,-26.388592],[151.824244,-26.39273],[151.829002,-26.400351],[151.843093,-26.399261],[151.848182,-26.392232],[151.850882,-26.392306],[151.855351,-26.401241],[151.869863,-26.391497],[151.883259,-26.391988],[151.891556,-26.390819],[151.902167,-26.402367],[151.913282,-26.410399],[151.919035,-26.420935],[151.922653,-26.417623],[151.963203,-26.422662],[151.964121,-26.428438],[151.972949,-26.431256],[151.981949,-26.429183],[151.986949,-26.431624],[151.995889,-26.432648],[151.996828,-26.425945],[152.006256,-26.427111],[152.006825,-26.422907],[152.011405,-26.418496],[152.017899,-26.419201],[152.030218,-26.406111],[152.038536,-26.402151],[152.036555,-26.39955],[152.026143,-26.395239],[152.024788,-26.388057],[152.011059,-26.385124],[152.013422,-26.379282],[152.011798,-26.375274],[152.004079,-26.375493],[152.004573,-26.367569],[152.001176,-26.363489],[152.012645,-26.355588],[152.008945,-26.349807],[151.976569,-26.34617],[151.981362,-26.313347],[151.969211,-26.318702],[151.96736,-26.311697],[151.887749,-26.302294],[151.89115,-26.295353],[151.898704,-26.292026],[151.90072,-26.27996],[151.905567,-26.275997],[151.914307,-26.280856],[151.91769,-26.273954],[151.914694,-26.26824],[151.907515,-26.260096],[151.897011,-26.259893],[151.893311,-26.258234],[151.893228,-26.252664],[151.895743,-26.24674],[151.894463,-26.237798],[151.885838,-26.224807],[151.884838,-26.220517],[151.872218,-26.210447],[151.879868,-26.200527],[151.869118,-26.194747],[151.858849,-26.198237],[151.851089,-26.198447],[151.848449,-26.203637],[151.829549,-26.203487],[151.829819,-26.198067],[151.826295,-26.190486],[151.821455,-26.187986],[151.824158,-26.177689],[151.815989,-26.172307],[151.814999,-26.167217],[151.809869,-26.167207],[151.801849,-26.171707],[151.797959,-26.176107],[151.793589,-26.172147],[151.787209,-26.172127],[151.786219,-26.167727],[151.779109,-26.159017],[151.76451,-26.146787],[151.7584,-26.139207],[151.75201,-26.144498],[151.74563,-26.143588],[151.74615,-26.138168],[151.7424,-26.134888],[151.74592,-26.130718],[151.74407,-26.122128],[151.73856,-26.124258],[151.73218,-26.123338],[151.72369,-26.118918],[151.72536,-26.104468],[151.733999,-26.100198],[151.73065,-26.094208],[151.72065,-26.092598],[151.72279,-26.086058],[151.729929,-26.082238],[151.729104,-26.076674],[151.734661,-26.067384],[151.726321,-26.063467],[151.726911,-26.056142],[151.722655,-26.047354],[151.741932,-26.042285],[151.752566,-26.034705],[151.746409,-26.029345],[151.742071,-26.02045],[151.748113,-26.016463],[151.751177,-26.010761],[151.745639,-26.007579],[151.74491,-26.003645],[151.747883,-25.995871],[151.745511,-25.990229],[151.747767,-25.982619],[151.748131,-25.962301],[151.755123,-25.956471],[151.756208,-25.952814],[151.750852,-25.946878],[151.755829,-25.944522],[151.75276,-25.937299],[151.758639,-25.938087],[151.762977,-25.933098],[151.770274,-25.929496],[151.779773,-25.918549],[151.776567,-25.911913],[151.77645,-25.906423],[151.780763,-25.896673],[151.774274,-25.885075],[151.775496,-25.874766],[151.773624,-25.863985],[151.768132,-25.858398],[151.772839,-25.852184],[151.771034,-25.842451],[151.76711,-25.838898],[151.764944,-25.82768],[151.767072,-25.822848],[151.771977,-25.820751],[151.774541,-25.814303],[151.765987,-25.811131],[151.764372,-25.806895],[151.756923,-25.80341],[151.762195,-25.799748],[151.76842,-25.787998],[151.775013,-25.789742],[151.780541,-25.786844],[151.775824,-25.780048],[151.778267,-25.774487],[151.789831,-25.77171],[151.789786,-25.760914],[151.791987,-25.757567],[151.800368,-25.756975],[151.810575,-25.763555],[151.808315,-25.766762],[151.811388,-25.770963],[151.813737,-25.780079],[151.813167,-25.784971],[151.818568,-25.786835],[151.826505,-25.782806],[151.828813,-25.78473],[151.829022,-25.794416],[151.840231,-25.798076],[151.845809,-25.803676],[151.853211,-25.806568],[151.855631,-25.803963],[151.863018,-25.805697],[151.874725,-25.814909],[151.872573,-25.820062],[151.876545,-25.827325],[151.87727,-25.83287],[151.880871,-25.834456],[151.882501,-25.841783],[151.889405,-25.842047],[151.892811,-25.848651],[151.892421,-25.858635],[151.896252,-25.865138],[151.901243,-25.869509],[151.912883,-25.872474],[151.921471,-25.867975],[151.928602,-25.867609],[151.930618,-25.863003],[151.934963,-25.862831],[151.937907,-25.856158],[151.944529,-25.850898],[151.948406,-25.850825],[151.951031,-25.84557],[151.955425,-25.842617],[151.959502,-25.83317],[151.963119,-25.834045],[151.97037,-25.830597],[151.968886,-25.823065],[151.973338,-25.810871],[151.978908,-25.8137],[151.986207,-25.801285],[151.984733,-25.793916],[151.988981,-25.783486],[151.986326,-25.778887],[151.990273,-25.773895],[151.997389,-25.771044],[151.997343,-25.760758],[151.995453,-25.757201],[151.997517,-25.746418],[151.995299,-25.736844],[151.980272,-25.732958],[151.982451,-25.728582],[151.982369,-25.714891],[151.98857,-25.714327],[151.996997,-25.711224],[152.003286,-25.717589],[152.011822,-25.712082],[152.015502,-25.703861],[152.016262,-25.689889],[152.015094,-25.686058],[152.017406,-25.680358],[152.012236,-25.676373],[152.010987,-25.667617],[152.027238,-25.64931],[152.02956,-25.642241],[152.038053,-25.642759],[152.041155,-25.619681],[152.044132,-25.615126],[152.05187,-25.623777],[152.058075,-25.620692],[152.0661,-25.621286],[152.07317,-25.624364],[152.080261,-25.63101],[152.090661,-25.636328],[152.092612,-25.632195],[152.112134,-25.62701],[152.11529,-25.623473],[152.115812,-25.615454],[152.112095,-25.611014],[152.109701,-25.603509],[152.111252,-25.59843],[152.124061,-25.595915],[152.129339,-25.587721],[152.139631,-25.587167],[152.156646,-25.581891],[152.164418,-25.574584],[152.162723,-25.559592],[152.165411,-25.547505],[152.168551,-25.542118],[152.175423,-25.535857],[152.179166,-25.529428],[152.17943,-25.523104],[152.19364,-25.51924],[152.207062,-25.518728],[152.215758,-25.520186],[152.214937,-25.512918],[152.24629,-25.516507],[152.251173,-25.521076],[152.258019,-25.522232],[152.26976,-25.521904],[152.26935,-25.515397],[152.272075,-25.51269],[152.272674,-25.506328],[152.268637,-25.5035],[152.270826,-25.489849],[152.274434,-25.487712],[152.27339,-25.483131],[152.268459,-25.481738],[152.262079,-25.47656],[152.263781,-25.470471],[152.260376,-25.461914],[152.262042,-25.459012],[152.272513,-25.432233],[152.273607,-25.431306],[152.272169,-25.418657],[152.261989,-25.412268],[152.254145,-25.402235],[152.239001,-25.399161],[152.234232,-25.40011],[152.223802,-25.393851],[152.218599,-25.387404],[152.209626,-25.390113],[152.202742,-25.394922],[152.199366,-25.394552],[152.188925,-25.382638],[152.183738,-25.381284],[152.170374,-25.365444],[152.173766,-25.360023],[152.171032,-25.34906],[152.170901,-25.340597],[152.167244,-25.3361],[152.151701,-25.337256],[152.139881,-25.336297],[152.133003,-25.334212],[152.124337,-25.327105],[152.106011,-25.327916],[152.097474,-25.322255],[152.090606,-25.313338],[152.085235,-25.314517],[152.084645,-25.31826],[152.07615,-25.320364],[152.073797,-25.314589],[152.06791,-25.314343],[152.059769,-25.307518],[152.05563,-25.296029],[152.051309,-25.295117],[152.049087,-25.287726],[152.038172,-25.284256],[152.036795,-25.279241],[152.025554,-25.273177],[152.018132,-25.274379],[152.012174,-25.273272],[152.006375,-25.248895],[152.01166,-25.237236],[152.010664,-25.23014],[152.01162,-25.217304],[152.004993,-25.198925],[151.990833,-25.171799],[151.985485,-25.15275],[151.98244,-25.137224],[151.985499,-25.120216],[151.992568,-25.09842],[151.996047,-25.081705],[152.002817,-25.075694],[152.011049,-25.077857],[152.029457,-25.087774],[152.035961,-25.08844],[152.039286,-25.082594],[152.035856,-25.075761],[152.02835,-25.067611],[152.02784,-25.061383],[152.040932,-25.052424],[152.057759,-25.039531],[152.067497,-25.036934],[152.077378,-25.041109],[152.080822,-25.050047],[152.084637,-25.054799],[152.090664,-25.056354],[152.096099,-25.053548],[152.101789,-25.045909],[152.108215,-25.029534],[152.107558,-25.02386],[152.104072,-25.015762],[152.09398,-24.998931],[152.090068,-24.983846],[152.090165,-24.975131],[152.094341,-24.971515],[152.103578,-24.967778],[152.11851,-24.966678],[152.129407,-24.968202],[152.142289,-24.967046],[152.147307,-24.969241],[152.156489,-24.978377],[152.167676,-24.994735],[152.175626,-24.997079],[152.179002,-24.992928],[152.177258,-24.977192],[152.181268,-24.974027],[152.193335,-24.973701],[152.198942,-24.968844],[152.197997,-24.963987],[152.193716,-24.957617],[152.1821,-24.952671],[152.178233,-24.948617],[152.180104,-24.943351],[152.187305,-24.939535],[152.198549,-24.93878],[152.207912,-24.940403],[152.221651,-24.946151],[152.231889,-24.946685],[152.248525,-24.944357],[152.256223,-24.938709],[152.253118,-24.929132],[152.246515,-24.922607],[152.238398,-24.917802],[152.233655,-24.908748],[152.234806,-24.896948],[152.240159,-24.890983],[152.250481,-24.887724],[152.257679,-24.887614],[152.266323,-24.891048],[152.273852,-24.896304],[152.284301,-24.89691],[152.289772,-24.888794],[152.294274,-24.872531],[152.303275,-24.865411],[152.314058,-24.863873],[152.317401,-24.858767],[152.3134,-24.85034],[152.315267,-24.846121],[152.322588,-24.844835],[152.330036,-24.84583],[152.330605,-24.842148],[152.341909,-24.843661],[152.344448,-24.831136],[152.352946,-24.832236],[152.357507,-24.830677],[152.371398,-24.832517],[152.368939,-24.823911],[152.3603,-24.81327],[152.359477,-24.804252],[152.363867,-24.798906],[152.367665,-24.797706],[152.374962,-24.800419],[152.382148,-24.798164],[152.382998,-24.790996],[152.383992,-24.784039],[152.38111,-24.773377],[152.380183,-24.768636],[152.38217,-24.763004],[152.389791,-24.755716],[152.398069,-24.754889],[152.399561,-24.748098],[152.819303,-24.747662],[153.171305,-24.747295],[153.173248,-24.747293],[153.183366,-24.737667],[153.212125,-24.715944],[153.225861,-24.709028],[153.242773,-24.7017],[153.249611,-24.69767],[153.264621,-24.697089]]]},"bbox":[146.572458,-26.478767,153.264621,-22.654254]}]}