{"type":"FeatureCollection","features":[
{"properties":{"electorateShortName":"franklin","electorateName":"Franklin","area":6405.09,"state":null},"type":"Feature","geometry":{"type":"MultiPolygon","coordinates":[[[[145.940454,-43.150439],[145.921338,-43.163191],[145.927708,-43.185034],[145.915252,-43.194875],[145.946408,-43.230004],[145.975954,-43.234805],[145.96079,-43.295028],[146.010186,-43.335244],[146.136408,-43.345624],[146.176098,-43.298348],[146.227774,-43.355492],[145.975078,-43.349155],[145.935622,-43.369677],[145.996739,-43.40807],[146.041914,-43.513972],[146.038025,-43.547711],[146.224921,-43.491321],[146.26229,-43.492538],[146.295381,-43.54399],[146.338237,-43.51663],[146.459469,-43.542578],[146.552587,-43.512421],[146.705755,-43.629264],[146.8004,-43.601745],[146.863376,-43.632027],[146.92155,-43.599235],[146.887947,-43.549413],[146.956025,-43.528157],[146.942028,-43.478121],[146.973022,-43.431905],[147.012442,-43.42207],[147.097614,-43.280188],[147.219485,-43.281036],[147.260974,-43.223517],[147.238584,-43.154448],[147.345149,-43.049127],[147.316069,-42.973681],[147.251548,-42.965808],[147.18111,-42.985523],[147.146155,-42.974447],[147.150368,-42.913351],[146.955489,-42.882079],[146.937466,-42.928528],[146.855266,-42.939115],[146.846451,-42.908202],[146.723042,-42.858121],[146.647289,-42.853658],[146.648406,-42.921704],[146.458808,-43.087277],[146.222191,-43.118804],[146.08907,-43.053903],[145.978141,-43.039171],[145.979595,-43.128207],[145.940454,-43.150439]]],[[[147.433271,-43.231656],[147.367631,-43.071824],[147.326107,-43.08662],[147.290289,-43.14288],[147.346782,-43.186081],[147.357883,-43.255799],[147.334419,-43.283915],[147.271597,-43.276041],[147.222336,-43.339846],[147.212788,-43.382357],[147.255796,-43.457721],[147.244523,-43.488487],[147.301558,-43.510403],[147.381457,-43.378401],[147.320304,-43.343992],[147.320347,-43.310506],[147.362154,-43.260594],[147.433271,-43.231656]]],[[[147.292566,-42.790883],[147.354622,-42.857453],[147.458487,-42.911718],[147.449326,-42.970179],[147.5288,-43.006036],[147.494968,-42.911283],[147.529161,-42.847302],[147.459344,-42.809132],[147.434128,-42.77554],[147.368526,-42.761214],[147.292566,-42.790883]]]]},"bbox":[145.915252,-43.632027,147.529161,-42.761214]}]}