{"type":"FeatureCollection","features":[
{"properties":{"electorateShortName":"franklin","electorateName":"Franklin","area":6405.09,"state":null},"type":"Feature","geometry":{"type":"MultiPolygon","coordinates":[[[[145.940454,-43.150439],[145.935692,-43.15198],[145.933645,-43.156517],[145.925788,-43.157767],[145.921338,-43.163191],[145.921258,-43.172591],[145.929895,-43.177472],[145.927708,-43.185034],[145.93025,-43.188155],[145.934075,-43.188272],[145.933175,-43.190514],[145.937342,-43.191481],[145.929227,-43.193143],[145.919944,-43.189877],[145.916285,-43.192174],[145.915252,-43.194875],[145.918073,-43.198954],[145.928127,-43.204659],[145.925299,-43.209369],[145.920795,-43.207201],[145.916706,-43.209377],[145.916119,-43.211263],[145.917819,-43.21326],[145.921712,-43.211757],[145.926418,-43.215034],[145.928791,-43.211742],[145.93247,-43.21255],[145.931678,-43.214894],[145.935566,-43.220701],[145.938252,-43.223428],[145.945058,-43.225066],[145.946408,-43.230004],[145.96021,-43.23079],[145.961475,-43.228665],[145.965056,-43.228409],[145.970711,-43.230556],[145.97397,-43.233755],[145.975954,-43.234805],[145.974462,-43.239396],[145.972103,-43.241183],[145.972383,-43.245567],[145.968161,-43.24758],[145.971373,-43.250637],[145.971743,-43.253095],[145.970283,-43.254967],[145.971156,-43.258537],[145.967029,-43.261977],[145.968135,-43.264482],[145.966548,-43.265709],[145.973674,-43.269402],[145.97315,-43.272992],[145.969043,-43.27508],[145.970346,-43.276138],[145.964009,-43.278901],[145.958217,-43.278248],[145.953416,-43.281066],[145.955183,-43.283131],[145.960016,-43.283206],[145.960193,-43.284829],[145.963553,-43.285668],[145.962255,-43.290829],[145.957873,-43.290461],[145.96079,-43.295028],[145.966533,-43.296359],[145.967645,-43.29893],[145.966231,-43.300518],[145.968445,-43.302955],[145.97384,-43.305399],[145.976567,-43.303256],[145.981668,-43.304882],[145.984152,-43.31058],[145.979023,-43.315195],[145.983475,-43.322635],[145.99645,-43.321826],[145.994815,-43.320542],[145.998048,-43.319148],[146.001548,-43.321214],[146.004398,-43.319522],[146.00601,-43.320746],[146.004366,-43.329016],[146.002526,-43.33058],[145.997197,-43.330642],[145.999942,-43.332425],[146.004871,-43.331222],[146.00377,-43.335344],[146.007841,-43.331827],[146.008423,-43.334462],[146.010186,-43.335244],[146.017513,-43.334525],[146.017001,-43.337002],[146.025502,-43.337931],[146.026909,-43.339363],[146.026217,-43.340892],[146.028734,-43.342392],[146.039366,-43.336322],[146.039043,-43.332707],[146.044274,-43.336372],[146.049071,-43.337266],[146.052525,-43.332646],[146.056543,-43.334421],[146.058972,-43.333562],[146.056539,-43.331662],[146.059018,-43.32954],[146.059043,-43.326671],[146.051061,-43.324245],[146.052341,-43.321925],[146.050791,-43.31807],[146.052731,-43.316476],[146.051054,-43.313834],[146.051739,-43.311267],[146.061233,-43.307124],[146.056078,-43.303491],[146.052753,-43.305881],[146.051828,-43.30458],[146.053259,-43.300716],[146.058651,-43.295023],[146.064396,-43.297422],[146.065281,-43.295303],[146.064467,-43.289388],[146.067181,-43.289404],[146.065661,-43.297668],[146.060377,-43.300794],[146.058971,-43.30455],[146.062335,-43.30581],[146.065074,-43.305908],[146.065536,-43.309288],[146.069806,-43.30955],[146.069083,-43.312533],[146.071449,-43.315433],[146.070272,-43.322238],[146.072599,-43.324666],[146.071827,-43.327454],[146.074489,-43.328103],[146.077285,-43.331208],[146.07714,-43.334025],[146.084282,-43.340223],[146.085731,-43.339602],[146.084285,-43.334678],[146.084786,-43.32574],[146.087437,-43.325456],[146.091141,-43.333414],[146.091112,-43.339321],[146.093902,-43.339512],[146.099018,-43.344293],[146.104144,-43.343752],[146.107181,-43.345435],[146.109271,-43.345384],[146.111866,-43.348394],[146.116857,-43.348863],[146.120165,-43.346905],[146.130304,-43.349543],[146.136408,-43.345624],[146.1388,-43.33688],[146.135893,-43.334784],[146.139212,-43.33362],[146.138708,-43.329755],[146.141136,-43.322429],[146.147319,-43.319328],[146.14893,-43.315643],[146.153016,-43.315022],[146.15762,-43.311349],[146.154568,-43.309913],[146.157135,-43.30612],[146.151957,-43.307734],[146.15213,-43.302723],[146.156957,-43.299431],[146.157438,-43.29848],[146.168445,-43.291051],[146.173537,-43.294834],[146.17108,-43.299702],[146.17443,-43.297541],[146.176098,-43.298348],[146.176534,-43.304741],[146.172055,-43.31156],[146.171483,-43.319242],[146.176744,-43.32425],[146.175946,-43.32645],[146.180923,-43.326936],[146.181474,-43.320047],[146.186817,-43.320382],[146.183442,-43.317476],[146.184745,-43.315829],[146.186936,-43.316633],[146.189056,-43.315211],[146.197168,-43.317379],[146.198995,-43.322166],[146.20507,-43.325376],[146.208616,-43.330501],[146.2138,-43.329125],[146.21475,-43.323387],[146.219224,-43.321101],[146.221654,-43.321851],[146.221853,-43.323449],[146.217837,-43.326101],[146.224039,-43.325028],[146.224628,-43.323379],[146.228387,-43.325559],[146.229898,-43.327423],[146.224171,-43.328544],[146.222831,-43.332528],[146.224651,-43.338709],[146.223525,-43.345108],[146.225315,-43.348179],[146.224702,-43.351038],[146.227774,-43.355492],[146.226678,-43.361102],[146.223139,-43.363284],[146.212893,-43.364055],[146.219888,-43.370253],[146.218661,-43.373011],[146.225431,-43.375946],[146.224881,-43.381125],[146.227116,-43.383853],[146.224029,-43.38377],[146.219317,-43.385839],[146.216305,-43.385908],[146.216217,-43.382314],[146.20907,-43.375634],[146.208281,-43.36885],[146.209341,-43.366781],[146.211894,-43.366255],[146.210264,-43.363576],[146.188702,-43.363643],[146.184748,-43.36301],[146.182171,-43.360223],[146.17722,-43.361954],[146.166396,-43.361656],[146.16394,-43.36528],[146.159749,-43.364413],[146.160316,-43.367157],[146.165352,-43.370812],[146.163912,-43.374538],[146.166628,-43.374812],[146.167328,-43.379396],[146.174744,-43.378817],[146.176766,-43.382146],[146.17596,-43.383477],[146.169689,-43.383699],[146.164367,-43.38198],[146.159104,-43.385607],[146.159229,-43.390936],[146.156942,-43.392091],[146.150002,-43.3874],[146.147363,-43.377846],[146.14049,-43.3752],[146.137065,-43.377339],[146.134511,-43.380877],[146.135693,-43.38408],[146.141529,-43.395007],[146.141421,-43.398799],[146.144298,-43.402776],[146.142977,-43.40651],[146.143864,-43.408139],[146.149854,-43.41003],[146.152237,-43.415326],[146.158944,-43.415062],[146.168631,-43.411074],[146.171442,-43.414097],[146.171142,-43.416544],[146.166411,-43.418752],[146.166024,-43.417385],[146.162771,-43.418287],[146.161314,-43.416341],[146.156214,-43.414713],[146.151787,-43.415573],[146.151467,-43.41304],[146.148767,-43.412977],[146.148235,-43.409859],[146.144552,-43.409742],[146.140057,-43.406634],[146.141081,-43.404109],[146.142984,-43.403692],[146.142175,-43.401468],[146.138871,-43.400164],[146.139187,-43.391356],[146.136027,-43.385898],[146.134244,-43.386331],[146.134091,-43.382457],[146.130443,-43.381452],[146.130054,-43.379108],[146.128191,-43.378692],[146.129751,-43.375684],[146.126699,-43.373707],[146.129586,-43.372268],[146.13231,-43.373668],[146.137172,-43.37308],[146.128849,-43.364806],[146.132165,-43.360841],[146.130714,-43.358471],[146.130541,-43.355464],[146.123799,-43.352064],[146.121065,-43.353426],[146.116699,-43.351757],[146.113867,-43.354889],[146.111771,-43.351963],[146.108713,-43.35123],[146.106735,-43.348365],[146.100184,-43.349337],[146.099204,-43.348088],[146.09603,-43.34707],[146.09507,-43.351757],[146.091668,-43.349709],[146.088208,-43.343048],[146.086187,-43.342035],[146.089583,-43.350326],[146.086217,-43.347382],[146.08295,-43.348843],[146.079185,-43.346638],[146.07724,-43.34678],[146.076769,-43.34913],[146.075216,-43.349447],[146.068303,-43.344201],[146.064819,-43.345169],[146.060586,-43.343797],[146.058308,-43.344498],[146.063392,-43.347652],[146.064252,-43.348999],[146.069642,-43.353401],[146.07608,-43.355041],[146.091597,-43.36448],[146.093458,-43.367715],[146.090371,-43.370393],[146.086862,-43.371383],[146.079361,-43.370266],[146.077142,-43.36922],[146.076323,-43.366686],[146.071152,-43.366087],[146.070508,-43.365085],[146.075448,-43.362226],[146.07783,-43.358501],[146.073128,-43.35777],[146.068427,-43.355059],[146.068006,-43.353142],[146.061132,-43.352554],[146.056153,-43.349543],[146.052213,-43.350175],[146.052479,-43.348459],[146.045973,-43.346383],[146.034307,-43.347145],[146.030388,-43.345979],[146.022198,-43.34732],[146.012219,-43.344276],[146.003097,-43.344958],[146.001031,-43.341597],[146.00672,-43.339682],[145.992741,-43.335904],[145.991391,-43.331539],[145.986817,-43.329322],[145.981797,-43.333342],[145.981292,-43.337267],[145.978126,-43.339756],[145.980098,-43.34046],[145.976215,-43.34354],[145.97687,-43.346116],[145.975078,-43.349155],[145.978762,-43.353153],[145.981726,-43.351962],[145.984154,-43.348453],[145.989245,-43.347892],[145.992119,-43.351145],[145.991821,-43.362755],[145.993134,-43.365324],[145.996556,-43.365271],[145.997081,-43.366853],[145.999178,-43.367697],[145.998521,-43.374769],[145.994695,-43.377162],[145.994391,-43.37935],[145.99661,-43.380643],[145.998126,-43.384727],[145.993652,-43.394252],[145.986761,-43.394507],[145.983727,-43.388246],[145.989307,-43.380367],[145.989769,-43.377258],[145.992048,-43.376826],[145.993483,-43.373943],[145.990443,-43.37275],[145.987852,-43.361516],[145.981592,-43.357624],[145.978334,-43.358225],[145.977466,-43.355573],[145.975134,-43.357079],[145.970118,-43.357086],[145.969259,-43.361582],[145.974773,-43.361772],[145.97579,-43.363094],[145.974508,-43.366704],[145.970756,-43.369699],[145.964923,-43.369615],[145.962829,-43.368103],[145.961988,-43.363446],[145.953241,-43.359387],[145.950799,-43.36115],[145.951255,-43.364421],[145.948863,-43.364094],[145.94749,-43.365263],[145.948517,-43.366931],[145.94634,-43.371779],[145.935622,-43.369677],[145.932098,-43.369962],[145.930689,-43.372164],[145.933108,-43.374924],[145.930916,-43.376385],[145.931852,-43.377544],[145.930329,-43.379369],[145.925012,-43.378995],[145.921467,-43.381296],[145.924789,-43.38591],[145.929457,-43.385943],[145.929138,-43.387979],[145.934257,-43.390884],[145.938057,-43.39024],[145.948061,-43.38129],[145.951659,-43.383338],[145.9549,-43.381939],[145.964525,-43.382612],[145.968328,-43.384526],[145.976372,-43.395226],[145.976435,-43.399],[145.971237,-43.403446],[145.977058,-43.405234],[145.992687,-43.405602],[145.996739,-43.40807],[145.995083,-43.412602],[145.996693,-43.414379],[145.996198,-43.420039],[145.998407,-43.42115],[145.996642,-43.423873],[146.000881,-43.423234],[146.002368,-43.427556],[145.999306,-43.431626],[146.003115,-43.435029],[146.000932,-43.437706],[146.004838,-43.438032],[146.008508,-43.444953],[146.011564,-43.444563],[146.013312,-43.44754],[146.011932,-43.449184],[146.018031,-43.455094],[146.016261,-43.456327],[146.013137,-43.455308],[146.011848,-43.456246],[146.011727,-43.458847],[146.008742,-43.459898],[146.007859,-43.462944],[146.005742,-43.463896],[146.008187,-43.466757],[146.012152,-43.465337],[146.014851,-43.459437],[146.024844,-43.460885],[146.029154,-43.464307],[146.032045,-43.468215],[146.02782,-43.479495],[146.027455,-43.488205],[146.029141,-43.490868],[146.035876,-43.494866],[146.036861,-43.500212],[146.035752,-43.502715],[146.040156,-43.50505],[146.039814,-43.507575],[146.04282,-43.508548],[146.041587,-43.510634],[146.042677,-43.512013],[146.041914,-43.513972],[146.039466,-43.515946],[146.039999,-43.519613],[146.036188,-43.520928],[146.03835,-43.524927],[146.037929,-43.527797],[146.040929,-43.530554],[146.041023,-43.533695],[146.038501,-43.533664],[146.039513,-43.53678],[146.037606,-43.53836],[146.040341,-43.542183],[146.034502,-43.539061],[146.033795,-43.539963],[146.038025,-43.547711],[146.037254,-43.55135],[146.032942,-43.556336],[146.035156,-43.561478],[146.032307,-43.567477],[146.029635,-43.56808],[146.031119,-43.570953],[146.03406,-43.570501],[146.034618,-43.567483],[146.039482,-43.564065],[146.044046,-43.55622],[146.044596,-43.553117],[146.046171,-43.552375],[146.049354,-43.554277],[146.049487,-43.551851],[146.053629,-43.551223],[146.060488,-43.552963],[146.062198,-43.555615],[146.065816,-43.554863],[146.069952,-43.556499],[146.075113,-43.549186],[146.075735,-43.543675],[146.079451,-43.540973],[146.083068,-43.541954],[146.085947,-43.540418],[146.09073,-43.542489],[146.093762,-43.548919],[146.091581,-43.552461],[146.094658,-43.552842],[146.100557,-43.55575],[146.102539,-43.554532],[146.104085,-43.556974],[146.109879,-43.557075],[146.11292,-43.551714],[146.107311,-43.544342],[146.108823,-43.54128],[146.110737,-43.541752],[146.107196,-43.531623],[146.108261,-43.526999],[146.113538,-43.523836],[146.116143,-43.527213],[146.11801,-43.526306],[146.121556,-43.526847],[146.121273,-43.521968],[146.123056,-43.521588],[146.129045,-43.525878],[146.128429,-43.521224],[146.136493,-43.518296],[146.138196,-43.520999],[146.141523,-43.520325],[146.145671,-43.528478],[146.147362,-43.526408],[146.149494,-43.52555],[146.147213,-43.522234],[146.142256,-43.504229],[146.148004,-43.501487],[146.156717,-43.501992],[146.158705,-43.504706],[146.15687,-43.506379],[146.156604,-43.510152],[146.161542,-43.516419],[146.173697,-43.510089],[146.177565,-43.511374],[146.179117,-43.515929],[146.180806,-43.516542],[146.179533,-43.518807],[146.181387,-43.520253],[146.182404,-43.526627],[146.18384,-43.526585],[146.184076,-43.532106],[146.185855,-43.530421],[146.189056,-43.532275],[146.189246,-43.534867],[146.191349,-43.535166],[146.19159,-43.538759],[146.195292,-43.538521],[146.19889,-43.539405],[146.199676,-43.53727],[146.209618,-43.534836],[146.21166,-43.531943],[146.210495,-43.527159],[146.212564,-43.526243],[146.211107,-43.523955],[146.212032,-43.52105],[146.209112,-43.514356],[146.209782,-43.506969],[146.21388,-43.502825],[146.214292,-43.495412],[146.224483,-43.491138],[146.215962,-43.493016],[146.211035,-43.492175],[146.208354,-43.487378],[146.211488,-43.488141],[146.213524,-43.485733],[146.216007,-43.485565],[146.224755,-43.488527],[146.224921,-43.491321],[146.240125,-43.491035],[146.24346,-43.495767],[146.243527,-43.491053],[146.250043,-43.489828],[146.26229,-43.492538],[146.272905,-43.49845],[146.276121,-43.503585],[146.273278,-43.505448],[146.273785,-43.510647],[146.272627,-43.512297],[146.268605,-43.512379],[146.270234,-43.514739],[146.265003,-43.515543],[146.270427,-43.518234],[146.269765,-43.521823],[146.267727,-43.523565],[146.26897,-43.526175],[146.272794,-43.529216],[146.276438,-43.528807],[146.276541,-43.531509],[146.278229,-43.53215],[146.28337,-43.53591],[146.288846,-43.541752],[146.287586,-43.543617],[146.290137,-43.54466],[146.292943,-43.542858],[146.295381,-43.54399],[146.30457,-43.540337],[146.308319,-43.540467],[146.310421,-43.538436],[146.317811,-43.536247],[146.31976,-43.532404],[146.321775,-43.531507],[146.3203,-43.527311],[146.322526,-43.524146],[146.327447,-43.523392],[146.325709,-43.520608],[146.330523,-43.521618],[146.334243,-43.518686],[146.338237,-43.51663],[146.344044,-43.516339],[146.344288,-43.514324],[146.351356,-43.516237],[146.351232,-43.517434],[146.358641,-43.515269],[146.367572,-43.520236],[146.368505,-43.530461],[146.37041,-43.529337],[146.37264,-43.535039],[146.381298,-43.532043],[146.385377,-43.533758],[146.385593,-43.531941],[146.391538,-43.530271],[146.397727,-43.532653],[146.396146,-43.53485],[146.400995,-43.535047],[146.40272,-43.537091],[146.401533,-43.538219],[146.405565,-43.539816],[146.408149,-43.536363],[146.411231,-43.5351],[146.415806,-43.53678],[146.420469,-43.537074],[146.420548,-43.535265],[146.423017,-43.534566],[146.444375,-43.537761],[146.452673,-43.534433],[146.455125,-43.53711],[146.455125,-43.53982],[146.459469,-43.542578],[146.463692,-43.541005],[146.469323,-43.542581],[146.471368,-43.536602],[146.474034,-43.53458],[146.47684,-43.537834],[146.480689,-43.536492],[146.481481,-43.537945],[146.484505,-43.537536],[146.48746,-43.539278],[146.48988,-43.542936],[146.490552,-43.538166],[146.493062,-43.538457],[146.492628,-43.535519],[146.497136,-43.535098],[146.498266,-43.533194],[146.497241,-43.529903],[146.502034,-43.529546],[146.50874,-43.524066],[146.512137,-43.523263],[146.518239,-43.524748],[146.519744,-43.527137],[146.518208,-43.530218],[146.531671,-43.531364],[146.542175,-43.523268],[146.576987,-43.535235],[146.595845,-43.543571],[146.595345,-43.541475],[146.587519,-43.538719],[146.583758,-43.534566],[146.571634,-43.527442],[146.563779,-43.525188],[146.565812,-43.522996],[146.563687,-43.518338],[146.552587,-43.512421],[146.551411,-43.510393],[146.55058,-43.501192],[146.556142,-43.496624],[146.555397,-43.49366],[146.548896,-43.492071],[146.549477,-43.484722],[146.548241,-43.483422],[146.550238,-43.479957],[146.548678,-43.475434],[146.553128,-43.468521],[146.555928,-43.467579],[146.559691,-43.469126],[146.560781,-43.465876],[146.563459,-43.466396],[146.56919,-43.474549],[146.571543,-43.475661],[146.57285,-43.480759],[146.578282,-43.485135],[146.576238,-43.490126],[146.577277,-43.493192],[146.574582,-43.495474],[146.575724,-43.504334],[146.574111,-43.506847],[146.575692,-43.509073],[146.575933,-43.515078],[146.579287,-43.521088],[146.575188,-43.524626],[146.587829,-43.535565],[146.597664,-43.541162],[146.598066,-43.542462],[146.59711,-43.546065],[146.604618,-43.550487],[146.607548,-43.550207],[146.59859,-43.557836],[146.59806,-43.560225],[146.599361,-43.561932],[146.610038,-43.559801],[146.610372,-43.562426],[146.6062,-43.563413],[146.607082,-43.565045],[146.605034,-43.566739],[146.608514,-43.569083],[146.61081,-43.568748],[146.617531,-43.562855],[146.623734,-43.563425],[146.628537,-43.565512],[146.630095,-43.567173],[146.630123,-43.569779],[146.632129,-43.570262],[146.631679,-43.572317],[146.635324,-43.573086],[146.637004,-43.578231],[146.640122,-43.577472],[146.641981,-43.580282],[146.644963,-43.580366],[146.644871,-43.582022],[146.640296,-43.584302],[146.640129,-43.587436],[146.647528,-43.581478],[146.657227,-43.584234],[146.656873,-43.586823],[146.658402,-43.587651],[146.652777,-43.596177],[146.656135,-43.600946],[146.656434,-43.604429],[146.65987,-43.605512],[146.660118,-43.60772],[146.662858,-43.606658],[146.665157,-43.600688],[146.668332,-43.59873],[146.670225,-43.594409],[146.67823,-43.594445],[146.686091,-43.596701],[146.687554,-43.601366],[146.690132,-43.603881],[146.692379,-43.611104],[146.69378,-43.611747],[146.692566,-43.614205],[146.697449,-43.617958],[146.69776,-43.625557],[146.699361,-43.624113],[146.701799,-43.624715],[146.705755,-43.629264],[146.705374,-43.633373],[146.711246,-43.626075],[146.715747,-43.626246],[146.718337,-43.629454],[146.721876,-43.629263],[146.723444,-43.631932],[146.725255,-43.627703],[146.731874,-43.621965],[146.733977,-43.61802],[146.738083,-43.616501],[146.740476,-43.618445],[146.746118,-43.60999],[146.751076,-43.610347],[146.753554,-43.608294],[146.761957,-43.611946],[146.762359,-43.615342],[146.770801,-43.607904],[146.776971,-43.606974],[146.780704,-43.609456],[146.785297,-43.604946],[146.785144,-43.60029],[146.791706,-43.601711],[146.792525,-43.605317],[146.79585,-43.60176],[146.8004,-43.601745],[146.807676,-43.606237],[146.817358,-43.60657],[146.831278,-43.615117],[146.833776,-43.618188],[146.835683,-43.625526],[146.838875,-43.628426],[146.83871,-43.630761],[146.825692,-43.639754],[146.826624,-43.643092],[146.835317,-43.639913],[146.835637,-43.638224],[146.838403,-43.638654],[146.838988,-43.636241],[146.844807,-43.633052],[146.850207,-43.636558],[146.853297,-43.633658],[146.855367,-43.634515],[146.858124,-43.632302],[146.863376,-43.632027],[146.869669,-43.634896],[146.870924,-43.638637],[146.874014,-43.62853],[146.873612,-43.623367],[146.879417,-43.620275],[146.884755,-43.620882],[146.886267,-43.615641],[146.890359,-43.614673],[146.894722,-43.615722],[146.92155,-43.599235],[146.9214,-43.595993],[146.916913,-43.59392],[146.920055,-43.589974],[146.91809,-43.586206],[146.923853,-43.580994],[146.91945,-43.575661],[146.920673,-43.570414],[146.916789,-43.568788],[146.915286,-43.569078],[146.913531,-43.573074],[146.908689,-43.572906],[146.90738,-43.576708],[146.900202,-43.577165],[146.900297,-43.578806],[146.896024,-43.582229],[146.886527,-43.582815],[146.882606,-43.585967],[146.872591,-43.589716],[146.873978,-43.587828],[146.880657,-43.585808],[146.884402,-43.582103],[146.892625,-43.58258],[146.887284,-43.57843],[146.891605,-43.57547],[146.890404,-43.572495],[146.891658,-43.571288],[146.887025,-43.566028],[146.889733,-43.565894],[146.89344,-43.56406],[146.89322,-43.562514],[146.895623,-43.561964],[146.901754,-43.565002],[146.903731,-43.562043],[146.903865,-43.560185],[146.892733,-43.558432],[146.891543,-43.553458],[146.87737,-43.558031],[146.889195,-43.553185],[146.887947,-43.549413],[146.889824,-43.545143],[146.895368,-43.541004],[146.890548,-43.535395],[146.896623,-43.528962],[146.896559,-43.526067],[146.902301,-43.522915],[146.900783,-43.51595],[146.903086,-43.516884],[146.904763,-43.521445],[146.907893,-43.521206],[146.905473,-43.526594],[146.909137,-43.52846],[146.911372,-43.531859],[146.909096,-43.537506],[146.903669,-43.538941],[146.905563,-43.54158],[146.91358,-43.542013],[146.913734,-43.544176],[146.917257,-43.546296],[146.916897,-43.543517],[146.92081,-43.541511],[146.918774,-43.535125],[146.9241,-43.530301],[146.926949,-43.530918],[146.925836,-43.53245],[146.926702,-43.534365],[146.921554,-43.5375],[146.921434,-43.539302],[146.934676,-43.533283],[146.941945,-43.531898],[146.948128,-43.533995],[146.952825,-43.532988],[146.956025,-43.528157],[146.952473,-43.515069],[146.954158,-43.51181],[146.959001,-43.50678],[146.977883,-43.494017],[146.976663,-43.487618],[146.964159,-43.497915],[146.953006,-43.510102],[146.943704,-43.512025],[146.944368,-43.510063],[146.941213,-43.506274],[146.943263,-43.501466],[146.938098,-43.501281],[146.935996,-43.500685],[146.936413,-43.498584],[146.928992,-43.496674],[146.930382,-43.493336],[146.936831,-43.489998],[146.936576,-43.485677],[146.942028,-43.478121],[146.944383,-43.477887],[146.945256,-43.480537],[146.949664,-43.477011],[146.95508,-43.477967],[146.960199,-43.476501],[146.961585,-43.471731],[146.964049,-43.471925],[146.972545,-43.468638],[146.979584,-43.470412],[146.982585,-43.475028],[146.982251,-43.479613],[146.978809,-43.485716],[146.980777,-43.487256],[146.983923,-43.487524],[146.995444,-43.480537],[147.000827,-43.481552],[147.001794,-43.479652],[146.998702,-43.475416],[147.000098,-43.470816],[146.995048,-43.468647],[146.994491,-43.465791],[146.99684,-43.463985],[146.996446,-43.461872],[146.986605,-43.460342],[146.983224,-43.454706],[146.974475,-43.453594],[146.97342,-43.455556],[146.969977,-43.455637],[146.966251,-43.454204],[146.96236,-43.448872],[146.959684,-43.447703],[146.958404,-43.449995],[146.953096,-43.450495],[146.948668,-43.453098],[146.942991,-43.450893],[146.942468,-43.448892],[146.938813,-43.449469],[146.940326,-43.443985],[146.946158,-43.446016],[146.941796,-43.43996],[146.937519,-43.441495],[146.930454,-43.440812],[146.924797,-43.444595],[146.915635,-43.447067],[146.919793,-43.442672],[146.91684,-43.441228],[146.918057,-43.438489],[146.920636,-43.438172],[146.907601,-43.432393],[146.908291,-43.432156],[146.916516,-43.435152],[146.91771,-43.433601],[146.923631,-43.439837],[146.92757,-43.438595],[146.928425,-43.436687],[146.920327,-43.417799],[146.923638,-43.415583],[146.930597,-43.424093],[146.935326,-43.425196],[146.934988,-43.428178],[146.939027,-43.432349],[146.947603,-43.43434],[146.947204,-43.437429],[146.944603,-43.439306],[146.948886,-43.445582],[146.950553,-43.44738],[146.961257,-43.445858],[146.962804,-43.437071],[146.973022,-43.431905],[146.97759,-43.433159],[146.978316,-43.436173],[146.982299,-43.435936],[146.983375,-43.439341],[146.986909,-43.440799],[146.98951,-43.440037],[146.990814,-43.435038],[146.995705,-43.433629],[147.001036,-43.436666],[147.003066,-43.433992],[147.009961,-43.437179],[147.012223,-43.441006],[147.014187,-43.441321],[147.013471,-43.443554],[147.017624,-43.443455],[147.017376,-43.440465],[147.020909,-43.438898],[147.021823,-43.436773],[147.026432,-43.435817],[147.022821,-43.42802],[147.019435,-43.425022],[147.015259,-43.425113],[147.012442,-43.42207],[147.015134,-43.417631],[147.021789,-43.411587],[147.025445,-43.411434],[147.018762,-43.408832],[147.016661,-43.403277],[147.01892,-43.400711],[147.029897,-43.397188],[147.030811,-43.396026],[147.028326,-43.391434],[147.032016,-43.386309],[147.038991,-43.385244],[147.03973,-43.382596],[147.046012,-43.380001],[147.048243,-43.377002],[147.047464,-43.375102],[147.050586,-43.373642],[147.051744,-43.370004],[147.052646,-43.357316],[147.059681,-43.357718],[147.059306,-43.353063],[147.039508,-43.345543],[147.034042,-43.345464],[147.031389,-43.343024],[147.024232,-43.340136],[147.024737,-43.338542],[147.019319,-43.333896],[147.01631,-43.334851],[147.013129,-43.34201],[147.007713,-43.343484],[147.002556,-43.339972],[146.990885,-43.340192],[146.99175,-43.337951],[146.990123,-43.335198],[146.985438,-43.333194],[146.980565,-43.336688],[146.978245,-43.333495],[146.982586,-43.329722],[146.97565,-43.329837],[146.971695,-43.327434],[146.976241,-43.325424],[146.981019,-43.325432],[146.982944,-43.327361],[146.987519,-43.327341],[146.993835,-43.33508],[147.002395,-43.334029],[147.00416,-43.335497],[147.006046,-43.334542],[147.003088,-43.331017],[147.003743,-43.32423],[147.005977,-43.323434],[147.011916,-43.315833],[147.019564,-43.316253],[147.022633,-43.318691],[147.023509,-43.316757],[147.02823,-43.313915],[147.032156,-43.314802],[147.045042,-43.312302],[147.053807,-43.316682],[147.054895,-43.318789],[147.053823,-43.321086],[147.058181,-43.325379],[147.059073,-43.329341],[147.06533,-43.332813],[147.068114,-43.328705],[147.072588,-43.326172],[147.069021,-43.32422],[147.067054,-43.318639],[147.06917,-43.314891],[147.075136,-43.312024],[147.079558,-43.298731],[147.078654,-43.295472],[147.080573,-43.292427],[147.088805,-43.29053],[147.098989,-43.291849],[147.100133,-43.290217],[147.097636,-43.28623],[147.100714,-43.283688],[147.097614,-43.280188],[147.089403,-43.278382],[147.088414,-43.276132],[147.089434,-43.274024],[147.076786,-43.271097],[147.068004,-43.263638],[147.065986,-43.260047],[147.06794,-43.25791],[147.06438,-43.255965],[147.065929,-43.254387],[147.064544,-43.249102],[147.0608,-43.24761],[147.053716,-43.247952],[147.042267,-43.241104],[147.037075,-43.243826],[147.0377,-43.240107],[147.032862,-43.235166],[147.02465,-43.231033],[147.024409,-43.227546],[147.020384,-43.226115],[147.020073,-43.223645],[147.016445,-43.224586],[147.013127,-43.222067],[147.006602,-43.220531],[147.005623,-43.217559],[147.0017,-43.214512],[146.996675,-43.214106],[146.990318,-43.217152],[146.99259,-43.211708],[146.996666,-43.207816],[146.99539,-43.206465],[146.98811,-43.203489],[146.979153,-43.206529],[146.971896,-43.204],[146.971181,-43.202452],[146.972889,-43.200037],[146.970528,-43.19834],[146.969649,-43.193369],[146.964153,-43.190302],[146.96837,-43.188014],[146.971284,-43.183781],[146.971082,-43.179961],[146.967056,-43.17744],[146.974454,-43.169317],[146.968911,-43.164057],[146.960482,-43.161562],[146.962154,-43.157924],[146.959096,-43.158027],[146.949969,-43.16384],[146.959536,-43.156129],[146.963804,-43.158041],[146.965989,-43.156267],[146.972894,-43.15725],[146.976069,-43.158925],[146.98069,-43.158917],[146.981297,-43.151829],[146.978056,-43.147977],[146.979442,-43.145625],[146.972463,-43.141764],[146.97245,-43.138584],[146.980045,-43.137198],[146.98152,-43.131712],[146.988674,-43.131568],[146.993008,-43.128655],[146.993642,-43.124619],[146.99125,-43.121889],[146.991347,-43.118735],[146.996102,-43.112539],[147.000821,-43.109595],[147.00113,-43.104617],[147.013887,-43.088216],[147.018166,-43.078634],[147.021456,-43.076977],[147.024825,-43.06697],[147.029439,-43.06174],[147.029687,-43.058653],[147.040256,-43.051854],[147.044905,-43.043658],[147.054684,-43.039995],[147.046176,-43.034589],[147.035676,-43.025036],[147.031307,-43.015561],[147.033019,-43.011415],[147.024398,-43.011843],[147.001663,-43.017378],[147.007034,-43.014566],[147.034041,-43.010891],[147.032312,-43.01507],[147.034777,-43.019129],[147.036506,-43.024661],[147.056261,-43.039689],[147.045089,-43.045565],[147.041852,-43.059455],[147.036854,-43.06759],[147.03646,-43.069023],[147.030351,-43.081345],[147.021804,-43.091959],[147.019897,-43.098587],[147.020796,-43.103513],[147.017343,-43.109857],[147.018802,-43.11225],[147.014134,-43.114572],[147.011641,-43.117863],[147.006651,-43.137977],[147.001078,-43.141091],[146.997206,-43.146956],[147.000024,-43.154641],[146.997144,-43.156806],[146.998357,-43.158689],[146.994789,-43.164474],[146.995114,-43.166365],[146.994548,-43.173192],[146.99136,-43.175926],[146.983458,-43.177597],[146.986475,-43.179729],[146.984409,-43.189432],[146.994304,-43.190191],[147.002453,-43.192902],[147.010348,-43.190295],[147.014364,-43.196459],[147.024714,-43.200027],[147.023954,-43.205776],[147.02782,-43.207899],[147.027771,-43.209647],[147.045571,-43.212945],[147.046372,-43.215388],[147.045153,-43.216886],[147.050962,-43.217704],[147.054665,-43.220234],[147.059436,-43.220129],[147.061925,-43.2251],[147.063959,-43.223933],[147.063161,-43.217345],[147.071317,-43.213881],[147.075733,-43.208888],[147.080395,-43.208717],[147.083322,-43.206701],[147.078218,-43.204213],[147.074189,-43.205077],[147.071807,-43.202332],[147.078944,-43.198275],[147.084242,-43.192873],[147.086478,-43.192828],[147.081194,-43.182871],[147.083558,-43.178693],[147.080082,-43.172213],[147.083136,-43.165105],[147.086236,-43.169902],[147.094724,-43.168892],[147.093167,-43.171431],[147.09277,-43.174681],[147.089465,-43.177556],[147.093203,-43.177908],[147.093042,-43.181487],[147.098193,-43.183685],[147.101161,-43.182982],[147.103559,-43.185253],[147.100957,-43.187503],[147.094445,-43.188042],[147.101026,-43.190252],[147.102135,-43.19206],[147.100445,-43.194237],[147.101107,-43.196037],[147.105621,-43.198464],[147.103816,-43.20116],[147.105195,-43.203741],[147.101984,-43.20679],[147.108985,-43.205975],[147.117825,-43.2106],[147.114156,-43.210685],[147.113302,-43.214613],[147.107617,-43.213663],[147.098298,-43.215113],[147.092446,-43.218564],[147.091881,-43.224999],[147.094464,-43.226939],[147.094269,-43.228711],[147.097241,-43.228915],[147.0941,-43.231414],[147.097893,-43.23165],[147.094517,-43.235096],[147.09776,-43.235797],[147.095352,-43.241306],[147.090518,-43.240278],[147.089569,-43.244489],[147.09945,-43.244899],[147.100297,-43.248525],[147.095451,-43.248948],[147.10287,-43.252026],[147.108492,-43.251003],[147.108123,-43.24887],[147.112445,-43.24659],[147.121559,-43.247625],[147.118847,-43.245203],[147.123118,-43.242831],[147.127331,-43.24328],[147.130066,-43.24792],[147.138896,-43.24802],[147.143969,-43.249994],[147.14204,-43.253766],[147.143531,-43.26105],[147.142274,-43.265607],[147.146594,-43.269697],[147.146873,-43.271912],[147.152061,-43.276272],[147.161462,-43.27767],[147.167749,-43.283386],[147.173461,-43.281774],[147.179348,-43.277498],[147.188996,-43.276249],[147.206305,-43.278619],[147.214155,-43.281417],[147.219485,-43.281036],[147.231796,-43.27618],[147.234682,-43.271964],[147.239324,-43.271157],[147.242502,-43.268117],[147.240065,-43.265401],[147.242601,-43.261662],[147.240488,-43.259679],[147.240448,-43.256604],[147.250334,-43.241812],[147.255603,-43.238085],[147.260974,-43.223517],[147.258827,-43.220503],[147.260375,-43.214434],[147.256055,-43.204152],[147.257229,-43.200086],[147.251821,-43.191752],[147.252864,-43.189335],[147.255438,-43.188368],[147.242579,-43.182027],[147.244043,-43.179481],[147.239514,-43.17726],[147.239457,-43.173482],[147.248407,-43.166291],[147.239482,-43.163267],[147.239222,-43.161315],[147.241811,-43.159647],[147.238584,-43.154448],[147.247989,-43.151727],[147.246779,-43.149854],[147.241628,-43.148676],[147.245092,-43.144781],[147.2493,-43.143982],[147.247181,-43.142286],[147.247936,-43.14061],[147.256247,-43.138576],[147.251693,-43.135099],[147.252761,-43.132332],[147.26277,-43.130832],[147.262321,-43.129154],[147.257002,-43.127128],[147.249847,-43.128192],[147.249297,-43.124822],[147.246385,-43.122312],[147.253461,-43.121607],[147.258162,-43.123406],[147.269388,-43.121944],[147.272087,-43.118919],[147.271491,-43.1148],[147.263032,-43.112038],[147.259807,-43.107107],[147.261918,-43.105659],[147.267824,-43.107634],[147.274287,-43.104451],[147.28529,-43.110991],[147.285887,-43.103521],[147.296693,-43.096637],[147.300248,-43.092332],[147.301233,-43.087908],[147.300493,-43.084758],[147.291748,-43.079853],[147.283199,-43.07879],[147.279037,-43.074919],[147.271181,-43.074621],[147.266603,-43.072536],[147.255641,-43.073164],[147.258087,-43.069488],[147.264634,-43.066175],[147.26333,-43.061523],[147.26636,-43.058409],[147.265423,-43.056027],[147.268573,-43.054358],[147.265389,-43.050638],[147.267928,-43.050222],[147.266276,-43.04804],[147.267323,-43.044117],[147.273501,-43.042362],[147.272044,-43.039666],[147.276434,-43.037381],[147.276143,-43.029805],[147.279916,-43.026768],[147.275994,-43.023294],[147.269128,-43.027004],[147.265073,-43.026361],[147.265695,-43.024751],[147.269508,-43.023524],[147.26928,-43.021282],[147.272476,-43.015759],[147.27884,-43.010499],[147.285343,-43.009769],[147.28766,-43.020045],[147.292387,-43.021642],[147.290526,-43.026287],[147.293736,-43.027723],[147.29321,-43.029166],[147.296951,-43.033319],[147.296815,-43.035849],[147.300673,-43.038985],[147.30194,-43.044822],[147.303923,-43.045202],[147.305382,-43.049119],[147.307712,-43.050369],[147.307592,-43.052331],[147.314093,-43.059496],[147.321945,-43.060816],[147.329242,-43.057562],[147.333442,-43.058639],[147.337825,-43.05647],[147.337922,-43.054537],[147.342968,-43.052812],[147.345149,-43.049127],[147.34081,-43.043163],[147.337412,-43.041247],[147.338569,-43.036045],[147.337052,-43.031071],[147.334844,-43.029384],[147.335459,-43.027402],[147.333233,-43.024322],[147.334158,-43.022512],[147.328829,-43.016841],[147.330434,-43.010675],[147.325453,-43.007737],[147.32415,-43.006165],[147.325547,-43.00197],[147.329306,-42.998336],[147.328875,-42.992322],[147.33042,-42.989362],[147.324121,-42.983113],[147.329554,-42.977814],[147.324673,-42.975623],[147.324548,-42.977677],[147.320662,-42.979582],[147.316998,-42.977398],[147.314838,-42.974168],[147.316069,-42.973681],[147.315,-42.973858],[147.312832,-42.975026],[147.310058,-42.970899],[147.308197,-42.969464],[147.301212,-42.966258],[147.297007,-42.965192],[147.290667,-42.965969],[147.281954,-42.970898],[147.274267,-42.972343],[147.270326,-42.972062],[147.265396,-42.970682],[147.25591,-42.966822],[147.251548,-42.965808],[147.24049,-42.969384],[147.235022,-42.970244],[147.230059,-42.971554],[147.226879,-42.972963],[147.219041,-42.978468],[147.214393,-42.979999],[147.206681,-42.980378],[147.200266,-42.981645],[147.188085,-42.985903],[147.184996,-42.986264],[147.18111,-42.985523],[147.17895,-42.983964],[147.177377,-42.981472],[147.173271,-42.981631],[147.170752,-42.979051],[147.161088,-42.978576],[147.158882,-42.976264],[147.156928,-42.975964],[147.152285,-42.9771],[147.147883,-42.975696],[147.146155,-42.974447],[147.148946,-42.965206],[147.147586,-42.964977],[147.148904,-42.961376],[147.150221,-42.955809],[147.151813,-42.956013],[147.153232,-42.950873],[147.156037,-42.951208],[147.157648,-42.94402],[147.156115,-42.943811],[147.157079,-42.939867],[147.151538,-42.939133],[147.152392,-42.936054],[147.154783,-42.936394],[147.155552,-42.93357],[147.153163,-42.933227],[147.154789,-42.928897],[147.157296,-42.91969],[147.154141,-42.919237],[147.155644,-42.914131],[147.150368,-42.913351],[147.137452,-42.912022],[147.136695,-42.915097],[147.134471,-42.914813],[147.135475,-42.910406],[147.130465,-42.910616],[147.051271,-42.900384],[147.047761,-42.902393],[147.046352,-42.906237],[147.044641,-42.909126],[147.039546,-42.910016],[147.038691,-42.907683],[147.039691,-42.906167],[147.03231,-42.904188],[147.030126,-42.905913],[147.027286,-42.905214],[147.026246,-42.906902],[147.02279,-42.90777],[147.021491,-42.906714],[147.016511,-42.907048],[147.014395,-42.905951],[147.010492,-42.901107],[147.00637,-42.900927],[147.005861,-42.899742],[147.010272,-42.895699],[147.010932,-42.893784],[147.008953,-42.890786],[147.009243,-42.888143],[147.002059,-42.8875],[146.997633,-42.888193],[146.990529,-42.885838],[146.988218,-42.885856],[146.983372,-42.887764],[146.974455,-42.888168],[146.970537,-42.888752],[146.960394,-42.885052],[146.955489,-42.882079],[146.949907,-42.882729],[146.943667,-42.885356],[146.940581,-42.885867],[146.93649,-42.888941],[146.935786,-42.893195],[146.932426,-42.892221],[146.930471,-42.892489],[146.925992,-42.895278],[146.923933,-42.899136],[146.924256,-42.900464],[146.929874,-42.902895],[146.931029,-42.905021],[146.93139,-42.908209],[146.932763,-42.912469],[146.934207,-42.915122],[146.932692,-42.918075],[146.934246,-42.919805],[146.937439,-42.920558],[146.941963,-42.922682],[146.942451,-42.924028],[146.941274,-42.926634],[146.937466,-42.928528],[146.933857,-42.929156],[146.927093,-42.929463],[146.92261,-42.932166],[146.918341,-42.932456],[146.916581,-42.933688],[146.913518,-42.939638],[146.910314,-42.940239],[146.902512,-42.940025],[146.899649,-42.93837],[146.896016,-42.935256],[146.889413,-42.935929],[146.884024,-42.934339],[146.880562,-42.934367],[146.879704,-42.935433],[146.881542,-42.939641],[146.881791,-42.941824],[146.880771,-42.944656],[146.880302,-42.948977],[146.877549,-42.952878],[146.873892,-42.95463],[146.869397,-42.950141],[146.866456,-42.945112],[146.864057,-42.94311],[146.856915,-42.94103],[146.855266,-42.939115],[146.854921,-42.934455],[146.855642,-42.932497],[146.851772,-42.93007],[146.85098,-42.926886],[146.849379,-42.923912],[146.850524,-42.920942],[146.852186,-42.919317],[146.847745,-42.916182],[146.846215,-42.913785],[146.846451,-42.908202],[146.845063,-42.907088],[146.840241,-42.905564],[146.835991,-42.904838],[146.832819,-42.903141],[146.825565,-42.90163],[146.820163,-42.898686],[146.815038,-42.897782],[146.808999,-42.893715],[146.805489,-42.894637],[146.805108,-42.896523],[146.802053,-42.901322],[146.799802,-42.90329],[146.797936,-42.903674],[146.79253,-42.902678],[146.788492,-42.903855],[146.780537,-42.898608],[146.779109,-42.894116],[146.776686,-42.892342],[146.775655,-42.889593],[146.776179,-42.88424],[146.772285,-42.879464],[146.767419,-42.876654],[146.765581,-42.874138],[146.764017,-42.873761],[146.759415,-42.874503],[146.755394,-42.874395],[146.753976,-42.873073],[146.74953,-42.871447],[146.743252,-42.870159],[146.739431,-42.871195],[146.736855,-42.869491],[146.735455,-42.86702],[146.729359,-42.862742],[146.727528,-42.860667],[146.723042,-42.858121],[146.71836,-42.857371],[146.715478,-42.858656],[146.712391,-42.858446],[146.706705,-42.857148],[146.699398,-42.8583],[146.697394,-42.857529],[146.69725,-42.855764],[146.698446,-42.8513],[146.695973,-42.85028],[146.692658,-42.851748],[146.68526,-42.853269],[146.682878,-42.852042],[146.678176,-42.852164],[146.675126,-42.849611],[146.665308,-42.851992],[146.66305,-42.847708],[146.662079,-42.847187],[146.65657,-42.847634],[146.649315,-42.85094],[146.647289,-42.853658],[146.646037,-42.865036],[146.648424,-42.869821],[146.649061,-42.874087],[146.652731,-42.876296],[146.652682,-42.880613],[146.653366,-42.883339],[146.653025,-42.886535],[146.653597,-42.893372],[146.658159,-42.897366],[146.658622,-42.899772],[146.658083,-42.903404],[146.65675,-42.905548],[146.652923,-42.90776],[146.651855,-42.909752],[146.648406,-42.921704],[146.605495,-42.959204],[146.560453,-42.998515],[146.458808,-43.087277],[146.222191,-43.118804],[146.08907,-43.053903],[145.978141,-43.039171],[145.979141,-43.040544],[145.979278,-43.043833],[145.976609,-43.045504],[145.975258,-43.04819],[145.976534,-43.054257],[145.974884,-43.055709],[145.97571,-43.058657],[145.974613,-43.060139],[145.978476,-43.062303],[145.978276,-43.063753],[145.980005,-43.065343],[145.980156,-43.069026],[145.982004,-43.072402],[145.975775,-43.075272],[145.973915,-43.077692],[145.977005,-43.082452],[145.977155,-43.084222],[145.979475,-43.085492],[145.979982,-43.090356],[145.984445,-43.088602],[145.984585,-43.090832],[145.98856,-43.091251],[145.990265,-43.093262],[145.9886,-43.095997],[145.989748,-43.098976],[145.992701,-43.100646],[145.992355,-43.104702],[145.989045,-43.106482],[145.986925,-43.110052],[145.987375,-43.112112],[145.986105,-43.114622],[145.983915,-43.116212],[145.985445,-43.119252],[145.983695,-43.121992],[145.982585,-43.125362],[145.979595,-43.128207],[145.980666,-43.131071],[145.982676,-43.133993],[145.980546,-43.135473],[145.977986,-43.134153],[145.977546,-43.131223],[145.974346,-43.130303],[145.966528,-43.131295],[145.964507,-43.130083],[145.963046,-43.127448],[145.960384,-43.128237],[145.959117,-43.129663],[145.958077,-43.133033],[145.955797,-43.135133],[145.95639,-43.138684],[145.955208,-43.139937],[145.952475,-43.139867],[145.945505,-43.143615],[145.944527,-43.146853],[145.942318,-43.149862],[145.940454,-43.150439]]],[[[147.433271,-43.231656],[147.432876,-43.224725],[147.428187,-43.214558],[147.427952,-43.209084],[147.422123,-43.204702],[147.416309,-43.20584],[147.410771,-43.200547],[147.411472,-43.195034],[147.40913,-43.192665],[147.40854,-43.189011],[147.413098,-43.184285],[147.412349,-43.182586],[147.413644,-43.181276],[147.411389,-43.177141],[147.409046,-43.176358],[147.409439,-43.172619],[147.405422,-43.169878],[147.409119,-43.168892],[147.406362,-43.166813],[147.39302,-43.16387],[147.393975,-43.157365],[147.391058,-43.155187],[147.391876,-43.152429],[147.394852,-43.150428],[147.392982,-43.144573],[147.396945,-43.143109],[147.395017,-43.141702],[147.394215,-43.137436],[147.397226,-43.13712],[147.399474,-43.134942],[147.400253,-43.13177],[147.398309,-43.131461],[147.397964,-43.12949],[147.400187,-43.129168],[147.400789,-43.127283],[147.396123,-43.122563],[147.391158,-43.122616],[147.389599,-43.121063],[147.388773,-43.115006],[147.386589,-43.109808],[147.383829,-43.108674],[147.385022,-43.104878],[147.382886,-43.103203],[147.382801,-43.101464],[147.377776,-43.101688],[147.375151,-43.09832],[147.376578,-43.094624],[147.374408,-43.089272],[147.371418,-43.088669],[147.367326,-43.090537],[147.362585,-43.086779],[147.362833,-43.080493],[147.365645,-43.078782],[147.367631,-43.071824],[147.357352,-43.063662],[147.351972,-43.063679],[147.346239,-43.074943],[147.337107,-43.082832],[147.329109,-43.08526],[147.32252,-43.084433],[147.326107,-43.08662],[147.326723,-43.089238],[147.324977,-43.091512],[147.322583,-43.091699],[147.323228,-43.097551],[147.31792,-43.104787],[147.317133,-43.109427],[147.307756,-43.11201],[147.30667,-43.113625],[147.311001,-43.114586],[147.311118,-43.118277],[147.314736,-43.118934],[147.330082,-43.114881],[147.330095,-43.117774],[147.325527,-43.120921],[147.32263,-43.126485],[147.328408,-43.130998],[147.332847,-43.128905],[147.333125,-43.125636],[147.338377,-43.119425],[147.346104,-43.121827],[147.346431,-43.128595],[147.353227,-43.128061],[147.355181,-43.125731],[147.356919,-43.118081],[147.360055,-43.12044],[147.35814,-43.123039],[147.361847,-43.124045],[147.361258,-43.130629],[147.358038,-43.132954],[147.359312,-43.1343],[147.357261,-43.136531],[147.358066,-43.137501],[147.355908,-43.140758],[147.352555,-43.139391],[147.355808,-43.134275],[147.352396,-43.131134],[147.337218,-43.136556],[147.333767,-43.141933],[147.329781,-43.141548],[147.331863,-43.151295],[147.329223,-43.152275],[147.317359,-43.143502],[147.316787,-43.13991],[147.30963,-43.139885],[147.310204,-43.1343],[147.290289,-43.14288],[147.282118,-43.144332],[147.2807,-43.146352],[147.29045,-43.145689],[147.294363,-43.148849],[147.294884,-43.152035],[147.292475,-43.155013],[147.296076,-43.157039],[147.294041,-43.158566],[147.283081,-43.158449],[147.276007,-43.166545],[147.281217,-43.167766],[147.284142,-43.167236],[147.284937,-43.171503],[147.291659,-43.169828],[147.297039,-43.170471],[147.298616,-43.168405],[147.300954,-43.168462],[147.300595,-43.175703],[147.298547,-43.179284],[147.299489,-43.180866],[147.317643,-43.176972],[147.328801,-43.169773],[147.334589,-43.170782],[147.336476,-43.169435],[147.340143,-43.171675],[147.343983,-43.172015],[147.34289,-43.174594],[147.339043,-43.175236],[147.337645,-43.178337],[147.333544,-43.179898],[147.330813,-43.184688],[147.331789,-43.185297],[147.342555,-43.182843],[147.346782,-43.186081],[147.354661,-43.186652],[147.359091,-43.18445],[147.361713,-43.176301],[147.370357,-43.177435],[147.377895,-43.176779],[147.383971,-43.18236],[147.386307,-43.187863],[147.385216,-43.190443],[147.38646,-43.196517],[147.385012,-43.199061],[147.385111,-43.201096],[147.382895,-43.203013],[147.383276,-43.206911],[147.38109,-43.209736],[147.376471,-43.209373],[147.37753,-43.211378],[147.375729,-43.214859],[147.369773,-43.215293],[147.365993,-43.209101],[147.364267,-43.208611],[147.358664,-43.212501],[147.353043,-43.213347],[147.34938,-43.212205],[147.353739,-43.216595],[147.351318,-43.219592],[147.342959,-43.217555],[147.341157,-43.219082],[147.346328,-43.221201],[147.347527,-43.226285],[147.355732,-43.229079],[147.356123,-43.232778],[147.353676,-43.237702],[147.348364,-43.237134],[147.350287,-43.239542],[147.349591,-43.242785],[147.354032,-43.241817],[147.358071,-43.245821],[147.357883,-43.255799],[147.350701,-43.266627],[147.334419,-43.283915],[147.317638,-43.294773],[147.308365,-43.295024],[147.308905,-43.296401],[147.305815,-43.297016],[147.306768,-43.290462],[147.302942,-43.287132],[147.301449,-43.279167],[147.297969,-43.273143],[147.29785,-43.269028],[147.302201,-43.26428],[147.294938,-43.255402],[147.293132,-43.241043],[147.290857,-43.241789],[147.288694,-43.245468],[147.289435,-43.248384],[147.287888,-43.252161],[147.289791,-43.256073],[147.287728,-43.257402],[147.286104,-43.265938],[147.283285,-43.26916],[147.275325,-43.271917],[147.271597,-43.276041],[147.271186,-43.283362],[147.273617,-43.286787],[147.271493,-43.288566],[147.27108,-43.295519],[147.26344,-43.299021],[147.253233,-43.299418],[147.250673,-43.303386],[147.24678,-43.304327],[147.243096,-43.308171],[147.241484,-43.312626],[147.242246,-43.320509],[147.240112,-43.323503],[147.241484,-43.327489],[147.240417,-43.329166],[147.227398,-43.334226],[147.222336,-43.339846],[147.222595,-43.343199],[147.225693,-43.346731],[147.223064,-43.351955],[147.22496,-43.351946],[147.22728,-43.355383],[147.231553,-43.356247],[147.234483,-43.364057],[147.222871,-43.364423],[147.218025,-43.362334],[147.221585,-43.370746],[147.219162,-43.376424],[147.215441,-43.378502],[147.212788,-43.382357],[147.205247,-43.382749],[147.198643,-43.379384],[147.197963,-43.375639],[147.200449,-43.369425],[147.195312,-43.36491],[147.195609,-43.361267],[147.186952,-43.359381],[147.185046,-43.357367],[147.185766,-43.354944],[147.190004,-43.352587],[147.188574,-43.349104],[147.18344,-43.35299],[147.179097,-43.352555],[147.178489,-43.35591],[147.180383,-43.357663],[147.179413,-43.359267],[147.181033,-43.36057],[147.182006,-43.368403],[147.179811,-43.373259],[147.183646,-43.380088],[147.183059,-43.382124],[147.185944,-43.384685],[147.185854,-43.387657],[147.180723,-43.393626],[147.175365,-43.393951],[147.174072,-43.403389],[147.170781,-43.405987],[147.168604,-43.404694],[147.167887,-43.408738],[147.170454,-43.40823],[147.174112,-43.409116],[147.175543,-43.416911],[147.171717,-43.418241],[147.174277,-43.423514],[147.17832,-43.424543],[147.178202,-43.422175],[147.184873,-43.418094],[147.187383,-43.419108],[147.18962,-43.427231],[147.192417,-43.428757],[147.190574,-43.432056],[147.184617,-43.431562],[147.174268,-43.437809],[147.179315,-43.439692],[147.180376,-43.443265],[147.175301,-43.448954],[147.171781,-43.449842],[147.171415,-43.451725],[147.180114,-43.454773],[147.179878,-43.458298],[147.177022,-43.458302],[147.172855,-43.462027],[147.163777,-43.464994],[147.160375,-43.464404],[147.159011,-43.462641],[147.162354,-43.459954],[147.161905,-43.458594],[147.152522,-43.458297],[147.153371,-43.456423],[147.151283,-43.451991],[147.14381,-43.448813],[147.142144,-43.444367],[147.131375,-43.432735],[147.127517,-43.423061],[147.122344,-43.416462],[147.115239,-43.411234],[147.112217,-43.412971],[147.105062,-43.411222],[147.097146,-43.412367],[147.098988,-43.413428],[147.098932,-43.417112],[147.091857,-43.419008],[147.094343,-43.42087],[147.093898,-43.428398],[147.095714,-43.428243],[147.097909,-43.433023],[147.101777,-43.433479],[147.103361,-43.435053],[147.106586,-43.434915],[147.107256,-43.436698],[147.110405,-43.435704],[147.114609,-43.437294],[147.118124,-43.446354],[147.120042,-43.447613],[147.122845,-43.446718],[147.124425,-43.451511],[147.126565,-43.452432],[147.129883,-43.45513],[147.13565,-43.458103],[147.135154,-43.463222],[147.136766,-43.465363],[147.133449,-43.469122],[147.135356,-43.470623],[147.135823,-43.474783],[147.133084,-43.477595],[147.133858,-43.480814],[147.132265,-43.482149],[147.134681,-43.483938],[147.138305,-43.48428],[147.141167,-43.486595],[147.137448,-43.493344],[147.143332,-43.492166],[147.146406,-43.495152],[147.150755,-43.490384],[147.149296,-43.488273],[147.150034,-43.486624],[147.159387,-43.483352],[147.165935,-43.48553],[147.16905,-43.489636],[147.171527,-43.486404],[147.17747,-43.488718],[147.179044,-43.489814],[147.182837,-43.488863],[147.181977,-43.486757],[147.184148,-43.484629],[147.184064,-43.481639],[147.187056,-43.481337],[147.185737,-43.478512],[147.179048,-43.474453],[147.179557,-43.471256],[147.185785,-43.466005],[147.189004,-43.467504],[147.193018,-43.466551],[147.197606,-43.455414],[147.20038,-43.453402],[147.203519,-43.453198],[147.202997,-43.448589],[147.199867,-43.447577],[147.198981,-43.444958],[147.201603,-43.441811],[147.199051,-43.436016],[147.202173,-43.427277],[147.202009,-43.419163],[147.205374,-43.416924],[147.209563,-43.417286],[147.218432,-43.413676],[147.227259,-43.41257],[147.235368,-43.414057],[147.234339,-43.416481],[147.23592,-43.419558],[147.240774,-43.416234],[147.243602,-43.422252],[147.241973,-43.425713],[147.225905,-43.433909],[147.209719,-43.433769],[147.207971,-43.432188],[147.208084,-43.429341],[147.204578,-43.429835],[147.201438,-43.436873],[147.227859,-43.437669],[147.232484,-43.438515],[147.233533,-43.44153],[147.235932,-43.438661],[147.240129,-43.440696],[147.245864,-43.440396],[147.251576,-43.447627],[147.255796,-43.457721],[147.254948,-43.461676],[147.250786,-43.46571],[147.244207,-43.465013],[147.242975,-43.463115],[147.240378,-43.465903],[147.242948,-43.468653],[147.241424,-43.471096],[147.246946,-43.472876],[147.246808,-43.47556],[147.241459,-43.479776],[147.242619,-43.48243],[147.245928,-43.481091],[147.246747,-43.484816],[147.244523,-43.488487],[147.246059,-43.489132],[147.246569,-43.492733],[147.250158,-43.493282],[147.255712,-43.490506],[147.256249,-43.488794],[147.263146,-43.487887],[147.264223,-43.491081],[147.267861,-43.491478],[147.268266,-43.493421],[147.270726,-43.493299],[147.271627,-43.495674],[147.271773,-43.500564],[147.277212,-43.50001],[147.279446,-43.504345],[147.28202,-43.504564],[147.282337,-43.506121],[147.285839,-43.506301],[147.288401,-43.503936],[147.293506,-43.510874],[147.296406,-43.511929],[147.296217,-43.513802],[147.294018,-43.514339],[147.294719,-43.516165],[147.302024,-43.514526],[147.301558,-43.510403],[147.308002,-43.507666],[147.316268,-43.501151],[147.323921,-43.502643],[147.32337,-43.501338],[147.326656,-43.49805],[147.327404,-43.494492],[147.324735,-43.490438],[147.324505,-43.484478],[147.320956,-43.477366],[147.320875,-43.469109],[147.324988,-43.461471],[147.326964,-43.449733],[147.331283,-43.441625],[147.334513,-43.439123],[147.344451,-43.437623],[147.342606,-43.435548],[147.342904,-43.431756],[147.346277,-43.42916],[147.340531,-43.42776],[147.337912,-43.423253],[147.341376,-43.41794],[147.347098,-43.415869],[147.349045,-43.410407],[147.347817,-43.408587],[147.348567,-43.405234],[147.351203,-43.405268],[147.351996,-43.402444],[147.355533,-43.404299],[147.359998,-43.402049],[147.360968,-43.400293],[147.359279,-43.398393],[147.364497,-43.392121],[147.367742,-43.391224],[147.369955,-43.39337],[147.371227,-43.391846],[147.369664,-43.390598],[147.37053,-43.388985],[147.378941,-43.390294],[147.377689,-43.383105],[147.37839,-43.381549],[147.381457,-43.378401],[147.381959,-43.37178],[147.379637,-43.361319],[147.374578,-43.35616],[147.369201,-43.353676],[147.370404,-43.351843],[147.367013,-43.350292],[147.363324,-43.35576],[147.358513,-43.358655],[147.35798,-43.362538],[147.351478,-43.364071],[147.349725,-43.368222],[147.334431,-43.367735],[147.33498,-43.366121],[147.340004,-43.366916],[147.328296,-43.360183],[147.326755,-43.357539],[147.328972,-43.355744],[147.325975,-43.354232],[147.320304,-43.343992],[147.32377,-43.339626],[147.322156,-43.335371],[147.325297,-43.332336],[147.323228,-43.330649],[147.323852,-43.327361],[147.322436,-43.325456],[147.324347,-43.323019],[147.323229,-43.321474],[147.324436,-43.318823],[147.320347,-43.310506],[147.322286,-43.304035],[147.33161,-43.288628],[147.345626,-43.273404],[147.362154,-43.260594],[147.380261,-43.250602],[147.401028,-43.242805],[147.402463,-43.243692],[147.406082,-43.2415],[147.415942,-43.240573],[147.419148,-43.242948],[147.421222,-43.252656],[147.423275,-43.253747],[147.426794,-43.251366],[147.430187,-43.252137],[147.430861,-43.249856],[147.429092,-43.248728],[147.432907,-43.239528],[147.431115,-43.236851],[147.433271,-43.231656]]],[[[147.292566,-42.790883],[147.289249,-42.793549],[147.289859,-42.79526],[147.281926,-42.797003],[147.281517,-42.800881],[147.283331,-42.802795],[147.291076,-42.806196],[147.294137,-42.809418],[147.308148,-42.812345],[147.312217,-42.81561],[147.314909,-42.815087],[147.319935,-42.816675],[147.320684,-42.818309],[147.317551,-42.821243],[147.317373,-42.824903],[147.322451,-42.828244],[147.326579,-42.829533],[147.330036,-42.835426],[147.333777,-42.841081],[147.347047,-42.8352],[147.344636,-42.837507],[147.345343,-42.838538],[147.34175,-42.839646],[147.337797,-42.845038],[147.338376,-42.846646],[147.343282,-42.848302],[147.344275,-42.850832],[147.350314,-42.853127],[147.355057,-42.850012],[147.355081,-42.848311],[147.358609,-42.848654],[147.355106,-42.853567],[147.354622,-42.857453],[147.350539,-42.860591],[147.351596,-42.863245],[147.350198,-42.865184],[147.355186,-42.8655],[147.353427,-42.86947],[147.35094,-42.870474],[147.352402,-42.875777],[147.355941,-42.875654],[147.362701,-42.871554],[147.364603,-42.872172],[147.365664,-42.870159],[147.369213,-42.872626],[147.363513,-42.875315],[147.363062,-42.87863],[147.366546,-42.882554],[147.369829,-42.881382],[147.370601,-42.879366],[147.378646,-42.879009],[147.383907,-42.879796],[147.386092,-42.882279],[147.391682,-42.880684],[147.404691,-42.884291],[147.405423,-42.887322],[147.403263,-42.888648],[147.405042,-42.891345],[147.409727,-42.893759],[147.417327,-42.908852],[147.415796,-42.91375],[147.409231,-42.918964],[147.411677,-42.924257],[147.411266,-42.929168],[147.408057,-42.935199],[147.408976,-42.938846],[147.413645,-42.937756],[147.419056,-42.940621],[147.421401,-42.939748],[147.42807,-42.928226],[147.433419,-42.924363],[147.435198,-42.917066],[147.431961,-42.911859],[147.435069,-42.908677],[147.446437,-42.908197],[147.458487,-42.911718],[147.463481,-42.908729],[147.479007,-42.90631],[147.484269,-42.910388],[147.482958,-42.912342],[147.485493,-42.912981],[147.485811,-42.916798],[147.483843,-42.919333],[147.48415,-42.922385],[147.491424,-42.927146],[147.487996,-42.928994],[147.484436,-42.928569],[147.479589,-42.92003],[147.476991,-42.91859],[147.474517,-42.918455],[147.464751,-42.92345],[147.463899,-42.93121],[147.456313,-42.936679],[147.454641,-42.94091],[147.455889,-42.948558],[147.453086,-42.950742],[147.448806,-42.950042],[147.452834,-42.954107],[147.45235,-42.959576],[147.450819,-42.962353],[147.44606,-42.964527],[147.449326,-42.970179],[147.445379,-42.978391],[147.44925,-42.976323],[147.452558,-42.972055],[147.460461,-42.972956],[147.465332,-42.970171],[147.472935,-42.974281],[147.478482,-42.982108],[147.478607,-42.987963],[147.472423,-42.990478],[147.472709,-42.994947],[147.468829,-42.999289],[147.470505,-43.005399],[147.473392,-43.008779],[147.469966,-43.012486],[147.473683,-43.015071],[147.472859,-43.017227],[147.474064,-43.018685],[147.471992,-43.021408],[147.472811,-43.023309],[147.469341,-43.026337],[147.460727,-43.030829],[147.452226,-43.032634],[147.437424,-43.030303],[147.430092,-43.027571],[147.425901,-43.019626],[147.428281,-43.014913],[147.427736,-43.013002],[147.417537,-43.002823],[147.419681,-42.993559],[147.417869,-42.984372],[147.408549,-42.981767],[147.403757,-42.977578],[147.404227,-42.974944],[147.408451,-42.973797],[147.40798,-42.968158],[147.410581,-42.966747],[147.408085,-42.965376],[147.408787,-42.962914],[147.40409,-42.963166],[147.404934,-42.967504],[147.401378,-42.973607],[147.391862,-42.97595],[147.393367,-42.978],[147.401115,-42.981226],[147.40407,-42.984539],[147.403844,-42.991555],[147.401728,-42.99311],[147.398552,-42.99239],[147.400608,-42.996553],[147.398289,-42.998425],[147.39964,-43.000597],[147.397822,-43.002217],[147.397036,-43.006683],[147.399448,-43.008434],[147.400739,-43.007279],[147.404861,-43.008148],[147.408343,-43.01033],[147.41271,-43.014469],[147.415475,-43.020382],[147.414661,-43.027422],[147.411905,-43.028772],[147.409759,-43.032419],[147.406408,-43.03331],[147.404125,-43.036945],[147.411354,-43.040714],[147.411432,-43.043242],[147.407595,-43.044522],[147.408385,-43.046474],[147.414302,-43.046654],[147.415567,-43.049686],[147.418833,-43.050494],[147.423026,-43.043283],[147.441208,-43.036948],[147.456651,-43.033598],[147.477069,-43.032643],[147.48213,-43.030865],[147.484182,-43.026933],[147.500455,-43.022061],[147.512464,-43.021343],[147.514864,-43.019481],[147.52137,-43.020832],[147.52316,-43.017895],[147.520003,-43.016312],[147.520418,-43.014391],[147.525579,-43.011851],[147.5288,-43.006036],[147.52779,-43.000689],[147.523277,-42.996592],[147.523747,-42.992724],[147.542082,-42.986836],[147.548513,-42.986272],[147.551018,-42.986692],[147.554055,-42.985713],[147.549738,-42.982085],[147.550453,-42.979747],[147.54885,-42.975916],[147.550713,-42.974153],[147.548848,-42.971632],[147.550008,-42.9682],[147.543862,-42.963144],[147.541801,-42.959318],[147.540072,-42.959278],[147.540181,-42.962777],[147.537792,-42.964301],[147.532072,-42.964859],[147.530505,-42.961736],[147.527659,-42.962009],[147.530176,-42.969605],[147.535828,-42.970606],[147.539201,-42.97491],[147.534675,-42.982368],[147.528667,-42.985174],[147.522774,-42.984624],[147.517772,-42.973772],[147.515242,-42.971254],[147.511046,-42.970106],[147.509146,-42.967315],[147.508791,-42.964536],[147.511949,-42.962365],[147.518198,-42.963502],[147.518228,-42.960741],[147.515067,-42.959565],[147.51331,-42.955415],[147.513891,-42.9529],[147.516461,-42.952129],[147.522858,-42.952288],[147.527405,-42.957355],[147.532867,-42.958348],[147.537346,-42.962142],[147.538668,-42.961644],[147.534127,-42.956974],[147.534316,-42.952802],[147.536652,-42.950663],[147.534818,-42.944502],[147.536449,-42.941586],[147.532093,-42.93628],[147.530507,-42.931312],[147.525226,-42.926031],[147.514715,-42.925034],[147.512866,-42.922201],[147.512554,-42.916173],[147.500855,-42.917294],[147.49703,-42.914985],[147.494968,-42.911283],[147.495267,-42.904666],[147.501192,-42.894386],[147.500809,-42.891742],[147.511077,-42.87607],[147.510455,-42.872717],[147.503042,-42.866884],[147.503627,-42.86429],[147.51553,-42.85494],[147.529161,-42.847302],[147.543218,-42.84231],[147.564561,-42.837869],[147.589138,-42.838209],[147.608012,-42.845857],[147.613383,-42.845985],[147.594934,-42.829823],[147.578578,-42.825114],[147.547155,-42.825146],[147.532302,-42.828035],[147.522242,-42.827978],[147.517861,-42.825842],[147.51442,-42.821704],[147.513089,-42.817116],[147.514677,-42.813181],[147.513154,-42.811323],[147.509601,-42.813839],[147.503569,-42.812528],[147.502556,-42.819075],[147.491197,-42.827953],[147.488402,-42.828832],[147.481186,-42.826779],[147.476307,-42.823063],[147.474942,-42.818967],[147.47466,-42.815752],[147.477549,-42.812896],[147.489816,-42.815033],[147.48385,-42.810748],[147.475704,-42.812641],[147.465769,-42.811945],[147.459344,-42.809132],[147.458381,-42.805116],[147.454792,-42.803659],[147.454512,-42.801141],[147.451518,-42.800418],[147.452029,-42.7986],[147.447396,-42.799339],[147.447744,-42.795039],[147.444224,-42.793254],[147.445642,-42.790176],[147.437463,-42.786244],[147.435201,-42.781257],[147.436513,-42.780066],[147.436487,-42.776991],[147.434128,-42.77554],[147.432733,-42.774317],[147.429417,-42.7741],[147.426405,-42.77521],[147.423272,-42.781277],[147.421058,-42.78288],[147.421083,-42.784332],[147.418517,-42.787745],[147.416276,-42.787314],[147.415752,-42.783863],[147.413515,-42.784171],[147.411514,-42.781039],[147.409174,-42.779656],[147.40703,-42.780653],[147.404646,-42.780066],[147.392172,-42.772515],[147.386872,-42.776617],[147.378367,-42.773398],[147.375254,-42.771226],[147.377388,-42.768083],[147.379486,-42.767725],[147.377841,-42.764918],[147.368526,-42.761214],[147.353606,-42.772261],[147.347579,-42.777447],[147.340541,-42.772859],[147.332586,-42.766641],[147.325339,-42.772059],[147.326189,-42.780478],[147.32036,-42.781821],[147.311656,-42.782187],[147.305827,-42.787789],[147.305431,-42.790762],[147.307333,-42.798078],[147.295125,-42.794347],[147.292566,-42.790883]]],[[[146.377614,-43.596448],[146.375078,-43.591383],[146.376705,-43.58734],[146.37484,-43.586771],[146.360885,-43.589764],[146.351351,-43.587045],[146.347539,-43.586699],[146.345353,-43.588407],[146.341063,-43.588733],[146.337733,-43.590831],[146.337907,-43.593038],[146.339383,-43.596378],[146.338626,-43.597553],[146.341206,-43.599621],[146.341257,-43.602818],[146.344597,-43.60561],[146.347899,-43.604981],[146.351368,-43.607305],[146.354022,-43.606023],[146.35934,-43.606963],[146.364085,-43.604666],[146.364057,-43.602667],[146.366658,-43.600358],[146.375615,-43.599291],[146.377614,-43.596448]]],[[[146.286411,-43.651435],[146.283133,-43.646543],[146.284161,-43.645613],[146.279212,-43.643718],[146.281023,-43.640506],[146.276474,-43.636291],[146.274786,-43.636469],[146.274236,-43.638851],[146.275064,-43.643188],[146.273709,-43.644585],[146.269149,-43.653577],[146.270111,-43.654997],[146.267079,-43.657607],[146.269212,-43.65862],[146.282512,-43.656066],[146.286411,-43.651435]]],[[[147.020234,-43.09089],[147.015679,-43.08994],[147.008588,-43.101672],[147.004578,-43.106443],[146.999908,-43.12072],[147.00617,-43.113104],[147.007645,-43.108404],[147.013375,-43.1025],[147.013576,-43.104492],[147.009813,-43.109457],[147.010318,-43.115491],[147.018579,-43.104439],[147.017823,-43.099167],[147.020234,-43.09089]]],[[[147.490874,-43.062006],[147.489037,-43.059629],[147.49038,-43.056911],[147.485794,-43.050024],[147.486837,-43.048453],[147.484844,-43.044846],[147.472132,-43.045822],[147.478403,-43.053351],[147.478576,-43.05661],[147.48183,-43.058181],[147.486585,-43.064681],[147.488592,-43.065312],[147.490874,-43.062006]]],[[[147.041418,-43.053224],[147.030661,-43.058595],[147.030513,-43.061839],[147.024388,-43.072152],[147.023477,-43.07742],[147.028779,-43.075728],[147.032955,-43.070883],[147.041418,-43.053224]]],[[[147.105802,-43.396574],[147.102476,-43.393642],[147.100938,-43.389537],[147.098444,-43.389846],[147.100228,-43.393779],[147.096563,-43.394935],[147.097282,-43.396573],[147.094049,-43.398601],[147.099426,-43.408988],[147.10097,-43.409401],[147.102843,-43.406761],[147.102796,-43.40089],[147.105802,-43.396574]]],[[[147.029678,-43.077514],[147.029101,-43.076329],[147.021176,-43.080216],[147.015789,-43.089825],[147.020375,-43.090719],[147.029678,-43.077514]]],[[[146.534537,-43.563856],[146.528934,-43.563695],[146.52491,-43.566276],[146.520858,-43.571746],[146.520378,-43.575742],[146.517075,-43.577772],[146.51869,-43.579208],[146.521102,-43.579184],[146.521497,-43.575347],[146.524052,-43.571945],[146.528102,-43.57218],[146.527999,-43.569168],[146.534537,-43.563856]]],[[[146.297123,-43.61968],[146.295516,-43.615069],[146.292232,-43.61296],[146.290323,-43.61411],[146.290209,-43.616477],[146.285371,-43.620976],[146.287678,-43.624042],[146.290796,-43.622396],[146.293686,-43.623242],[146.297123,-43.61968]]],[[[147.134314,-43.257341],[147.132855,-43.253978],[147.129748,-43.252992],[147.126768,-43.260882],[147.127599,-43.264154],[147.130896,-43.264416],[147.134314,-43.257341]]],[[[147.148379,-43.286293],[147.146895,-43.285053],[147.137975,-43.290256],[147.140626,-43.293263],[147.144375,-43.294334],[147.147971,-43.290031],[147.148379,-43.286293]]],[[[145.97136,-43.418275],[145.969855,-43.416398],[145.970864,-43.412934],[145.968562,-43.412262],[145.967686,-43.417307],[145.964459,-43.419045],[145.963439,-43.423217],[145.96812,-43.425608],[145.969501,-43.424046],[145.967638,-43.419522],[145.97136,-43.418275]]],[[[147.227697,-43.321596],[147.223298,-43.31604],[147.217331,-43.316384],[147.215747,-43.31835],[147.225362,-43.32052],[147.227697,-43.321596]]],[[[147.047423,-43.337481],[147.046656,-43.335401],[147.043535,-43.334664],[147.037184,-43.337512],[147.040306,-43.339294],[147.047423,-43.337481]]],[[[147.009644,-43.116161],[147.006034,-43.113977],[147.004803,-43.117347],[147.005943,-43.118427],[147.003091,-43.125044],[147.005361,-43.123711],[147.009644,-43.116161]]],[[[146.364946,-43.534664],[146.357345,-43.532487],[146.355,-43.533104],[146.354686,-43.537001],[146.356739,-43.537175],[146.358594,-43.534979],[146.363558,-43.536034],[146.364946,-43.534664]]],[[[145.969699,-43.326389],[145.967202,-43.325465],[145.966205,-43.329555],[145.963532,-43.330722],[145.966908,-43.334782],[145.966327,-43.329979],[145.969699,-43.326389]]],[[[147.13724,-43.494113],[147.132157,-43.494398],[147.133888,-43.499359],[147.136542,-43.497257],[147.13724,-43.494113]]],[[[146.999872,-43.524721],[146.995154,-43.5272],[146.998089,-43.529289],[146.999872,-43.524721]]],[[[146.278576,-43.631586],[146.271767,-43.629841],[146.269904,-43.631089],[146.274418,-43.632001],[146.276039,-43.634361],[146.278576,-43.631586]]],[[[146.375172,-43.738118],[146.371982,-43.735845],[146.369906,-43.736535],[146.371484,-43.740482],[146.375172,-43.738118]]],[[[147.295166,-43.526636],[147.293791,-43.523803],[147.291528,-43.52416],[147.292464,-43.528174],[147.295166,-43.526636]]],[[[146.979767,-43.479943],[146.97783,-43.479762],[146.973917,-43.483687],[146.976588,-43.483638],[146.979767,-43.479943]]],[[[145.97106,-43.32424],[145.968687,-43.321141],[145.967092,-43.323393],[145.97106,-43.32424]]],[[[146.375864,-43.643604],[146.374094,-43.642027],[146.372476,-43.643918],[146.373921,-43.645628],[146.375864,-43.643604]]]]},"bbox":[145.915252,-43.740482,147.613383,-42.761214]}]}