{"type":"FeatureCollection","features":[
{"properties":{"electorateShortName":"fremantle","electorateName":"Fremantle","area":194.13,"state":null},"type":"Feature","geometry":{"type":"MultiPolygon","coordinates":[[[[115.913351,-32.117784],[115.91549,-32.11593],[115.916173,-32.115337],[115.916107,-32.115211],[115.915967,-32.114884],[115.915903,-32.114519],[115.915544,-32.114513],[115.915382,-32.114509],[115.915165,-32.114488],[115.914946,-32.114441],[115.914729,-32.114365],[115.914519,-32.114259],[115.91433,-32.114128],[115.914245,-32.114054],[115.910281,-32.110743],[115.907696,-32.108577],[115.905421,-32.106672],[115.905192,-32.106479],[115.900619,-32.102653],[115.900537,-32.102601],[115.900403,-32.102517],[115.900214,-32.102361],[115.900055,-32.102187],[115.899987,-32.102095],[115.899632,-32.101576],[115.897466,-32.09842],[115.896792,-32.097438],[115.896781,-32.097422],[115.89662,-32.097197],[115.896141,-32.09654],[115.89556,-32.096063],[115.894824,-32.095489],[115.894196,-32.094981],[115.893318,-32.094257],[115.892538,-32.093617],[115.891823,-32.093051],[115.890624,-32.092087],[115.890696,-32.092002],[115.890711,-32.088696],[115.890686,-32.088228],[115.890046,-32.087443],[115.889682,-32.086993],[115.889689,-32.086934],[115.889805,-32.086647],[115.88992,-32.086457],[115.890046,-32.086335],[115.890602,-32.085917],[115.891012,-32.085565],[115.891129,-32.085177],[115.891452,-32.084171],[115.892108,-32.082241],[115.892013,-32.081803],[115.892017,-32.081769],[115.889318,-32.079434],[115.887528,-32.077869],[115.886151,-32.076662],[115.884598,-32.075286],[115.884363,-32.075088],[115.883153,-32.076293],[115.881839,-32.077587],[115.881399,-32.078017],[115.88096,-32.07842],[115.880226,-32.079057],[115.880172,-32.079105],[115.880139,-32.0795],[115.878525,-32.080685],[115.876213,-32.082379],[115.875618,-32.082134],[115.874968,-32.082489],[115.874858,-32.082548],[115.874181,-32.082888],[115.873416,-32.083249],[115.87281,-32.083498],[115.871924,-32.083868],[115.871235,-32.084137],[115.87056,-32.084375],[115.870243,-32.084472],[115.869736,-32.084631],[115.869071,-32.084817],[115.868446,-32.085004],[115.867641,-32.085247],[115.867216,-32.085368],[115.866846,-32.085478],[115.866836,-32.084885],[115.863876,-32.086255],[115.861851,-32.087188],[115.860026,-32.087586],[115.858263,-32.087593],[115.852374,-32.086925],[115.852101,-32.086862],[115.851385,-32.086836],[115.851165,-32.086826],[115.849747,-32.086774],[115.84934,-32.086762],[115.849094,-32.086753],[115.849083,-32.08566],[115.849063,-32.083632],[115.849078,-32.082436],[115.849136,-32.081569],[115.848994,-32.08159],[115.849007,-32.081292],[115.849027,-32.080839],[115.84911,-32.079807],[115.849178,-32.079009],[115.849211,-32.078664],[115.848915,-32.078674],[115.848723,-32.078686],[115.8485,-32.078696],[115.848102,-32.078724],[115.847597,-32.07877],[115.846413,-32.078959],[115.845144,-32.0792],[115.844349,-32.07935],[115.843842,-32.079436],[115.84372,-32.079457],[115.843137,-32.079539],[115.842709,-32.079586],[115.842481,-32.079608],[115.842202,-32.079632],[115.841282,-32.079693],[115.840178,-32.079705],[115.837981,-32.079715],[115.836602,-32.079726],[115.836154,-32.079726],[115.835773,-32.079723],[115.835131,-32.079685],[115.834902,-32.079627],[115.834637,-32.079548],[115.834377,-32.079457],[115.834124,-32.079354],[115.833878,-32.07924],[115.833605,-32.079089],[115.83334,-32.078928],[115.833085,-32.078756],[115.832839,-32.078575],[115.832618,-32.078398],[115.832402,-32.078212],[115.831436,-32.077287],[115.830514,-32.076435],[115.830006,-32.075974],[115.829673,-32.075694],[115.82912,-32.075319],[115.828599,-32.07501],[115.828044,-32.07469],[115.827833,-32.074584],[115.827636,-32.074501],[115.827377,-32.074401],[115.82711,-32.07431],[115.82684,-32.074229],[115.826565,-32.074157],[115.826459,-32.074134],[115.826287,-32.074095],[115.826005,-32.074043],[115.825723,-32.073999],[115.825472,-32.073952],[115.825215,-32.073916],[115.824957,-32.07389],[115.824698,-32.073875],[115.824439,-32.073871],[115.824181,-32.073877],[115.824114,-32.073882],[115.824094,-32.073696],[115.824034,-32.071693],[115.823998,-32.070501],[115.823973,-32.069667],[115.823965,-32.068611],[115.823967,-32.068536],[115.823941,-32.068538],[115.821715,-32.06857],[115.820381,-32.06859],[115.819451,-32.068603],[115.819223,-32.068607],[115.818009,-32.068607],[115.814973,-32.068654],[115.814157,-32.068662],[115.813862,-32.06866],[115.813815,-32.068659],[115.813568,-32.068649],[115.813224,-32.068616],[115.812976,-32.068577],[115.812696,-32.068533],[115.812431,-32.068486],[115.812154,-32.068424],[115.811888,-32.068356],[115.811626,-32.068277],[115.811369,-32.068189],[115.811338,-32.068177],[115.811115,-32.068092],[115.81091,-32.068003],[115.810868,-32.067985],[115.810626,-32.067869],[115.81039,-32.067745],[115.81032,-32.067708],[115.810005,-32.067557],[115.809684,-32.067419],[115.809356,-32.067291],[115.809033,-32.06718],[115.808705,-32.067079],[115.808372,-32.06699],[115.807996,-32.066903],[115.80735,-32.066755],[115.805676,-32.066371],[115.804243,-32.066042],[115.803986,-32.065983],[115.803274,-32.06582],[115.803271,-32.064851],[115.80327,-32.064593],[115.803272,-32.063752],[115.803273,-32.063427],[115.803273,-32.062507],[115.803272,-32.062415],[115.803172,-32.062413],[115.803172,-32.060228],[115.803176,-32.059727],[115.803187,-32.058572],[115.803196,-32.057556],[115.803202,-32.05679],[115.803205,-32.056437],[115.802877,-32.056451],[115.802576,-32.056472],[115.800948,-32.056496],[115.799996,-32.056504],[115.799745,-32.056506],[115.798233,-32.056522],[115.795852,-32.056549],[115.795289,-32.056554],[115.794924,-32.056563],[115.794881,-32.056565],[115.793805,-32.056609],[115.793621,-32.056642],[115.793594,-32.054897],[115.793594,-32.054577],[115.793588,-32.053486],[115.793583,-32.052409],[115.793557,-32.051184],[115.793558,-32.050947],[115.793559,-32.050855],[115.793574,-32.050528],[115.793625,-32.049977],[115.79374,-32.049192],[115.793784,-32.048973],[115.793735,-32.048981],[115.793739,-32.048046],[115.793744,-32.046864],[115.793746,-32.04643],[115.793732,-32.046037],[115.79373,-32.045988],[115.793723,-32.045766],[115.793706,-32.044633],[115.793688,-32.043499],[115.793673,-32.042381],[115.793676,-32.041779],[115.793655,-32.041269],[115.793658,-32.040771],[115.793637,-32.040159],[115.793662,-32.039762],[115.79363,-32.039024],[115.793624,-32.038148],[115.7936,-32.037015],[115.79361,-32.036528],[115.79361,-32.036134],[115.793608,-32.03427],[115.793608,-32.034151],[115.792289,-32.034463],[115.791069,-32.034735],[115.789843,-32.035012],[115.788578,-32.035319],[115.787255,-32.035625],[115.785927,-32.035919],[115.784572,-32.036254],[115.783874,-32.036421],[115.783566,-32.036495],[115.783272,-32.036565],[115.782566,-32.036745],[115.781724,-32.036947],[115.780755,-32.037181],[115.780686,-32.037197],[115.780529,-32.037244],[115.779354,-32.037523],[115.778177,-32.037796],[115.777484,-32.037978],[115.776622,-32.038184],[115.776135,-32.038299],[115.776047,-32.038323],[115.776088,-32.034832],[115.776101,-32.03384],[115.776114,-32.03283],[115.776138,-32.03166],[115.77616,-32.03061],[115.776177,-32.030609],[115.776189,-32.030607],[115.776212,-32.030601],[115.776233,-32.030592],[115.776243,-32.030584],[115.776259,-32.03057],[115.776272,-32.030552],[115.776279,-32.030532],[115.776282,-32.030513],[115.77628,-32.030491],[115.776273,-32.030471],[115.77626,-32.030453],[115.776253,-32.030445],[115.776245,-32.030437],[115.776235,-32.030431],[115.776214,-32.03042],[115.776203,-32.030416],[115.776179,-32.030411],[115.776162,-32.030411],[115.776165,-32.029759],[115.776163,-32.029296],[115.776162,-32.028826],[115.776173,-32.028818],[115.77621,-32.026327],[115.775886,-32.026464],[115.774482,-32.02679],[115.773893,-32.02679],[115.773123,-32.026617],[115.772354,-32.026349],[115.771584,-32.025984],[115.77052,-32.025619],[115.76973,-32.025433],[115.769297,-32.025331],[115.767984,-32.025024],[115.766738,-32.024698],[115.765108,-32.024583],[115.763727,-32.024602],[115.762549,-32.024756],[115.761259,-32.02512],[115.760353,-32.025543],[115.758878,-32.024032],[115.758701,-32.023886],[115.758133,-32.022908],[115.758574,-32.022723],[115.758326,-32.021918],[115.758111,-32.022036],[115.757497,-32.021174],[115.757346,-32.021209],[115.757101,-32.021265],[115.756868,-32.021315],[115.756719,-32.021348],[115.756578,-32.021381],[115.756327,-32.021436],[115.756015,-32.021507],[115.755937,-32.021501],[115.755716,-32.021485],[115.75541,-32.021463],[115.754981,-32.021433],[115.754328,-32.021383],[115.753806,-32.021346],[115.753646,-32.021452],[115.753537,-32.021525],[115.753025,-32.021471],[115.75298,-32.021487],[115.752362,-32.021711],[115.751844,-32.021673],[115.750871,-32.021603],[115.74989325530406,-32.025473785525485],[115.74945851237005,-32.02652952683764],[115.74266232588779,-32.03802741853004],[115.74218051592936,-32.038680687955434],[115.7415767417401,-32.03922323611602],[115.74087586756293,-32.03963272014009],[115.74010675635047,-32.03989227691815],[115.735008,-32.041053],[115.72800628544454,-32.051739352164944],[115.72744692453351,-32.05241697998959],[115.72675310678224,-32.052956128415836],[115.72595831167672,-32.05333078137225],[115.724328,-32.05389],[115.7284341263119,-32.053695953828445],[115.72920918554814,-32.053734687445456],[115.729962179584,-32.053922349627946],[115.7306647668011,-32.0542518770398],[115.73129050282158,-32.05471086674062],[115.73181583583673,-32.05528204301462],[115.73222099306331,-32.05594390760389],[115.73226927017399,-32.056043303675736],[115.73228,-32.056106],[115.7355341013378,-32.056374331521184],[115.7362898959346,-32.056510629506754],[115.737005712352,-32.05678885508071],[115.73765516369039,-32.057198752107396],[115.73821430944373,-32.05772521069071],[115.73866253801036,-32.05834882416514],[115.73898332649152,-32.05904660447711],[115.73916484976944,-32.05979282958591],[115.73920041641261,-32.06055999164657],[115.73908871533988,-32.06131981102232],[115.73883386415025,-32.06204427874733],[115.73844525733735,-32.06270668901173],[115.7384404752973,-32.062713293431784],[115.738303,-32.062867],[115.7416080652259,-32.064448084201516],[115.74222522955674,-32.06481473111651],[115.7427669204257,-32.0652857860751],[115.74321569126415,-32.065846077522544],[115.745755,-32.069676],[115.74812894910686,-32.07063178292684],[115.74884900570119,-32.07101092293977],[115.74947742747874,-32.07152794781147],[115.74998820450797,-32.07216145824931],[115.75036019609004,-32.07288523370574],[115.75057800575726,-32.07366931762811],[115.75063261852205,-32.07448125733916],[115.750337,-32.082988],[115.75647368665635,-32.092320195934384],[115.7568561416532,-32.093059394600495],[115.75707734777457,-32.093861737634654],[115.75712772836467,-32.09469248927548],[115.75700510230136,-32.09551568387045],[115.75671477842326,-32.09629568293353],[115.75626932569466,-32.096998718038755],[115.75568802905858,-32.09759435275355],[115.7555749908267,-32.09768828698699],[115.755312,-32.097876],[115.756912,-32.102611],[115.76046537122527,-32.105165936820455],[115.76104453975947,-32.10567370714038],[115.76151564895868,-32.10628306993153],[115.76186123047985,-32.106971430520936],[115.76206847044335,-32.10771326506202],[115.76212968456116,-32.10848106693789],[115.7619970447197,-32.116342333170046],[115.76188652106319,-32.11721101568397],[115.76158961550898,-32.11803483112479],[115.7565157036217,-32.12839035397726],[115.75607479694831,-32.12909423429829],[115.75549802959839,-32.12969188438407],[115.75481026911973,-32.130157536319516],[115.75043922772701,-32.13249546832759],[115.74985108259493,-32.13275170533212],[115.74922953782347,-32.13291062102025],[115.73734,-32.134952],[115.74050746604264,-32.13539374739064],[115.74130470198305,-32.13559001170412],[115.74204507109353,-32.13594491789694],[115.74269738047467,-32.13644351322054],[115.74323414732014,-32.137064791080306],[115.7436327568099,-32.13778257607604],[115.74377865117457,-32.13812372573731],[115.74380125801858,-32.13810805386336],[115.743764,-32.138157],[115.74648305365196,-32.135849636437015],[115.74714079370354,-32.13539612677009],[115.74787554210482,-32.13508237881348],[115.7486579873085,-32.13492090901234],[115.7494569149839,-32.13491815893183],[115.7548679471126,-32.13544244800265],[115.75589984617666,-32.135683451004354],[115.7592215187627,-32.13694242673916],[115.75990379353709,-32.13727833124408],[115.76051016465729,-32.13773729177483],[115.76101871443348,-32.138302718895986],[115.76141106099378,-32.13895417486596],[115.76176417407481,-32.13969104205117],[115.76202955587239,-32.14041811190276],[115.7621499436402,-32.14118268031235],[115.76212082992426,-32.14195612097531],[115.76194330477499,-32.14270947539983],[115.76162401493443,-32.14341453714556],[115.76117491497476,-32.144044907904565],[115.76061281970561,-32.144576985883795],[115.76032567023944,-32.144800337255724],[115.760232,-32.14482],[115.761673,-32.150867],[115.76315667051357,-32.15170969424622],[115.7637648022199,-32.15213416609146],[115.76428412131976,-32.152663607487796],[115.76469677620224,-32.15327981887004],[115.76498858184235,-32.153961617951914],[115.7651495074117,-32.15468556786783],[115.76517402108868,-32.15542678281593],[115.76506128021481,-32.156159783508286],[115.76503711247702,-32.1562562623152],[115.764835,-32.156921],[115.76487295391422,-32.157003827101505],[115.76492157227258,-32.15727955672254],[115.7649810647136,-32.15807517409851],[115.76488147133034,-32.15886677217675],[115.76462675436068,-32.1596228579026],[115.76422704750208,-32.160313351050036],[115.76369825275115,-32.16091078093786],[115.76306140775625,-32.16139137932732],[115.76279129098562,-32.16155572015318],[115.762692,-32.161582],[115.763445,-32.163835],[115.76365186313869,-32.16383668225532],[115.76384761330559,-32.16385859433591],[115.76461463044781,-32.16402180260607],[115.76533506518804,-32.164331521867645],[115.76598122796662,-32.16477584821109],[115.76652828383072,-32.16533770416902],[115.76695520695368,-32.16599549508033],[115.7672455887524,-32.16672393907055],[115.76732513805894,-32.16699939101952],[115.767328,-32.167131],[115.76764208633452,-32.16712827758233],[115.76780484115342,-32.167140160407165],[115.76858771851296,-32.167276463273694],[115.76932820238382,-32.16756483641478],[115.76999706793026,-32.16799389854583],[115.7705679168923,-32.168546715779684],[115.77101821945153,-32.16920146996001],[115.77133020342028,-32.169932319763156],[115.774924,-32.181389],[115.774952,-32.181389],[115.775595,-32.181227],[115.775633,-32.181172],[115.775673,-32.181303],[115.775782,-32.181264],[115.775921,-32.181234],[115.775978,-32.181226],[115.776107,-32.181198],[115.776291,-32.18115],[115.776495,-32.181107],[115.776602,-32.181097],[115.776815,-32.181097],[115.777324,-32.18113],[115.777377,-32.180951],[115.777397,-32.180854],[115.778563,-32.181096],[115.778966,-32.18116],[115.783486,-32.181048],[115.784196,-32.180867],[115.784711,-32.180865],[115.784711,-32.180558],[115.785266,-32.180559],[115.785266,-32.180458],[115.786117,-32.180447],[115.786118,-32.180984],[115.789229,-32.180908],[115.790854,-32.180869],[115.792392,-32.180831],[115.793215,-32.180836],[115.793649,-32.180815],[115.794246,-32.180787],[115.798624,-32.180773],[115.805961,-32.18075],[115.813147,-32.18075],[115.813254,-32.180749],[115.813361,-32.18075],[115.824855,-32.180747],[115.824927,-32.180788],[115.82494,-32.180791],[115.82509,-32.180829],[115.825464,-32.180843],[115.82826,-32.18082],[115.829901,-32.180816],[115.8318,-32.180819],[115.831848,-32.180827],[115.832048,-32.180745],[115.835084,-32.180744],[115.835437,-32.180743],[115.836226,-32.180744],[115.839612,-32.180742],[115.847437,-32.180738],[115.847611,-32.180532],[115.847622,-32.180519],[115.847662,-32.180573],[115.847684,-32.180594],[115.847766,-32.180638],[115.84785,-32.180658],[115.847937,-32.180655],[115.847979,-32.180647],[115.852065,-32.1806],[115.853298,-32.180592],[115.8539,-32.180598],[115.855857,-32.180631],[115.856288,-32.180638],[115.857035,-32.180646],[115.857179,-32.180644],[115.857854,-32.180635],[115.858368,-32.180612],[115.858608,-32.180602],[115.858947,-32.180589],[115.859569,-32.180558],[115.861114,-32.180532],[115.861115,-32.180518],[115.861117,-32.180504],[115.861127,-32.180479],[115.861135,-32.180467],[115.861143,-32.180456],[115.861153,-32.180447],[115.861165,-32.180437],[115.861176,-32.180429],[115.861189,-32.180422],[115.861203,-32.180415],[115.861233,-32.180408],[115.861259,-32.180406],[115.86128,-32.180406],[115.861296,-32.180408],[115.86131,-32.180412],[115.861352,-32.18043],[115.861363,-32.180439],[115.861375,-32.180449],[115.861384,-32.180459],[115.861392,-32.180469],[115.861405,-32.180494],[115.861415,-32.180536],[115.865796,-32.180504],[115.869175,-32.180466],[115.873855,-32.180444],[115.875189,-32.180437],[115.87857,-32.180406],[115.879106,-32.180401],[115.881317,-32.18038],[115.888762,-32.180304],[115.897821,-32.180244],[115.898546,-32.180241],[115.898628,-32.18024],[115.898356,-32.178373],[115.898347,-32.178281],[115.898307,-32.178098],[115.898245,-32.177929],[115.898161,-32.177772],[115.897777,-32.177215],[115.89784,-32.177146],[115.897804,-32.173701],[115.897771,-32.171085],[115.897743,-32.168213],[115.897739,-32.16803],[115.897678,-32.162582],[115.897617,-32.157135],[115.897503,-32.146942],[115.897487,-32.145752],[115.897464,-32.143598],[115.897445,-32.142036],[115.897426,-32.140356],[115.897425,-32.140142],[115.897388,-32.136836],[115.897381,-32.136348],[115.896914,-32.136137],[115.899089,-32.132368],[115.899152,-32.132252],[115.899233,-32.132122],[115.899324,-32.131998],[115.899425,-32.131879],[115.899635,-32.131673],[115.899855,-32.131502],[115.900096,-32.131355],[115.900223,-32.131289],[115.900515,-32.131104],[115.900807,-32.130918],[115.901015,-32.130793],[115.901213,-32.130658],[115.901405,-32.130514],[115.901705,-32.130249],[115.901974,-32.129961],[115.902059,-32.129855],[115.902097,-32.12981],[115.902198,-32.129694],[115.90236,-32.129463],[115.902486,-32.129237],[115.902538,-32.12912],[115.902544,-32.129102],[115.902747,-32.128619],[115.9028,-32.128473],[115.902861,-32.12833],[115.902934,-32.12819],[115.903101,-32.12793],[115.903294,-32.127696],[115.903403,-32.127586],[115.903663,-32.1272],[115.903928,-32.126749],[115.904284,-32.125966],[115.904428,-32.12569],[115.904587,-32.125461],[115.904606,-32.12543],[115.90471,-32.125307],[115.904825,-32.125188],[115.904946,-32.125076],[115.905074,-32.12497],[115.906446,-32.123781],[115.907915,-32.12251],[115.909322,-32.121292],[115.909477,-32.121157],[115.912879,-32.118195],[115.913351,-32.117784]]],[[[115.54972969871132,-32.01899170610152],[115.549703,-32.018983],[115.550593,-32.020463],[115.551543,-32.019583],[115.55146870087418,-32.01955877202419],[115.5508889640191,-32.01923728939025],[115.55029861488703,-32.01874055024879],[115.54995993321802,-32.018320113025204],[115.54987419658354,-32.0186153038161],[115.54972724718884,-32.01898650238905],[115.54972969871132,-32.01899170610152]]],[[[115.531253,-32.020704],[115.53096780012744,-32.020022000304735],[115.53092577202386,-32.019899915231235],[115.53074391022011,-32.01913317020901],[115.53071589505096,-32.01834565081556],[115.53084281380549,-32.0175679212517],[115.5311197406745,-32.016830165767814],[115.53153592792462,-32.016161017191195],[115.5320752230258,-32.015586445665086],[115.53271669554266,-32.01512875072861],[115.53343544945996,-32.01480569585533],[115.53420358941504,-32.014629819040024],[115.54565068289952,-32.01317488876672],[115.54640341951053,-32.01315068579004],[115.54714735064015,-32.01326800869488],[115.54785610401402,-32.013522698397544],[115.54850455440523,-32.013905726176894],[115.5490697143208,-32.01440351374149],[115.54935267564136,-32.01476800339204],[115.54944902074458,-32.014442536768456],[115.54980597286463,-32.013758543306224],[115.55028760074825,-32.013155802521055],[115.55087598597567,-32.01265673870095],[115.55113339565797,-32.01247803372811],[115.551173,-32.012473],[115.558403,-32.003453],[115.54681714585776,-32.0011027516015],[115.54602778566223,-32.00085534638955],[115.54530619600268,-32.00045086249565],[115.54468323831533,-31.999906599161434],[115.54418555567727,-31.999245833810523],[115.54229481922513,-31.99610552648531],[115.54197995417964,-31.99545644666615],[115.5417867976554,-31.994761367414803],[115.5417216326069,-31.99404289812182],[115.541786578709,-31.993324409004067],[115.54197952340867,-31.99262927092327],[115.54229419064164,-31.991980095183575],[115.543213,-31.990453],[115.539653,-31.988183],[115.531835564555,-31.989681398294316],[115.53101513719466,-31.989752342953203],[115.53019756812748,-31.9896537781593],[115.52941750869995,-31.989389881422458],[115.52870802047295,-31.988971837580298],[115.52809917396088,-31.988417364746926],[115.52787692871499,-31.98816851558352],[115.527873,-31.988133],[115.525893,-31.987343],[115.524173,-31.988013],[115.52417465282856,-31.988045505628378],[115.52406903555462,-31.98817652824433],[115.52350320861642,-31.988749339759014],[115.52283412955661,-31.98919723078045],[115.5220889074998,-31.989502054075793],[115.52129773666186,-31.989651459097566],[115.52049267296876,-31.989639392391712],[115.51970633524428,-31.989466342865832],[115.51943241193469,-31.989376347531675],[115.519403,-31.989343],[115.511343,-31.987614],[115.493433,-31.995994],[115.487363,-32.001144],[115.48573275989914,-32.00633853777592],[115.48546111559577,-32.00699396264443],[115.48507794852155,-32.00759108522736],[115.48459531340923,-32.008111119586005],[115.48402839433307,-32.00853770503688],[115.48339502700605,-32.00885742087148],[115.479533,-32.010394],[115.4782978783064,-32.012211624501056],[115.47772938640475,-32.012877683253414],[115.47702957970816,-32.01340407463941],[115.4762319972094,-32.01376557078258],[115.47537486391232,-32.013944846589325],[115.456893,-32.015734],[115.45689642361816,-32.01578934849378],[115.45676366101527,-32.01610097900587],[115.45635913320152,-32.01682919926351],[115.45581254411113,-32.01745783895523],[115.45514760025226,-32.017959632897295],[115.45439314138277,-32.01831281742412],[115.45422572692719,-32.0183708182682],[115.453973,-32.018434],[115.45399230338948,-32.01845168800057],[115.45398845486856,-32.018453021323076],[115.45389633126914,-32.01881806446723],[115.45361910244925,-32.01958042876162],[115.45319376291201,-32.020271182997206],[115.45263780621158,-32.02086191752572],[115.45197409798311,-32.02132833635401],[115.45122993551462,-32.02165125640048],[115.450023,-32.022035],[115.449783,-32.026185],[115.458473,-32.025705],[115.45940606772854,-32.024520640167296],[115.45994587399585,-32.02395820726231],[115.46058452022584,-32.02351115852699],[115.46129774897507,-32.02319647403406],[115.4620584699622,-32.023026106318305],[115.46283778902728,-32.0230065263883],[115.46360610560698,-32.023138477940684],[115.46367587164805,-32.02315761229642],[115.464653,-32.023464],[115.470243,-32.022254],[115.47141781121626,-32.01936215700616],[115.47179618169264,-32.01864780675541],[115.47231045136176,-32.01802411836723],[115.47293961679152,-32.01751656407443],[115.47365798205968,-32.01714587304454],[115.47614039670027,-32.0161682623304],[115.47692746782951,-32.0159480411604],[115.47774287060548,-32.015892393706565],[115.48224978469248,-32.0160465960548],[115.4829552923342,-32.01613394300996],[115.48363419581605,-32.016344799798844],[115.48426505152506,-32.016672506371116],[115.488623,-32.019454],[115.48956173626611,-32.01888143745472],[115.48963012848401,-32.01884331239745],[115.4903613141029,-32.018526582575106],[115.49114077318586,-32.01836107206906],[115.49193757337713,-32.01835334906227],[115.49272009414965,-32.018503720037515],[115.49345728164639,-32.018806217614845],[115.494693,-32.019464],[115.4988271240149,-32.015774038069345],[115.49958557108681,-32.01524105475742],[115.5004463368931,-32.014896968433376],[115.50646432876721,-32.01326927336073],[115.5072107170275,-32.01314164503425],[115.5079677835621,-32.013156964532605],[115.508708397736,-32.01331468285817],[115.51648341257271,-32.01575916013949],[115.51709703995708,-32.01600964573417],[115.51766088201217,-32.01635801871949],[115.51815945839797,-32.016794714480284],[115.51880187111338,-32.01745918428463],[115.5193520895077,-32.018174845597],[115.51972781636809,-32.01899566270323],[115.51990991518825,-32.01987982977748],[115.520303,-32.024234],[115.527643,-32.027634],[115.531253,-32.020704]]]]},"bbox":[115.449783,-32.181389,115.916173,-31.987343]}]}