{"type":"FeatureCollection","features":[
{"properties":{"electorateShortName":"fremantle","electorateName":"Fremantle","area":194.13,"state":null},"type":"Feature","geometry":{"type":"Polygon","coordinates":[[[115.898628,-32.18024],[115.897381,-32.136348],[115.904825,-32.125188],[115.916173,-32.115337],[115.890624,-32.092087],[115.892017,-32.081769],[115.884363,-32.075088],[115.87056,-32.084375],[115.849094,-32.086753],[115.849211,-32.078664],[115.835131,-32.079685],[115.824114,-32.073882],[115.823941,-32.068538],[115.803274,-32.06582],[115.803205,-32.056437],[115.793621,-32.056642],[115.793608,-32.034151],[115.776047,-32.038323],[115.775886,-32.026464],[115.760353,-32.025543],[115.750871,-32.021603],[115.751592,-32.001348],[115.749997,-31.996945],[115.754246,-31.973838],[115.75483660884797,-31.931479414108175],[115.74302029035191,-31.931946062967658],[115.72484680006411,-31.935447669243874],[115.70777383462361,-31.94259265677508],[115.69252338443661,-31.953078874627494],[115.6797403684403,-31.966462876188764],[115.67050628427697,-31.978287335271695],[115.65972750398001,-31.99172910194859],[115.65371053913404,-31.998094173804457],[115.64748627397903,-31.990640104262628],[115.64302388457766,-31.972804902289134],[115.63503032470311,-31.956248624049845],[115.62383916003184,-31.941662151484316],[115.59160073849313,-31.91456738368491],[115.57290072173265,-31.904549340510602],[115.55657342357293,-31.899787868538404],[115.52626123391053,-31.897343753315447],[115.4915864983284,-31.899809212877088],[115.45529110075066,-31.914475931317938],[115.43520702167041,-31.927366487677585],[115.41529119206567,-31.93592617095676],[115.40082591311403,-31.945331714752133],[115.37894362985988,-31.96682881248009],[115.36935816389787,-31.982120288218297],[115.36301632448668,-31.999016780778696],[115.36017312433927,-32.016838862612275],[115.36053446538688,-32.037790992823176],[115.36425039508173,-32.05418809796959],[115.37095123518884,-32.069607953109596],[115.38040314029423,-32.08351243729846],[115.39227625852456,-32.09541631289292],[115.40615624269297,-32.104904159337956],[115.42155871015608,-32.11164487048203],[115.43794614676298,-32.11540320949473],[115.46343666498373,-32.11556801814389],[115.49092703875145,-32.10968971136577],[115.5059660419724,-32.11498449794174],[115.52290180577592,-32.11750903033284],[115.54000918521675,-32.11678038222152],[115.55666894942465,-32.11282492827289],[115.56448564083385,-32.109384282776745],[115.58165465186126,-32.10493295787646],[115.59761728495835,-32.097200973808],[115.61175358055682,-32.08648862673654],[115.62402018392493,-32.07294082801344],[115.63275500114352,-32.0583723138669],[115.63793594245757,-32.07911721533555],[115.6442779801522,-32.09502385858834],[115.65214200635609,-32.10729426542421],[115.64738362913386,-32.13214997562629],[115.64855528310447,-32.14969221864761],[115.6531150392926,-32.16667196207178],[115.661775,-32.164785],[115.669118,-32.15602],[115.677181,-32.172242],[115.674959,-32.184634],[115.682311,-32.197432],[115.683319,-32.205863],[115.70763322379055,-32.24115480491495],[115.72165287518445,-32.25392993507038],[115.7421226856423,-32.264821765657466],[115.755206,-32.251149],[115.75989,-32.236549],[115.755697,-32.223666],[115.772648,-32.200397],[115.774924,-32.181389],[115.794246,-32.180787],[115.898546,-32.180241],[115.898628,-32.18024]]]},"bbox":[115.36017312433927,-32.264821765657466,115.916173,-31.897343753315447]}]}