{"type":"FeatureCollection","features":[
{"properties":{"electorateShortName":"gellibrand","electorateName":"Gellibrand","area":146.05,"state":null},"type":"Feature","geometry":{"type":"Polygon","coordinates":[[[144.74049,-37.941279],[144.744038,-37.939266],[144.761028,-37.937347],[144.773836,-37.929182],[144.792834,-37.927342],[144.796078,-37.923861],[144.79917,-37.92317],[144.797013,-37.917642],[144.797522,-37.906676],[144.800995,-37.898549],[144.807636,-37.891284],[144.807735,-37.880643],[144.819567,-37.872528],[144.826561,-37.870863],[144.840214,-37.871507],[144.850369,-37.863943],[144.856185,-37.863435],[144.861666,-37.859841],[144.868582,-37.858712],[144.874646,-37.861723],[144.874437,-37.863592],[144.878621,-37.868083],[144.882677,-37.865786],[144.88505,-37.86828],[144.89215,-37.867605],[144.902906,-37.872753],[144.908045,-37.8707],[144.915524,-37.865543],[144.911555,-37.862068],[144.903492,-37.861283],[144.902042,-37.854318],[144.895234,-37.848709],[144.897981,-37.84764],[144.897148,-37.842552],[144.898362,-37.841204],[144.897219,-37.83834],[144.897147,-37.83263],[144.898884,-37.828876],[144.905563,-37.822888],[144.882132,-37.820265],[144.883466,-37.812824],[144.869228,-37.811202],[144.827414,-37.822832],[144.825316,-37.819595],[144.826586,-37.816872],[144.769138,-37.812017],[144.750776,-37.810371],[144.708523,-37.806788],[144.712262,-37.811625],[144.709201,-37.812924],[144.706033,-37.816743],[144.706679,-37.81895],[144.704066,-37.821177],[144.704918,-37.823647],[144.70328,-37.82731],[144.704572,-37.828818],[144.703843,-37.833123],[144.702685,-37.834554],[144.704634,-37.839828],[144.706724,-37.840374],[144.705812,-37.844],[144.706664,-37.844914],[144.711452,-37.844766],[144.713969,-37.847409],[144.713312,-37.851174],[144.746544,-37.854009],[144.752538,-37.854446],[144.755446,-37.858273],[144.757828,-37.865065],[144.750774,-37.866847],[144.7513,-37.869828],[144.718952,-37.878042],[144.719303,-37.881535],[144.716861,-37.896124],[144.713538,-37.914868],[144.717821,-37.91945],[144.725254,-37.923795],[144.728302,-37.927084],[144.742765,-37.928815],[144.74049,-37.941279]]]},"bbox":[144.702685,-37.941279,144.915524,-37.806788]}]}