{"type":"FeatureCollection","features":[
{"properties":{"electorateShortName":"gellibrand","electorateName":"Gellibrand","area":146.05,"state":null},"type":"Feature","geometry":{"type":"Polygon","coordinates":[[[144.74049,-37.941279],[144.79917,-37.92317],[144.807735,-37.880643],[144.898362,-37.841204],[144.905563,-37.822888],[144.869228,-37.811202],[144.769138,-37.812017],[144.708523,-37.806788],[144.713538,-37.914868],[144.74049,-37.941279]]]},"bbox":[144.708523,-37.941279,144.905563,-37.806788]}]}