{"type":"FeatureCollection","features":[
{"properties":{"electorateShortName":"gilmore","electorateName":"Gilmore","area":6341.26,"state":null},"type":"Feature","geometry":{"type":"MultiPolygon","coordinates":[[[[150.701604,-35.122862],[150.697787,-35.118526],[150.695,-35.111113],[150.693393,-35.100379],[150.694448,-35.092163],[150.692603,-35.088714],[150.693556,-35.085293],[150.691608,-35.083161],[150.693619,-35.076419],[150.697959,-35.071135],[150.697125,-35.070219],[150.688889,-35.072156],[150.683136,-35.069582],[150.676828,-35.069026],[150.674287,-35.061513],[150.677356,-35.050677],[150.67951,-35.049259],[150.676243,-35.047757],[150.677648,-35.042719],[150.673807,-35.040487],[150.673389,-35.037653],[150.67113,-35.037153],[150.678123,-35.025228],[150.692998,-35.013584],[150.709141,-35.007434],[150.714109,-35.00892],[150.717097,-35.010592],[150.720654,-35.008099],[150.728397,-35.007549],[150.72457,-35.000911],[150.724829,-34.998169],[150.72703,-34.996149],[150.739692,-34.992116],[150.753894,-34.991007],[150.760349,-34.992211],[150.767618,-34.996178],[150.774208,-35.002118],[150.778271,-35.002448],[150.776165,-35.01135],[150.767252,-35.015173],[150.770774,-35.02194],[150.77508,-35.023644],[150.775304,-35.026707],[150.785012,-35.030788],[150.787111,-35.036227],[150.786657,-35.039934],[150.781407,-35.045887],[150.779248,-35.053844],[150.777649,-35.055046],[150.773507,-35.065335],[150.773462,-35.079261],[150.777199,-35.078776],[150.776189,-35.08304],[150.78158,-35.077331],[150.781235,-35.072909],[150.786259,-35.072542],[150.788486,-35.074583],[150.788776,-35.07739],[150.793643,-35.076603],[150.793416,-35.078664],[150.795292,-35.081627],[150.798925,-35.080325],[150.80028,-35.083846],[150.799512,-35.09063],[150.802449,-35.093793],[150.806169,-35.094352],[150.81003,-35.088097],[150.811577,-35.088555],[150.81542,-35.084619],[150.81794,-35.084963],[150.825606,-35.075916],[150.830542,-35.076373],[150.833427,-35.074713],[150.832431,-35.073005],[150.837841,-35.065623],[150.840569,-35.060413],[150.841037,-35.053614],[150.842983,-35.050636],[150.840307,-35.048762],[150.839126,-35.050684],[150.83671,-35.049493],[150.834573,-35.04321],[150.833418,-35.043685],[150.831646,-35.041184],[150.835337,-35.039632],[150.835267,-35.032089],[150.838393,-35.029855],[150.839573,-35.023658],[150.843221,-35.021624],[150.845009,-35.017015],[150.849645,-35.014752],[150.849715,-35.012891],[150.846536,-35.011848],[150.845545,-35.009515],[150.846587,-35.008384],[150.843026,-35.004435],[150.840873,-35.006783],[150.837018,-35.005767],[150.835194,-35.003091],[150.830645,-35.005182],[150.829359,-35.002907],[150.827345,-35.010221],[150.821614,-35.014616],[150.813937,-35.01393],[150.806488,-35.010395],[150.79805,-35.003854],[150.78765,-34.990697],[150.779433,-34.973075],[150.779055,-34.967306],[150.781087,-34.964371],[150.777844,-34.961751],[150.776324,-34.949941],[150.78001,-34.934466],[150.785753,-34.930429],[150.779839,-34.9299],[150.777757,-34.931918],[150.774965,-34.931589],[150.768621,-34.926048],[150.76563,-34.913135],[150.768967,-34.90187],[150.771898,-34.899494],[150.770895,-34.895815],[150.760049,-34.900442],[150.755778,-34.8968],[150.750217,-34.887528],[150.748369,-34.872537],[150.749607,-34.854716],[150.755037,-34.833799],[150.762336,-34.817197],[150.776622,-34.797234],[150.792111,-34.782536],[150.80983,-34.773346],[150.814666,-34.772473],[150.817544,-34.773703],[150.821096,-34.780488],[150.82309,-34.780917],[150.824303,-34.777166],[150.822899,-34.773159],[150.828498,-34.769192],[150.826962,-34.763963],[150.827909,-34.761721],[150.831825,-34.759114],[150.834113,-34.75492],[150.837007,-34.754547],[150.832207,-34.751142],[150.835741,-34.749022],[150.836145,-34.746106],[150.832954,-34.741867],[150.833299,-34.738644],[150.839309,-34.72989],[150.846035,-34.725446],[150.84809,-34.720719],[150.846216,-34.716981],[150.851534,-34.71377],[150.849763,-34.708414],[150.852583,-34.706574],[150.849982,-34.703602],[150.856019,-34.700538],[150.851956,-34.697455],[150.857168,-34.695089],[150.854428,-34.690163],[150.860942,-34.688143],[150.858825,-34.686322],[150.859497,-34.681895],[150.855894,-34.681024],[150.855094,-34.676398],[150.858799,-34.675235],[150.858917,-34.672428],[150.864702,-34.671638],[150.860404,-34.669462],[150.859698,-34.671183],[150.85677,-34.671197],[150.857435,-34.667808],[150.854737,-34.662747],[150.857449,-34.654953],[150.863163,-34.653961],[150.862641,-34.651341],[150.865478,-34.64889],[150.863591,-34.647716],[150.859817,-34.648922],[150.857028,-34.646718],[150.855795,-34.642622],[150.857141,-34.636805],[150.861898,-34.632248],[150.860886,-34.627883],[150.858721,-34.628075],[150.851978,-34.618883],[150.849636,-34.617805],[150.849196,-34.614642],[150.847797,-34.61413],[150.844988,-34.614869],[150.842159,-34.614721],[150.839309,-34.611759],[150.837476,-34.613022],[150.838414,-34.615208],[150.846324,-34.621915],[150.846604,-34.623427],[150.848898,-34.625608],[150.850047,-34.628296],[150.848929,-34.634094],[150.846315,-34.636413],[150.843491,-34.637045],[150.842732,-34.635654],[150.845704,-34.633124],[150.846189,-34.631185],[150.842437,-34.631564],[150.840476,-34.633145],[150.838347,-34.633546],[150.835945,-34.632892],[150.833057,-34.63656],[150.832741,-34.6389],[150.826789,-34.638317],[150.826732,-34.639418],[150.819115,-34.640187],[150.81449,-34.638187],[150.814947,-34.640819],[150.807979,-34.642745],[150.803508,-34.643238],[150.800185,-34.642996],[150.796952,-34.641328],[150.799275,-34.629579],[150.793003,-34.628734],[150.795873,-34.614609],[150.788127,-34.613501],[150.790172,-34.602266],[150.780953,-34.600656],[150.775923,-34.60005],[150.774307,-34.600604],[150.768286,-34.598949],[150.766636,-34.606761],[150.759991,-34.605954],[150.758131,-34.613022],[150.729356,-34.608956],[150.700452,-34.604969],[150.698591,-34.602595],[150.693815,-34.603805],[150.693134,-34.607265],[150.691635,-34.607041],[150.688417,-34.608446],[150.682659,-34.608085],[150.673899,-34.609849],[150.668884,-34.609586],[150.666625,-34.611709],[150.666235,-34.614786],[150.666991,-34.619261],[150.663307,-34.619229],[150.660042,-34.620322],[150.659579,-34.621468],[150.654761,-34.624469],[150.64919,-34.625179],[150.64803,-34.624407],[150.642787,-34.624886],[150.637374,-34.626897],[150.634915,-34.626242],[150.632739,-34.628836],[150.632351,-34.633934],[150.628757,-34.637189],[150.628104,-34.639667],[150.625441,-34.640944],[150.623283,-34.644297],[150.621137,-34.644757],[150.618401,-34.644202],[150.615029,-34.645923],[150.61136,-34.646171],[150.603458,-34.651838],[150.597452,-34.64969],[150.594113,-34.647513],[150.591921,-34.648857],[150.592084,-34.653436],[150.590467,-34.658718],[150.582947,-34.661687],[150.582243,-34.666894],[150.580143,-34.666711],[150.576376,-34.669631],[150.576726,-34.675565],[150.578853,-34.678646],[150.579834,-34.681209],[150.580364,-34.686671],[150.579618,-34.690383],[150.579649,-34.693488],[150.577055,-34.695536],[150.568456,-34.69652],[150.56699,-34.696176],[150.567011,-34.694006],[150.565058,-34.690315],[150.563762,-34.689596],[150.564253,-34.686087],[150.568721,-34.682538],[150.567175,-34.682006],[150.564494,-34.683637],[150.560919,-34.684153],[150.56211,-34.681942],[150.563655,-34.676573],[150.566207,-34.674203],[150.565997,-34.663658],[150.565137,-34.662501],[150.564081,-34.657928],[150.564342,-34.655649],[150.562864,-34.651618],[150.559433,-34.648362],[150.557208,-34.644293],[150.559181,-34.640827],[150.554802,-34.641431],[150.552519,-34.643122],[150.551189,-34.645957],[150.551332,-34.650166],[150.548328,-34.650451],[150.548011,-34.645227],[150.546392,-34.644113],[150.541561,-34.652083],[150.541627,-34.656924],[150.53921,-34.659402],[150.538386,-34.662078],[150.538977,-34.664779],[150.535755,-34.663923],[150.534633,-34.660026],[150.53054,-34.656811],[150.525995,-34.658023],[150.523407,-34.65952],[150.518632,-34.660928],[150.517303,-34.665117],[150.514208,-34.6644],[150.510307,-34.665543],[150.508381,-34.66671],[150.504252,-34.666829],[150.501841,-34.668425],[150.501543,-34.67056],[150.504716,-34.672072],[150.504882,-34.673788],[150.500771,-34.675258],[150.50076,-34.68022],[150.498253,-34.681892],[150.469216,-34.678192],[150.467628,-34.679941],[150.462815,-34.682225],[150.460509,-34.683897],[150.458384,-34.687224],[150.456481,-34.68889],[150.451792,-34.691769],[150.447374,-34.691087],[150.44472,-34.691395],[150.441824,-34.690164],[150.439809,-34.690953],[150.435134,-34.691525],[150.433291,-34.68976],[150.427575,-34.694101],[150.424718,-34.697764],[150.422019,-34.699001],[150.417872,-34.698877],[150.415894,-34.701365],[150.412543,-34.700603],[150.409007,-34.701305],[150.407167,-34.702975],[150.405853,-34.701211],[150.400971,-34.703248],[150.401093,-34.705271],[150.398143,-34.705149],[150.397251,-34.706406],[150.39379,-34.707222],[150.394241,-34.708665],[150.3892,-34.712859],[150.388709,-34.714101],[150.390312,-34.719254],[150.386465,-34.720555],[150.385383,-34.72237],[150.382828,-34.723335],[150.381247,-34.727512],[150.379777,-34.729873],[150.380115,-34.732484],[150.376635,-34.734424],[150.37784,-34.736644],[150.377125,-34.737824],[150.373854,-34.739656],[150.373518,-34.741469],[150.371234,-34.743849],[150.362721,-34.746625],[150.35873,-34.748311],[150.344755,-34.748985],[150.338408,-34.748354],[150.333246,-34.752847],[150.330255,-34.759229],[150.32664,-34.762522],[150.323026,-34.763504],[150.313591,-34.769921],[150.314872,-34.773623],[150.313472,-34.773837],[150.310168,-34.772091],[150.305563,-34.767266],[150.302836,-34.766331],[150.29459,-34.765937],[150.291627,-34.764687],[150.28782,-34.764691],[150.284211,-34.768017],[150.279662,-34.768447],[150.276501,-34.769241],[150.267865,-34.774374],[150.264719,-34.778219],[150.263265,-34.781014],[150.259739,-34.785546],[150.257641,-34.790168],[150.25581,-34.791464],[150.251182,-34.792236],[150.243494,-34.791523],[150.239596,-34.792463],[150.236136,-34.794164],[150.234577,-34.799697],[150.231571,-34.801705],[150.22567,-34.802965],[150.223409,-34.80306],[150.21836,-34.804617],[150.214706,-34.807754],[150.212288,-34.811582],[150.209564,-34.814495],[150.206738,-34.81513],[150.204052,-34.816574],[150.193709,-34.819725],[150.189571,-34.818969],[150.184216,-34.819659],[150.177659,-34.818223],[150.175957,-34.818504],[150.172055,-34.820568],[150.167396,-34.822181],[150.162728,-34.823063],[150.156572,-34.822593],[150.148277,-34.820338],[150.146277,-34.820421],[150.13761,-34.819282],[150.134084,-34.819608],[150.131361,-34.818283],[150.127115,-34.817387],[150.125367,-34.813475],[150.125277,-34.807969],[150.121431,-34.8037],[150.115468,-34.799362],[150.110133,-34.799142],[150.107134,-34.795418],[150.105446,-34.78885],[150.100097,-34.78621],[150.095096,-34.78215],[150.092258,-34.780547],[150.088298,-34.779647],[150.085992,-34.778201],[150.081419,-34.773718],[150.07625,-34.773529],[150.075198,-34.771526],[150.075331,-34.769538],[150.07422,-34.768097],[150.069578,-34.767823],[150.06787,-34.767167],[150.060478,-34.768306],[150.056201,-34.770454],[150.055134,-34.773662],[150.058365,-34.774619],[150.061307,-34.774481],[150.067381,-34.778912],[150.066872,-34.782762],[150.065964,-34.784051],[150.06334,-34.784775],[150.05393,-34.784832],[150.052921,-34.785142],[150.048584,-34.789406],[150.04608,-34.790373],[150.041993,-34.793191],[150.040306,-34.79555],[150.041808,-34.798034],[150.045378,-34.800689],[150.046627,-34.802548],[150.046692,-34.804662],[150.043816,-34.806397],[150.039694,-34.80478],[150.038337,-34.804863],[150.036388,-34.807472],[150.037239,-34.813644],[150.039497,-34.821622],[150.042344,-34.825162],[150.043756,-34.827779],[150.043161,-34.830863],[150.039707,-34.837953],[150.038387,-34.842662],[150.037447,-34.843872],[150.038338,-34.846392],[150.041141,-34.849442],[150.042188,-34.851413],[150.04167,-34.857365],[150.040608,-34.8602],[150.046168,-34.862722],[150.046965,-34.86537],[150.046389,-34.866961],[150.047397,-34.868763],[150.051559,-34.870293],[150.052724,-34.872803],[150.053294,-34.877189],[150.051965,-34.880873],[150.053563,-34.882432],[150.05614,-34.881712],[150.058519,-34.882233],[150.065262,-34.889651],[150.067479,-34.891231],[150.074352,-34.894842],[150.075703,-34.897556],[150.077602,-34.897695],[150.079661,-34.896507],[150.081471,-34.893829],[150.085969,-34.893131],[150.087693,-34.894628],[150.087646,-34.896227],[150.081677,-34.900108],[150.080905,-34.901686],[150.082016,-34.905845],[150.085266,-34.90893],[150.087889,-34.910216],[150.090648,-34.910119],[150.090761,-34.912264],[150.086993,-34.912088],[150.086015,-34.915013],[150.086383,-34.917602],[150.08837,-34.92242],[150.088242,-34.924887],[150.086245,-34.92645],[150.082656,-34.927977],[150.077758,-34.931601],[150.075565,-34.93373],[150.068376,-34.93595],[150.067422,-34.938335],[150.068425,-34.943138],[150.06773,-34.945405],[150.063732,-34.948542],[150.061109,-34.951154],[150.05848,-34.956811],[150.05552,-34.965285],[150.055792,-34.967665],[150.058914,-34.969725],[150.067429,-34.972116],[150.070195,-34.973511],[150.077951,-34.975538],[150.080025,-34.977187],[150.08569,-34.987732],[150.08431,-34.991209],[150.078756,-34.995103],[150.073529,-34.9998],[150.07045,-35.002117],[150.066042,-35.00462],[150.061782,-35.005312],[150.054126,-35.008042],[150.05191,-35.007276],[150.049832,-35.008711],[150.050664,-35.012655],[150.053885,-35.013622],[150.054157,-35.015285],[150.0526,-35.018163],[150.057997,-35.019462],[150.059222,-35.021253],[150.064212,-35.021789],[150.064688,-35.022681],[150.063426,-35.027682],[150.064098,-35.031142],[150.061611,-35.036075],[150.066822,-35.035528],[150.065935,-35.03841],[150.06753,-35.040616],[150.071444,-35.040034],[150.072872,-35.041757],[150.076088,-35.042905],[150.074463,-35.046078],[150.072202,-35.047876],[150.071681,-35.049501],[150.074115,-35.052122],[150.081114,-35.053802],[150.081781,-35.057131],[150.084956,-35.057667],[150.087768,-35.059964],[150.085636,-35.062162],[150.085833,-35.06393],[150.088509,-35.066219],[150.088819,-35.067617],[150.092334,-35.067844],[150.095467,-35.069098],[150.097481,-35.06796],[150.098451,-35.069662],[150.101512,-35.069977],[150.102617,-35.072296],[150.105934,-35.071545],[150.106058,-35.076327],[150.104183,-35.077807],[150.103221,-35.082239],[150.10503,-35.083521],[150.105474,-35.085594],[150.107415,-35.08595],[150.108607,-35.0844],[150.113612,-35.08856],[150.119234,-35.088688],[150.120387,-35.091647],[150.1232,-35.094005],[150.126842,-35.095481],[150.129401,-35.09779],[150.126852,-35.10191],[150.127215,-35.103463],[150.132332,-35.104664],[150.13376,-35.105934],[150.133266,-35.107805],[150.129059,-35.112935],[150.130929,-35.114212],[150.133658,-35.114022],[150.135844,-35.116941],[150.138579,-35.116455],[150.139542,-35.118163],[150.139419,-35.124415],[150.142638,-35.130457],[150.141924,-35.137164],[150.142653,-35.139213],[150.141061,-35.141315],[150.141643,-35.14446],[150.145783,-35.144809],[150.147441,-35.143466],[150.150828,-35.143184],[150.153919,-35.14439],[150.156757,-35.14631],[150.159244,-35.148969],[150.160378,-35.151311],[150.163546,-35.148796],[150.168623,-35.148189],[150.170401,-35.149334],[150.171845,-35.156098],[150.175301,-35.158223],[150.173089,-35.160376],[150.175798,-35.165427],[150.180803,-35.165037],[150.186,-35.16619],[150.187879,-35.166018],[150.192518,-35.169151],[150.196289,-35.171109],[150.198765,-35.171167],[150.200728,-35.170068],[150.204276,-35.171045],[150.205097,-35.172917],[150.204326,-35.177566],[150.205728,-35.180825],[150.207942,-35.182578],[150.208912,-35.185283],[150.21137,-35.188366],[150.21141,-35.190667],[150.214686,-35.194311],[150.214706,-35.197253],[150.215661,-35.200984],[150.21438,-35.202327],[150.212356,-35.202074],[150.208309,-35.203745],[150.203359,-35.202835],[150.198725,-35.198883],[150.192057,-35.198515],[150.186318,-35.199841],[150.187963,-35.203164],[150.187292,-35.205561],[150.185575,-35.207877],[150.188506,-35.209069],[150.190467,-35.21591],[150.187801,-35.219063],[150.19185,-35.218725],[150.194985,-35.219216],[150.195121,-35.222204],[150.197363,-35.225117],[150.195924,-35.226487],[150.197854,-35.228732],[150.197489,-35.230222],[150.193655,-35.23286],[150.190241,-35.233338],[150.189408,-35.230412],[150.186792,-35.230335],[150.185247,-35.231557],[150.182887,-35.236339],[150.178951,-35.237678],[150.176032,-35.237219],[150.173803,-35.239281],[150.169962,-35.238724],[150.16752,-35.241216],[150.168741,-35.245646],[150.170611,-35.246552],[150.172095,-35.248615],[150.170762,-35.250774],[150.167727,-35.253149],[150.164308,-35.25454],[150.162041,-35.254636],[150.161001,-35.257476],[150.162682,-35.259596],[150.164432,-35.264452],[150.166889,-35.26644],[150.16437,-35.269778],[150.159464,-35.269724],[150.15594,-35.269053],[150.151921,-35.266784],[150.147838,-35.27008],[150.144132,-35.270554],[150.140454,-35.272963],[150.137655,-35.273471],[150.133983,-35.276876],[150.133541,-35.279441],[150.131063,-35.27988],[150.125283,-35.281961],[150.12219,-35.283854],[150.12103,-35.285714],[150.121069,-35.291332],[150.119526,-35.292527],[150.114848,-35.293761],[150.113762,-35.290943],[150.106661,-35.285429],[150.105209,-35.284752],[150.103024,-35.285844],[150.101728,-35.290452],[150.097391,-35.293294],[150.090035,-35.292515],[150.086044,-35.291091],[150.08258,-35.29272],[150.084514,-35.297754],[150.087254,-35.30093],[150.085367,-35.305263],[150.080905,-35.30421],[150.077741,-35.305157],[150.074898,-35.306849],[150.071484,-35.307452],[150.067782,-35.309166],[150.062927,-35.306383],[150.059799,-35.306551],[150.053093,-35.309068],[150.051053,-35.309066],[150.049844,-35.312397],[150.051054,-35.315626],[150.047397,-35.315651],[150.044663,-35.317827],[150.041609,-35.323806],[150.040196,-35.32835],[150.03804,-35.331635],[150.038004,-35.334237],[150.04258,-35.34172],[150.041415,-35.344442],[150.042132,-35.345622],[150.046721,-35.347397],[150.044039,-35.354695],[150.044911,-35.358536],[150.041095,-35.364542],[150.037014,-35.36742],[150.038443,-35.371235],[150.038737,-35.37542],[150.040033,-35.376905],[150.040343,-35.37957],[150.041795,-35.38008],[150.041956,-35.383131],[150.040872,-35.391872],[150.041141,-35.394143],[150.03819,-35.400093],[150.037595,-35.403634],[150.038056,-35.406213],[150.032974,-35.409895],[150.028411,-35.411096],[150.026321,-35.41031],[150.023195,-35.411063],[150.019891,-35.413282],[150.017923,-35.419233],[150.013147,-35.422924],[150.010876,-35.424016],[150.007298,-35.429058],[150.007436,-35.430683],[150.01123,-35.43489],[150.014081,-35.437419],[150.013499,-35.439087],[150.011202,-35.44145],[150.006562,-35.442971],[150.005378,-35.444573],[150.005391,-35.449181],[150.004259,-35.451109],[150.005519,-35.454109],[150.005018,-35.456441],[150.00586,-35.460507],[150.003983,-35.463062],[150.003473,-35.471765],[150.002058,-35.475315],[149.998742,-35.478744],[149.989704,-35.483306],[149.984012,-35.486435],[149.979974,-35.489148],[149.9774,-35.490247],[149.977443,-35.492064],[149.980371,-35.498434],[149.979007,-35.50246],[149.97505,-35.502973],[149.970396,-35.500581],[149.967182,-35.501888],[149.964045,-35.500787],[149.959893,-35.520231],[149.957434,-35.53073],[149.949323,-35.529432],[149.949173,-35.533429],[149.948148,-35.537659],[149.949166,-35.54055],[149.95134,-35.542496],[149.955365,-35.542513],[149.956147,-35.544326],[149.950938,-35.545259],[149.949281,-35.5498],[149.9518,-35.550429],[149.951979,-35.551942],[149.949419,-35.553218],[149.946053,-35.553639],[149.94285,-35.553309],[149.941329,-35.560716],[149.94824,-35.561737],[149.945965,-35.565714],[149.942652,-35.563966],[149.939929,-35.563555],[149.936133,-35.561516],[149.93065,-35.564288],[149.929853,-35.565592],[149.93022,-35.570119],[149.93093,-35.571775],[149.929025,-35.577181],[149.929019,-35.578612],[149.931649,-35.585995],[149.933224,-35.5876],[149.936329,-35.59496],[149.933371,-35.601818],[149.934245,-35.609052],[149.934096,-35.61165],[149.927372,-35.613891],[149.924278,-35.615923],[149.921992,-35.618577],[149.921935,-35.621057],[149.920079,-35.623145],[149.921584,-35.630395],[149.922055,-35.634334],[149.92057,-35.635428],[149.917782,-35.635544],[149.915654,-35.63802],[149.908399,-35.637019],[149.904062,-35.644347],[149.890393,-35.666336],[149.875458,-35.688275],[149.861464,-35.711407],[149.862616,-35.713806],[149.858306,-35.717047],[149.856847,-35.719476],[149.853893,-35.720146],[149.851564,-35.718883],[149.851493,-35.716035],[149.84929,-35.714841],[149.845995,-35.717459],[149.843685,-35.717013],[149.840917,-35.7148],[149.838718,-35.716328],[149.838349,-35.718662],[149.839891,-35.72276],[149.838721,-35.723793],[149.830246,-35.721324],[149.829216,-35.722824],[149.829816,-35.725133],[149.828446,-35.72686],[149.825287,-35.728889],[149.822735,-35.734519],[149.820995,-35.734707],[149.818132,-35.733504],[149.814402,-35.7363],[149.81532,-35.737967],[149.818138,-35.739615],[149.818616,-35.743848],[149.820648,-35.745059],[149.818628,-35.748715],[149.817356,-35.749602],[149.817232,-35.753041],[149.824958,-35.763239],[149.826941,-35.778131],[149.837634,-35.786406],[149.859796,-35.795142],[149.855705,-35.809015],[149.965206,-36.007787],[149.966665,-36.010489],[149.971933,-36.009169],[149.973921,-36.00957],[149.976476,-36.011641],[149.979138,-36.012518],[149.980512,-36.014521],[149.984306,-36.016204],[149.985369,-36.017413],[149.991548,-36.020286],[149.994146,-36.020303],[149.996583,-36.023484],[149.997809,-36.02274],[149.999651,-36.025062],[150.000835,-36.024655],[150.004167,-36.027329],[150.003422,-36.030681],[150.01502,-36.032365],[150.014268,-36.035793],[150.02196,-36.0369],[150.023026,-36.037994],[150.029338,-36.039609],[150.030846,-36.038177],[150.061208,-36.042536],[150.077283,-36.044959],[150.077553,-36.048786],[150.079302,-36.049119],[150.081813,-36.051748],[150.08384,-36.051295],[150.086377,-36.048758],[150.090107,-36.046022],[150.092496,-36.044878],[150.096901,-36.043794],[150.093595,-36.040008],[150.091525,-36.038628],[150.090099,-36.035022],[150.093614,-36.031576],[150.094088,-36.034036],[150.098314,-36.037332],[150.099874,-36.036144],[150.100253,-36.032365],[150.101541,-36.031269],[150.106099,-36.030282],[150.107741,-36.030665],[150.110578,-36.034066],[150.111672,-36.032505],[150.115546,-36.032549],[150.117828,-36.03359],[150.120674,-36.036649],[150.121046,-36.039327],[150.118163,-36.04139],[150.119587,-36.045055],[150.117882,-36.04803],[150.120602,-36.048402],[150.12121,-36.050299],[150.124223,-36.052462],[150.12536,-36.055757],[150.127726,-36.056991],[150.12627,-36.060932],[150.123988,-36.062389],[150.125174,-36.064673],[150.13116,-36.066889],[150.134459,-36.066015],[150.137374,-36.065698],[150.138681,-36.06344],[150.141666,-36.063714],[150.142047,-36.05829],[150.144535,-36.056992],[150.141419,-36.053646],[150.141363,-36.049267],[150.149238,-36.02881],[150.160261,-36.013824],[150.158966,-36.012012],[150.157407,-36.007989],[150.159793,-35.99688],[150.164327,-35.99364],[150.163409,-35.992594],[150.160546,-35.993514],[150.160188,-35.991831],[150.154079,-35.991911],[150.15272,-35.988726],[150.153522,-35.98491],[150.151067,-35.97886],[150.153878,-35.965258],[150.160404,-35.953897],[150.156581,-35.951077],[150.155057,-35.945862],[150.156491,-35.939397],[150.161225,-35.93316],[150.157678,-35.926879],[150.15678,-35.918319],[150.158459,-35.911911],[150.161817,-35.908667],[150.160744,-35.90736],[150.157802,-35.908742],[150.152362,-35.908051],[150.150883,-35.904881],[150.149676,-35.895409],[150.15256,-35.884169],[150.160203,-35.871273],[150.171715,-35.860739],[150.175796,-35.858987],[150.179955,-35.861287],[150.180271,-35.858826],[150.182414,-35.857532],[150.18895,-35.86103],[150.191359,-35.860505],[150.192241,-35.85713],[150.190953,-35.85499],[150.186507,-35.854958],[150.185565,-35.85722],[150.181443,-35.856484],[150.178701,-35.853539],[150.177428,-35.84883],[150.178774,-35.842972],[150.182617,-35.842711],[150.183487,-35.840044],[150.185304,-35.837653],[150.187121,-35.832865],[150.191472,-35.831344],[150.194459,-35.831365],[150.194984,-35.829616],[150.199136,-35.828596],[150.208394,-35.831511],[150.210168,-35.835846],[150.211156,-35.831721],[150.217544,-35.830701],[150.220392,-35.831036],[150.225922,-35.833035],[150.227473,-35.834232],[150.23351,-35.83687],[150.234431,-35.832537],[150.231393,-35.831051],[150.230173,-35.829207],[150.224934,-35.827793],[150.225206,-35.824826],[150.227112,-35.822133],[150.227204,-35.818449],[150.230793,-35.818402],[150.226075,-35.814129],[150.226219,-35.811287],[150.228433,-35.810401],[150.224191,-35.808749],[150.228653,-35.806587],[150.226514,-35.804936],[150.227479,-35.803291],[150.230994,-35.804122],[150.232033,-35.803012],[150.235267,-35.804856],[150.237119,-35.802148],[150.235507,-35.801039],[150.233184,-35.802753],[150.230108,-35.801106],[150.233451,-35.7973],[150.231263,-35.796528],[150.231196,-35.79232],[150.234984,-35.790896],[150.234829,-35.788078],[150.23667,-35.786272],[150.233061,-35.785231],[150.235805,-35.782018],[150.232575,-35.781315],[150.236102,-35.778321],[150.234501,-35.775357],[150.230637,-35.773962],[150.234944,-35.771762],[150.225988,-35.771437],[150.226286,-35.769704],[150.221649,-35.767556],[150.221126,-35.762331],[150.219747,-35.763488],[150.215867,-35.761385],[150.214389,-35.762262],[150.211957,-35.760122],[150.212101,-35.752463],[150.217149,-35.751281],[150.213726,-35.748697],[150.216781,-35.745726],[150.216444,-35.743306],[150.212019,-35.741195],[150.21448,-35.737926],[150.210549,-35.738322],[150.208089,-35.736526],[150.208021,-35.729512],[150.204531,-35.7319],[150.199813,-35.730287],[150.197705,-35.724746],[150.199194,-35.719221],[150.17981,-35.708735],[150.177263,-35.703075],[150.179865,-35.701855],[150.182331,-35.704749],[150.19122,-35.704554],[150.192203,-35.705772],[150.198951,-35.701359],[150.210273,-35.702356],[150.20886,-35.710832],[150.212214,-35.711807],[150.212819,-35.708843],[150.220049,-35.705347],[150.228811,-35.70256],[150.233969,-35.702933],[150.23741,-35.704523],[150.237786,-35.706607],[150.241585,-35.709591],[150.250492,-35.711488],[150.251028,-35.7194],[150.253388,-35.718946],[150.254725,-35.715866],[150.260392,-35.716981],[150.262428,-35.717863],[150.261582,-35.719878],[150.265411,-35.726463],[150.266486,-35.725781],[150.265404,-35.722675],[150.270221,-35.719164],[150.273146,-35.719276],[150.276689,-35.723441],[150.279032,-35.716788],[150.277044,-35.715395],[150.276763,-35.711191],[150.281858,-35.709754],[150.282,-35.707406],[150.280373,-35.706672],[150.280941,-35.703348],[150.285788,-35.702899],[150.285516,-35.700874],[150.291219,-35.693678],[150.293136,-35.693185],[150.29744,-35.6961],[150.298399,-35.694377],[150.296996,-35.68842],[150.29702,-35.686061],[150.299061,-35.683723],[150.300624,-35.683169],[150.306552,-35.686106],[150.299687,-35.678853],[150.305106,-35.679927],[150.304722,-35.677223],[150.301431,-35.674169],[150.304419,-35.670557],[150.307557,-35.668763],[150.305728,-35.666665],[150.302886,-35.667934],[150.29743,-35.663088],[150.296634,-35.659784],[150.297867,-35.658649],[150.296133,-35.65439],[150.299254,-35.647388],[150.303265,-35.642455],[150.307466,-35.640944],[150.307577,-35.638613],[150.313561,-35.635562],[150.319657,-35.63535],[150.320285,-35.63853],[150.322325,-35.640059],[150.326048,-35.637215],[150.329894,-35.62958],[150.327457,-35.629192],[150.327969,-35.626293],[150.324647,-35.627642],[150.323117,-35.626168],[150.325369,-35.617946],[150.322776,-35.616454],[150.322605,-35.613539],[150.330371,-35.608143],[150.334119,-35.611107],[150.336057,-35.609217],[150.334094,-35.603567],[150.33834,-35.605395],[150.339991,-35.603519],[150.34564,-35.604252],[150.341791,-35.601183],[150.342982,-35.599558],[150.343273,-35.595058],[150.346478,-35.593709],[150.348251,-35.590691],[150.346391,-35.587906],[150.34917,-35.58829],[150.352646,-35.585789],[150.352861,-35.582981],[150.357367,-35.577987],[150.362302,-35.57608],[150.364873,-35.570642],[150.376802,-35.571802],[150.376591,-35.56998],[150.379054,-35.56844],[150.375564,-35.566478],[150.375839,-35.563551],[150.379074,-35.5634],[150.379674,-35.561615],[150.384088,-35.563767],[150.386919,-35.562708],[150.387488,-35.559065],[150.385877,-35.557572],[150.382743,-35.557946],[150.381625,-35.555993],[150.385042,-35.546132],[150.388075,-35.5429],[150.392492,-35.544512],[150.390555,-35.53988],[150.396202,-35.53312],[150.39989,-35.533435],[150.402651,-35.531712],[150.403444,-35.534514],[150.406331,-35.533928],[150.405041,-35.531725],[150.407619,-35.529497],[150.401744,-35.521862],[150.400936,-35.519055],[150.402182,-35.518448],[150.398621,-35.515939],[150.39933,-35.514068],[150.401623,-35.513985],[150.400976,-35.511755],[150.398098,-35.510986],[150.397877,-35.508888],[150.401564,-35.50793],[150.401584,-35.506192],[150.393661,-35.505663],[150.390874,-35.498431],[150.391302,-35.495219],[150.395665,-35.492887],[150.390781,-35.491825],[150.389433,-35.48864],[150.391316,-35.482862],[150.395711,-35.479957],[150.394653,-35.475798],[150.390782,-35.473473],[150.392847,-35.464609],[150.394436,-35.462268],[150.396695,-35.462031],[150.395844,-35.460059],[150.399758,-35.456725],[150.403749,-35.458115],[150.403248,-35.455941],[150.401226,-35.45565],[150.400862,-35.452788],[150.406091,-35.445871],[150.40924,-35.444469],[150.415734,-35.445422],[150.414636,-35.443135],[150.412885,-35.443902],[150.410629,-35.441504],[150.410745,-35.436522],[150.423084,-35.420975],[150.43751,-35.409891],[150.445017,-35.410866],[150.445581,-35.407354],[150.449098,-35.406757],[150.446814,-35.401784],[150.450347,-35.400282],[150.447303,-35.394922],[150.452093,-35.389968],[150.45894,-35.385648],[150.466447,-35.37643],[150.471992,-35.375292],[150.478544,-35.367845],[150.485909,-35.365733],[150.489707,-35.367776],[150.492376,-35.366664],[150.490589,-35.361434],[150.486126,-35.359491],[150.483391,-35.359063],[150.479403,-35.359969],[150.478117,-35.358371],[150.474882,-35.356554],[150.475801,-35.354603],[150.478041,-35.355292],[150.478306,-35.353],[150.4831,-35.354381],[150.485034,-35.353284],[150.484665,-35.350583],[150.475586,-35.346446],[150.478423,-35.341148],[150.474417,-35.33918],[150.475899,-35.330281],[150.480871,-35.324779],[150.483512,-35.324921],[150.485016,-35.326791],[150.487294,-35.324977],[150.48545,-35.321448],[150.483144,-35.322305],[150.475162,-35.319464],[150.471901,-35.316547],[150.472823,-35.307794],[150.476601,-35.304187],[150.473556,-35.30218],[150.478024,-35.291824],[150.489199,-35.28071],[150.507207,-35.268503],[150.51308,-35.26989],[150.514454,-35.263948],[150.518198,-35.260359],[150.522587,-35.258927],[150.527142,-35.259876],[150.526822,-35.255794],[150.531286,-35.252277],[150.535859,-35.24987],[150.538923,-35.249689],[150.539247,-35.251291],[150.544311,-35.249386],[150.545116,-35.247853],[150.541494,-35.245711],[150.542043,-35.242952],[150.538121,-35.244959],[150.533043,-35.243838],[150.531116,-35.241207],[150.531884,-35.233926],[150.530686,-35.231685],[150.535522,-35.223386],[150.540554,-35.219998],[150.539507,-35.216614],[150.546422,-35.211162],[150.553604,-35.208717],[150.563802,-35.198375],[150.572751,-35.193035],[150.587021,-35.188398],[150.593331,-35.191714],[150.596297,-35.191102],[150.597251,-35.189562],[150.593432,-35.188165],[150.593971,-35.185018],[150.592547,-35.184281],[150.592497,-35.181612],[150.59159,-35.178818],[150.591249,-35.172472],[150.595156,-35.17052],[150.599154,-35.170611],[150.601698,-35.168886],[150.600744,-35.165708],[150.601834,-35.162621],[150.604696,-35.1579],[150.604378,-35.154313],[150.602606,-35.153179],[150.596246,-35.15218],[150.59343,-35.146914],[150.592868,-35.143937],[150.594969,-35.144173],[150.596799,-35.145859],[150.602853,-35.146252],[150.607504,-35.143847],[150.609257,-35.144444],[150.612331,-35.147196],[150.615435,-35.14856],[150.617393,-35.147626],[150.627903,-35.149976],[150.633428,-35.14925],[150.637259,-35.146881],[150.642136,-35.142213],[150.643638,-35.139545],[150.647523,-35.136904],[150.648022,-35.135518],[150.651688,-35.131917],[150.657174,-35.12937],[150.66032,-35.125394],[150.661554,-35.120299],[150.661053,-35.117824],[150.693173,-35.122096],[150.701604,-35.122862]]],[[[150.421118,-35.530981],[150.42057,-35.525966],[150.414961,-35.52687],[150.411333,-35.530274],[150.41299,-35.532446],[150.414846,-35.53084],[150.421118,-35.530981]]],[[[150.258989,-35.749238],[150.256682,-35.749033],[150.255552,-35.752183],[150.258532,-35.752928],[150.257625,-35.750289],[150.258989,-35.749238]]]]},"bbox":[149.814402,-36.066889,150.865478,-34.598949]}]}