{"type":"FeatureCollection","features":[
{"properties":{"electorateShortName":"goldstein","electorateName":"Goldstein","area":50.67,"state":null},"type":"Feature","geometry":{"type":"Polygon","coordinates":[[[145.051691,-37.98682],[145.055267,-37.967672],[145.03845,-37.943512],[145.048317,-37.934691],[145.053446,-37.905646],[145.043918,-37.90444],[145.044819,-37.889737],[144.992264,-37.883274],[144.98499,-37.891003],[144.983395,-37.901134],[144.985526,-37.926238],[144.999006,-37.939988],[144.993044,-37.943982],[145.010226,-37.96121],[145.009382,-37.969598],[145.030763,-37.994595],[145.038298,-37.996416],[145.051691,-37.98682]]]},"bbox":[144.983395,-37.996416,145.055267,-37.883274]}]}