{"type":"FeatureCollection","features":[
{"properties":{"electorateShortName":"gorton","electorateName":"Gorton","area":217.27,"state":null},"type":"Feature","geometry":{"type":"MultiPolygon","coordinates":[[[[144.830334,-37.726644],[144.80475,-37.669517],[144.756405,-37.693418],[144.624479,-37.682272],[144.604728,-37.794696],[144.708523,-37.806788],[144.769138,-37.812017],[144.782007,-37.727569],[144.830334,-37.726644]]],[[[144.807636,-37.891284],[144.81113943158113,-37.89161523958565],[144.825435983714,-37.88223478285976],[144.826561,-37.870863],[144.819567,-37.872528],[144.807735,-37.880643],[144.807636,-37.891284]]]]},"bbox":[144.604728,-37.89161523958565,144.830334,-37.669517]}]}