{"type":"FeatureCollection","features":[
{"properties":{"electorateShortName":"gorton","electorateName":"Gorton","area":217.27,"state":null},"type":"Feature","geometry":{"type":"MultiPolygon","coordinates":[[[[144.830334,-37.726644],[144.830456,-37.725289],[144.831378,-37.724766],[144.834699,-37.72607],[144.836862,-37.727768],[144.841755,-37.72884],[144.842825,-37.732627],[144.845921,-37.733846],[144.847924,-37.733252],[144.848173,-37.732499],[144.847642,-37.728497],[144.846312,-37.727409],[144.845034,-37.726899],[144.843521,-37.727404],[144.84135,-37.727535],[144.838326,-37.726587],[144.838672,-37.724836],[144.839911,-37.724346],[144.840633,-37.723322],[144.839693,-37.721314],[144.841726,-37.719684],[144.842306,-37.717667],[144.840429,-37.717867],[144.838495,-37.717263],[144.837667,-37.716397],[144.840874,-37.714077],[144.841558,-37.713174],[144.840325,-37.712139],[144.838057,-37.709588],[144.838344,-37.706077],[144.837044,-37.705522],[144.835358,-37.703427],[144.834263,-37.70328],[144.832285,-37.704181],[144.830849,-37.705588],[144.832014,-37.706483],[144.828804,-37.706857],[144.828762,-37.705576],[144.827778,-37.704324],[144.826833,-37.704441],[144.82524,-37.703457],[144.824974,-37.701316],[144.827911,-37.700956],[144.826682,-37.699518],[144.825522,-37.699236],[144.824878,-37.698377],[144.822712,-37.698364],[144.821318,-37.699122],[144.820588,-37.698496],[144.818522,-37.700088],[144.817849,-37.699463],[144.814231,-37.699432],[144.813181,-37.698881],[144.812028,-37.699139],[144.810576,-37.698761],[144.809485,-37.697307],[144.810507,-37.69611],[144.812304,-37.695152],[144.815211,-37.694259],[144.815591,-37.693708],[144.818154,-37.692899],[144.820229,-37.69255],[144.820938,-37.691194],[144.820683,-37.690207],[144.818856,-37.687559],[144.819923,-37.685975],[144.820452,-37.684552],[144.819833,-37.682828],[144.818689,-37.68241],[144.816033,-37.682497],[144.812078,-37.68163],[144.810007,-37.68151],[144.806998,-37.683203],[144.806069,-37.682374],[144.805991,-37.681174],[144.805247,-37.680268],[144.805782,-37.679044],[144.805631,-37.677618],[144.804284,-37.677538],[144.803616,-37.676759],[144.803342,-37.675267],[144.803815,-37.673456],[144.803649,-37.672191],[144.804809,-37.670086],[144.80475,-37.669517],[144.80361,-37.669613],[144.801651,-37.671514],[144.802312,-37.67368],[144.798424,-37.673653],[144.798588,-37.672313],[144.79747,-37.671797],[144.796274,-37.673135],[144.7938,-37.674738],[144.789995,-37.675739],[144.786998,-37.675855],[144.783354,-37.675624],[144.781738,-37.675053],[144.781033,-37.675887],[144.778616,-37.676715],[144.776394,-37.676718],[144.775545,-37.675152],[144.774932,-37.672131],[144.773626,-37.670313],[144.770496,-37.669965],[144.768954,-37.669224],[144.76827,-37.667463],[144.770537,-37.665568],[144.772044,-37.66484],[144.772046,-37.664002],[144.767751,-37.663984],[144.765572,-37.664817],[144.764591,-37.665744],[144.763567,-37.664365],[144.762332,-37.664755],[144.76062,-37.663632],[144.75954,-37.663747],[144.758544,-37.662917],[144.757524,-37.66291],[144.757324,-37.664129],[144.747333,-37.663177],[144.744413,-37.663077],[144.751301,-37.671832],[144.758351,-37.680937],[144.75764,-37.684833],[144.757243,-37.688238],[144.756405,-37.693418],[144.734267,-37.690728],[144.724763,-37.689994],[144.697173,-37.687159],[144.639118,-37.680186],[144.637394,-37.68123],[144.636157,-37.682577],[144.6349,-37.683345],[144.624479,-37.682272],[144.62312,-37.688877],[144.620186,-37.707752],[144.616388,-37.729298],[144.612259,-37.75168],[144.604728,-37.794696],[144.623011,-37.796813],[144.632016,-37.797908],[144.638789,-37.798604],[144.686704,-37.804037],[144.695941,-37.805019],[144.70494,-37.806047],[144.708523,-37.806788],[144.708886,-37.806863],[144.750776,-37.810371],[144.75097,-37.810463],[144.769138,-37.812017],[144.773021,-37.782972],[144.775286,-37.766222],[144.779124,-37.744299],[144.782007,-37.727569],[144.794714,-37.728017],[144.801849,-37.728187],[144.815248,-37.729667],[144.82479,-37.726036],[144.826789,-37.724219],[144.83008,-37.724675],[144.830334,-37.726644]]],[[[144.807636,-37.891284],[144.80503802776678,-37.89412608225784],[144.81113943158113,-37.89161523958565],[144.825435983714,-37.88223478285976],[144.8366512180246,-37.871338946708256],[144.826561,-37.870863],[144.819567,-37.872528],[144.807735,-37.880643],[144.807636,-37.891284]]]]},"bbox":[144.604728,-37.89412608225784,144.848173,-37.66291]}]}