{"type":"FeatureCollection","features":[
{"properties":{"electorateShortName":"grayndler","electorateName":"Grayndler","area":27.73,"state":null},"type":"Feature","geometry":{"type":"MultiPolygon","coordinates":[[[[151.179039,-33.920542],[151.181554,-33.906851],[151.171947,-33.894771],[151.176844,-33.878278],[151.197663,-33.856925],[151.195942,-33.849776],[151.187207,-33.844913],[151.159279,-33.845383],[151.163587,-33.854725],[151.14661,-33.866646],[151.122424,-33.880907],[151.117504,-33.888516],[151.132299,-33.88981],[151.13201,-33.900908],[151.119054,-33.9122],[151.133864,-33.909449],[151.164642,-33.915716],[151.17424,-33.924966],[151.179039,-33.920542]]],[[[151.282691,-33.877446],[151.28837102221425,-33.86699573679018],[151.2883569189781,-33.85113681295732],[151.28555939575878,-33.835526575038735],[151.280955,-33.832769],[151.287848,-33.850202],[151.282829,-33.862556],[151.282691,-33.877446]]],[[[151.270355,-33.906403],[151.2792449590917,-33.900204338748416],[151.281274,-33.891017],[151.274849,-33.893336],[151.270355,-33.906403]]],[[[151.256967,-33.951596],[151.26192903065484,-33.955697651194505],[151.26380123200525,-33.950826913216964],[151.26456068417792,-33.94915101745726],[151.26473988976127,-33.94838489170085],[151.26801167539242,-33.9398729810966],[151.2710103189601,-33.9226206556742],[151.27117056761287,-33.91422095807447],[151.266539,-33.913935],[151.261402,-33.914886],[151.257682,-33.922042],[151.25946,-33.937314],[151.258558,-33.945658],[151.256967,-33.951596]]]]},"bbox":[151.117504,-33.955697651194505,151.28837102221425,-33.832769]}]}