{"type":"FeatureCollection","features":[
{"properties":{"electorateShortName":"grayndler","electorateName":"Grayndler","area":27.73,"state":null},"type":"Feature","geometry":{"type":"MultiPolygon","coordinates":[[[[151.179039,-33.920542],[151.176697,-33.917844],[151.17891,-33.916219],[151.181261,-33.915908],[151.181197,-33.909555],[151.181554,-33.906851],[151.178234,-33.900481],[151.177847,-33.898864],[151.178712,-33.897743],[151.176072,-33.897513],[151.17467,-33.897037],[151.171465,-33.895392],[151.171947,-33.894771],[151.173136,-33.887914],[151.17357,-33.887431],[151.17654,-33.886821],[151.175265,-33.883008],[151.176099,-33.882475],[151.175748,-33.880294],[151.176844,-33.878278],[151.176367,-33.876785],[151.174994,-33.875612],[151.174978,-33.872667],[151.17558,-33.871593],[151.180135,-33.870163],[151.181377,-33.870342],[151.185222,-33.869707],[151.186071,-33.868207],[151.188947,-33.864133],[151.190619,-33.862507],[151.193246,-33.861],[151.198189,-33.86109],[151.198714,-33.859146],[151.197663,-33.856925],[151.194129,-33.853752],[151.195942,-33.849776],[151.191549,-33.84953],[151.187207,-33.844913],[151.182761,-33.844215],[151.178893,-33.844493],[151.173688,-33.844691],[151.170727,-33.845088],[151.167336,-33.845802],[151.164614,-33.846674],[151.16194,-33.846754],[151.159279,-33.845383],[151.157286,-33.84591],[151.156447,-33.846978],[151.156733,-33.847552],[151.158813,-33.848724],[151.159765,-33.849747],[151.160816,-33.851736],[151.163587,-33.854725],[151.164126,-33.854397],[151.16613,-33.855071],[151.164043,-33.856897],[151.162476,-33.856469],[151.161319,-33.85721],[151.160927,-33.858238],[151.159618,-33.858326],[151.157771,-33.857358],[151.156706,-33.857548],[151.15685,-33.8591],[151.155785,-33.859638],[151.154074,-33.859053],[151.151021,-33.860755],[151.149639,-33.862113],[151.148354,-33.862441],[151.14589,-33.862459],[151.144478,-33.863224],[151.145414,-33.864876],[151.146826,-33.86543],[151.149266,-33.865184],[151.149469,-33.86619],[151.1475,-33.866062],[151.14661,-33.866646],[151.143695,-33.867795],[151.141704,-33.868351],[151.14102,-33.869407],[151.142072,-33.87042],[151.138337,-33.872042],[151.136977,-33.873142],[151.133143,-33.87296],[151.129099,-33.873621],[151.12769,-33.874243],[151.129642,-33.876961],[151.123534,-33.879953],[151.122424,-33.880907],[151.119337,-33.885514],[151.117504,-33.888516],[151.11911,-33.88846],[151.121156,-33.88765],[151.122645,-33.887694],[151.124155,-33.888316],[151.125868,-33.889531],[151.127833,-33.890198],[151.129861,-33.890279],[151.132299,-33.88981],[151.132398,-33.89584],[151.13201,-33.900908],[151.12595,-33.907561],[151.119054,-33.9122],[151.12088,-33.913012],[151.122132,-33.91316],[151.126075,-33.912728],[151.128422,-33.912171],[151.133864,-33.909449],[151.135829,-33.909122],[151.137741,-33.909503],[151.140231,-33.91078],[151.143116,-33.911263],[151.145287,-33.911127],[151.147941,-33.911488],[151.153244,-33.913783],[151.162196,-33.916147],[151.164642,-33.915716],[151.166192,-33.918275],[151.16932,-33.921334],[151.17424,-33.924966],[151.175147,-33.923645],[151.177424,-33.922363],[151.179039,-33.920542]]],[[[151.282691,-33.877446],[151.28521837284967,-33.88402873006736],[151.28560126756054,-33.88261092565218],[151.28837102221425,-33.86699573679018],[151.2883569189781,-33.85113681295732],[151.28555939575878,-33.835526575038735],[151.2840225570357,-33.831365127803046],[151.280955,-33.832769],[151.287848,-33.850202],[151.286273,-33.852492],[151.286331,-33.857691],[151.282829,-33.862556],[151.28462,-33.873529],[151.282691,-33.877446]]],[[[151.270355,-33.906403],[151.27128737131787,-33.913404277240126],[151.2792449590917,-33.900204338748416],[151.28225379771243,-33.892129554372424],[151.281274,-33.891017],[151.274849,-33.893336],[151.276311,-33.898964],[151.272591,-33.899507],[151.268554,-33.903922],[151.270355,-33.906403]]],[[[151.256967,-33.951596],[151.26192903065484,-33.955697651194505],[151.26380123200525,-33.950826913216964],[151.26456068417792,-33.94915101745726],[151.26473988976127,-33.94838489170085],[151.26801167539242,-33.9398729810966],[151.2710103189601,-33.9226206556742],[151.2711913189601,-33.9202006556742],[151.27117056761287,-33.91422095807447],[151.266539,-33.913935],[151.268249,-33.915175],[151.266978,-33.916334],[151.261402,-33.914886],[151.262888,-33.917735],[151.257682,-33.922042],[151.261377,-33.927516],[151.259779,-33.929651],[151.261772,-33.935191],[151.25946,-33.937314],[151.265693,-33.941447],[151.261745,-33.945022],[151.258558,-33.945658],[151.256967,-33.951596]]],[[[151.251886,-33.964671],[151.2549472758434,-33.968458717144756],[151.25712906115186,-33.965410222081196],[151.256485,-33.964933],[151.251886,-33.964671]]]]},"bbox":[151.117504,-33.968458717144756,151.28837102221425,-33.831365127803046]}]}