{"type":"FeatureCollection","features":[
{"properties":{"electorateShortName":"higgins","electorateName":"Higgins","area":39.49,"state":null},"type":"Feature","geometry":{"type":"MultiPolygon","coordinates":[[[[145.093654,-37.861375],[145.082116,-37.860185],[145.078487,-37.848429],[145.049326,-37.845144],[145.024618,-37.834499],[145.012916,-37.830504],[144.996686,-37.834302],[144.98792,-37.829672],[144.983322,-37.855657],[145.015137,-37.86084],[145.032582,-37.868437],[145.049635,-37.881026],[145.044819,-37.889737],[145.043918,-37.90444],[145.053446,-37.905646],[145.074167,-37.90814],[145.078182,-37.887152],[145.088226,-37.892976],[145.093654,-37.861375]]],[[[145.043007,-37.991002],[145.03984040460136,-37.9946426768928],[145.07207,-37.997362],[145.051691,-37.98682],[145.043007,-37.991002]]],[[[144.902906,-37.872753],[144.89473744730157,-37.868843395194176],[144.89565472328644,-37.87601501055185],[144.90151878936672,-37.893183453737194],[144.910706920957,-37.908827013123776],[144.92284575922355,-37.92231001419703],[144.93744204365365,-37.93308457651934],[144.9539026556488,-37.94071287679841],[144.96268654508893,-37.942788477549094],[144.97094176507707,-37.95711322978968],[144.983178365587,-37.97085307711119],[144.9979534163684,-37.98181736782533],[145.01464943376294,-37.98954787877997],[145.026986,-37.988055],[145.014133,-37.974622],[145.010226,-37.96121],[144.993044,-37.943982],[144.999006,-37.939988],[144.985526,-37.926238],[144.987407,-37.919984],[144.984792,-37.913367],[144.98499,-37.891003],[144.975658,-37.882121],[144.975503,-37.878642],[144.975607,-37.870261],[144.969681,-37.864589],[144.963316,-37.855467],[144.935592,-37.842548],[144.927165,-37.841327],[144.926912,-37.840035],[144.918525,-37.839688],[144.912499,-37.849458],[144.907213,-37.849526],[144.898362,-37.841204],[144.905593,-37.851732],[144.902042,-37.854318],[144.903492,-37.861283],[144.911555,-37.862068],[144.902906,-37.872753]]]]},"bbox":[144.89473744730157,-37.997362,145.093654,-37.829672]}]}