{"type":"FeatureCollection","features":[
{"properties":{"electorateShortName":"higgins","electorateName":"Higgins","area":39.49,"state":null},"type":"Feature","geometry":{"type":"MultiPolygon","coordinates":[[[[145.093654,-37.861375],[145.082116,-37.860185],[145.082444,-37.854558],[145.078487,-37.848429],[145.049326,-37.845144],[145.040262,-37.845644],[145.038724,-37.83884],[145.032111,-37.837284],[145.028413,-37.837784],[145.024618,-37.834499],[145.019175,-37.831623],[145.012916,-37.830504],[145.010685,-37.831695],[145.003799,-37.831781],[144.996686,-37.834302],[144.990917,-37.8329],[144.98792,-37.829672],[144.987925,-37.831408],[144.983322,-37.855657],[144.993276,-37.857908],[145.015137,-37.86084],[145.032582,-37.868437],[145.040152,-37.875108],[145.046522,-37.876974],[145.049635,-37.881026],[145.044819,-37.889737],[145.046099,-37.893391],[145.043918,-37.90444],[145.053446,-37.905646],[145.074167,-37.90814],[145.078182,-37.887152],[145.085296,-37.892462],[145.088226,-37.892976],[145.092202,-37.872104],[145.093654,-37.861375]]],[[[145.043007,-37.991002],[145.03984040460136,-37.9946426768928],[145.06336079091324,-37.99748889951854],[145.07207,-37.997362],[145.06165,-37.990547],[145.051691,-37.98682],[145.043007,-37.991002]]],[[[144.902906,-37.872753],[144.89473744730157,-37.868843395194176],[144.89565472328644,-37.87601501055185],[144.90151878936672,-37.893183453737194],[144.910706920957,-37.908827013123776],[144.92284575922355,-37.92231001419703],[144.93744204365365,-37.93308457651934],[144.9539026556488,-37.94071287679841],[144.96268654508893,-37.942788477549094],[144.97094176507707,-37.95711322978968],[144.983178365587,-37.97085307711119],[144.9979534163684,-37.98181736782533],[145.01464943376294,-37.98954787877997],[145.02989951801308,-37.99309985247697],[145.026986,-37.988055],[145.017945,-37.981804],[145.014133,-37.974622],[145.009382,-37.969598],[145.011424,-37.967527],[145.010226,-37.96121],[145.001293,-37.950703],[144.993044,-37.943982],[144.992151,-37.94002],[144.999006,-37.939988],[144.989863,-37.929098],[144.985526,-37.926238],[144.987407,-37.919984],[144.984792,-37.913367],[144.98564,-37.908431],[144.9837,-37.905999],[144.983395,-37.901134],[144.985871,-37.896385],[144.98499,-37.891003],[144.975658,-37.882121],[144.975503,-37.878642],[144.973113,-37.872488],[144.975607,-37.870261],[144.969681,-37.864589],[144.970308,-37.860787],[144.963316,-37.855467],[144.935592,-37.842548],[144.931891,-37.843299],[144.927165,-37.841327],[144.926912,-37.840035],[144.918525,-37.839688],[144.913601,-37.841836],[144.912499,-37.849458],[144.905739,-37.840155],[144.903215,-37.841399],[144.907213,-37.849526],[144.898362,-37.841204],[144.897148,-37.842552],[144.899459,-37.848829],[144.905593,-37.851732],[144.895234,-37.848709],[144.902042,-37.854318],[144.903492,-37.861283],[144.911555,-37.862068],[144.915524,-37.865543],[144.908045,-37.8707],[144.902906,-37.872753]]]]},"bbox":[144.89473744730157,-37.99748889951854,145.093654,-37.829672]}]}