{"type":"FeatureCollection","features":[
{"properties":{"electorateShortName":"hindmarsh","electorateName":"Hindmarsh","area":122.45,"state":null},"type":"Feature","geometry":{"type":"Polygon","coordinates":[[[138.554992,-34.967237],[138.55194,-34.924615],[138.548111,-34.913281],[138.552095,-34.904467],[138.548261,-34.889165],[138.546715,-34.850583],[138.564539,-34.849757],[138.563365,-34.832749],[138.566193,-34.825394],[138.560364,-34.824763],[138.546705,-34.809977],[138.552264,-34.801627],[138.549122,-34.786195],[138.542165,-34.774431],[138.54347,-34.765944],[138.539458,-34.756004],[138.526442,-34.738397],[138.516276,-34.730894],[138.493271,-34.721402],[138.471833,-34.697097],[138.463336,-34.697549],[138.455392,-34.689177],[138.4453641818799,-34.6904298254799],[138.42592575770905,-34.70506557483129],[138.40701228510653,-34.72761215663434],[138.3972084177403,-34.74327635195205],[138.39081046564877,-34.760612702182705],[138.38808815608968,-34.77889033498759],[138.38915625720793,-34.79733869508509],[138.3930672211069,-34.81183481444138],[138.38686459492988,-34.83901703813232],[138.38655941755457,-34.866234143531415],[138.38915457152862,-34.88016357470782],[138.41129257152863,-34.962390574707825],[138.41488624014818,-34.97303930186071],[138.42526624014818,-34.99843930186071],[138.43399726205897,-35.01476872359947],[138.4458853580379,-35.02896569270995],[138.46042729359618,-35.0404292378923],[138.48823895164023,-35.05480288145476],[138.503686,-35.056544],[138.508463,-35.044067],[138.515333,-35.03834],[138.517614,-35.03213],[138.511424,-35.00605],[138.509258,-34.989297],[138.510859,-34.973329],[138.508578,-34.964393],[138.523044,-34.964975],[138.528667,-34.974147],[138.53778,-34.975938],[138.554992,-34.967237]]]},"bbox":[138.38655941755457,-35.056544,138.566193,-34.689177]}]}