{"type":"FeatureCollection","features":[
{"properties":{"electorateShortName":"hinkler","electorateName":"Hinkler","area":3815.02,"state":null},"type":"Feature","geometry":{"type":"Polygon","coordinates":[[[152.273607,-25.431306],[152.298613,-25.410233],[152.31999,-25.407496],[152.327056,-25.401554],[152.36446,-25.406304],[152.37987,-25.401993],[152.399259,-25.409907],[152.403559,-25.403407],[152.416075,-25.412806],[152.410976,-25.438499],[152.404088,-25.442929],[152.40096,-25.464669],[152.405318,-25.466506],[152.405297,-25.483289],[152.424913,-25.477267],[152.450577,-25.480861],[152.464214,-25.468144],[152.492491,-25.464753],[152.501386,-25.454325],[152.510262,-25.457858],[152.573972,-25.467412],[152.603176,-25.481191],[152.625546,-25.474207],[152.641274,-25.460558],[152.649894,-25.467251],[152.673207,-25.468029],[152.684247,-25.474088],[152.702685,-25.47133],[152.710886,-25.475281],[152.726431,-25.473956],[152.73094,-25.467334],[152.74125,-25.468546],[152.748351,-25.493628],[152.758929,-25.506286],[152.771794,-25.509052],[152.787889,-25.502521],[152.792687,-25.494648],[152.805881,-25.487352],[152.823736,-25.494003],[152.83661,-25.486142],[152.848902,-25.485972],[152.854298,-25.472753],[152.86587,-25.460501],[152.86885,-25.447048],[152.881687,-25.443196],[152.896387,-25.433779],[152.906341,-25.419618],[152.92243,-25.431514],[152.938394,-25.424003],[153.034164,-25.384709],[153.046385,-25.359734],[153.05005,-25.34258],[153.04786,-25.31468],[153.04198,-25.29815],[153.046135,-25.291607],[153.0397,-25.27404],[153.050075,-25.262659],[153.04424,-25.2381],[153.03739,-25.22392],[153.02593,-25.223076],[153.01704,-25.23034],[152.99793,-25.22855],[152.9906,-25.22394],[152.999518,-25.208491],[153.030724,-25.175517],[153.056929,-25.165237],[153.072756,-25.155583],[153.124827,-25.116297],[153.161352,-25.082542],[153.199759,-25.032335],[153.213229,-25.010823],[153.22341,-24.99022],[153.23322,-24.93945],[153.22932,-24.91878],[153.19706,-24.86752],[153.17464,-24.83856],[153.16414,-24.82936],[153.14483,-24.81764],[153.131169,-24.814263],[153.119832,-24.817541],[153.12048,-24.80628],[153.13055,-24.79291],[153.15536,-24.76913],[153.16444,-24.75558],[153.16997,-24.74997],[153.17086,-24.74852],[153.171304,-24.747295],[152.819303,-24.747662],[152.399561,-24.748098],[152.38217,-24.763004],[152.38111,-24.773377],[152.382998,-24.790996],[152.382148,-24.798164],[152.367665,-24.797706],[152.359477,-24.804252],[152.3603,-24.81327],[152.371398,-24.832517],[152.344448,-24.831136],[152.341909,-24.843661],[152.330605,-24.842148],[152.315267,-24.846121],[152.317401,-24.858767],[152.294274,-24.872531],[152.284301,-24.89691],[152.273852,-24.896304],[152.257679,-24.887614],[152.240159,-24.890983],[152.233655,-24.908748],[152.238398,-24.917802],[152.253118,-24.929132],[152.256223,-24.938709],[152.248525,-24.944357],[152.221651,-24.946151],[152.207912,-24.940403],[152.187305,-24.939535],[152.180104,-24.943351],[152.1821,-24.952671],[152.193716,-24.957617],[152.198942,-24.968844],[152.193335,-24.973701],[152.177258,-24.977192],[152.179002,-24.992928],[152.167676,-24.994735],[152.156489,-24.978377],[152.142289,-24.967046],[152.103578,-24.967778],[152.090165,-24.975131],[152.09398,-24.998931],[152.104072,-25.015762],[152.108215,-25.029534],[152.096099,-25.053548],[152.084637,-25.054799],[152.077378,-25.041109],[152.067497,-25.036934],[152.057759,-25.039531],[152.02784,-25.061383],[152.02835,-25.067611],[152.039286,-25.082594],[152.029457,-25.087774],[152.002817,-25.075694],[151.996047,-25.081705],[151.985499,-25.120216],[151.98244,-25.137224],[151.990833,-25.171799],[152.004993,-25.198925],[152.01162,-25.217304],[152.01166,-25.237236],[152.006375,-25.248895],[152.012174,-25.273272],[152.025554,-25.273177],[152.049087,-25.287726],[152.059769,-25.307518],[152.07615,-25.320364],[152.090606,-25.313338],[152.106011,-25.327916],[152.124337,-25.327105],[152.133003,-25.334212],[152.151701,-25.337256],[152.167244,-25.3361],[152.170901,-25.340597],[152.173766,-25.360023],[152.170374,-25.365444],[152.183738,-25.381284],[152.199366,-25.394552],[152.218599,-25.387404],[152.234232,-25.40011],[152.254145,-25.402235],[152.272169,-25.418657],[152.273607,-25.431306]]]},"bbox":[151.98244,-25.509052,153.23322,-24.747295]}]}