{"type":"FeatureCollection","features":[
{"properties":{"electorateShortName":"holt","electorateName":"Holt","area":257.84,"state":null},"type":"Feature","geometry":{"type":"Polygon","coordinates":[[[145.335344,-38.074511],[145.298203,-38.069901],[145.30145,-38.05376],[145.286344,-38.035576],[145.288545,-38.02485],[145.286755,-38.021634],[145.248989,-38.017011],[145.246565,-38.028105],[145.247225,-38.03641],[145.239583,-38.077677],[145.227949,-38.136467],[145.215767,-38.200652],[145.215447,-38.208729],[145.226541,-38.218951],[145.229938,-38.220597],[145.25422,-38.22361],[145.259059,-38.22575],[145.262894,-38.222079],[145.26792,-38.224662],[145.27858,-38.234076],[145.27367,-38.242177],[145.277306,-38.24593],[145.29552,-38.248327],[145.311429,-38.246337],[145.323991,-38.240536],[145.326405,-38.235083],[145.332582,-38.236147],[145.341337,-38.229565],[145.340206,-38.21874],[145.346201,-38.21378],[145.353378,-38.214725],[145.366722,-38.222339],[145.384366,-38.22097],[145.391925,-38.224129],[145.410917,-38.228048],[145.416098,-38.225922],[145.422665,-38.216895],[145.429965,-38.215171],[145.422322,-38.209988],[145.416664,-38.203836],[145.418316,-38.198491],[145.395231,-38.195494],[145.38886,-38.192516],[145.399316,-38.142977],[145.383508,-38.125745],[145.327163,-38.118743],[145.335344,-38.074511]]]},"bbox":[145.215447,-38.248327,145.429965,-38.017011]}]}