{"type":"FeatureCollection","features":[
{"properties":{"electorateShortName":"hotham","electorateName":"Hotham","area":78.11,"state":null},"type":"Feature","geometry":{"type":"MultiPolygon","coordinates":[[[[145.195486,-37.923128],[145.127376,-37.914565],[145.12231,-37.911347],[145.124477,-37.899152],[145.099183,-37.89617],[145.088226,-37.892976],[145.078182,-37.887152],[145.074167,-37.90814],[145.053446,-37.905646],[145.048317,-37.934691],[145.087119,-37.939654],[145.099396,-37.947019],[145.10314,-37.956338],[145.126992,-37.961551],[145.134844,-37.965368],[145.145911,-37.983612],[145.144698,-37.990854],[145.18173,-37.995075],[145.1919,-37.992628],[145.192957,-37.978964],[145.195078,-37.967544],[145.1911,-37.959814],[145.192361,-37.93834],[145.195486,-37.923128]]],[[[144.975607,-37.870261],[144.96940545904977,-37.87344060484965],[144.96484084039193,-37.88986228399815],[144.96451768734144,-37.89167637537133],[144.96399123678944,-37.894634052196494],[144.96370579086056,-37.89623472988813],[144.963323622918,-37.898447568054465],[144.963165622918,-37.899423568054466],[144.9630247939398,-37.9002940541696],[144.96279330135326,-37.90172581996181],[144.96257625446646,-37.90300001974463],[144.96061805579734,-37.913535219167564],[144.96050691601158,-37.914186783820504],[144.96019730421298,-37.916014684246896],[144.96010263123318,-37.91657256187223],[144.95977563123319,-37.91850256187223],[144.95956242105282,-37.9197703862087],[144.95837230153117,-37.9378455550165],[144.96082580967428,-37.95579293392535],[144.9668235547421,-37.97288548101489],[144.9761225702204,-37.988430783296934],[144.98834615630784,-38.001799106118796],[145.00299913989036,-38.012448903489506],[145.0194879338276,-38.019948755914804],[145.04527555265832,-38.0251327841114],[145.0462387624324,-38.02606782979527],[145.05721403176224,-38.03354920369734],[145.05717478071188,-38.033611403950566],[145.05903272282055,-38.03478892797294],[145.07010686638378,-38.04050127771236],[145.08551338991953,-38.058656521558],[145.10031136343554,-38.069147208482555],[145.1204298788474,-38.077217942010996],[145.112784,-38.051975],[145.095823,-38.021372],[145.081111,-38.00581],[145.07207,-37.997362],[145.051691,-37.98682],[145.043007,-37.991002],[145.030763,-37.994595],[145.026986,-37.988055],[145.014133,-37.974622],[145.010226,-37.96121],[144.993044,-37.943982],[144.999006,-37.939988],[144.985526,-37.926238],[144.987407,-37.919984],[144.984792,-37.913367],[144.98499,-37.891003],[144.975658,-37.882121],[144.975503,-37.878642],[144.975607,-37.870261]]]]},"bbox":[144.95837230153117,-38.077217942010996,145.195486,-37.870261]}]}