{"type":"FeatureCollection","features":[
{"properties":{"electorateShortName":"hughes","electorateName":"Hughes","area":358.87,"state":null},"type":"Feature","geometry":{"type":"Polygon","coordinates":[[[151.066158,-34.172329],[151.063078,-34.17442],[151.060797,-34.178908],[151.057465,-34.178316],[151.054196,-34.180529],[151.054813,-34.185158],[151.044957,-34.186403],[151.038634,-34.194912],[151.0331,-34.196075],[151.025802,-34.202779],[151.021278,-34.204055],[151.012875,-34.213105],[151.01083,-34.218945],[151.004358,-34.220978],[151.000297,-34.226329],[150.993284,-34.227982],[150.987831,-34.232737],[150.986237,-34.236572],[150.977149,-34.245157],[150.97810544634066,-34.247687800935886],[150.98607263977922,-34.25134557104626],[151.00216895479494,-34.25538282568312],[151.04335726088942,-34.26083629706386],[151.06902592625613,-34.262283293944144],[151.08506637994935,-34.26032032438877],[151.10049721485774,-34.255520455829036],[151.1132052397561,-34.250885089626514],[151.12720990690354,-34.24409666322684],[151.14178890690354,-34.235398663226846],[151.14632452649016,-34.23188543789222],[151.1590948454755,-34.224356990822976],[151.18224536004385,-34.209645041886766],[151.19461850984706,-34.198303089406345],[151.20057709875385,-34.19033478214791],[151.20452384396347,-34.188008892205275],[151.21716052782938,-34.176937392205765],[151.22751928885108,-34.163710149051546],[151.23060151184768,-34.157752388698675],[151.23967474191542,-34.14722710224436],[151.24334531661,-34.14052587536147],[151.25226733734507,-34.12673643941649],[151.25914273075745,-34.10805371065732],[151.26174272607477,-34.088316552482624],[151.26182872607478,-34.084049552482625],[151.2605133910816,-34.06679996771934],[151.25592201595578,-34.050120712487036],[151.25315301595577,-34.042871712487035],[151.24470192135783,-34.0261912776622],[151.2349823303141,-34.0141002467306],[151.231926,-34.016739],[151.229852,-34.018881],[151.228577,-34.024599],[151.230295,-34.026401],[151.225423,-34.034278],[151.220659,-34.039339],[151.207359,-34.041497],[151.2032,-34.040228],[151.198776,-34.041682],[151.194148,-34.036629],[151.185918,-34.034563],[151.175625,-34.036214],[151.16529,-34.040893],[151.158281,-34.048053],[151.154915,-34.055118],[151.158404,-34.058437],[151.155472,-34.063918],[151.158344,-34.066813],[151.156756,-34.069717],[151.162586,-34.072444],[151.16051,-34.075264],[151.152001,-34.077811],[151.138089,-34.077436],[151.131975,-34.070467],[151.112757,-34.075693],[151.109651,-34.073495],[151.10208,-34.062586],[151.096354,-34.056368],[151.09131,-34.058669],[151.085982,-34.054818],[151.083351,-34.056809],[151.077908,-34.055864],[151.076868,-34.053482],[151.081535,-34.029246],[151.088943,-34.02394],[151.090216,-34.020882],[151.086129,-34.018754],[151.086583,-34.015869],[151.095557,-34.003737],[151.094428,-33.997849],[151.092083,-33.995127],[151.080661,-33.994598],[151.072604,-33.995809],[151.06871,-33.993352],[151.067007,-33.989799],[151.061371,-33.986662],[151.058495,-33.987158],[151.054375,-33.991878],[151.051917,-33.992936],[151.034708,-33.991575],[151.031947,-33.986737],[151.032892,-33.983676],[151.038301,-33.982693],[151.034746,-33.976646],[151.02582,-33.978006],[151.022794,-33.976683],[151.019352,-33.977704],[151.015684,-33.982013],[151.012091,-33.9836],[151.005926,-33.982542],[151.004223,-33.979367],[150.999173,-33.982904],[150.994113,-33.979049],[150.998147,-33.975126],[150.993969,-33.971671],[150.989722,-33.966439],[150.981151,-33.964915],[150.980309,-33.962183],[150.982912,-33.956534],[150.978183,-33.953001],[150.973804,-33.95208],[150.970677,-33.946946],[150.966197,-33.943616],[150.968617,-33.938203],[150.967522,-33.932848],[150.968598,-33.931074],[150.968845,-33.928482],[150.942506,-33.929262],[150.936296,-33.929969],[150.928113,-33.926893],[150.924957,-33.93213],[150.918927,-33.939096],[150.918707,-33.944131],[150.91359,-33.949984],[150.912247,-33.953938],[150.913392,-33.963395],[150.911225,-33.978407],[150.90782,-33.990355],[150.908956,-33.997838],[150.910927,-34.001743],[150.904901,-34.004121],[150.901501,-34.007225],[150.902115,-34.011389],[150.905813,-34.018428],[150.896934,-34.020821],[150.89274,-34.018835],[150.893475,-34.013376],[150.892171,-34.011412],[150.892281,-34.00558],[150.888573,-34.005463],[150.8873,-34.013747],[150.886112,-34.02867],[150.886657,-34.032115],[150.891967,-34.032905],[150.89534,-34.035267],[150.899819,-34.035805],[150.906602,-34.033483],[150.907863,-34.035331],[150.940791,-34.040033],[150.935653,-34.050016],[150.937129,-34.054401],[150.934371,-34.05897],[150.9375,-34.064653],[150.935688,-34.068506],[150.938057,-34.070833],[150.936889,-34.075705],[150.933466,-34.077926],[150.934247,-34.081178],[150.932289,-34.084641],[150.923393,-34.089694],[150.92531,-34.093351],[150.936595,-34.095129],[150.933527,-34.109405],[150.927994,-34.114037],[150.926025,-34.117511],[150.928999,-34.122366],[150.927288,-34.125861],[150.922684,-34.126427],[150.922732,-34.130009],[150.945934,-34.133541],[150.979872,-34.13841],[150.991107,-34.146034],[151.013652,-34.154531],[151.01889,-34.15595],[151.01592,-34.159281],[151.014258,-34.163771],[151.015923,-34.16644],[151.054478,-34.171526],[151.055163,-34.16772],[151.060833,-34.168514],[151.060313,-34.171458],[151.066158,-34.172329]]]},"bbox":[150.886112,-34.262283293944144,151.26182872607478,-33.926893]}]}