{"type":"FeatureCollection","features":[
{"properties":{"electorateShortName":"hume","electorateName":"Hume","area":17236.13,"state":null},"type":"Feature","geometry":{"type":"Polygon","coordinates":[[[150.745677,-34.337416],[150.750861,-34.301926],[150.81676,-34.306375],[150.876359,-34.25966],[150.890517,-34.214076],[150.859526,-34.181048],[150.752063,-34.163864],[150.722585,-34.002382],[150.731798,-33.939931],[150.704789,-33.913048],[150.720944,-33.869447],[150.672337,-33.842403],[150.612793,-33.861847],[150.470564,-33.963447],[150.404275,-33.940691],[150.326633,-33.85673],[150.280855,-33.85066],[150.232966,-33.884501],[150.186093,-33.88118],[150.155908,-33.89309],[150.175556,-33.945178],[150.2412,-33.952033],[150.209036,-33.997793],[150.165229,-34.023469],[150.115857,-34.080292],[150.105241,-34.138496],[150.011735,-34.109711],[150.007292,-34.085287],[149.932543,-34.090534],[149.949395,-34.124609],[149.920374,-34.181677],[149.849901,-34.183698],[149.804704,-34.20262],[149.681688,-34.191454],[149.629447,-34.114099],[149.547501,-34.085569],[149.480219,-34.015379],[149.434733,-34.022927],[149.347778,-33.953299],[149.279321,-33.948523],[149.197738,-33.984896],[149.152632,-33.967033],[149.155178,-33.92836],[149.119836,-33.887828],[149.082078,-33.91288],[148.982051,-33.924165],[148.966308,-33.970116],[148.927697,-33.981342],[148.869453,-33.94686],[148.767364,-33.981956],[148.763135,-34.038251],[148.730955,-34.078698],[148.645477,-34.10725],[148.636239,-34.146204],[148.645351,-34.251831],[148.608096,-34.30067],[148.609878,-34.356317],[148.553622,-34.411429],[148.614754,-34.466283],[148.622363,-34.526737],[148.653642,-34.542419],[148.687863,-34.558715],[148.782707,-34.572021],[148.847386,-34.56897],[148.90471,-34.63903],[148.949465,-34.646075],[148.941412,-34.690235],[148.990355,-34.706223],[149.037599,-34.758318],[149.043337,-34.827568],[149.182133,-34.892721],[149.279035,-34.89052],[149.280448,-34.911674],[149.447813,-34.927857],[149.526448,-34.907917],[149.524719,-34.969679],[149.551228,-34.97557],[149.538247,-35.068569],[149.559783,-35.115521],[149.660656,-35.137933],[149.73154,-35.182711],[149.771792,-35.175611],[149.798404,-35.207386],[149.931118,-35.235045],[150.018646,-35.107978],[149.980741,-35.095146],[150.05191,-35.007276],[150.05552,-34.965285],[150.088242,-34.924887],[150.037447,-34.843872],[150.040306,-34.79555],[150.07422,-34.768097],[150.127115,-34.817387],[150.209564,-34.814495],[150.28782,-34.764691],[150.37784,-34.736644],[150.398143,-34.705149],[150.416149,-34.662966],[150.380868,-34.613911],[150.340998,-34.592213],[150.257508,-34.597417],[150.254535,-34.566204],[150.309147,-34.508201],[150.32004,-34.476547],[150.382528,-34.447029],[150.455872,-34.432114],[150.530565,-34.385063],[150.570022,-34.380552],[150.634633,-34.319652],[150.745677,-34.337416]]]},"bbox":[148.553622,-35.235045,150.890517,-33.842403]}]}