{"type":"FeatureCollection","features":[
{"properties":{"electorateShortName":"indi","electorateName":"Indi","area":29187.45,"state":null},"type":"Feature","geometry":{"type":"Polygon","coordinates":[[[148.134466,-36.743739],[148.185114,-36.692217],[148.217443,-36.598853],[148.124448,-36.55098],[148.139815,-36.525603],[148.124717,-36.46484],[148.087713,-36.451949],[148.038261,-36.365556],[148.021889,-36.176971],[148.028889,-36.140078],[147.99078,-36.120669],[147.997571,-36.047766],[147.924591,-36.042748],[147.913997,-35.997954],[147.84944,-35.989599],[147.8112,-35.967299],[147.689329,-35.937679],[147.555245,-36.00321],[147.498602,-35.946642],[147.456156,-35.957779],[147.404264,-35.943562],[147.360761,-35.988997],[147.352244,-36.032293],[147.204328,-36.049889],[147.137173,-36.028625],[147.016178,-36.089497],[146.836347,-36.082187],[146.760209,-36.058169],[146.72723,-36.02682],[146.679175,-36.021948],[146.607972,-35.985904],[146.517902,-35.960061],[146.414345,-35.975453],[146.387672,-36.035514],[146.299882,-36.047795],[146.242797,-36.028965],[146.177951,-36.033848],[146.238734,-36.135767],[146.220983,-36.186711],[146.131052,-36.186791],[146.131425,-36.255122],[146.036903,-36.255063],[146.030938,-36.299009],[145.798509,-36.29897],[145.775229,-36.443786],[145.731316,-36.442633],[145.73187,-36.499036],[145.63156,-36.499046],[145.644547,-36.623091],[145.572181,-36.701565],[145.494195,-36.699973],[145.453244,-36.730375],[145.477539,-36.788714],[145.463844,-36.909814],[145.413063,-36.992423],[145.372209,-37.093919],[145.288296,-37.099599],[145.284608,-37.138546],[145.243202,-37.143928],[145.219437,-37.191084],[145.174878,-37.204911],[145.163003,-37.277628],[145.195382,-37.29412],[145.251861,-37.304952],[145.279329,-37.337825],[145.26562,-37.419354],[145.222272,-37.472599],[145.294389,-37.498582],[145.366412,-37.545126],[145.417552,-37.526238],[145.480491,-37.561281],[145.618012,-37.572296],[145.675853,-37.624195],[145.820049,-37.534378],[146.186005,-37.534824],[146.191923,-37.58753],[146.250088,-37.610403],[146.298792,-37.591075],[146.367643,-37.629321],[146.435836,-37.618044],[146.547102,-37.368753],[146.647211,-37.162791],[146.654998,-37.122268],[146.719139,-37.158937],[146.75807,-37.147113],[146.838348,-37.205027],[147.336985,-37.275538],[147.384783,-37.211592],[147.325061,-37.141465],[147.380515,-37.098713],[147.386047,-37.030111],[147.342576,-37.032003],[147.263295,-37.006705],[147.289767,-36.904404],[147.344897,-36.868623],[147.26839,-36.777562],[147.290455,-36.737782],[147.367151,-36.733889],[147.439217,-36.801276],[147.529527,-36.768575],[147.541888,-36.737568],[147.960215,-36.612428],[148.134466,-36.743739]]]},"bbox":[145.163003,-37.629321,148.217443,-35.937679]}]}