{"type":"FeatureCollection","features":[
{"properties":{"electorateShortName":"indi","electorateName":"Indi","area":29187.45,"state":null},"type":"Feature","geometry":{"type":"Polygon","coordinates":[[[148.134466,-36.743739],[148.136571,-36.739393],[148.13081,-36.735461],[148.139093,-36.732213],[148.149098,-36.719743],[148.154557,-36.720236],[148.165672,-36.711295],[148.171869,-36.710033],[148.173847,-36.70178],[148.185114,-36.692217],[148.185065,-36.683269],[148.189755,-36.675352],[148.19941,-36.670562],[148.197579,-36.664775],[148.203512,-36.662293],[148.20076,-36.658542],[148.208186,-36.651287],[148.209503,-36.645657],[148.2151,-36.634472],[148.216319,-36.628853],[148.22067,-36.625757],[148.219547,-36.619558],[148.210892,-36.61248],[148.203597,-36.610023],[148.215089,-36.605173],[148.217443,-36.598853],[148.203574,-36.588771],[148.190023,-36.58444],[148.189602,-36.576602],[148.178467,-36.579761],[148.165121,-36.578229],[148.162328,-36.572466],[148.156906,-36.571768],[148.158797,-36.565631],[148.151766,-36.560975],[148.141172,-36.565382],[148.13341,-36.566921],[148.130754,-36.558532],[148.124448,-36.55098],[148.129173,-36.546055],[148.128783,-36.541513],[148.13347,-36.539619],[148.133724,-36.534346],[148.139815,-36.525603],[148.131882,-36.516415],[148.128468,-36.509557],[148.128393,-36.502795],[148.118994,-36.494449],[148.126347,-36.485498],[148.122429,-36.471045],[148.124717,-36.46484],[148.110942,-36.457123],[148.101657,-36.457082],[148.087713,-36.451949],[148.08635,-36.440021],[148.086902,-36.432071],[148.082594,-36.430203],[148.080323,-36.422371],[148.076153,-36.417957],[148.071669,-36.41798],[148.058426,-36.414135],[148.054636,-36.408689],[148.05845,-36.40671],[148.057913,-36.400622],[148.050252,-36.399004],[148.046619,-36.390835],[148.038615,-36.391209],[148.038135,-36.387864],[148.044917,-36.383103],[148.038211,-36.378631],[148.043791,-36.374693],[148.043111,-36.369116],[148.038261,-36.365556],[148.042124,-36.357181],[148.055626,-36.334111],[148.051294,-36.3277],[148.051933,-36.323741],[148.057964,-36.322397],[148.054856,-36.316661],[148.049194,-36.318995],[148.042962,-36.31336],[148.035118,-36.310833],[148.038057,-36.305225],[148.042781,-36.303712],[148.036456,-36.293473],[148.039725,-36.288025],[148.033901,-36.282462],[148.035006,-36.273006],[148.0329,-36.268287],[148.038283,-36.258347],[148.034501,-36.255528],[148.034129,-36.250368],[148.02884,-36.247044],[148.034878,-36.234717],[148.031533,-36.228957],[148.026941,-36.225979],[148.03321,-36.215999],[148.038716,-36.213373],[148.040606,-36.20686],[148.038945,-36.197695],[148.034901,-36.192633],[148.024295,-36.1877],[148.021889,-36.176971],[148.026602,-36.174203],[148.031228,-36.164515],[148.024821,-36.159366],[148.033863,-36.152141],[148.035477,-36.146864],[148.028889,-36.140078],[148.0185,-36.139242],[148.006651,-36.136538],[147.997073,-36.124644],[147.99078,-36.120669],[147.993098,-36.117347],[147.992535,-36.109474],[147.996931,-36.100507],[147.99599,-36.097673],[147.986681,-36.092631],[147.980362,-36.086352],[147.987756,-36.082165],[147.989223,-36.070249],[147.991305,-36.064108],[147.999192,-36.058482],[147.996968,-36.055354],[147.997571,-36.047766],[147.987403,-36.052287],[147.984217,-36.045706],[147.974329,-36.046929],[147.97324,-36.040521],[147.967896,-36.040455],[147.964258,-36.046825],[147.955116,-36.041909],[147.949302,-36.046137],[147.937669,-36.042394],[147.933696,-36.047566],[147.924591,-36.042748],[147.923816,-36.029052],[147.912059,-36.027094],[147.910841,-36.022151],[147.916911,-36.010845],[147.913997,-35.997954],[147.91118,-35.995461],[147.898971,-35.994952],[147.897506,-35.999861],[147.88866,-35.997677],[147.884695,-35.998791],[147.872714,-35.991009],[147.861445,-35.98816],[147.84944,-35.989599],[147.849094,-35.986022],[147.841363,-35.985857],[147.838764,-35.982535],[147.829092,-35.97813],[147.826098,-35.980203],[147.817498,-35.979741],[147.813232,-35.975991],[147.815885,-35.972759],[147.8112,-35.967299],[147.79644,-35.963833],[147.788168,-35.967245],[147.783184,-35.965679],[147.777034,-35.968628],[147.767975,-35.96116],[147.75754,-35.954843],[147.749467,-35.957475],[147.741292,-35.95649],[147.728571,-35.947514],[147.71737,-35.944271],[147.717756,-35.938559],[147.708415,-35.928545],[147.689329,-35.937679],[147.682086,-35.942566],[147.672293,-35.94253],[147.653714,-35.944149],[147.646777,-35.946008],[147.642289,-35.949978],[147.638341,-35.961611],[147.62011,-35.967779],[147.605459,-35.977375],[147.600679,-35.97909],[147.591893,-35.969859],[147.582327,-35.967786],[147.577994,-35.970566],[147.570316,-35.969026],[147.563887,-35.969858],[147.552746,-35.966764],[147.547583,-35.974567],[147.548154,-35.978804],[147.559387,-35.972578],[147.565216,-35.978528],[147.580299,-35.97776],[147.583884,-35.985671],[147.576967,-35.989586],[147.569283,-35.991339],[147.555245,-36.00321],[147.548831,-36.003354],[147.546545,-35.997359],[147.537527,-35.994198],[147.5272,-35.986635],[147.522248,-35.987369],[147.520374,-35.980535],[147.514888,-35.97664],[147.521288,-35.967107],[147.523228,-35.961389],[147.51677,-35.959015],[147.511421,-35.962412],[147.504922,-35.9527],[147.498602,-35.946642],[147.491386,-35.944098],[147.488762,-35.948573],[147.481252,-35.949017],[147.478951,-35.942745],[147.464072,-35.944137],[147.454421,-35.951598],[147.456156,-35.957779],[147.44811,-35.960266],[147.443518,-35.955836],[147.431041,-35.952994],[147.415628,-35.947027],[147.408408,-35.948232],[147.404264,-35.943562],[147.395408,-35.949083],[147.392717,-35.95406],[147.392678,-35.962365],[147.388225,-35.963455],[147.391972,-35.969378],[147.391587,-35.97393],[147.383679,-35.972352],[147.376139,-35.97632],[147.36639,-35.986516],[147.360761,-35.988997],[147.353257,-36.000376],[147.354972,-36.010087],[147.348802,-36.013072],[147.34568,-36.018772],[147.346068,-36.024247],[147.351615,-36.028552],[147.352244,-36.032293],[147.343917,-36.042073],[147.331614,-36.047841],[147.329224,-36.054359],[147.318012,-36.060321],[147.311029,-36.061155],[147.306669,-36.05719],[147.300282,-36.045277],[147.290687,-36.042757],[147.285646,-36.039642],[147.280262,-36.043162],[147.263604,-36.039264],[147.250344,-36.041459],[147.242226,-36.03853],[147.239025,-36.043201],[147.231711,-36.042567],[147.226105,-36.047803],[147.215134,-36.046691],[147.204328,-36.049889],[147.195534,-36.043894],[147.191576,-36.044511],[147.183891,-36.038357],[147.161588,-36.031054],[147.154914,-36.035702],[147.149423,-36.031936],[147.137173,-36.028625],[147.130767,-36.023581],[147.127863,-36.018578],[147.128184,-36.011119],[147.123129,-35.997317],[147.119933,-36.000605],[147.113583,-36.000574],[147.11628,-36.007635],[147.110355,-36.009076],[147.10473,-36.018735],[147.097214,-36.022613],[147.100295,-36.035767],[147.095444,-36.05271],[147.085088,-36.052465],[147.074524,-36.064091],[147.068277,-36.06058],[147.061504,-36.066672],[147.059515,-36.07404],[147.06302,-36.082492],[147.052277,-36.090543],[147.048679,-36.103795],[147.035286,-36.114914],[147.026326,-36.105425],[147.022777,-36.099895],[147.015158,-36.09992],[147.013184,-36.097183],[147.016178,-36.089497],[147.008435,-36.089596],[147.002799,-36.086039],[146.988983,-36.087066],[146.983892,-36.094116],[146.978354,-36.092839],[146.972589,-36.082113],[146.958912,-36.085164],[146.952212,-36.092485],[146.95204,-36.09817],[146.948952,-36.101357],[146.952427,-36.110924],[146.945682,-36.115516],[146.941904,-36.115446],[146.933234,-36.110765],[146.924468,-36.103312],[146.92343,-36.108687],[146.917663,-36.108156],[146.913507,-36.112777],[146.907763,-36.111284],[146.91202,-36.106241],[146.90867,-36.099511],[146.903347,-36.097708],[146.906011,-36.092365],[146.901931,-36.083047],[146.890402,-36.088031],[146.880556,-36.087524],[146.876809,-36.082907],[146.872952,-36.073681],[146.865113,-36.072884],[146.865675,-36.078834],[146.856663,-36.085047],[146.848714,-36.086605],[146.836347,-36.082187],[146.834118,-36.085969],[146.825026,-36.088724],[146.822292,-36.082413],[146.827261,-36.078127],[146.82367,-36.074487],[146.816655,-36.074577],[146.812786,-36.067242],[146.814468,-36.063948],[146.804148,-36.058304],[146.795648,-36.057435],[146.794358,-36.065131],[146.788563,-36.064833],[146.787826,-36.059342],[146.776922,-36.059993],[146.771641,-36.058088],[146.763841,-36.059749],[146.760209,-36.058169],[146.750402,-36.061424],[146.746976,-36.058488],[146.750628,-36.050572],[146.739117,-36.045522],[146.735962,-36.048184],[146.730595,-36.044953],[146.734489,-36.037308],[146.732358,-36.030981],[146.72723,-36.02682],[146.721886,-36.028741],[146.716627,-36.026506],[146.70219,-36.033599],[146.69427,-36.035241],[146.687029,-36.04082],[146.681893,-36.03816],[146.67972,-36.033414],[146.681928,-36.029081],[146.679175,-36.021948],[146.665619,-36.021777],[146.66943,-36.028149],[146.655918,-36.026195],[146.650356,-36.01803],[146.650973,-36.00801],[146.637565,-36.006172],[146.631824,-36.004197],[146.626683,-35.998466],[146.613026,-35.990265],[146.607972,-35.985904],[146.616049,-35.982431],[146.611137,-35.978769],[146.618225,-35.975899],[146.611868,-35.972133],[146.599978,-35.974624],[146.589826,-35.973826],[146.583708,-35.975065],[146.586722,-35.980613],[146.581325,-35.983204],[146.57613,-35.978422],[146.569702,-35.979011],[146.562414,-35.975199],[146.55502,-35.983114],[146.555934,-35.988786],[146.550469,-35.992179],[146.538256,-35.984243],[146.531275,-35.982775],[146.532548,-35.976509],[146.525935,-35.9699],[146.520531,-35.9696],[146.521589,-35.964189],[146.517902,-35.960061],[146.512081,-35.963969],[146.50282,-35.957969],[146.497841,-35.967894],[146.496693,-35.974172],[146.501213,-35.979087],[146.492802,-35.984701],[146.502682,-35.98829],[146.499106,-35.99116],[146.490311,-35.99137],[146.487156,-35.986637],[146.48064,-35.987009],[146.477313,-35.983718],[146.465118,-35.980779],[146.468304,-35.975045],[146.45652,-35.966485],[146.453757,-35.962167],[146.447387,-35.965619],[146.445926,-35.972948],[146.441803,-35.975846],[146.436691,-35.966927],[146.425428,-35.964049],[146.421627,-35.967109],[146.424421,-35.973203],[146.414345,-35.975453],[146.414321,-35.984741],[146.402395,-35.989204],[146.398029,-35.996626],[146.40005,-36.004219],[146.396962,-36.00817],[146.388472,-36.00709],[146.380402,-36.013244],[146.378588,-36.022517],[146.379752,-36.028389],[146.387672,-36.035514],[146.379781,-36.042361],[146.37901,-36.045844],[146.367258,-36.050392],[146.357774,-36.040748],[146.351917,-36.042506],[146.347608,-36.038915],[146.345942,-36.029299],[146.33777,-36.026311],[146.331484,-36.026583],[146.325803,-36.03367],[146.331356,-36.035631],[146.330536,-36.042257],[146.320554,-36.042667],[146.311921,-36.044874],[146.309649,-36.040162],[146.299882,-36.047795],[146.292818,-36.045707],[146.291167,-36.042055],[146.284107,-36.037848],[146.291746,-36.030244],[146.285089,-36.027797],[146.281611,-36.023974],[146.288925,-36.018309],[146.284815,-36.014183],[146.278828,-36.01582],[146.278784,-36.023625],[146.271977,-36.026795],[146.261824,-36.015796],[146.258132,-36.014781],[146.248205,-36.017166],[146.243328,-36.023545],[146.242797,-36.028965],[146.233893,-36.028502],[146.221503,-36.030249],[146.215943,-36.033769],[146.211296,-36.02922],[146.205872,-36.0389],[146.19958,-36.037408],[146.197693,-36.033722],[146.188553,-36.041524],[146.178902,-36.038441],[146.177951,-36.033848],[146.175238,-36.041756],[146.178476,-36.050795],[146.185517,-36.04559],[146.192147,-36.047543],[146.198098,-36.044443],[146.196351,-36.061181],[146.202245,-36.072878],[146.198396,-36.086429],[146.215234,-36.089042],[146.21215,-36.09371],[146.211143,-36.105847],[146.215844,-36.114518],[146.206763,-36.115944],[146.205967,-36.123055],[146.208502,-36.125907],[146.218686,-36.127606],[146.229093,-36.13159],[146.235792,-36.128502],[146.241316,-36.133263],[146.238734,-36.135767],[146.239219,-36.152329],[146.235481,-36.157126],[146.236246,-36.164891],[146.242205,-36.168404],[146.246486,-36.176512],[146.24529,-36.178805],[146.234055,-36.182997],[146.220923,-36.182968],[146.220983,-36.186711],[146.131052,-36.186791],[146.131425,-36.255122],[146.036903,-36.255063],[146.031198,-36.265443],[146.030938,-36.299009],[145.990707,-36.299216],[145.931093,-36.299047],[145.798509,-36.29897],[145.798504,-36.330831],[145.775229,-36.443786],[145.766126,-36.441729],[145.765319,-36.437311],[145.756493,-36.434973],[145.739833,-36.432417],[145.73517,-36.426133],[145.724427,-36.424608],[145.724403,-36.434473],[145.731316,-36.442633],[145.731308,-36.48525],[145.73187,-36.499036],[145.63156,-36.499046],[145.631723,-36.563298],[145.614728,-36.563293],[145.62377,-36.578147],[145.626266,-36.590056],[145.642532,-36.589747],[145.644505,-36.590785],[145.644547,-36.623091],[145.634706,-36.622292],[145.634655,-36.631734],[145.589376,-36.681939],[145.595854,-36.686388],[145.597024,-36.695214],[145.584771,-36.708923],[145.572181,-36.701565],[145.515939,-36.701648],[145.513609,-36.699695],[145.513473,-36.687044],[145.498172,-36.687049],[145.498187,-36.69997],[145.494195,-36.699973],[145.494134,-36.715583],[145.496016,-36.715583],[145.496032,-36.730223],[145.453244,-36.730375],[145.453097,-36.774061],[145.45664,-36.781054],[145.46176,-36.786377],[145.477539,-36.788714],[145.482138,-36.792175],[145.47524,-36.799744],[145.471322,-36.82001],[145.463638,-36.825788],[145.462634,-36.828708],[145.46983,-36.840079],[145.484315,-36.840287],[145.484504,-36.856982],[145.481825,-36.870357],[145.476596,-36.872038],[145.467926,-36.870229],[145.466143,-36.875562],[145.461238,-36.875528],[145.460195,-36.883309],[145.454997,-36.891262],[145.460415,-36.892431],[145.463838,-36.901673],[145.463844,-36.909814],[145.457564,-36.911587],[145.452787,-36.931588],[145.447399,-36.935926],[145.441531,-36.943637],[145.437329,-36.952093],[145.425438,-36.965827],[145.424135,-36.97758],[145.413063,-36.992423],[145.425988,-36.999283],[145.429474,-37.021674],[145.425609,-37.024884],[145.411083,-37.030559],[145.408635,-37.035908],[145.392793,-37.043635],[145.392731,-37.076286],[145.374743,-37.076176],[145.372294,-37.084982],[145.372209,-37.093919],[145.366206,-37.097634],[145.355871,-37.097652],[145.352816,-37.101393],[145.341566,-37.101358],[145.331517,-37.099683],[145.321037,-37.103798],[145.304345,-37.103721],[145.303141,-37.099621],[145.288296,-37.099599],[145.290829,-37.110828],[145.288239,-37.122217],[145.284605,-37.129078],[145.284608,-37.138546],[145.273373,-37.142007],[145.267722,-37.136172],[145.2571,-37.134989],[145.252045,-37.141411],[145.243202,-37.143928],[145.228562,-37.134631],[145.232144,-37.152847],[145.231721,-37.167534],[145.241086,-37.168623],[145.241132,-37.17698],[145.229488,-37.180062],[145.225368,-37.186081],[145.219516,-37.186115],[145.219437,-37.191084],[145.207534,-37.191117],[145.202019,-37.18717],[145.202165,-37.199842],[145.196369,-37.199889],[145.191135,-37.203811],[145.174878,-37.204911],[145.174527,-37.213984],[145.166323,-37.219877],[145.169527,-37.226634],[145.177204,-37.235936],[145.167774,-37.240246],[145.171611,-37.247023],[145.165887,-37.251673],[145.173129,-37.261161],[145.165535,-37.26927],[145.163003,-37.277628],[145.168139,-37.281286],[145.17193,-37.278503],[145.171825,-37.266303],[145.180641,-37.264416],[145.180581,-37.271771],[145.187019,-37.271736],[145.186919,-37.278246],[145.19555,-37.278296],[145.195382,-37.29412],[145.227314,-37.294262],[145.227443,-37.305096],[145.251861,-37.304952],[145.251875,-37.311081],[145.256685,-37.311073],[145.256696,-37.317408],[145.261936,-37.317378],[145.261968,-37.329589],[145.270298,-37.327258],[145.276928,-37.332648],[145.279329,-37.337825],[145.274843,-37.340479],[145.270067,-37.347207],[145.271372,-37.368061],[145.25651,-37.367967],[145.258313,-37.37161],[145.265812,-37.37325],[145.26562,-37.419354],[145.234841,-37.437998],[145.234138,-37.446846],[145.224764,-37.458158],[145.222272,-37.472599],[145.241036,-37.477723],[145.239319,-37.487739],[145.25671,-37.491981],[145.253858,-37.507272],[145.251695,-37.510644],[145.262443,-37.511901],[145.264213,-37.50177],[145.275483,-37.500986],[145.276305,-37.496489],[145.294389,-37.498582],[145.292841,-37.50688],[145.298004,-37.508329],[145.297063,-37.513695],[145.313831,-37.51556],[145.309085,-37.519754],[145.320573,-37.528166],[145.328504,-37.529133],[145.333806,-37.532612],[145.332594,-37.5396],[145.341339,-37.543472],[145.347863,-37.541262],[145.366412,-37.545126],[145.375822,-37.540541],[145.386468,-37.543395],[145.402399,-37.53634],[145.405039,-37.526551],[145.417552,-37.526238],[145.41852,-37.531499],[145.425998,-37.535001],[145.432688,-37.530814],[145.440531,-37.533434],[145.43839,-37.543218],[145.445257,-37.544121],[145.448083,-37.541591],[145.459345,-37.54376],[145.462941,-37.549157],[145.467753,-37.549822],[145.469915,-37.557672],[145.478235,-37.555764],[145.480491,-37.561281],[145.496821,-37.560205],[145.496811,-37.563591],[145.5087,-37.56365],[145.503713,-37.5567],[145.507977,-37.555906],[145.524785,-37.565792],[145.528872,-37.557935],[145.533526,-37.558267],[145.537515,-37.562639],[145.541276,-37.572521],[145.547142,-37.574324],[145.55864,-37.590779],[145.573209,-37.586314],[145.57353,-37.579211],[145.578024,-37.572054],[145.586142,-37.567326],[145.593609,-37.565894],[145.601902,-37.567359],[145.602516,-37.575948],[145.618012,-37.572296],[145.620806,-37.577084],[145.627326,-37.580817],[145.63262,-37.587564],[145.640675,-37.589238],[145.65381,-37.601759],[145.654684,-37.609081],[145.659109,-37.617531],[145.667337,-37.62215],[145.675853,-37.624195],[145.737342,-37.593992],[145.731213,-37.585865],[145.731192,-37.578878],[145.736567,-37.568164],[145.740551,-37.566665],[145.748461,-37.573306],[145.766084,-37.573626],[145.769809,-37.57026],[145.780899,-37.566494],[145.79546,-37.56391],[145.809821,-37.563606],[145.809038,-37.560051],[145.816082,-37.556685],[145.818958,-37.543877],[145.822041,-37.538693],[145.820049,-37.534378],[145.826867,-37.530625],[145.838919,-37.532744],[145.847205,-37.527997],[145.857569,-37.53215],[145.866249,-37.531896],[145.879665,-37.525205],[145.889691,-37.532258],[146.126401,-37.534366],[146.186005,-37.534824],[146.186346,-37.544748],[146.183402,-37.547052],[146.18638,-37.554582],[146.18445,-37.560747],[146.190703,-37.571798],[146.192502,-37.581131],[146.191923,-37.58753],[146.202912,-37.595371],[146.204433,-37.599147],[146.220525,-37.603988],[146.230272,-37.607936],[146.238987,-37.606504],[146.250088,-37.610403],[146.255674,-37.61036],[146.263817,-37.6064],[146.276237,-37.604879],[146.282782,-37.600101],[146.298792,-37.591075],[146.304966,-37.593533],[146.311636,-37.598965],[146.31962,-37.599116],[146.332962,-37.608632],[146.333208,-37.612896],[146.341567,-37.617145],[146.346652,-37.623587],[146.355536,-37.624887],[146.367643,-37.629321],[146.37656,-37.628166],[146.382641,-37.621977],[146.383439,-37.609666],[146.389885,-37.608923],[146.403203,-37.60403],[146.426415,-37.618575],[146.435836,-37.618044],[146.496522,-37.482082],[146.547102,-37.368753],[146.595772,-37.268699],[146.647211,-37.162791],[146.644886,-37.159296],[146.644798,-37.147467],[146.64029,-37.141813],[146.641338,-37.13656],[146.638386,-37.132508],[146.64083,-37.125889],[146.654998,-37.122268],[146.663582,-37.123439],[146.667658,-37.128949],[146.681384,-37.136978],[146.684891,-37.145174],[146.692856,-37.149496],[146.70494,-37.153159],[146.719139,-37.158937],[146.733506,-37.155466],[146.744265,-37.156168],[146.746581,-37.150331],[146.75807,-37.147113],[146.770975,-37.150649],[146.77592,-37.157879],[146.777368,-37.163949],[146.782413,-37.167725],[146.782558,-37.171654],[146.78787,-37.177635],[146.797531,-37.179991],[146.807261,-37.186149],[146.823382,-37.191714],[146.82577,-37.196041],[146.825498,-37.202635],[146.838348,-37.205027],[146.918984,-37.216521],[147.061135,-37.2368],[147.143683,-37.248464],[147.336985,-37.275538],[147.384783,-37.211592],[147.382346,-37.208076],[147.383132,-37.202098],[147.371044,-37.199656],[147.361361,-37.189063],[147.35866,-37.180586],[147.346548,-37.170264],[147.344837,-37.16135],[147.332631,-37.153769],[147.328718,-37.143895],[147.325061,-37.141465],[147.328404,-37.133646],[147.325499,-37.121957],[147.316397,-37.113864],[147.359213,-37.114342],[147.363621,-37.108842],[147.363388,-37.103333],[147.369903,-37.103219],[147.380515,-37.098713],[147.380339,-37.05871],[147.390458,-37.052455],[147.390945,-37.03904],[147.386047,-37.030111],[147.370508,-37.030272],[147.361636,-37.034521],[147.355226,-37.032756],[147.342576,-37.032003],[147.321546,-37.023471],[147.3109,-37.018293],[147.307198,-37.013274],[147.29982,-37.011274],[147.293792,-37.006991],[147.284903,-37.005327],[147.280654,-37.008431],[147.269226,-37.008733],[147.263295,-37.006705],[147.281139,-36.926434],[147.28829,-36.923264],[147.292773,-36.917022],[147.289366,-36.910076],[147.289767,-36.904404],[147.310418,-36.889098],[147.329607,-36.876962],[147.336703,-36.874737],[147.344897,-36.868623],[147.345438,-36.863404],[147.342879,-36.85727],[147.344745,-36.853574],[147.341123,-36.845508],[147.341329,-36.838878],[147.33672,-36.829889],[147.325389,-36.828992],[147.317743,-36.822811],[147.301875,-36.829969],[147.286036,-36.825611],[147.292052,-36.822575],[147.292645,-36.809521],[147.286359,-36.805326],[147.276099,-36.794404],[147.268852,-36.783794],[147.26839,-36.777562],[147.27702,-36.773111],[147.279848,-36.767632],[147.28577,-36.768446],[147.29031,-36.765552],[147.292161,-36.756157],[147.28807,-36.753619],[147.290455,-36.737782],[147.296594,-36.733922],[147.311728,-36.73133],[147.326327,-36.73877],[147.334342,-36.737829],[147.345183,-36.73899],[147.358672,-36.734623],[147.367151,-36.733889],[147.370443,-36.738174],[147.37941,-36.745018],[147.382992,-36.75353],[147.387757,-36.757495],[147.396841,-36.760125],[147.40763,-36.765318],[147.407457,-36.778949],[147.419829,-36.782998],[147.430163,-36.79466],[147.439217,-36.801276],[147.447722,-36.801814],[147.454809,-36.807239],[147.473065,-36.812432],[147.463877,-36.803166],[147.464809,-36.796211],[147.471296,-36.788722],[147.4714,-36.783069],[147.485266,-36.780511],[147.495838,-36.781576],[147.501256,-36.776234],[147.514292,-36.772482],[147.521402,-36.773479],[147.529527,-36.768575],[147.531064,-36.762429],[147.526719,-36.756283],[147.53569,-36.752565],[147.542844,-36.740252],[147.541888,-36.737568],[147.652303,-36.704725],[147.841554,-36.64808],[147.960215,-36.612428],[148.134466,-36.743739]]]},"bbox":[145.163003,-37.629321,148.22067,-35.928545]}]}