{"type":"FeatureCollection","features":[
{"properties":{"electorateShortName":"indi","electorateName":"Indi","area":29187.45,"state":null},"type":"Feature","geometry":{"type":"Polygon","coordinates":[[[148.134466,-36.743739],[148.139093,-36.732213],[148.154557,-36.720236],[148.185114,-36.692217],[148.189755,-36.675352],[148.208186,-36.651287],[148.219547,-36.619558],[148.210892,-36.61248],[148.217443,-36.598853],[148.203574,-36.588771],[148.178467,-36.579761],[148.165121,-36.578229],[148.151766,-36.560975],[148.13341,-36.566921],[148.124448,-36.55098],[148.139815,-36.525603],[148.131882,-36.516415],[148.128393,-36.502795],[148.118994,-36.494449],[148.126347,-36.485498],[148.124717,-36.46484],[148.110942,-36.457123],[148.087713,-36.451949],[148.086902,-36.432071],[148.080323,-36.422371],[148.058426,-36.414135],[148.057913,-36.400622],[148.050252,-36.399004],[148.043791,-36.374693],[148.038261,-36.365556],[148.055626,-36.334111],[148.057964,-36.322397],[148.035118,-36.310833],[148.042781,-36.303712],[148.036456,-36.293473],[148.0329,-36.268287],[148.038283,-36.258347],[148.02884,-36.247044],[148.034878,-36.234717],[148.026941,-36.225979],[148.040606,-36.20686],[148.034901,-36.192633],[148.024295,-36.1877],[148.021889,-36.176971],[148.031228,-36.164515],[148.024821,-36.159366],[148.035477,-36.146864],[148.028889,-36.140078],[148.006651,-36.136538],[147.99078,-36.120669],[147.99599,-36.097673],[147.980362,-36.086352],[147.987756,-36.082165],[147.991305,-36.064108],[147.999192,-36.058482],[147.997571,-36.047766],[147.984217,-36.045706],[147.949302,-36.046137],[147.924591,-36.042748],[147.923816,-36.029052],[147.912059,-36.027094],[147.916911,-36.010845],[147.913997,-35.997954],[147.898971,-35.994952],[147.884695,-35.998791],[147.872714,-35.991009],[147.84944,-35.989599],[147.829092,-35.97813],[147.817498,-35.979741],[147.8112,-35.967299],[147.79644,-35.963833],[147.777034,-35.968628],[147.75754,-35.954843],[147.741292,-35.95649],[147.717756,-35.938559],[147.708415,-35.928545],[147.689329,-35.937679],[147.682086,-35.942566],[147.653714,-35.944149],[147.642289,-35.949978],[147.638341,-35.961611],[147.62011,-35.967779],[147.600679,-35.97909],[147.591893,-35.969859],[147.563887,-35.969858],[147.565216,-35.978528],[147.580299,-35.97776],[147.583884,-35.985671],[147.569283,-35.991339],[147.555245,-36.00321],[147.537527,-35.994198],[147.514888,-35.97664],[147.523228,-35.961389],[147.511421,-35.962412],[147.498602,-35.946642],[147.481252,-35.949017],[147.478951,-35.942745],[147.464072,-35.944137],[147.456156,-35.957779],[147.431041,-35.952994],[147.404264,-35.943562],[147.392717,-35.95406],[147.391587,-35.97393],[147.383679,-35.972352],[147.360761,-35.988997],[147.353257,-36.000376],[147.346068,-36.024247],[147.352244,-36.032293],[147.343917,-36.042073],[147.331614,-36.047841],[147.318012,-36.060321],[147.306669,-36.05719],[147.300282,-36.045277],[147.285646,-36.039642],[147.280262,-36.043162],[147.263604,-36.039264],[147.242226,-36.03853],[147.226105,-36.047803],[147.204328,-36.049889],[147.183891,-36.038357],[147.161588,-36.031054],[147.154914,-36.035702],[147.137173,-36.028625],[147.127863,-36.018578],[147.123129,-35.997317],[147.113583,-36.000574],[147.10473,-36.018735],[147.097214,-36.022613],[147.100295,-36.035767],[147.095444,-36.05271],[147.085088,-36.052465],[147.074524,-36.064091],[147.068277,-36.06058],[147.059515,-36.07404],[147.06302,-36.082492],[147.052277,-36.090543],[147.048679,-36.103795],[147.035286,-36.114914],[147.016178,-36.089497],[147.002799,-36.086039],[146.988983,-36.087066],[146.978354,-36.092839],[146.972589,-36.082113],[146.958912,-36.085164],[146.948952,-36.101357],[146.952427,-36.110924],[146.945682,-36.115516],[146.91202,-36.106241],[146.901931,-36.083047],[146.880556,-36.087524],[146.872952,-36.073681],[146.856663,-36.085047],[146.836347,-36.082187],[146.825026,-36.088724],[146.82367,-36.074487],[146.814468,-36.063948],[146.795648,-36.057435],[146.776922,-36.059993],[146.760209,-36.058169],[146.739117,-36.045522],[146.72723,-36.02682],[146.716627,-36.026506],[146.687029,-36.04082],[146.67972,-36.033414],[146.679175,-36.021948],[146.655918,-36.026195],[146.650973,-36.00801],[146.631824,-36.004197],[146.607972,-35.985904],[146.616049,-35.982431],[146.611868,-35.972133],[146.583708,-35.975065],[146.569702,-35.979011],[146.562414,-35.975199],[146.550469,-35.992179],[146.538256,-35.984243],[146.517902,-35.960061],[146.50282,-35.957969],[146.496693,-35.974172],[146.487156,-35.986637],[146.465118,-35.980779],[146.468304,-35.975045],[146.45652,-35.966485],[146.436691,-35.966927],[146.414345,-35.975453],[146.414321,-35.984741],[146.402395,-35.989204],[146.40005,-36.004219],[146.380402,-36.013244],[146.379752,-36.028389],[146.387672,-36.035514],[146.37901,-36.045844],[146.367258,-36.050392],[146.357774,-36.040748],[146.347608,-36.038915],[146.345942,-36.029299],[146.331484,-36.026583],[146.330536,-36.042257],[146.299882,-36.047795],[146.284107,-36.037848],[146.291746,-36.030244],[146.281611,-36.023974],[146.271977,-36.026795],[146.261824,-36.015796],[146.248205,-36.017166],[146.242797,-36.028965],[146.211296,-36.02922],[146.197693,-36.033722],[146.188553,-36.041524],[146.177951,-36.033848],[146.175238,-36.041756],[146.198098,-36.044443],[146.196351,-36.061181],[146.202245,-36.072878],[146.198396,-36.086429],[146.215234,-36.089042],[146.206763,-36.115944],[146.208502,-36.125907],[146.238734,-36.135767],[146.236246,-36.164891],[146.24529,-36.178805],[146.220983,-36.186711],[146.131052,-36.186791],[146.131425,-36.255122],[146.036903,-36.255063],[146.031198,-36.265443],[146.030938,-36.299009],[145.798509,-36.29897],[145.798504,-36.330831],[145.775229,-36.443786],[145.765319,-36.437311],[145.739833,-36.432417],[145.731316,-36.442633],[145.73187,-36.499036],[145.63156,-36.499046],[145.631723,-36.563298],[145.614728,-36.563293],[145.62377,-36.578147],[145.626266,-36.590056],[145.644505,-36.590785],[145.644547,-36.623091],[145.634655,-36.631734],[145.589376,-36.681939],[145.597024,-36.695214],[145.584771,-36.708923],[145.572181,-36.701565],[145.515939,-36.701648],[145.513473,-36.687044],[145.498172,-36.687049],[145.494195,-36.699973],[145.496032,-36.730223],[145.453244,-36.730375],[145.453097,-36.774061],[145.46176,-36.786377],[145.477539,-36.788714],[145.471322,-36.82001],[145.462634,-36.828708],[145.46983,-36.840079],[145.484315,-36.840287],[145.481825,-36.870357],[145.467926,-36.870229],[145.461238,-36.875528],[145.460415,-36.892431],[145.463844,-36.909814],[145.457564,-36.911587],[145.452787,-36.931588],[145.425438,-36.965827],[145.424135,-36.97758],[145.413063,-36.992423],[145.425988,-36.999283],[145.429474,-37.021674],[145.411083,-37.030559],[145.408635,-37.035908],[145.392793,-37.043635],[145.392731,-37.076286],[145.374743,-37.076176],[145.372209,-37.093919],[145.352816,-37.101393],[145.331517,-37.099683],[145.321037,-37.103798],[145.304345,-37.103721],[145.288296,-37.099599],[145.290829,-37.110828],[145.284608,-37.138546],[145.273373,-37.142007],[145.2571,-37.134989],[145.243202,-37.143928],[145.228562,-37.134631],[145.232144,-37.152847],[145.231721,-37.167534],[145.241132,-37.17698],[145.229488,-37.180062],[145.219437,-37.191084],[145.207534,-37.191117],[145.202165,-37.199842],[145.174878,-37.204911],[145.174527,-37.213984],[145.166323,-37.219877],[145.177204,-37.235936],[145.167774,-37.240246],[145.165887,-37.251673],[145.173129,-37.261161],[145.163003,-37.277628],[145.19555,-37.278296],[145.195382,-37.29412],[145.227314,-37.294262],[145.227443,-37.305096],[145.251861,-37.304952],[145.279329,-37.337825],[145.270067,-37.347207],[145.271372,-37.368061],[145.265812,-37.37325],[145.26562,-37.419354],[145.234841,-37.437998],[145.234138,-37.446846],[145.224764,-37.458158],[145.222272,-37.472599],[145.241036,-37.477723],[145.239319,-37.487739],[145.25671,-37.491981],[145.253858,-37.507272],[145.276305,-37.496489],[145.294389,-37.498582],[145.297063,-37.513695],[145.320573,-37.528166],[145.333806,-37.532612],[145.332594,-37.5396],[145.366412,-37.545126],[145.375822,-37.540541],[145.386468,-37.543395],[145.402399,-37.53634],[145.405039,-37.526551],[145.417552,-37.526238],[145.425998,-37.535001],[145.440531,-37.533434],[145.43839,-37.543218],[145.459345,-37.54376],[145.469915,-37.557672],[145.480491,-37.561281],[145.507977,-37.555906],[145.524785,-37.565792],[145.537515,-37.562639],[145.55864,-37.590779],[145.573209,-37.586314],[145.578024,-37.572054],[145.586142,-37.567326],[145.601902,-37.567359],[145.602516,-37.575948],[145.618012,-37.572296],[145.63262,-37.587564],[145.640675,-37.589238],[145.65381,-37.601759],[145.659109,-37.617531],[145.675853,-37.624195],[145.737342,-37.593992],[145.731213,-37.585865],[145.736567,-37.568164],[145.748461,-37.573306],[145.766084,-37.573626],[145.780899,-37.566494],[145.809821,-37.563606],[145.816082,-37.556685],[145.820049,-37.534378],[145.838919,-37.532744],[145.847205,-37.527997],[145.866249,-37.531896],[145.879665,-37.525205],[145.889691,-37.532258],[146.186005,-37.534824],[146.18445,-37.560747],[146.190703,-37.571798],[146.191923,-37.58753],[146.204433,-37.599147],[146.230272,-37.607936],[146.250088,-37.610403],[146.276237,-37.604879],[146.298792,-37.591075],[146.31962,-37.599116],[146.332962,-37.608632],[146.346652,-37.623587],[146.367643,-37.629321],[146.382641,-37.621977],[146.383439,-37.609666],[146.403203,-37.60403],[146.426415,-37.618575],[146.435836,-37.618044],[146.547102,-37.368753],[146.647211,-37.162791],[146.644798,-37.147467],[146.638386,-37.132508],[146.64083,-37.125889],[146.654998,-37.122268],[146.681384,-37.136978],[146.684891,-37.145174],[146.719139,-37.158937],[146.75807,-37.147113],[146.770975,-37.150649],[146.78787,-37.177635],[146.823382,-37.191714],[146.825498,-37.202635],[146.838348,-37.205027],[147.143683,-37.248464],[147.336985,-37.275538],[147.384783,-37.211592],[147.383132,-37.202098],[147.371044,-37.199656],[147.35866,-37.180586],[147.346548,-37.170264],[147.344837,-37.16135],[147.332631,-37.153769],[147.325061,-37.141465],[147.325499,-37.121957],[147.316397,-37.113864],[147.359213,-37.114342],[147.369903,-37.103219],[147.380515,-37.098713],[147.380339,-37.05871],[147.390458,-37.052455],[147.390945,-37.03904],[147.386047,-37.030111],[147.370508,-37.030272],[147.361636,-37.034521],[147.342576,-37.032003],[147.3109,-37.018293],[147.293792,-37.006991],[147.263295,-37.006705],[147.281139,-36.926434],[147.292773,-36.917022],[147.289767,-36.904404],[147.310418,-36.889098],[147.344897,-36.868623],[147.344745,-36.853574],[147.33672,-36.829889],[147.317743,-36.822811],[147.301875,-36.829969],[147.292052,-36.822575],[147.292645,-36.809521],[147.276099,-36.794404],[147.26839,-36.777562],[147.279848,-36.767632],[147.29031,-36.765552],[147.28807,-36.753619],[147.290455,-36.737782],[147.311728,-36.73133],[147.326327,-36.73877],[147.345183,-36.73899],[147.367151,-36.733889],[147.387757,-36.757495],[147.40763,-36.765318],[147.407457,-36.778949],[147.419829,-36.782998],[147.439217,-36.801276],[147.454809,-36.807239],[147.463877,-36.803166],[147.4714,-36.783069],[147.495838,-36.781576],[147.501256,-36.776234],[147.529527,-36.768575],[147.526719,-36.756283],[147.53569,-36.752565],[147.541888,-36.737568],[147.841554,-36.64808],[147.960215,-36.612428],[148.134466,-36.743739]]]},"bbox":[145.163003,-37.629321,148.219547,-35.928545]}]}