{"type":"FeatureCollection","features":[
{"properties":{"electorateShortName":"jagajaga","electorateName":"Jagajaga","area":125.97,"state":null},"type":"Feature","geometry":{"type":"Polygon","coordinates":[[[145.264111,-37.707353],[145.266932,-37.695643],[145.265251,-37.678446],[145.243286,-37.66262],[145.22489,-37.663426],[145.21044,-37.656809],[145.20003,-37.666638],[145.198403,-37.682533],[145.191744,-37.68951],[145.178531,-37.691171],[145.142941,-37.686773],[145.118736,-37.679377],[145.10354,-37.682943],[145.099642,-37.689468],[145.068238,-37.686063],[145.058219,-37.699983],[145.051325,-37.708384],[145.074949,-37.708789],[145.061527,-37.724211],[145.060837,-37.729779],[145.038601,-37.727324],[145.03199,-37.73776],[145.036096,-37.746858],[145.027924,-37.76251],[145.034707,-37.778566],[145.040197,-37.784222],[145.046303,-37.780698],[145.067113,-37.780935],[145.077778,-37.754482],[145.090929,-37.754284],[145.095547,-37.7493],[145.107175,-37.754897],[145.121871,-37.751666],[145.122603,-37.740583],[145.133141,-37.742812],[145.15549,-37.733969],[145.176676,-37.735375],[145.181319,-37.729841],[145.194245,-37.731004],[145.200887,-37.722532],[145.202108,-37.710933],[145.236165,-37.717114],[145.240933,-37.725018],[145.264111,-37.707353]]]},"bbox":[145.027924,-37.784222,145.266932,-37.656809]}]}