{"type":"FeatureCollection","features":[
{"properties":{"electorateShortName":"jagajaga","electorateName":"Jagajaga","area":125.97,"state":null},"type":"Feature","geometry":{"type":"Polygon","coordinates":[[[145.264111,-37.707353],[145.264078,-37.703005],[145.268697,-37.698823],[145.266932,-37.695643],[145.265251,-37.678446],[145.256512,-37.672074],[145.251239,-37.670074],[145.251424,-37.664959],[145.243286,-37.66262],[145.236509,-37.665432],[145.22489,-37.663426],[145.220142,-37.658008],[145.21044,-37.656809],[145.208477,-37.661949],[145.20003,-37.666638],[145.198403,-37.682533],[145.191744,-37.68951],[145.178531,-37.691171],[145.142941,-37.686773],[145.143703,-37.682624],[145.133462,-37.684717],[145.118736,-37.679377],[145.112379,-37.682328],[145.10354,-37.682943],[145.099642,-37.689468],[145.068238,-37.686063],[145.059904,-37.695207],[145.058219,-37.699983],[145.051325,-37.708384],[145.064584,-37.709457],[145.074949,-37.708789],[145.074526,-37.716134],[145.069279,-37.715572],[145.061527,-37.724211],[145.060837,-37.729779],[145.038601,-37.727324],[145.039998,-37.732738],[145.03199,-37.73776],[145.036096,-37.746858],[145.031474,-37.750836],[145.027924,-37.76251],[145.032436,-37.770686],[145.03658,-37.770501],[145.034707,-37.778566],[145.040197,-37.784222],[145.046303,-37.780698],[145.055929,-37.782305],[145.06071,-37.77995],[145.067113,-37.780935],[145.072732,-37.766543],[145.079223,-37.762446],[145.077778,-37.754482],[145.082417,-37.751583],[145.090929,-37.754284],[145.095547,-37.7493],[145.107175,-37.754897],[145.112895,-37.75525],[145.121871,-37.751666],[145.12,-37.744617],[145.122603,-37.740583],[145.133141,-37.742812],[145.138109,-37.738221],[145.145444,-37.738597],[145.15549,-37.733969],[145.161236,-37.737457],[145.165548,-37.734219],[145.176676,-37.735375],[145.181319,-37.729841],[145.194245,-37.731004],[145.194308,-37.724692],[145.200887,-37.722532],[145.202108,-37.710933],[145.222601,-37.713833],[145.22703,-37.716472],[145.236165,-37.717114],[145.240933,-37.725018],[145.253913,-37.717085],[145.256359,-37.71197],[145.264111,-37.707353]]]},"bbox":[145.027924,-37.784222,145.268697,-37.656809]}]}