{"type":"FeatureCollection","features":[
{"properties":{"electorateShortName":"kingsford-smith","electorateName":"Kingsford Smith","area":57.86,"state":null},"type":"Feature","geometry":{"type":"Polygon","coordinates":[[[151.231926,-34.016739],[151.24988,-34.001238],[151.249186,-33.998521],[151.253132,-33.991321],[151.252027,-33.98647],[151.254113,-33.983334],[151.253515,-33.980583],[151.251185,-33.978936],[151.258952,-33.975768],[151.257516,-33.971637],[151.251886,-33.964671],[151.256485,-33.964933],[151.260411,-33.967842],[151.265965,-33.96803],[151.262961,-33.961215],[151.265739,-33.958847],[151.256967,-33.951596],[151.258558,-33.945658],[151.261745,-33.945022],[151.265693,-33.941447],[151.25946,-33.937314],[151.261772,-33.935191],[151.259779,-33.929651],[151.261377,-33.927516],[151.257682,-33.922042],[151.262888,-33.917735],[151.261402,-33.914886],[151.266978,-33.916334],[151.266539,-33.913935],[151.2639,-33.912936],[151.25314,-33.911339],[151.252298,-33.910299],[151.249173,-33.909665],[151.247664,-33.90835],[151.244519,-33.908983],[151.244252,-33.907802],[151.231002,-33.906214],[151.226598,-33.904396],[151.222841,-33.901398],[151.215031,-33.900896],[151.213667,-33.906085],[151.212955,-33.912213],[151.211284,-33.919806],[151.212279,-33.922829],[151.211162,-33.923502],[151.180834,-33.919165],[151.179039,-33.920542],[151.17424,-33.924966],[151.173594,-33.926541],[151.169234,-33.927328],[151.165099,-33.929719],[151.162069,-33.933737],[151.160456,-33.934009],[151.161219,-33.937339],[151.159903,-33.943429],[151.159989,-33.944801],[151.165327,-33.947371],[151.168033,-33.949774],[151.165221,-33.950632],[151.161831,-33.953642],[151.157771,-33.959321],[151.154842,-33.966669],[151.151068,-33.974298],[151.149879,-33.980007],[151.148619,-33.982831],[151.148239,-33.990182],[151.149176,-33.994409],[151.153421,-33.996893],[151.158591,-33.998422],[151.163887,-34.000746],[151.221147,-34.001613],[151.222791,-34.001389],[151.22823,-34.004195],[151.230092,-34.008285],[151.231926,-34.016739]]]},"bbox":[151.148239,-34.016739,151.266978,-33.900896]}]}