{"type":"FeatureCollection","features":[
{"properties":{"electorateShortName":"lalor","electorateName":"Lalor","area":463.78,"state":null},"type":"Feature","geometry":{"type":"Polygon","coordinates":[[[144.74049,-37.941279],[144.713538,-37.914868],[144.708523,-37.806788],[144.604728,-37.794696],[144.477678,-37.781013],[144.444061,-37.864034],[144.479552,-37.895035],[144.495417,-37.973762],[144.541643,-37.971302],[144.591578,-38.004446],[144.651639,-38.001638],[144.74049,-37.941279]]]},"bbox":[144.444061,-38.004446,144.74049,-37.781013]}]}