{"type":"FeatureCollection","features":[
{"properties":{"electorateShortName":"lilley","electorateName":"Lilley","area":141.01,"state":null},"type":"Feature","geometry":{"type":"MultiPolygon","coordinates":[[[[153.153136,-27.397989],[153.154117,-27.390805],[153.160637,-27.381531],[153.166192,-27.365349],[153.21227044185483,-27.293471625659528],[153.2054500874259,-27.288060766963884],[153.1910418221021,-27.28039284771058],[153.1851238221021,-27.277902847710582],[153.16690860308503,-27.272419808873725],[153.16240203751337,-27.272055656279512],[153.15889400031298,-27.270599122220503],[153.1586857185103,-27.264553158237003],[153.15435109400008,-27.246731173457224],[153.1464933586027,-27.230158059520498],[153.1354388626087,-27.21552213695121],[153.12164672531873,-27.203431270145657],[153.115946990894,-27.20020093046569],[153.11553,-27.20119],[153.117093,-27.204296],[153.116397,-27.209208],[153.119525,-27.212403],[153.116692,-27.215925],[153.115243,-27.225224],[153.117923,-27.233565],[153.115863,-27.234065],[153.11238,-27.242754],[153.109762,-27.252997],[153.110582,-27.25501],[153.108013,-27.261472],[153.103742,-27.263441],[153.100518,-27.258755],[153.093147,-27.255971],[153.086985,-27.259601],[153.084546,-27.258355],[153.078751,-27.263167],[153.069523,-27.276801],[153.066609,-27.276941],[153.065458,-27.277274],[153.058885,-27.278048],[153.049898,-27.278044],[153.04754,-27.28426],[153.047286,-27.28966],[153.04819,-27.293676],[153.048175,-27.294691],[153.046207,-27.296882],[153.04304,-27.302462],[153.042235,-27.302875],[153.042399,-27.304068],[153.043889,-27.304498],[153.043898,-27.305516],[153.046474,-27.311857],[153.047578,-27.31383],[153.050111,-27.319804],[153.051442,-27.324293],[153.0515,-27.327341],[153.051177,-27.329583],[153.04653,-27.330501],[153.04517,-27.332847],[153.043147,-27.334072],[153.043023,-27.335112],[153.039982,-27.337136],[153.038857,-27.338967],[153.0395,-27.34011],[153.039759,-27.341686],[153.040426,-27.342409],[153.040194,-27.343401],[153.039333,-27.343882],[153.039225,-27.344878],[153.037995,-27.345345],[153.036532,-27.346484],[153.035283,-27.346783],[153.035501,-27.347957],[153.034626,-27.349229],[153.035359,-27.349541],[153.035258,-27.350724],[153.033364,-27.35327],[153.032125,-27.352602],[153.030892,-27.352574],[153.029973,-27.353148],[153.027227,-27.353505],[153.026474,-27.357667],[153.027858,-27.357873],[153.026437,-27.365258],[153.017223,-27.363871],[153.015258,-27.363976],[153.013301,-27.363502],[153.010823,-27.363232],[153.008877,-27.362769],[153.006559,-27.361668],[153.003926,-27.359996],[153.000811,-27.358731],[152.999425,-27.357035],[152.998619,-27.358424],[152.996867,-27.359664],[152.9979,-27.360817],[152.998796,-27.362578],[152.997947,-27.364201],[152.998574,-27.365624],[152.997816,-27.3682],[152.997309,-27.368064],[152.995923,-27.369655],[152.994665,-27.370131],[152.99383,-27.371819],[152.991584,-27.373352],[152.989665,-27.373532],[152.988356,-27.374897],[152.986275,-27.375665],[152.986372,-27.37688],[152.984739,-27.378965],[152.981208,-27.378462],[152.981459,-27.380547],[152.983149,-27.382138],[152.983312,-27.383571],[152.983895,-27.384699],[152.983087,-27.385975],[152.981416,-27.387067],[152.980599,-27.388154],[152.97869,-27.388802],[152.976745,-27.389788],[152.975285,-27.392036],[152.976785,-27.393654],[152.978079,-27.394595],[152.976999,-27.400782],[152.978525,-27.401428],[152.978745,-27.402217],[152.977836,-27.403927],[152.977988,-27.404901],[152.979968,-27.405071],[152.979726,-27.406193],[152.980335,-27.407742],[152.982083,-27.408543],[152.983492,-27.409669],[152.985715,-27.410061],[152.987813,-27.410727],[152.98882,-27.412596],[152.990532,-27.414483],[152.992406,-27.412586],[152.991215,-27.409972],[152.99082,-27.407275],[152.992162,-27.406946],[152.996484,-27.407466],[152.99838,-27.407158],[153.000322,-27.408103],[153.014299,-27.41014],[153.033503,-27.412687],[153.035191,-27.41425],[153.036088,-27.413472],[153.04084,-27.410014],[153.041765,-27.408278],[153.043376,-27.407684],[153.046474,-27.40713],[153.049031,-27.406307],[153.049112,-27.405312],[153.050103,-27.404056],[153.050679,-27.404299],[153.052748,-27.406462],[153.055835,-27.408746],[153.056958,-27.408933],[153.057509,-27.409675],[153.059643,-27.410424],[153.066392,-27.411192],[153.068207,-27.410352],[153.074025,-27.407075],[153.074746,-27.406965],[153.076762,-27.409407],[153.077208,-27.410441],[153.077068,-27.413351],[153.076545,-27.415735],[153.076892,-27.417365],[153.077699,-27.418586],[153.079482,-27.420314],[153.080242,-27.421825],[153.080297,-27.423338],[153.079685,-27.425893],[153.079627,-27.427242],[153.080087,-27.428693],[153.081537,-27.430535],[153.083152,-27.433196],[153.084193,-27.433995],[153.086619,-27.434816],[153.089338,-27.435046],[153.092832,-27.434891],[153.095055,-27.435685],[153.095832,-27.436421],[153.09974,-27.443105],[153.099932,-27.445258],[153.108127,-27.442165],[153.113685,-27.437984],[153.117358,-27.433636],[153.122633,-27.429539],[153.129227,-27.42611],[153.135068,-27.423184],[153.140625,-27.419421],[153.144016,-27.415491],[153.146466,-27.410976],[153.148538,-27.406628],[153.14948,-27.403618],[153.153136,-27.397989]]],[[[153.103543,-27.193977],[153.1036503322003,-27.193731038733542],[153.08823071699803,-27.188766794575507],[153.0699946916346,-27.1868022360807],[153.06159108340708,-27.187042022453166],[153.0437970834071,-27.18825102245317],[153.03276653141054,-27.19015590163982],[153.033037,-27.190912],[153.038025,-27.196934],[153.048153,-27.194122],[153.070957,-27.201068],[153.08057,-27.202029],[153.084534,-27.20506],[153.089327,-27.206205],[153.088714,-27.202839],[153.093196,-27.204013],[153.103204,-27.199627],[153.104748,-27.197568],[153.103543,-27.193977]]],[[[153.003899,-27.47611],[153.003037,-27.476914],[153.006586,-27.473604],[153.003899,-27.47611]]]]},"bbox":[152.975285,-27.476914,153.21227044185483,-27.1868022360807]}]}