{"type":"FeatureCollection","features":[
{"properties":{"electorateShortName":"longman","electorateName":"Longman","area":1246.77,"state":null},"type":"Feature","geometry":{"type":"Polygon","coordinates":[[[153.034908,-27.163521],[153.03505,-27.163564],[153.035202,-27.163609],[153.03633733085084,-27.165851001069463],[153.03643,-27.166034],[153.03084610838454,-27.175020546476148],[153.03050328143428,-27.175714016241052],[153.0303003512905,-27.176460508028946],[153.02969170618263,-27.180036630267498],[153.02963501019087,-27.180716259239258],[153.02969459143077,-27.181395641348672],[153.02986871791296,-27.18205502738351],[153.0328000250105,-27.19024953342181],[153.03309036104835,-27.190881614120926],[153.03348580560805,-27.191453841894877],[153.03637171594664,-27.194937994272394],[153.03691411694467,-27.19547803345888],[153.03754945072015,-27.195904873193825],[153.03825445448064,-27.196202884709237],[153.03900331446204,-27.196361156291765],[153.03976861110164,-27.196373892815885],[153.04052232300717,-27.19624062793284],[153.048153,-27.194122],[153.0705807468533,-27.20095339491506],[153.07134836940557,-27.201107124726803],[153.08057,-27.202029],[153.08294307090281,-27.203843525203443],[153.08359494519027,-27.204249205978222],[153.0843123213492,-27.204522863472764],[153.08506876779046,-27.20465441482838],[153.08583641338785,-27.20463901306022],[153.08658697438437,-27.20447722564352],[153.08729279650183,-27.204175013605088],[153.08792787385767,-27.203743511890394],[153.08846880714668,-27.203198619098615],[153.0887229189347,-27.20288797411783],[153.088714,-27.202839],[153.09185065043118,-27.203660603660463],[153.09273179674483,-27.203788952955367],[153.09361950457335,-27.203719187786685],[153.0944697828691,-27.203454765421277],[153.1018020975921,-27.200241382889796],[153.1024492351151,-27.199883101512754],[153.10301933640255,-27.19941178734913],[153.1034929056823,-27.198843557944663],[153.10385374829025,-27.198197845058715],[153.10408952448012,-27.19749673015579],[153.10419217140583,-27.196764189284956],[153.10415817884717,-27.196025273170125],[153.10398870924874,-27.195305250549637],[153.103543,-27.193977],[153.104613,-27.191525],[153.10954773461035,-27.19158884359846],[153.11044998363545,-27.191497713171195],[153.1113085190371,-27.191205694298258],[153.1120792143462,-27.19072779598423],[153.11222783036678,-27.190610378639462],[153.112431,-27.190416],[153.114927,-27.191768],[153.116748,-27.198301],[153.1162475711119,-27.199487977879883],[153.11599995391396,-27.200315234797188],[153.11593565170637,-27.201176358197205],[153.11605766124651,-27.202031216054436],[153.11636029636907,-27.202839968344417],[153.117093,-27.204296],[153.11667348073064,-27.207256745188374],[153.11663750851326,-27.207987284520517],[153.11673516177675,-27.20871216075572],[153.11696317535163,-27.209407136673214],[153.1173139252946,-27.210048974809926],[153.11777568380523,-27.210616214436612],[153.119525,-27.212403],[153.1173627259977,-27.21509115003036],[153.1169752270308,-27.215669559489715],[153.1166938897488,-27.216306397212986],[153.11652723714073,-27.216982370481873],[153.1161985658676,-27.219091628017264],[153.1153889762381,-27.224287193210266],[153.115353490824,-27.225215347206678],[153.11553302933007,-27.226126662179947],[153.117923,-27.233565],[153.1176791928937,-27.233624176482113],[153.11749797759228,-27.233687047330683],[153.11672566493843,-27.23405148417032],[153.11604831414886,-27.234571558158567],[153.11549679891684,-27.235223564289065],[153.11509625734263,-27.23597778407979],[153.11247762867572,-27.24251044686673],[153.11231502420608,-27.243008219655277],[153.11008863140415,-27.251719045274022],[153.10996965286077,-27.25249794489069],[153.11000566708867,-27.253285055735503],[153.11019527664465,-27.254049835914977],[153.1102255385772,-27.254134930677928],[153.110582,-27.25501],[153.108013,-27.261472],[153.103742,-27.263441],[153.101228086864,-27.259787092755822],[153.10070521451416,-27.259171087262512],[153.10006921343896,-27.25867272906366],[153.09934603479817,-27.25831235298849],[153.0949395986548,-27.256648058018584],[153.09425195619866,-27.256456426702798],[153.09354120155936,-27.25639007497821],[153.0928299711486,-27.256451116042367],[153.09214091653078,-27.256637605833863],[153.09149598300627,-27.25694360494762],[153.086985,-27.259601],[153.08673455525363,-27.259473056517436],[153.0865692700155,-27.25940641509967],[153.0857423745681,-27.25917254557171],[153.08488460887455,-27.259120689501465],[153.08403556155773,-27.259253240211976],[153.0835694138659,-27.259434103471953],[153.069523,-27.276801],[153.22244368375317,-27.27760247108853],[153.361762,-27.060281],[153.403674,-27.033263],[153.43611409410474,-27.032013307638874],[153.43678504642287,-27.031930284375882],[153.43743243306298,-27.031735450052356],[153.44859312517508,-27.027317248230556],[153.44925816597916,-27.026979150477725],[153.44984885486733,-27.026523435655797],[153.454737,-27.021965],[153.45473722369402,-27.022030244088498],[153.45476422348116,-27.02211968852646],[153.4550297747878,-27.022780192130462],[153.4554082051471,-27.023383162254504],[153.45588752819128,-27.02390950047912],[153.45645256188686,-27.024342535616487],[153.45708540940933,-27.024668551752068],[153.45929,-27.025566],[153.45929027093266,-27.02563737139645],[153.45952773492635,-27.025953303036435],[153.46000052903648,-27.026478448403857],[153.4605583528782,-27.026912204659236],[153.46118379844546,-27.027241035573077],[153.46185734746123,-27.02745467932054],[153.46255798048446,-27.02754646872217],[153.46821,-27.027783],[153.46768,-27.034651],[153.46732894238707,-27.035001152241907],[153.46725200370346,-27.03508730683655],[153.46678606908978,-27.035726455336754],[153.46645500838585,-27.036444789994018],[153.4662717661866,-27.037214223659742],[153.46624350732927,-27.038004671195328],[153.466309,-27.039038],[153.46622605446234,-27.03902578378415],[153.4659128550624,-27.03907006948133],[153.465135018661,-27.039261038797314],[153.46441082185314,-27.0396031465735],[153.46376930034793,-27.040082676453036],[153.46323617509793,-27.040680402322362],[153.46283282105193,-27.041372359156707],[153.4616151964602,-27.044045086584507],[153.46149788938868,-27.044331454595195],[153.4513489819364,-27.07212637522922],[153.451257521364,-27.07240902347479],[153.4279898795448,-27.154620760607145],[153.42788779003718,-27.155085319938028],[153.41820264899562,-27.216335227680993],[153.41815670204187,-27.21680146770493],[153.41658547672455,-27.25642324143901],[153.41659137073475,-27.256850443339932],[153.4179211047043,-27.27660050234927],[153.4180041980387,-27.277185345282046],[153.42325077205888,-27.30120620844997],[153.4234913829815,-27.301949909668107],[153.42387203399593,-27.302632617455636],[153.43445,-27.317881],[153.436867,-27.329219],[153.437221,-27.34178],[153.43031140912407,-27.362275703916332],[153.43014039144057,-27.362999315600774],[153.43010625585077,-27.363742077796527],[153.4302101818693,-27.364478325241755],[153.4304485784565,-27.36518261778406],[153.43081320810262,-27.365830619434604],[153.4312914714651,-27.366399939269172],[153.45266649322198,-27.387504151970205],[153.45331912344972,-27.38802588048549],[153.45337485605324,-27.388053849665123],[153.56358636798547,-27.338018155711143],[153.5590478045046,-27.336729656666904],[153.55116180450457,-27.3353306566669],[153.54057748922557,-27.33456538420695],[153.52947495023815,-27.331615994347725],[153.5269657249654,-27.33145410355767],[153.52683127995508,-27.326683584419794],[153.52488916345033,-27.310454705674704],[153.52247216345032,-27.299116705674706],[153.51705307387593,-27.282149610630867],[153.50839870900936,-27.26658198991355],[153.50773323721697,-27.265622696939953],[153.5072520629804,-27.263517818441372],[153.50670554149832,-27.255261547455415],[153.5079171163454,-27.22522787076718],[153.51604169088446,-27.17399746545889],[153.53702980590938,-27.099876396070304],[153.5415039962155,-27.087638094489257],[153.54676757362202,-27.079366872172532],[153.54960822151858,-27.071877776552903],[153.54966927550709,-27.071769172123933],[153.54992120554292,-27.07105262420354],[153.55327388577535,-27.062213604459807],[153.5534777255345,-27.06093704987189],[153.5548583515929,-27.057010226586414],[153.55741321018579,-27.04157566531716],[153.55794321018578,-27.03470766531716],[153.55761764447846,-27.01747411505469],[153.55401268090364,-27.00061868609832],[153.5472605465201,-26.984759621531154],[153.5376089039883,-26.97047861862108],[153.52541176751055,-26.95829949264991],[153.51111651788503,-26.948668963805513],[153.4952474929512,-26.941940271857693],[153.4949035466087,-26.941867241489724],[153.48787242289595,-26.93828678449856],[153.4716561882242,-26.933569632079312],[153.45484419385622,-26.931965063836262],[153.4380284249703,-26.933529579944025],[153.42180099965339,-26.938208090546706],[153.4126752995518,-26.942827825905965],[153.4000544416086,-26.943335813915642],[153.38423680991335,-26.945386975729807],[153.36902966133374,-26.950198147033312],[153.3549106218745,-26.957618218595147],[153.3129986218745,-26.984636218595146],[153.29804214688656,-26.996721733805348],[153.28599441099286,-27.011708657498893],[153.2809644216383,-27.019554895635718],[153.2787080144193,-27.014960986690554],[153.25989601757735,-26.98530646775161],[153.24613212792724,-26.954224922727178],[153.22580781225238,-26.885608841815948],[153.2199492133394,-26.859806198484787],[153.21992656876625,-26.85945367573893],[153.2267061381657,-26.85092557046767],[153.2344701319101,-26.83626728335468],[153.23455413676774,-26.83599813263835],[153.13339693518347,-26.812398305337684],[153.1333683589772,-26.812451650102037],[153.13313616716744,-26.813244578773],[153.13307183733002,-26.81406829631291],[153.133027,-26.812312],[153.131111,-26.811865],[153.130072,-26.812879],[153.128161,-26.814745],[153.126826,-26.820997],[153.124859,-26.831463],[153.121628,-26.839822],[153.11952,-26.843826],[153.120082,-26.850499],[153.121698,-26.859069],[153.121371,-26.860603],[153.120574,-26.864338],[153.120173,-26.86609],[153.118116,-26.875085],[153.114533,-26.884498],[153.111513,-26.888642],[153.109977,-26.89028],[153.107339,-26.892107],[153.100748,-26.89586],[153.09834,-26.896993],[153.095146,-26.898336],[153.092055,-26.898968],[153.089948,-26.899741],[153.088121,-26.900232],[153.085733,-26.899881],[153.082274,-26.901935],[153.077112,-26.905598],[153.074282,-26.912258],[153.07295,-26.922915],[153.078445,-26.928909],[153.079277,-26.935736],[153.075888,-26.947959],[153.069566,-26.955194],[153.074407,-26.971339],[153.071917,-26.978807],[153.066317,-26.98369],[153.065949,-26.983472],[153.065517,-26.983226],[153.064684,-26.982764],[153.064264,-26.982429],[153.064105,-26.982348],[153.06363,-26.982161],[153.063372,-26.982057],[153.062843,-26.981785],[153.062346,-26.981426],[153.061561,-26.980711],[153.061128,-26.980455],[153.061109,-26.980445],[153.059111,-26.977123],[153.057866,-26.97576],[153.054369,-26.974575],[153.048396,-26.974032],[153.042908,-26.96957],[153.043055,-26.969459],[153.042842,-26.969481],[153.042779,-26.969473],[153.042762,-26.969459],[153.018454,-26.966355],[153.017524,-26.972467],[153.017765,-26.972816],[153.017838,-26.973031],[153.017862,-26.973292],[153.017875,-26.973595],[153.017672,-26.974106],[153.017672,-26.974292],[153.017666,-26.974563],[153.017671,-26.974698],[153.017745,-26.974907],[153.017801,-26.975048],[153.017903,-26.975236],[153.018034,-26.975402],[153.018122,-26.975497],[153.018381,-26.975347],[153.018786,-26.975418],[153.019023,-26.975687],[153.0191,-26.976015],[153.019074,-26.976256],[153.018828,-26.976567],[153.018275,-26.976534],[153.018097,-26.976453],[153.018076,-26.976457],[153.017685,-26.976812],[153.017478,-26.977041],[153.017391,-26.977149],[153.017376,-26.977359],[153.01746,-26.977539],[153.017672,-26.977756],[153.017902,-26.978044],[153.017943,-26.978376],[153.017639,-26.978375],[153.017452,-26.978556],[153.016853,-26.979067],[153.01159,-26.978993],[153.008526,-26.981052],[153.002964,-26.984787],[153.000806,-26.984548],[152.994259,-26.984105],[152.991661,-26.984533],[152.988419,-26.983128],[152.985132,-26.984727],[152.98374,-26.984396],[152.981419,-26.982625],[152.981255,-26.982501],[152.980814,-26.982173],[152.980419,-26.981881],[152.980346,-26.982212],[152.975588,-26.98468],[152.974088,-26.982359],[152.978133,-26.980259],[152.977176,-26.979605],[152.97669,-26.977735],[152.975573,-26.97515],[152.975011,-26.97438],[152.972979,-26.975437],[152.970458,-26.976746],[152.970492,-26.976799],[152.966823,-26.978705],[152.966633,-26.978805],[152.966111,-26.978115],[152.963144,-26.974848],[152.962532,-26.972959],[152.961796,-26.972535],[152.961335,-26.972562],[152.956793,-26.970117],[152.956128,-26.969768],[152.955803,-26.969586],[152.955789,-26.969049],[152.954625,-26.968903],[152.954522,-26.968907],[152.954475,-26.968809],[152.954058,-26.968661],[152.953838,-26.968596],[152.953589,-26.968512],[152.95336,-26.96845],[152.953184,-26.968367],[152.952902,-26.968145],[152.952718,-26.967947],[152.952512,-26.967754],[152.952365,-26.967574],[152.952286,-26.967347],[152.952271,-26.967176],[152.952248,-26.966934],[152.95221,-26.966815],[152.95218,-26.966701],[152.952145,-26.966537],[152.952016,-26.966261],[152.951902,-26.966142],[152.951601,-26.96603],[152.951318,-26.965966],[152.951036,-26.965935],[152.950717,-26.965935],[152.950465,-26.965903],[152.950296,-26.965879],[152.950108,-26.965832],[152.949781,-26.965788],[152.949417,-26.965751],[152.949095,-26.965746],[152.948675,-26.965805],[152.948393,-26.966033],[152.948021,-26.966139],[152.947608,-26.966175],[152.947321,-26.966221],[152.94683,-26.966374],[152.946334,-26.966548],[152.94589,-26.966572],[152.945617,-26.966504],[152.945512,-26.966445],[152.945433,-26.966337],[152.945396,-26.966231],[152.944967,-26.96604],[152.944638,-26.965806],[152.944352,-26.965566],[152.94401,-26.96532],[152.9435,-26.965122],[152.943021,-26.964983],[152.942303,-26.964794],[152.941724,-26.964718],[152.941327,-26.964765],[152.940882,-26.964904],[152.94045,-26.964998],[152.940145,-26.96497],[152.939919,-26.964835],[152.939589,-26.964663],[152.939268,-26.964477],[152.939053,-26.964267],[152.938921,-26.964132],[152.938774,-26.963944],[152.938603,-26.963852],[152.938419,-26.963812],[152.938153,-26.963856],[152.938011,-26.963934],[152.937924,-26.964045],[152.937914,-26.9642],[152.93779,-26.964356],[152.937598,-26.964403],[152.937374,-26.96437],[152.937187,-26.964309],[152.936835,-26.964183],[152.936532,-26.964058],[152.936153,-26.963969],[152.935977,-26.963818],[152.935849,-26.963629],[152.935662,-26.963403],[152.935438,-26.963266],[152.935036,-26.963124],[152.934581,-26.963072],[152.934078,-26.963087],[152.933699,-26.963202],[152.933157,-26.963318],[152.932771,-26.96336],[152.932579,-26.963325],[152.932331,-26.963171],[152.931966,-26.962975],[152.931592,-26.962739],[152.9313,-26.962567],[152.930706,-26.962357],[152.93038,-26.962248],[152.929804,-26.962048],[152.929491,-26.961968],[152.929049,-26.961972],[152.928762,-26.962024],[152.928075,-26.962167],[152.927586,-26.962223],[152.927244,-26.962176],[152.927076,-26.961978],[152.926879,-26.961714],[152.926787,-26.961547],[152.926745,-26.96133],[152.926663,-26.96115],[152.926516,-26.960999],[152.926379,-26.960917],[152.926148,-26.960848],[152.925892,-26.960858],[152.925621,-26.96098],[152.925398,-26.96098],[152.925314,-26.960883],[152.924909,-26.960702],[152.924049,-26.960371],[152.923754,-26.960215],[152.923649,-26.960145],[152.92351,-26.96009],[152.923317,-26.960111],[152.923089,-26.960154],[152.922897,-26.960245],[152.922733,-26.96034],[152.922554,-26.960406],[152.922291,-26.960467],[152.921689,-26.960622],[152.921505,-26.960645],[152.921418,-26.960612],[152.921376,-26.960523],[152.921402,-26.960379],[152.921468,-26.960195],[152.921515,-26.960035],[152.9215,-26.959872],[152.921421,-26.959679],[152.9213,-26.959514],[152.921232,-26.959403],[152.921221,-26.959311],[152.921216,-26.959238],[152.921173,-26.959147],[152.920843,-26.95887],[152.920393,-26.958589],[152.920267,-26.958424],[152.920191,-26.958271],[152.920193,-26.958089],[152.92017,-26.957875],[152.920123,-26.957474],[152.920084,-26.957236],[152.920073,-26.957005],[152.920063,-26.956882],[152.919968,-26.956807],[152.919678,-26.956733],[152.919544,-26.956591],[152.91943,-26.956199],[152.919727,-26.955513],[152.917262,-26.954706],[152.915345,-26.954601],[152.914583,-26.954405],[152.913284,-26.953976],[152.910415,-26.954436],[152.90845,-26.954162],[152.906046,-26.954238],[152.905252,-26.953807],[152.903713,-26.953895],[152.901519,-26.955704],[152.898425,-26.958032],[152.896174,-26.958799],[152.893123,-26.959496],[152.891883,-26.960547],[152.891155,-26.96075],[152.889509,-26.959661],[152.887786,-26.957269],[152.885509,-26.955952],[152.883416,-26.956402],[152.874005,-26.958341],[152.865164,-26.957162],[152.858011,-26.956217],[152.861199,-26.936303],[152.860757,-26.93624],[152.86084,-26.935912],[152.863578,-26.934846],[152.866141,-26.935171],[152.867342,-26.935644],[152.867807,-26.935851],[152.86827,-26.935161],[152.868243,-26.933611],[152.869108,-26.932878],[152.869554,-26.932449],[152.872496,-26.930514],[152.875446,-26.913522],[152.867512,-26.912421],[152.859462,-26.911304],[152.860431,-26.905848],[152.861144,-26.902743],[152.860231,-26.902591],[152.855298,-26.901884],[152.856474,-26.894895],[152.854239,-26.894604],[152.855488,-26.887382],[152.86187,-26.888256],[152.866782,-26.888922],[152.868255,-26.88016],[152.869477,-26.872877],[152.864199,-26.872133],[152.857475,-26.871231],[152.858331,-26.866083],[152.851701,-26.865196],[152.853195,-26.856221],[152.853961,-26.856321],[152.854036,-26.855867],[152.848555,-26.855127],[152.84804,-26.858161],[152.843941,-26.85759],[152.840951,-26.856452],[152.839041,-26.855306],[152.838894,-26.855209],[152.838578,-26.855028],[152.838188,-26.855107],[152.83736,-26.855277],[152.834149,-26.855597],[152.832361,-26.856124],[152.832275,-26.856229],[152.83206,-26.856426],[152.832036,-26.856157],[152.832111,-26.855989],[152.832111,-26.855754],[152.832037,-26.85505],[152.832037,-26.854815],[152.832113,-26.854312],[152.832026,-26.853721],[152.832006,-26.853607],[152.831852,-26.853283],[152.831665,-26.852981],[152.831354,-26.852634],[152.83098,-26.852332],[152.830644,-26.852019],[152.830145,-26.851582],[152.829473,-26.850966],[152.829161,-26.850698],[152.829049,-26.850463],[152.829039,-26.850221],[152.828768,-26.85016],[152.824471,-26.849384],[152.823543,-26.847885],[152.820654,-26.844181],[152.819876,-26.843758],[152.819595,-26.842013],[152.81814,-26.840209],[152.818396,-26.837465],[152.818095,-26.836336],[152.817775,-26.836049],[152.817746,-26.836099],[152.817181,-26.836023],[152.81513,-26.834187],[152.81509,-26.833771],[152.814725,-26.83281],[152.814217,-26.832131],[152.813758,-26.831777],[152.812965,-26.831056],[152.812695,-26.830689],[152.812441,-26.829953],[152.812536,-26.829204],[152.812774,-26.82854],[152.812743,-26.828243],[152.812521,-26.828059],[152.812299,-26.827946],[152.812029,-26.827932],[152.811521,-26.828074],[152.811109,-26.828158],[152.810808,-26.82813],[152.810348,-26.828003],[152.809428,-26.827621],[152.808921,-26.827466],[152.808477,-26.827381],[152.808128,-26.827239],[152.807176,-26.82666],[152.806701,-26.826235],[152.805638,-26.825217],[152.805258,-26.824878],[152.804956,-26.824751],[152.804354,-26.824751],[152.803481,-26.825189],[152.801658,-26.826646],[152.800571,-26.827061],[152.799281,-26.827054],[152.797581,-26.826962],[152.796773,-26.827169],[152.794887,-26.827211],[152.793872,-26.827451],[152.793459,-26.827508],[152.792182,-26.827416],[152.791915,-26.827268],[152.791746,-26.827069],[152.79154,-26.826461],[152.791442,-26.826399],[152.79116,-26.825966],[152.791112,-26.825457],[152.790811,-26.825005],[152.790351,-26.824722],[152.790002,-26.824524],[152.789336,-26.823987],[152.789003,-26.823775],[152.788878,-26.823588],[152.788395,-26.823271],[152.786733,-26.822264],[152.786534,-26.820885],[152.786525,-26.820819],[152.78647,-26.820364],[152.788503,-26.818064],[152.788744,-26.81572],[152.790032,-26.813231],[152.788606,-26.81297],[152.789367,-26.809628],[152.788654,-26.809636],[152.788067,-26.809975],[152.786783,-26.810923],[152.786005,-26.811234],[152.785181,-26.811545],[152.784673,-26.811729],[152.784277,-26.811729],[152.783944,-26.811644],[152.783531,-26.811488],[152.783246,-26.811234],[152.782929,-26.810894],[152.78258,-26.81064],[152.782374,-26.810555],[152.781914,-26.810385],[152.781248,-26.810173],[152.780534,-26.809905],[152.780154,-26.80982],[152.779694,-26.809834],[152.779361,-26.809933],[152.778996,-26.810032],[152.778631,-26.810074],[152.778251,-26.810004],[152.777775,-26.809806],[152.77718,-26.809515],[152.777255,-26.809402],[152.778417,-26.80303],[152.779492,-26.797128],[152.777491,-26.796645],[152.777259,-26.796377],[152.776456,-26.795544],[152.776044,-26.795679],[152.775869,-26.795735],[152.771027,-26.79595],[152.770561,-26.795795],[152.770583,-26.795646],[152.767973,-26.79385],[152.766916,-26.793324],[152.765654,-26.793154],[152.765075,-26.792795],[152.76459,-26.792839],[152.763468,-26.79227],[152.762257,-26.792628],[152.761096,-26.792363],[152.760569,-26.79534],[152.760492,-26.795514],[152.759183,-26.803051],[152.758621,-26.802845],[152.757158,-26.800356],[152.755651,-26.798995],[152.75458,-26.798793],[152.753075,-26.797353],[152.752225,-26.801772],[152.750808,-26.809216],[152.749585,-26.815718],[152.74948,-26.816297],[152.748599,-26.816443],[152.746776,-26.815116],[152.745739,-26.813803],[152.742361,-26.810598],[152.74212,-26.810159],[152.739875,-26.809803],[152.739903,-26.809582],[152.739886,-26.809272],[152.739819,-26.808899],[152.739678,-26.808522],[152.739512,-26.808206],[152.739364,-26.8081],[152.739172,-26.808027],[152.738789,-26.807999],[152.738344,-26.808015],[152.737893,-26.808053],[152.736985,-26.808051],[152.736707,-26.808034],[152.736503,-26.807984],[152.736356,-26.807905],[152.736158,-26.80775],[152.735941,-26.807644],[152.735713,-26.8076],[152.734731,-26.807598],[152.734335,-26.807531],[152.734064,-26.807458],[152.733823,-26.807391],[152.733619,-26.807302],[152.733666,-26.807488],[152.734943,-26.809432],[152.735165,-26.811254],[152.733796,-26.812828],[152.732962,-26.814956],[152.730839,-26.816127],[152.72907,-26.816629],[152.727467,-26.816047],[152.726385,-26.814194],[152.726783,-26.812295],[152.726628,-26.811472],[152.72448,-26.809481],[152.72304,-26.807264],[152.722229,-26.806815],[152.720916,-26.808219],[152.720987,-26.808562],[152.709435,-26.811113],[152.709138,-26.81113],[152.696447,-26.809128],[152.695516,-26.807916],[152.69812,-26.805555],[152.697991,-26.803373],[152.698792,-26.802982],[152.681382,-26.800238],[152.680279,-26.800045],[152.679214,-26.799877],[152.679546,-26.800714],[152.679975,-26.801629],[152.678054,-26.804352],[152.677909,-26.807012],[152.678769,-26.808782],[152.68101,-26.809081],[152.681316,-26.809944],[152.680452,-26.811214],[152.680689,-26.811916],[152.679471,-26.814271],[152.679429,-26.815221],[152.679024,-26.816434],[152.678558,-26.816744],[152.677838,-26.817173],[152.675961,-26.817985],[152.675143,-26.818337],[152.674599,-26.818281],[152.674176,-26.818198],[152.673692,-26.818088],[152.673087,-26.818114],[152.672633,-26.818331],[152.671966,-26.818928],[152.671812,-26.819798],[152.671841,-26.820287],[152.672021,-26.820777],[152.672232,-26.821159],[152.672503,-26.821513],[152.672774,-26.821758],[152.673137,-26.82195],[152.673772,-26.822033],[152.674467,-26.822007],[152.675691,-26.821652],[152.676866,-26.8212],[152.677579,-26.820937],[152.677806,-26.820914],[152.677949,-26.820956],[152.678153,-26.821108],[152.679075,-26.822189],[152.679179,-26.823102],[152.679007,-26.823103],[152.678705,-26.823137],[152.676375,-26.826042],[152.676762,-26.827142],[152.678491,-26.828661],[152.678456,-26.830408],[152.67678,-26.831608],[152.676139,-26.831357],[152.675264,-26.832693],[152.674405,-26.833284],[152.672708,-26.834286],[152.671579,-26.834253],[152.67068,-26.834941],[152.670072,-26.835118],[152.669138,-26.835243],[152.667269,-26.835858],[152.666534,-26.837465],[152.666429,-26.838544],[152.666475,-26.839476],[152.666907,-26.840654],[152.667536,-26.841297],[152.668029,-26.84229],[152.668367,-26.842988],[152.670947,-26.84494],[152.670834,-26.845],[152.669747,-26.847509],[152.669792,-26.847771],[152.669916,-26.848142],[152.670019,-26.848421],[152.670055,-26.848621],[152.670051,-26.848971],[152.670097,-26.849285],[152.670096,-26.849492],[152.670126,-26.849686],[152.67012,-26.849933],[152.670164,-26.850195],[152.670119,-26.850443],[152.669829,-26.850604],[152.669421,-26.850916],[152.669089,-26.851192],[152.668775,-26.851445],[152.668612,-26.851574],[152.668445,-26.85179],[152.668391,-26.851923],[152.668496,-26.852047],[152.668866,-26.852286],[152.669268,-26.852502],[152.669527,-26.852646],[152.669781,-26.852807],[152.669893,-26.852937],[152.670001,-26.853175],[152.670066,-26.853489],[152.670079,-26.853764],[152.670037,-26.854126],[152.669963,-26.854506],[152.670009,-26.854815],[152.670151,-26.855105],[152.670317,-26.855365],[152.670588,-26.855715],[152.67068,-26.855817],[152.670795,-26.856073],[152.67088,-26.856415],[152.67096,-26.856798],[152.67104,-26.856962],[152.671076,-26.857099],[152.671242,-26.857301],[152.671366,-26.857449],[152.671608,-26.857668],[152.671815,-26.857767],[152.67195,-26.857787],[152.672065,-26.857785],[152.672229,-26.857713],[152.672567,-26.857425],[152.672793,-26.857237],[152.673163,-26.856948],[152.673604,-26.856664],[152.673755,-26.856558],[152.673856,-26.856493],[152.674255,-26.856358],[152.674345,-26.856357],[152.674532,-26.856433],[152.674754,-26.856635],[152.675006,-26.85698],[152.675238,-26.857331],[152.675482,-26.857865],[152.675584,-26.858127],[152.675691,-26.858319],[152.675775,-26.858622],[152.675822,-26.858942],[152.675795,-26.859143],[152.675641,-26.859387],[152.675436,-26.859632],[152.675279,-26.860014],[152.675239,-26.860198],[152.675281,-26.860375],[152.675507,-26.860726],[152.675761,-26.860893],[152.676122,-26.861023],[152.676545,-26.861307],[152.676832,-26.861542],[152.677077,-26.861864],[152.677362,-26.862294],[152.677505,-26.862624],[152.677611,-26.863023],[152.677659,-26.86343],[152.677618,-26.863591],[152.67745,-26.863772],[152.677302,-26.863993],[152.677171,-26.864145],[152.677027,-26.864521],[152.676971,-26.864831],[152.676917,-26.864987],[152.676656,-26.865291],[152.676342,-26.865555],[152.676079,-26.865756],[152.675943,-26.865953],[152.675916,-26.866143],[152.676058,-26.866484],[152.676264,-26.86679],[152.676571,-26.86703],[152.676796,-26.867077],[152.676999,-26.867033],[152.677199,-26.867075],[152.677348,-26.867187],[152.677533,-26.867412],[152.677894,-26.867766],[152.678441,-26.86818],[152.679077,-26.868574],[152.679448,-26.868802],[152.679756,-26.869122],[152.68021,-26.869377],[152.680594,-26.869902],[152.680702,-26.870629],[152.681015,-26.871138],[152.681433,-26.871491],[152.68167,-26.871779],[152.681856,-26.872062],[152.68201,-26.872328],[152.682197,-26.872388],[152.682406,-26.87232],[152.682516,-26.872364],[152.682544,-26.872472],[152.682478,-26.872646],[152.68238,-26.872831],[152.682368,-26.873095],[152.682467,-26.873237],[152.682669,-26.873365],[152.682894,-26.873435],[152.683171,-26.873515],[152.683451,-26.873693],[152.68357,-26.873851],[152.68364,-26.874096],[152.683729,-26.874352],[152.683818,-26.87458],[152.683937,-26.874941],[152.684087,-26.875255],[152.684436,-26.875619],[152.684868,-26.875942],[152.685203,-26.876123],[152.685413,-26.876029],[152.685839,-26.875859],[152.686119,-26.875691],[152.686292,-26.875724],[152.686402,-26.875814],[152.68643,-26.876061],[152.68634,-26.876624],[152.686343,-26.876985],[152.68639,-26.877203],[152.686565,-26.877368],[152.686636,-26.877464],[152.686637,-26.877573],[152.686511,-26.877724],[152.686283,-26.877966],[152.685954,-26.878336],[152.685822,-26.87855],[152.685741,-26.878745],[152.685674,-26.879125],[152.685554,-26.879217],[152.685375,-26.87919],[152.685214,-26.879077],[152.684905,-26.878925],[152.684546,-26.878865],[152.684311,-26.878987],[152.684121,-26.879149],[152.68402,-26.879339],[152.684014,-26.879416],[152.684009,-26.879523],[152.68421,-26.879711],[152.684442,-26.879909],[152.6847,-26.880137],[152.6849,-26.880324],[152.685254,-26.880505],[152.685817,-26.880517],[152.686238,-26.880468],[152.68676,-26.880211],[152.68692,-26.880204],[152.687242,-26.880402],[152.687396,-26.880498],[152.687578,-26.880749],[152.687734,-26.881023],[152.687794,-26.881263],[152.687885,-26.88144],[152.687951,-26.881618],[152.687952,-26.881659],[152.687404,-26.88158],[152.687433,-26.884123],[152.687143,-26.884544],[152.68729,-26.886407],[152.687964,-26.887916],[152.688921,-26.888252],[152.689337,-26.888891],[152.689703,-26.890482],[152.689672,-26.890516],[152.689793,-26.89077],[152.689792,-26.891102],[152.689853,-26.891464],[152.689718,-26.891825],[152.689456,-26.892058],[152.689098,-26.892271],[152.688854,-26.892489],[152.688582,-26.8926],[152.688535,-26.892625],[152.68853,-26.893479],[152.688649,-26.894285],[152.688526,-26.89429],[152.688665,-26.894424],[152.688755,-26.894571],[152.688914,-26.894916],[152.689038,-26.895253],[152.689036,-26.895935],[152.688783,-26.896274],[152.688637,-26.896509],[152.688584,-26.896702],[152.688613,-26.896925],[152.688269,-26.896878],[152.687877,-26.896819],[152.687684,-26.896798],[152.678966,-26.895596],[152.67859,-26.897787],[152.667504,-26.896256],[152.667396,-26.896242],[152.667294,-26.896776],[152.667757,-26.898437],[152.667493,-26.899064],[152.667578,-26.899684],[152.667809,-26.900232],[152.667372,-26.902031],[152.66746,-26.902746],[152.667358,-26.904151],[152.667258,-26.904136],[152.667133,-26.904122],[152.666915,-26.905021],[152.666744,-26.905262],[152.666671,-26.905887],[152.666678,-26.906261],[152.666532,-26.906491],[152.666387,-26.906572],[152.666081,-26.906856],[152.665541,-26.907543],[152.665403,-26.90773],[152.665159,-26.907998],[152.664826,-26.908085],[152.664007,-26.908324],[152.663537,-26.908403],[152.662676,-26.908654],[152.662167,-26.908882],[152.661692,-26.909329],[152.661271,-26.909654],[152.66083,-26.909745],[152.660813,-26.90992],[152.66224,-26.910127],[152.687427,-26.913629],[152.687443,-26.913735],[152.686854,-26.914195],[152.686371,-26.914483],[152.685897,-26.914623],[152.685571,-26.914768],[152.684912,-26.914767],[152.684302,-26.914629],[152.683085,-26.914899],[152.682187,-26.915165],[152.681918,-26.915524],[152.682055,-26.916019],[152.682363,-26.916296],[152.682531,-26.916754],[152.682488,-26.917145],[152.682346,-26.917389],[152.681983,-26.917551],[152.681509,-26.91755],[152.68107,-26.91768],[152.680135,-26.918236],[152.679639,-26.918383],[152.678252,-26.918379],[152.677843,-26.918623],[152.677698,-26.919136],[152.677697,-26.919516],[152.67796,-26.919872],[152.678163,-26.919873],[152.678161,-26.920419],[152.677808,-26.920734],[152.677506,-26.920869],[152.677206,-26.921269],[152.676879,-26.921646],[152.676745,-26.921955],[152.676444,-26.922358],[152.676441,-26.923278],[152.676113,-26.923219],[152.67576,-26.92306],[152.675605,-26.92278],[152.674709,-26.922376],[152.674265,-26.922242],[152.673986,-26.922241],[152.673519,-26.92238],[152.673233,-26.922379],[152.67298,-26.922605],[152.672978,-26.923262],[152.673017,-26.923842],[152.671902,-26.925827],[152.67109,-26.926551],[152.670467,-26.926689],[152.669874,-26.927218],[152.669731,-26.927473],[152.669575,-26.928163],[152.669527,-26.928535],[152.669562,-26.928786],[152.669672,-26.928878],[152.669777,-26.92903],[152.669739,-26.929118],[152.669693,-26.9292],[152.669692,-26.929461],[152.66974,-26.929688],[152.669745,-26.929834],[152.669828,-26.929973],[152.669851,-26.930281],[152.669902,-26.930466],[152.669965,-26.930665],[152.669959,-26.930906],[152.669987,-26.930956],[152.670086,-26.931001],[152.670294,-26.931246],[152.670469,-26.931469],[152.670614,-26.931594],[152.670881,-26.931929],[152.670982,-26.932151],[152.671008,-26.93225],[152.671107,-26.932448],[152.671315,-26.932595],[152.671446,-26.932748],[152.671507,-26.932859],[152.671578,-26.932981],[152.671724,-26.933128],[152.671773,-26.933277],[152.671751,-26.933337],[152.671661,-26.933383],[152.671557,-26.93341],[152.671387,-26.933391],[152.671092,-26.933344],[152.671024,-26.933198],[152.670932,-26.933091],[152.670692,-26.933092],[152.67063,-26.933147],[152.670539,-26.933314],[152.67045,-26.933515],[152.670335,-26.933732],[152.670402,-26.933898],[152.670407,-26.93401],[152.670411,-26.934101],[152.670366,-26.934271],[152.670318,-26.934414],[152.670414,-26.934594],[152.670498,-26.93472],[152.670421,-26.934885],[152.670316,-26.93503],[152.670268,-26.935137],[152.670276,-26.935242],[152.670469,-26.935615],[152.670541,-26.935882],[152.670486,-26.936134],[152.670412,-26.93641],[152.670235,-26.936502],[152.670027,-26.936547],[152.670011,-26.936885],[152.670042,-26.937133],[152.670197,-26.937348],[152.670479,-26.937617],[152.670752,-26.937827],[152.67092,-26.938005],[152.67103,-26.938222],[152.670983,-26.938369],[152.67089,-26.938492],[152.670615,-26.938599],[152.670466,-26.938689],[152.669672,-26.938853],[152.669455,-26.938906],[152.669184,-26.938993],[152.668942,-26.939116],[152.668669,-26.939193],[152.66833,-26.939411],[152.668066,-26.939654],[152.667956,-26.939796],[152.667796,-26.939889],[152.667599,-26.940109],[152.667429,-26.940497],[152.667211,-26.941044],[152.667137,-26.941348],[152.667008,-26.941643],[152.666986,-26.941846],[152.666971,-26.942229],[152.666952,-26.942376],[152.666887,-26.94256],[152.666844,-26.94286],[152.666953,-26.943067],[152.667157,-26.943148],[152.667334,-26.943138],[152.667391,-26.943151],[152.667467,-26.943223],[152.667543,-26.943362],[152.667677,-26.943476],[152.667621,-26.943614],[152.667399,-26.943813],[152.666918,-26.944018],[152.666636,-26.943905],[152.666401,-26.943706],[152.666,-26.943321],[152.665663,-26.943011],[152.665365,-26.942833],[152.665067,-26.942813],[152.664727,-26.942878],[152.664463,-26.943004],[152.664218,-26.943209],[152.664043,-26.943461],[152.664029,-26.94377],[152.664252,-26.944029],[152.664469,-26.944245],[152.664595,-26.944498],[152.66467,-26.944751],[152.664638,-26.944847],[152.664423,-26.945071],[152.664136,-26.945342],[152.664012,-26.945532],[152.663947,-26.945807],[152.664048,-26.946252],[152.664152,-26.946552],[152.664202,-26.946816],[152.664185,-26.94704],[152.664081,-26.947308],[152.663787,-26.947498],[152.663657,-26.947418],[152.663563,-26.947186],[152.66341,-26.946889],[152.663218,-26.946731],[152.663133,-26.946478],[152.663133,-26.946279],[152.663103,-26.946075],[152.662788,-26.945862],[152.662455,-26.945812],[152.662238,-26.945969],[152.662141,-26.946156],[152.662214,-26.946427],[152.662475,-26.946617],[152.662797,-26.94687],[152.663032,-26.947199],[152.663101,-26.947541],[152.663072,-26.947855],[152.663103,-26.948044],[152.663073,-26.948173],[152.662842,-26.948359],[152.662561,-26.948508],[152.662319,-26.94868],[152.662138,-26.948902],[152.662016,-26.94914],[152.661858,-26.949254],[152.661677,-26.949222],[152.661443,-26.949009],[152.661319,-26.948829],[152.661137,-26.948703],[152.661042,-26.948632],[152.660999,-26.948411],[152.660824,-26.948173],[152.660564,-26.948008],[152.660231,-26.947887],[152.659926,-26.947921],[152.659648,-26.948046],[152.659534,-26.948307],[152.659488,-26.948532],[152.659677,-26.948929],[152.659696,-26.949185],[152.659657,-26.949434],[152.659502,-26.949673],[152.659119,-26.949878],[152.658844,-26.949847],[152.658622,-26.949709],[152.658243,-26.949392],[152.657936,-26.949185],[152.65762,-26.949103],[152.657281,-26.949111],[152.656964,-26.949061],[152.656779,-26.948952],[152.656627,-26.948789],[152.656597,-26.948651],[152.656606,-26.948448],[152.656463,-26.94835],[152.656446,-26.948156],[152.656311,-26.947903],[152.656087,-26.947769],[152.655805,-26.947769],[152.655314,-26.947954],[152.654796,-26.948184],[152.654375,-26.948344],[152.653944,-26.948565],[152.65358,-26.948774],[152.653266,-26.949052],[152.65281,-26.949744],[152.652229,-26.950778],[152.651905,-26.95164],[152.652056,-26.952189],[152.651966,-26.952732],[152.6519,-26.95325],[152.65177,-26.953824],[152.651576,-26.954284],[152.651189,-26.954743],[152.651264,-26.955333],[152.651455,-26.955201],[152.651873,-26.954947],[152.652268,-26.954732],[152.652882,-26.954498],[152.653649,-26.954244],[152.654132,-26.954127],[152.654592,-26.953991],[152.655666,-26.953856],[152.656302,-26.953817],[152.65685,-26.953818],[152.657266,-26.953858],[152.65755,-26.953918],[152.657725,-26.954055],[152.657769,-26.954173],[152.65779,-26.95431],[152.657855,-26.954585],[152.65792,-26.954958],[152.657831,-26.95533],[152.657588,-26.956055],[152.657587,-26.956212],[152.657696,-26.956369],[152.658025,-26.956448],[152.658288,-26.956429],[152.658463,-26.956449],[152.658638,-26.956489],[152.658857,-26.956568],[152.659076,-26.956686],[152.659382,-26.95698],[152.659731,-26.957236],[152.660082,-26.957393],[152.660344,-26.957472],[152.660695,-26.957512],[152.661133,-26.957513],[152.661505,-26.957592],[152.661812,-26.95773],[152.662139,-26.957985],[152.662511,-26.958241],[152.662883,-26.958556],[152.663255,-26.958693],[152.663627,-26.958733],[152.664022,-26.958734],[152.66446,-26.958676],[152.664723,-26.958559],[152.665009,-26.958363],[152.665228,-26.958187],[152.665558,-26.957835],[152.665734,-26.957737],[152.665931,-26.957757],[152.666347,-26.957895],[152.666675,-26.958052],[152.666893,-26.958249],[152.667177,-26.958543],[152.667724,-26.959074],[152.667985,-26.959623],[152.668071,-26.960075],[152.668136,-26.960428],[152.668112,-26.960859],[152.66809,-26.961016],[152.668002,-26.961075],[152.667849,-26.961055],[152.667696,-26.961015],[152.667433,-26.961074],[152.667213,-26.961211],[152.667015,-26.961504],[152.666883,-26.961857],[152.666816,-26.962112],[152.666815,-26.962367],[152.666771,-26.962602],[152.666638,-26.962818],[152.666462,-26.963171],[152.666373,-26.963465],[152.666285,-26.9637],[152.666087,-26.963857],[152.665868,-26.963876],[152.665605,-26.964032],[152.665385,-26.964385],[152.665186,-26.964816],[152.664966,-26.964972],[152.664792,-26.964894],[152.664726,-26.964756],[152.664508,-26.964697],[152.664339,-26.964671],[152.664048,-26.964715],[152.663675,-26.964754],[152.663324,-26.964949],[152.662731,-26.965399],[152.662599,-26.965654],[152.662532,-26.965987],[152.662553,-26.966242],[152.662618,-26.966439],[152.662725,-26.966565],[152.662771,-26.966616],[152.662968,-26.966694],[152.663318,-26.966636],[152.664347,-26.966717],[152.664522,-26.966796],[152.664477,-26.96709],[152.664298,-26.967973],[152.664363,-26.968405],[152.664514,-26.968817],[152.664754,-26.969053],[152.665082,-26.969132],[152.66556,-26.969039],[152.665757,-26.969002],[152.665937,-26.968977],[152.666222,-26.968723],[152.66642,-26.968508],[152.666684,-26.968351],[152.667004,-26.968074],[152.667324,-26.967824],[152.668207,-26.967038],[152.668748,-26.966708],[152.669318,-26.966375],[152.669581,-26.966356],[152.669822,-26.966396],[152.670041,-26.966338],[152.670282,-26.966142],[152.670414,-26.965986],[152.670568,-26.965888],[152.670787,-26.965869],[152.671006,-26.965771],[152.67116,-26.965536],[152.671292,-26.965379],[152.671446,-26.965262],[152.67173,-26.965361],[152.672123,-26.965636],[152.672779,-26.965952],[152.673348,-26.966149],[152.673807,-26.966248],[152.674136,-26.966249],[152.674443,-26.966112],[152.674815,-26.965995],[152.6751,-26.965937],[152.675472,-26.965899],[152.675888,-26.965959],[152.676238,-26.966057],[152.676742,-26.966078],[152.677289,-26.965962],[152.67764,-26.965766],[152.678629,-26.964827],[152.679024,-26.964533],[152.679397,-26.964377],[152.679835,-26.964221],[152.680208,-26.964143],[152.680689,-26.964164],[152.682527,-26.964502],[152.682921,-26.964522],[152.683424,-26.96468],[152.683905,-26.964956],[152.684976,-26.965488],[152.685194,-26.965724],[152.685302,-26.966038],[152.685062,-26.965998],[152.684777,-26.966017],[152.684668,-26.966017],[152.684557,-26.966233],[152.684491,-26.966409],[152.684315,-26.966585],[152.684096,-26.966761],[152.684095,-26.967017],[152.684509,-26.967429],[152.684662,-26.967685],[152.684639,-26.96792],[152.684551,-26.968156],[152.684396,-26.968508],[152.683731,-26.969067],[152.683135,-26.969249],[152.68262,-26.96941],[152.682211,-26.969576],[152.681777,-26.970193],[152.681521,-26.970562],[152.681169,-26.970915],[152.680685,-26.971443],[152.680333,-26.971953],[152.680332,-26.972188],[152.680375,-26.972424],[152.680681,-26.97268],[152.681009,-26.972798],[152.681249,-26.973093],[152.681226,-26.973309],[152.68116,-26.973524],[152.681079,-26.973901],[152.681026,-26.974171],[152.681091,-26.974387],[152.681265,-26.974584],[152.681374,-26.974722],[152.681439,-26.974918],[152.681373,-26.975114],[152.681263,-26.97531],[152.680955,-26.975545],[152.680692,-26.975799],[152.680384,-26.976191],[152.680142,-26.976544],[152.680009,-26.976857],[152.679745,-26.977269],[152.6797,-26.977563],[152.679852,-26.978376],[152.680108,-26.978763],[152.680749,-26.979529],[152.68105,-26.979822],[152.681585,-26.980173],[152.681925,-26.980357],[152.682239,-26.980469],[152.682828,-26.980555],[152.683085,-26.98061],[152.683733,-26.980375],[152.68415,-26.98007],[152.684782,-26.97997],[152.685193,-26.979964],[152.685459,-26.979799],[152.685693,-26.979577],[152.685913,-26.979342],[152.686012,-26.979106],[152.686197,-26.978905],[152.68651,-26.978788],[152.686699,-26.978924],[152.686819,-26.9791],[152.686766,-26.979619],[152.686786,-26.980051],[152.68685,-26.980297],[152.68686,-26.980944],[152.686968,-26.981351],[152.686872,-26.981788],[152.686788,-26.982039],[152.686772,-26.98233],[152.686793,-26.982581],[152.686644,-26.982974],[152.686511,-26.983405],[152.686335,-26.983817],[152.686202,-26.984091],[152.686158,-26.984307],[152.686201,-26.984542],[152.686332,-26.9847],[152.686485,-26.984759],[152.686791,-26.984701],[152.687011,-26.984642],[152.68747,-26.984683],[152.687733,-26.984663],[152.688193,-26.984547],[152.688632,-26.984391],[152.688939,-26.984332],[152.689157,-26.984411],[152.689266,-26.984549],[152.689222,-26.984706],[152.688957,-26.985471],[152.688383,-26.986823],[152.688205,-26.987372],[152.688008,-26.987529],[152.687789,-26.987567],[152.687526,-26.987508],[152.68722,-26.987409],[152.686957,-26.987311],[152.686651,-26.987173],[152.686324,-26.986956],[152.686018,-26.98672],[152.685734,-26.986582],[152.685405,-26.986581],[152.685142,-26.986718],[152.684834,-26.986992],[152.684735,-26.987189],[152.684587,-26.987391],[152.68451,-26.987663],[152.684508,-26.988004],[152.684659,-26.98855],[152.684658,-26.988823],[152.684733,-26.989164],[152.684884,-26.989437],[152.685034,-26.989983],[152.684957,-26.990256],[152.684805,-26.990392],[152.684424,-26.990391],[152.683815,-26.990526],[152.683585,-26.990935],[152.68343,-26.991616],[152.683276,-26.992162],[152.683351,-26.992435],[152.68335,-26.992776],[152.683425,-26.99298],[152.683577,-26.993185],[152.683652,-26.99339],[152.683727,-26.993663],[152.683879,-26.9938],[152.684031,-26.994005],[152.684259,-26.994073],[152.68441,-26.994278],[152.684561,-26.994551],[152.684561,-26.994688],[152.684712,-26.994961],[152.685015,-26.995371],[152.685091,-26.995507],[152.685166,-26.995712],[152.685242,-26.995849],[152.68547,-26.995986],[152.685622,-26.996122],[152.68585,-26.996259],[152.686077,-26.996464],[152.686381,-26.996533],[152.68661,-26.996602],[152.686762,-26.99667],[152.686989,-26.996807],[152.687141,-26.996944],[152.687444,-26.99749],[152.687519,-26.997763],[152.687518,-26.997968],[152.687609,-26.998234],[152.687883,-26.998556],[152.688021,-26.998581],[152.68813,-26.998655],[152.688268,-26.998729],[152.688378,-26.998828],[152.688597,-26.999075],[152.688596,-26.999322],[152.68854,-26.999618],[152.68854,-26.999816],[152.688567,-26.999988],[152.688621,-27.000112],[152.688676,-27.000309],[152.688703,-27.000458],[152.688757,-27.00063],[152.688811,-27.000927],[152.688838,-27.001026],[152.688897,-27.001162],[152.688973,-27.00123],[152.689276,-27.00164],[152.689504,-27.001913],[152.68958,-27.002025],[152.689769,-27.002357],[152.690224,-27.002767],[152.690375,-27.003041],[152.690603,-27.003382],[152.690753,-27.003792],[152.690828,-27.004133],[152.691055,-27.004542],[152.69151,-27.005089],[152.691738,-27.005294],[152.691871,-27.005362],[152.691985,-27.005465],[152.692422,-27.005755],[152.693058,-27.005929],[152.693224,-27.006008],[152.69369,-27.006223],[152.694026,-27.006538],[152.694311,-27.006743],[152.694482,-27.006794],[152.694596,-27.006846],[152.694766,-27.007009],[152.695336,-27.007563],[152.696134,-27.00828],[152.696533,-27.008588],[152.696709,-27.008746],[152.696988,-27.009151],[152.697044,-27.009509],[152.696872,-27.009867],[152.6967,-27.010122],[152.696585,-27.010224],[152.695714,-27.01063],[152.695741,-27.010678],[152.695735,-27.010727],[152.695593,-27.010751],[152.695388,-27.010828],[152.694974,-27.011106],[152.694688,-27.011215],[152.694434,-27.011343],[152.694352,-27.011409],[152.69432,-27.011408],[152.69401,-27.011583],[152.693879,-27.011686],[152.693728,-27.011759],[152.693444,-27.011982],[152.693096,-27.012214],[152.692763,-27.012456],[152.692685,-27.012559],[152.692609,-27.012793],[152.69259,-27.013103],[152.692667,-27.013369],[152.692712,-27.013471],[152.692834,-27.013616],[152.693014,-27.013723],[152.693195,-27.013831],[152.693533,-27.014003],[152.693943,-27.014164],[152.694275,-27.014363],[152.694444,-27.014379],[152.694547,-27.014395],[152.69468,-27.014354],[152.694803,-27.014304],[152.695168,-27.014207],[152.695294,-27.014152],[152.695364,-27.014087],[152.695366,-27.01401],[152.695442,-27.013954],[152.695582,-27.013919],[152.695707,-27.013841],[152.695824,-27.0137],[152.695971,-27.013574],[152.696085,-27.013499],[152.696262,-27.01347],[152.696433,-27.013474],[152.696561,-27.013506],[152.696782,-27.013602],[152.696922,-27.013725],[152.697012,-27.013861],[152.697082,-27.014121],[152.697046,-27.014342],[152.69705,-27.014519],[152.697031,-27.014621],[152.696973,-27.014724],[152.696972,-27.01503],[152.697028,-27.015388],[152.697085,-27.015644],[152.697289,-27.016062],[152.697843,-27.016588],[152.698459,-27.016976],[152.699292,-27.017254],[152.700186,-27.01767],[152.700586,-27.017975],[152.700802,-27.018279],[152.700832,-27.018583],[152.700831,-27.018943],[152.700706,-27.01944],[152.70055,-27.019854],[152.700519,-27.020075],[152.700492,-27.020712],[152.700486,-27.020876],[152.700424,-27.021125],[152.700331,-27.021345],[152.700176,-27.021621],[152.700083,-27.021842],[152.700051,-27.022063],[152.700051,-27.022257],[152.70009,-27.022402],[152.700235,-27.022727],[152.700451,-27.022838],[152.700667,-27.022921],[152.700914,-27.023032],[152.701253,-27.023226],[152.701654,-27.023475],[152.702517,-27.023919],[152.703134,-27.024252],[152.703503,-27.024805],[152.703379,-27.025136],[152.703007,-27.025578],[152.702389,-27.025908],[152.701894,-27.026238],[152.701523,-27.026459],[152.701522,-27.026901],[152.701769,-27.027343],[152.702262,-27.027565],[152.702755,-27.027898],[152.703125,-27.028341],[152.703247,-27.028783],[152.703123,-27.029225],[152.702875,-27.029556],[152.702628,-27.029776],[152.702473,-27.030025],[152.702442,-27.030163],[152.702441,-27.030384],[152.702472,-27.030577],[152.702502,-27.030798],[152.70244,-27.030936],[152.702316,-27.031046],[152.701791,-27.031377],[152.700431,-27.031706],[152.699073,-27.031593],[152.698455,-27.031702],[152.698207,-27.032033],[152.698083,-27.032475],[152.697835,-27.032916],[152.697463,-27.033468],[152.697308,-27.034032],[152.697399,-27.034529],[152.69746,-27.034971],[152.697458,-27.035772],[152.697393,-27.037402],[152.697545,-27.038093],[152.69773,-27.038619],[152.697872,-27.039265],[152.698005,-27.039531],[152.697986,-27.039623],[152.697912,-27.039696],[152.697789,-27.039807],[152.697665,-27.039945],[152.697479,-27.040082],[152.697276,-27.040262],[152.697108,-27.040358],[152.69686,-27.040634],[152.696767,-27.040772],[152.696736,-27.040965],[152.696797,-27.041241],[152.696861,-27.041301],[152.69726,-27.041463],[152.697538,-27.041519],[152.697785,-27.041658],[152.697908,-27.041741],[152.698185,-27.042045],[152.698216,-27.042211],[152.698184,-27.042321],[152.698092,-27.042377],[152.697968,-27.042432],[152.697752,-27.042404],[152.697289,-27.042237],[152.697011,-27.042209],[152.696548,-27.04218],[152.69627,-27.042235],[152.696023,-27.042317],[152.695837,-27.042427],[152.695621,-27.04262],[152.695342,-27.042896],[152.695033,-27.043227],[152.694754,-27.043586],[152.694568,-27.043862],[152.694475,-27.044091],[152.69454,-27.044423],[152.694483,-27.044625],[152.694398,-27.04471],[152.694257,-27.0448],[152.693263,-27.044948],[152.693108,-27.045002],[152.693046,-27.045113],[152.693015,-27.045389],[152.693045,-27.0455],[152.693014,-27.045859],[152.692951,-27.046107],[152.692735,-27.046328],[152.692305,-27.046696],[152.69166,-27.046883],[152.690636,-27.047048],[152.689767,-27.047676],[152.689303,-27.048117],[152.689148,-27.048282],[152.689085,-27.048586],[152.689022,-27.049277],[152.689205,-27.050244],[152.689265,-27.051018],[152.689296,-27.0511],[152.689388,-27.051184],[152.68948,-27.05146],[152.689542,-27.051571],[152.689943,-27.05171],[152.690035,-27.05182],[152.690066,-27.051958],[152.690189,-27.052261],[152.690713,-27.052733],[152.690866,-27.053065],[152.690865,-27.053397],[152.690803,-27.053673],[152.69071,-27.053811],[152.690308,-27.054086],[152.689875,-27.054279],[152.689566,-27.054471],[152.689318,-27.05472],[152.689194,-27.054913],[152.689225,-27.055051],[152.689348,-27.055189],[152.689687,-27.055356],[152.690089,-27.055522],[152.690428,-27.055606],[152.690706,-27.055689],[152.691107,-27.055856],[152.691292,-27.055912],[152.691415,-27.055967],[152.69228,-27.055969],[152.692496,-27.056052],[152.69265,-27.056273],[152.692679,-27.056414],[152.692711,-27.056522],[152.692618,-27.056798],[152.692556,-27.057074],[152.692524,-27.057295],[152.692616,-27.057517],[152.692771,-27.0576],[152.692925,-27.057572],[152.69308,-27.057407],[152.693235,-27.057297],[152.693389,-27.057159],[152.694224,-27.056608],[152.69438,-27.055973],[152.694474,-27.055697],[152.694597,-27.055587],[152.694721,-27.055559],[152.694814,-27.055559],[152.694906,-27.055587],[152.694937,-27.055642],[152.69543,-27.056251],[152.695706,-27.056832],[152.695798,-27.057302],[152.695797,-27.057578],[152.695704,-27.057799],[152.695072,-27.058468],[152.695055,-27.058606],[152.695037,-27.058733],[152.695152,-27.059037],[152.677677,-27.056959],[152.677705,-27.057359],[152.677719,-27.05745],[152.676838,-27.057614],[152.674203,-27.057608],[152.672766,-27.057819],[152.671328,-27.057816],[152.67013,-27.058027],[152.66983,-27.058188],[152.669527,-27.058351],[152.669834,-27.05855],[152.670176,-27.058857],[152.670517,-27.059011],[152.67094,-27.059339],[152.671297,-27.060305],[152.672013,-27.061272],[152.67273,-27.061917],[152.673806,-27.062563],[152.674882,-27.063209],[152.676317,-27.063856],[152.678113,-27.064181],[152.678831,-27.064183],[152.679549,-27.064828],[152.680625,-27.065474],[152.68242,-27.0658],[152.683881,-27.066417],[152.684228,-27.067286],[152.684582,-27.069153],[152.685423,-27.070592],[152.685619,-27.072009],[152.685016,-27.072834],[152.68399,-27.074711],[152.684605,-27.075884],[152.685667,-27.076568],[152.686021,-27.077857],[152.686077,-27.078822],[152.686704,-27.080934],[152.687083,-27.081657],[152.687116,-27.082375],[152.686905,-27.08333],[152.68606,-27.083614],[152.685658,-27.083885],[152.684734,-27.08475],[152.683725,-27.085268],[152.682253,-27.086086],[152.680678,-27.086518],[152.6793,-27.086745],[152.678243,-27.087026],[152.677122,-27.08746],[152.676465,-27.088054],[152.676241,-27.088482],[152.676139,-27.089025],[152.676505,-27.089991],[152.677135,-27.090901],[152.677876,-27.091768],[152.678458,-27.092911],[152.678829,-27.094122],[152.679315,-27.094771],[152.679988,-27.095038],[152.681072,-27.095326],[152.682141,-27.095338],[152.683332,-27.095152],[152.685152,-27.094468],[152.686137,-27.093978],[152.686991,-27.093345],[152.688378,-27.092982],[152.689753,-27.092795],[152.690929,-27.093145],[152.692149,-27.093497],[152.693424,-27.09398],[152.694852,-27.09445],[152.695806,-27.094877],[152.696982,-27.094924],[152.697921,-27.09494],[152.699363,-27.094727],[152.700879,-27.094693],[152.702093,-27.09481],[152.70376,-27.095096],[152.704848,-27.095315],[152.705964,-27.09575],[152.70691,-27.095991],[152.707961,-27.096277],[152.709037,-27.096837],[152.709995,-27.097372],[152.710532,-27.097736],[152.710839,-27.097843],[152.711097,-27.097866],[152.711365,-27.097795],[152.711777,-27.097829],[152.711839,-27.098267],[152.711782,-27.098704],[152.711867,-27.098844],[152.711995,-27.098927],[152.712067,-27.098913],[152.712551,-27.09846],[152.712746,-27.098891],[152.712788,-27.098916],[152.713059,-27.098866],[152.713722,-27.098978],[152.714126,-27.099256],[152.715056,-27.099991],[152.718303,-27.100385],[152.718064,-27.102224],[152.726207,-27.103222],[152.726487,-27.101383],[152.734461,-27.102345],[152.733514,-27.107431],[152.734542,-27.107132],[152.735485,-27.107196],[152.736633,-27.106742],[152.738175,-27.107368],[152.740044,-27.106195],[152.741615,-27.106166],[152.74232,-27.10751],[152.750532,-27.108748],[152.750955,-27.108799],[152.76097,-27.110262],[152.763979,-27.110677],[152.765358,-27.110865],[152.765632,-27.10928],[152.76611,-27.106431],[152.766858,-27.102155],[152.77381,-27.103213],[152.780251,-27.104155],[152.781281,-27.098662],[152.781864,-27.095564],[152.781962,-27.095577],[152.783222,-27.088403],[152.783544,-27.086482],[152.78357,-27.086421],[152.783971,-27.086267],[152.784044,-27.086456],[152.784054,-27.086722],[152.784173,-27.086868],[152.784369,-27.087056],[152.784553,-27.087178],[152.784741,-27.08732],[152.784983,-27.087638],[152.785209,-27.0879],[152.785344,-27.087976],[152.785512,-27.088205],[152.78563,-27.088314],[152.785848,-27.088389],[152.786574,-27.088645],[152.786893,-27.088786],[152.787319,-27.08899],[152.787665,-27.089073],[152.787907,-27.089177],[152.788191,-27.089215],[152.788371,-27.089287],[152.788461,-27.089437],[152.788461,-27.089715],[152.788384,-27.089846],[152.788245,-27.090132],[152.788205,-27.09041],[152.788287,-27.090618],[152.788373,-27.090884],[152.78852,-27.091065],[152.788684,-27.091161],[152.788994,-27.091266],[152.789091,-27.091213],[152.789416,-27.091018],[152.789907,-27.090785],[152.790101,-27.09072],[152.790528,-27.09042],[152.790781,-27.090261],[152.790959,-27.090218],[152.791103,-27.090255],[152.79117,-27.090362],[152.791003,-27.090442],[152.790991,-27.090545],[152.790731,-27.091104],[152.790731,-27.09119],[152.790828,-27.091449],[152.791021,-27.091592],[152.791227,-27.09181],[152.791311,-27.091907],[152.791313,-27.092338],[152.791217,-27.092425],[152.791237,-27.092476],[152.791378,-27.092493],[152.791596,-27.092642],[152.791692,-27.092586],[152.791712,-27.092565],[152.791794,-27.092406],[152.791938,-27.092331],[152.792182,-27.092079],[152.792475,-27.09221],[152.792521,-27.092284],[152.792561,-27.092382],[152.792606,-27.092538],[152.792598,-27.092768],[152.792575,-27.092836],[152.792466,-27.09305],[152.792314,-27.093471],[152.792283,-27.093518],[152.792104,-27.093689],[152.791896,-27.093973],[152.791844,-27.094188],[152.791845,-27.094308],[152.791871,-27.094405],[152.791949,-27.094478],[152.792028,-27.094527],[152.792237,-27.094601],[152.792471,-27.094604],[152.79268,-27.094551],[152.792758,-27.094456],[152.79281,-27.094336],[152.792809,-27.094088],[152.792835,-27.093968],[152.792887,-27.093849],[152.792913,-27.093729],[152.792991,-27.093634],[152.793069,-27.093563],[152.793199,-27.093476],[152.79333,-27.09343],[152.793417,-27.093383],[152.793521,-27.09336],[152.793669,-27.093386],[152.793825,-27.093436],[152.79393,-27.093485],[152.794139,-27.093608],[152.794357,-27.093762],[152.794539,-27.093861],[152.794757,-27.093911],[152.7953,-27.093915],[152.795438,-27.093942],[152.795559,-27.093985],[152.795641,-27.094053],[152.795686,-27.094136],[152.795677,-27.094228],[152.795449,-27.094719],[152.795439,-27.094815],[152.795447,-27.094912],[152.795527,-27.095081],[152.795741,-27.095293],[152.795824,-27.095425],[152.795896,-27.095505],[152.795977,-27.095554],[152.79606,-27.095578],[152.796169,-27.095562],[152.796259,-27.095514],[152.796627,-27.095251],[152.79672,-27.095216],[152.796825,-27.095204],[152.796904,-27.095204],[152.796983,-27.095216],[152.797048,-27.095263],[152.797144,-27.095396],[152.797208,-27.095514],[152.797273,-27.09569],[152.797376,-27.09593],[152.797428,-27.096012],[152.797458,-27.096082],[152.797562,-27.096224],[152.797666,-27.096306],[152.797837,-27.096377],[152.798074,-27.096424],[152.798192,-27.096424],[152.799088,-27.096339],[152.799463,-27.096342],[152.799704,-27.096378],[152.799937,-27.0965],[152.800015,-27.096623],[152.80013,-27.09692],[152.800226,-27.097077],[152.800419,-27.097346],[152.800536,-27.097451],[152.800633,-27.097503],[152.800809,-27.097538],[152.800927,-27.097539],[152.801104,-27.097469],[152.801163,-27.097416],[152.801243,-27.097259],[152.801283,-27.097084],[152.801363,-27.096945],[152.8016,-27.096729],[152.801738,-27.096555],[152.801805,-27.096357],[152.801905,-27.096164],[152.802043,-27.096007],[152.802122,-27.095937],[152.802201,-27.095885],[152.802443,-27.095815],[152.802639,-27.095781],[152.802757,-27.095781],[152.802855,-27.095763],[152.803031,-27.095694],[152.80311,-27.095641],[152.803189,-27.095571],[152.80332,-27.0954],[152.803429,-27.095221],[152.803525,-27.094942],[152.803566,-27.094847],[152.80362,-27.094763],[152.80389,-27.094477],[152.804025,-27.094369],[152.804105,-27.094334],[152.804186,-27.09431],[152.804332,-27.094334],[152.804413,-27.094358],[152.804723,-27.094549],[152.804994,-27.094633],[152.805119,-27.094645],[152.805226,-27.094633],[152.805347,-27.094586],[152.805428,-27.094502],[152.805469,-27.094419],[152.805496,-27.094335],[152.80551,-27.09424],[152.805498,-27.094132],[152.805472,-27.094037],[152.805393,-27.093941],[152.805313,-27.093869],[152.805013,-27.093725],[152.804843,-27.09357],[152.804777,-27.093498],[152.80468,-27.093315],[152.804668,-27.09322],[152.804696,-27.093076],[152.804771,-27.092951],[152.804913,-27.092815],[152.805002,-27.092698],[152.805117,-27.092532],[152.805091,-27.092469],[152.805217,-27.091895],[152.805697,-27.088822],[152.811816,-27.089554],[152.81431,-27.089853],[152.813972,-27.091733],[152.817757,-27.092249],[152.81735,-27.094535],[152.816861,-27.097231],[152.816746,-27.097215],[152.81227,-27.096571],[152.811877,-27.098983],[152.807884,-27.098681],[152.807691,-27.098673],[152.806461,-27.09895],[152.806151,-27.099204],[152.806397,-27.099232],[152.808631,-27.099506],[152.807769,-27.105029],[152.807294,-27.108099],[152.82021,-27.110088],[152.820172,-27.110286],[152.819437,-27.113969],[152.824425,-27.114752],[152.824564,-27.114886],[152.824601,-27.114911],[152.824634,-27.114926],[152.824671,-27.11494],[152.824764,-27.114965],[152.824806,-27.114972],[152.824982,-27.114985],[152.825132,-27.115048],[152.82514,-27.115053],[152.825178,-27.115068],[152.825229,-27.115075],[152.825271,-27.115075],[152.825318,-27.115072],[152.825372,-27.115065],[152.825487,-27.115066],[152.825571,-27.115073],[152.825609,-27.115084],[152.82566,-27.1151],[152.82574,-27.115137],[152.825782,-27.115159],[152.82582,-27.115185],[152.826066,-27.115395],[152.826112,-27.115437],[152.826141,-27.115465],[152.826175,-27.115488],[152.826213,-27.115506],[152.826256,-27.115528],[152.826337,-27.115564],[152.826422,-27.115596],[152.826465,-27.11561],[152.826557,-27.11563],[152.826656,-27.115648],[152.826706,-27.115654],[152.826747,-27.11566],[152.826794,-27.115664],[152.826832,-27.115661],[152.826927,-27.115649],[152.827089,-27.115617],[152.827125,-27.115593],[152.827164,-27.11556],[152.827193,-27.115537],[152.827337,-27.115483],[152.827517,-27.115512],[152.827546,-27.115518],[152.827567,-27.11552],[152.827697,-27.115496],[152.827811,-27.115492],[152.827924,-27.115525],[152.827991,-27.115525],[152.82825,-27.115556],[152.828441,-27.115644],[152.828484,-27.115681],[152.82858,-27.115698],[152.828589,-27.115686],[152.828659,-27.1157],[152.82869,-27.115705],[152.828748,-27.115718],[152.828791,-27.115743],[152.82883,-27.115759],[152.828842,-27.115765],[152.828929,-27.115855],[152.82878,-27.116639],[152.827915,-27.12128],[152.830345,-27.121644],[152.828644,-27.130746],[152.829364,-27.130883],[152.830287,-27.131259],[152.833837,-27.130839],[152.834786,-27.130446],[152.836475,-27.130808],[152.835919,-27.132695],[152.837712,-27.13399],[152.839578,-27.136566],[152.84261,-27.135847],[152.847263,-27.138682],[152.84977,-27.139156],[152.851059,-27.139664],[152.849613,-27.14776],[152.84831,-27.15438],[152.84832,-27.154466],[152.849537,-27.154328],[152.851011,-27.154623],[152.851974,-27.153769],[152.852913,-27.153519],[152.854162,-27.152729],[152.853971,-27.153942],[152.857616,-27.154395],[152.855088,-27.169994],[152.854743,-27.170149],[152.854332,-27.170037],[152.853458,-27.169226],[152.853106,-27.169057],[152.852474,-27.168996],[152.85232,-27.168956],[152.852465,-27.168465],[152.852384,-27.167965],[152.851985,-27.167435],[152.851753,-27.167425],[152.847117,-27.166639],[152.845958,-27.17218],[152.845654,-27.175004],[152.845097,-27.178927],[152.844535,-27.182806],[152.845001,-27.182903],[152.845291,-27.182904],[152.848953,-27.183381],[152.852054,-27.183804],[152.853081,-27.183948],[152.853701,-27.180277],[152.857583,-27.180944],[152.857435,-27.181638],[152.863477,-27.182449],[152.862381,-27.189422],[152.873792,-27.19137],[152.874036,-27.191407],[152.882902,-27.192773],[152.883844,-27.192919],[152.886556,-27.193335],[152.887349,-27.189182],[152.892178,-27.18985],[152.893387,-27.190018],[152.895381,-27.190295],[152.897285,-27.190562],[152.9023,-27.191263],[152.902499,-27.190157],[152.903811,-27.190329],[152.903861,-27.19023],[152.906418,-27.190588],[152.905788,-27.193212],[152.905871,-27.193727],[152.905879,-27.193754],[152.906049,-27.19378],[152.906383,-27.193826],[152.907974,-27.19405],[152.912377,-27.194654],[152.913475,-27.194808],[152.917,-27.195296],[152.917205,-27.195322],[152.917292,-27.194998],[152.917664,-27.19365],[152.918102,-27.193722],[152.930525,-27.195485],[152.931897,-27.195681],[152.940051,-27.196844],[152.942436,-27.19718],[152.942769,-27.197226],[152.944184,-27.197426],[152.945766,-27.197649],[152.945647,-27.198339],[152.945276,-27.200478],[152.944639,-27.204148],[152.948015,-27.20463],[152.951052,-27.205063],[152.951129,-27.204969],[152.952476,-27.205143],[152.953739,-27.205308],[152.954491,-27.205402],[152.955086,-27.205495],[152.955159,-27.205512],[152.955244,-27.205519],[152.95757,-27.204486],[152.958026,-27.204283],[152.958387,-27.204125],[152.9585,-27.204125],[152.959891,-27.205316],[152.960033,-27.205438],[152.959887,-27.205602],[152.959759,-27.206298],[152.959441,-27.206254],[152.958912,-27.209096],[152.960215,-27.209295],[152.96042,-27.208222],[152.960794,-27.206236],[152.960951,-27.206273],[152.962507,-27.204863],[152.962625,-27.204719],[152.962659,-27.204757],[152.962978,-27.205153],[152.963333,-27.205622],[152.963779,-27.206213],[152.964884,-27.207762],[152.965087,-27.208077],[152.965296,-27.208546],[152.965506,-27.209342],[152.965558,-27.209951],[152.965537,-27.210342],[152.965519,-27.210794],[152.965505,-27.211028],[152.965557,-27.212057],[152.965767,-27.212947],[152.965924,-27.213275],[152.966249,-27.214077],[152.966909,-27.214995],[152.967091,-27.215163],[152.96764,-27.215675],[152.968382,-27.216592],[152.968777,-27.217095],[152.969036,-27.217479],[152.969283,-27.217874],[152.969542,-27.218307],[152.969777,-27.218776],[152.969974,-27.219282],[152.970244,-27.220017],[152.970503,-27.220784],[152.970713,-27.221353],[152.970946,-27.221842],[152.971218,-27.222288],[152.971526,-27.222708],[152.971909,-27.223178],[152.972316,-27.22366],[152.97335,-27.224952],[152.973622,-27.225373],[152.974064,-27.226083],[152.974733,-27.227486],[152.974875,-27.227888],[152.975044,-27.228371],[152.975159,-27.228699],[152.975852,-27.230867],[152.975993,-27.231259],[152.976133,-27.231651],[152.976753,-27.233465],[152.97685,-27.234024],[152.976882,-27.234363],[152.976887,-27.234413],[152.976887,-27.234856],[152.976838,-27.235415],[152.97623,-27.238453],[152.975959,-27.239808],[152.975842,-27.2404],[152.975717,-27.241023],[152.975616,-27.241526],[152.975542,-27.241817],[152.975471,-27.242415],[152.975439,-27.243411],[152.975856,-27.243424],[152.97785,-27.243713],[152.978609,-27.243808],[152.979785,-27.243994],[152.981429,-27.244232],[152.981723,-27.244274],[152.983245,-27.244491],[152.985269,-27.24476],[152.985698,-27.244788],[152.987479,-27.245063],[152.98793,-27.245133],[152.988281,-27.245191],[152.988976,-27.245305],[152.989357,-27.245368],[152.989809,-27.245431],[152.990111,-27.245477],[152.990397,-27.245513],[152.990858,-27.245579],[152.99186,-27.245705],[152.992007,-27.245721],[152.992017,-27.245596],[152.992097,-27.244856],[152.992161,-27.244383],[152.992224,-27.243909],[152.992285,-27.243436],[152.992348,-27.242962],[152.992409,-27.242517],[152.992414,-27.242458],[152.992536,-27.241373],[152.992652,-27.240485],[152.994293,-27.240698],[152.996177,-27.24056],[152.996288,-27.240552],[152.996399,-27.240452],[152.997749,-27.240369],[152.998686,-27.240503],[152.998733,-27.240234],[152.998837,-27.240254],[152.998933,-27.240262],[152.998822,-27.240902],[152.998791,-27.241091],[152.998918,-27.241127],[152.999022,-27.241119],[152.9992,-27.241059],[152.999312,-27.241034],[152.999468,-27.241004],[152.999557,-27.240996],[152.999625,-27.241031],[152.999712,-27.241096],[152.999788,-27.241199],[152.999864,-27.241249],[153.000039,-27.241312],[153.000164,-27.241366],[153.000367,-27.241519],[153.000481,-27.241547],[153.000561,-27.24157],[153.000734,-27.241652],[153.000955,-27.241762],[153.001197,-27.241721],[153.001312,-27.241687],[153.001418,-27.241814],[153.001605,-27.241957],[153.001831,-27.242005],[153.001907,-27.242004],[153.002136,-27.241875],[153.002302,-27.241922],[153.002481,-27.242055],[153.002544,-27.242092],[153.002853,-27.242133],[153.003057,-27.242133],[153.003155,-27.24206],[153.003532,-27.242084],[153.003651,-27.242046],[153.004039,-27.241938],[153.004302,-27.241916],[153.004629,-27.241878],[153.004956,-27.24188],[153.00534,-27.241962],[153.00571,-27.242251],[153.005863,-27.242435],[153.00599,-27.242631],[153.006162,-27.242815],[153.00629,-27.242885],[153.006578,-27.242909],[153.00674,-27.2429],[153.006944,-27.242889],[153.007198,-27.242855],[153.007321,-27.24304],[153.007602,-27.243184],[153.007903,-27.243163],[153.008051,-27.24306],[153.008481,-27.243126],[153.008763,-27.243082],[153.008924,-27.243003],[153.009168,-27.242964],[153.009317,-27.242891],[153.009433,-27.242859],[153.009583,-27.242907],[153.00964,-27.243014],[153.009706,-27.243249],[153.009863,-27.243552],[153.010144,-27.243652],[153.010614,-27.243593],[153.010917,-27.243483],[153.011037,-27.243559],[153.011688,-27.243964],[153.011866,-27.244074],[153.01211,-27.244184],[153.012275,-27.244448],[153.012562,-27.244748],[153.012952,-27.244882],[153.013316,-27.245131],[153.013346,-27.245435],[153.013313,-27.245578],[153.013401,-27.245905],[153.013667,-27.246199],[153.013974,-27.246384],[153.014185,-27.246557],[153.014319,-27.246718],[153.01449,-27.246954],[153.014425,-27.247103],[153.014348,-27.24716],[153.014334,-27.247326],[153.014454,-27.247584],[153.014709,-27.247809],[153.014991,-27.247851],[153.015132,-27.247869],[153.015234,-27.247933],[153.015285,-27.24799],[153.01538,-27.24818],[153.01548,-27.248422],[153.015511,-27.248576],[153.015496,-27.24884],[153.015386,-27.249068],[153.015187,-27.249362],[153.01493,-27.249641],[153.014681,-27.249852],[153.014987,-27.250033],[153.015141,-27.250134],[153.01563,-27.250262],[153.015886,-27.250248],[153.016263,-27.250238],[153.016386,-27.250195],[153.016212,-27.250189],[153.016372,-27.249971],[153.016604,-27.249868],[153.016739,-27.249777],[153.01697,-27.249708],[153.017098,-27.249542],[153.017175,-27.24941],[153.017335,-27.24933],[153.017508,-27.249285],[153.017887,-27.24932],[153.018277,-27.249316],[153.018296,-27.249001],[153.018087,-27.248683],[153.017901,-27.248317],[153.017801,-27.248141],[153.017692,-27.247947],[153.017081,-27.247173],[153.016859,-27.246952],[153.016577,-27.246589],[153.016074,-27.246006],[153.0137,-27.243687],[153.012331,-27.242632],[153.012121,-27.242451],[153.011694,-27.242141],[153.008887,-27.240046],[153.008383,-27.239678],[153.008284,-27.239596],[153.006896,-27.238206],[153.006624,-27.23783],[153.005601,-27.236419],[153.004778,-27.234765],[153.00428,-27.23376],[153.003366,-27.231897],[153.00332,-27.231805],[153.003253,-27.231711],[153.003286,-27.231701],[153.003108,-27.231376],[153.000769,-27.226565],[152.998444,-27.221709],[152.997223,-27.219571],[152.994955,-27.216224],[152.994789,-27.216],[152.994065,-27.215029],[152.99248,-27.21254],[152.991905,-27.211778],[152.991771,-27.211564],[152.991609,-27.21122],[152.991434,-27.210867],[152.991008,-27.209932],[152.990723,-27.209211],[152.990595,-27.208885],[152.990486,-27.208535],[152.990035,-27.207132],[152.988648,-27.200611],[152.988198,-27.197942],[152.987957,-27.196688],[152.986964,-27.190862],[152.985927,-27.186162],[152.98423,-27.180327],[152.983655,-27.178697],[152.9831,-27.176781],[152.982797,-27.175773],[152.982408,-27.174337],[152.981869,-27.17245],[152.981702,-27.171843],[152.981347,-27.170632],[152.980729,-27.168514],[152.980553,-27.167912],[152.980208,-27.166778],[152.979865,-27.165625],[152.979448,-27.164241],[152.978741,-27.161834],[152.978198,-27.159843],[152.977997,-27.159061],[152.977908,-27.158661],[152.977697,-27.15743],[152.977622,-27.156759],[152.977559,-27.156163],[152.977516,-27.15533],[152.97751,-27.154484],[152.977516,-27.154053],[152.977565,-27.15326],[152.977599,-27.152731],[152.97767,-27.152091],[152.977984,-27.151983],[152.978154,-27.151913],[152.978659,-27.151516],[152.978764,-27.15146],[152.979015,-27.151436],[152.979087,-27.15158],[152.979107,-27.151662],[152.979139,-27.151846],[152.979224,-27.152048],[152.979687,-27.15207],[152.979905,-27.152148],[152.979971,-27.152256],[152.980071,-27.152372],[152.980173,-27.152464],[152.980414,-27.15247],[152.980778,-27.152188],[152.980798,-27.152072],[152.980826,-27.151835],[152.980768,-27.15162],[152.98054,-27.15145],[152.980125,-27.151311],[152.979999,-27.151178],[152.980001,-27.151037],[152.98012,-27.150989],[152.980425,-27.151058],[152.980672,-27.151215],[152.981029,-27.151465],[152.981201,-27.151813],[152.981257,-27.151974],[152.981306,-27.152007],[152.981387,-27.151998],[152.981689,-27.151849],[152.981942,-27.151669],[152.982135,-27.151437],[152.982178,-27.151389],[152.982288,-27.151361],[152.982458,-27.151421],[152.982646,-27.151525],[152.982799,-27.151629],[152.982876,-27.151648],[152.982977,-27.151646],[152.983115,-27.151573],[152.983257,-27.151538],[152.983535,-27.151612],[152.983854,-27.151563],[152.983831,-27.151302],[152.983904,-27.151229],[152.984274,-27.151351],[152.984707,-27.151397],[152.984919,-27.151382],[152.985116,-27.151359],[152.985196,-27.151475],[152.985273,-27.151762],[152.985269,-27.152228],[152.985378,-27.152329],[152.985998,-27.152464],[152.986366,-27.152452],[152.986556,-27.152334],[152.98684,-27.152271],[152.986979,-27.152295],[152.987112,-27.152383],[152.987229,-27.15253],[152.987472,-27.152694],[152.987962,-27.152698],[152.988364,-27.152628],[152.98848,-27.152555],[152.988684,-27.152368],[152.988787,-27.152157],[152.988881,-27.151923],[152.988977,-27.151856],[152.989107,-27.151891],[152.989174,-27.151998],[152.989283,-27.152132],[152.989387,-27.152175],[152.989564,-27.152141],[152.989617,-27.152042],[152.989321,-27.151526],[152.989354,-27.15142],[152.989371,-27.151148],[152.989407,-27.151026],[152.989619,-27.150927],[152.989844,-27.150901],[152.990071,-27.15097],[152.990604,-27.15119],[152.991016,-27.151255],[152.991187,-27.151171],[152.991325,-27.151057],[152.991384,-27.150836],[152.991397,-27.15047],[152.991447,-27.150284],[152.991512,-27.150242],[152.991593,-27.150243],[152.99188,-27.150489],[152.992057,-27.150519],[152.992534,-27.150373],[152.992841,-27.150361],[152.992961,-27.150398],[152.993312,-27.150731],[152.993798,-27.150925],[152.994253,-27.150948],[152.994427,-27.150873],[152.994581,-27.150712],[152.99457,-27.150178],[152.994622,-27.149703],[152.99478,-27.149383],[152.994971,-27.149377],[152.995132,-27.149486],[152.995155,-27.149629],[152.995285,-27.150344],[152.995398,-27.150355],[152.995532,-27.150317],[152.995589,-27.150051],[152.995638,-27.149778],[152.995816,-27.149592],[152.99602,-27.14947],[152.996225,-27.149501],[152.996313,-27.149667],[152.99629,-27.149835],[152.996025,-27.15044],[152.995874,-27.150718],[152.995873,-27.150969],[152.995971,-27.151108],[152.996044,-27.15119],[152.996392,-27.151296],[152.996763,-27.151256],[152.997192,-27.151124],[152.997289,-27.151039],[152.997348,-27.15086],[152.997418,-27.150388],[152.997444,-27.150281],[152.997748,-27.15007],[152.998253,-27.150016],[152.998683,-27.150014],[152.999379,-27.149984],[152.999655,-27.150015],[153.000009,-27.150168],[153.000175,-27.15037],[153.000553,-27.150495],[153.000978,-27.150729],[153.001138,-27.150828],[153.00158,-27.150876],[153.00183,-27.150815],[153.002106,-27.150753],[153.002394,-27.150684],[153.002605,-27.150668],[153.003121,-27.150709],[153.003627,-27.150817],[153.003872,-27.151035],[153.003993,-27.151193],[153.004485,-27.151259],[153.004723,-27.151089],[153.004758,-27.150751],[153.004965,-27.150527],[153.005401,-27.150284],[153.006022,-27.150276],[153.006548,-27.150414],[153.006936,-27.150612],[153.007105,-27.151123],[153.007257,-27.15136],[153.007421,-27.151456],[153.007725,-27.15146],[153.008031,-27.151432],[153.00845,-27.151316],[153.008739,-27.151163],[153.009143,-27.151051],[153.009566,-27.151102],[153.009603,-27.151351],[153.009511,-27.151717],[153.009735,-27.151774],[153.010004,-27.151691],[153.01054,-27.151315],[153.010897,-27.150926],[153.01108,-27.150608],[153.011011,-27.150001],[153.011037,-27.149586],[153.011385,-27.148925],[153.012008,-27.148503],[153.012206,-27.148523],[153.012612,-27.148776],[153.012933,-27.149103],[153.01316,-27.149267],[153.01341,-27.149203],[153.013632,-27.149054],[153.013869,-27.148887],[153.014328,-27.14827],[153.014776,-27.147899],[153.015367,-27.14787],[153.015617,-27.148005],[153.015628,-27.148272],[153.015546,-27.148546],[153.015008,-27.148935],[153.014518,-27.149374],[153.014376,-27.149726],[153.014533,-27.150021],[153.015181,-27.150445],[153.015719,-27.151106],[153.015966,-27.151906],[153.016187,-27.152334],[153.016662,-27.152361],[153.016904,-27.152074],[153.016898,-27.15138],[153.01735,-27.151031],[153.01822,-27.150739],[153.019152,-27.150364],[153.019893,-27.150329],[153.020114,-27.15048],[153.020364,-27.15097],[153.020574,-27.151318],[153.020825,-27.151576],[153.021326,-27.151835],[153.021696,-27.15179],[153.021907,-27.151363],[153.021806,-27.150952],[153.021466,-27.150435],[153.021195,-27.149901],[153.021195,-27.149384],[153.021586,-27.149214],[153.022117,-27.14933],[153.0236,-27.149419],[153.02404,-27.149829],[153.02398,-27.150418],[153.024251,-27.151327],[153.025242,-27.15237],[153.025723,-27.152432],[153.026114,-27.152156],[153.026344,-27.151594],[153.026663,-27.15145],[153.027145,-27.151379],[153.028001,-27.151432],[153.028513,-27.151633],[153.028739,-27.151852],[153.028857,-27.152421],[153.028847,-27.152947],[153.028365,-27.153349],[153.027558,-27.153875],[153.026978,-27.154269],[153.026368,-27.154829],[153.025974,-27.15496],[153.025708,-27.154908],[153.02561,-27.154295],[153.025728,-27.153393],[153.02564,-27.15299],[153.025325,-27.152798],[153.024803,-27.152824],[153.024124,-27.153279],[153.023928,-27.15384],[153.024183,-27.154426],[153.024843,-27.154943],[153.025915,-27.155862],[153.026624,-27.156151],[153.02744,-27.155801],[153.028818,-27.155582],[153.029546,-27.154995],[153.029654,-27.154102],[153.029753,-27.153376],[153.030412,-27.152693],[153.031091,-27.152623],[153.031622,-27.152754],[153.032094,-27.153008],[153.032537,-27.153524],[153.032675,-27.154094],[153.032422,-27.154676],[153.031579,-27.155618],[153.031521,-27.155834],[153.0315,-27.156074],[153.031613,-27.156408],[153.031676,-27.15662],[153.031469,-27.156917],[153.031185,-27.157328],[153.030881,-27.157733],[153.030719,-27.158105],[153.030614,-27.158517],[153.030734,-27.158816],[153.03089,-27.159499],[153.031028,-27.160015],[153.031236,-27.160532],[153.03149,-27.160923],[153.031687,-27.161177],[153.032005,-27.161436],[153.03228,-27.161673],[153.032649,-27.161996],[153.032993,-27.162233],[153.033428,-27.162361],[153.033773,-27.162621],[153.033963,-27.162868],[153.034238,-27.163059],[153.034704,-27.163314],[153.034908,-27.163521]]]},"bbox":[152.651189,-27.388053849665123,153.56358636798547,-26.79227]}]}