{"type":"FeatureCollection","features":[
{"properties":{"electorateShortName":"lyons","electorateName":"Lyons","area":31973.48,"state":null},"type":"Feature","geometry":{"type":"MultiPolygon","coordinates":[[[[147.434128,-42.77554],[147.44746,-42.780712],[147.448728,-42.768297],[147.468398,-42.772457],[147.456874,-42.781351],[147.466344,-42.792329],[147.487271,-42.803107],[147.512057,-42.782992],[147.519664,-42.788457],[147.527827,-42.805182],[147.539722,-42.80117],[147.530285,-42.790592],[147.538792,-42.784798],[147.551738,-42.793318],[147.587838,-42.797638],[147.601229,-42.803164],[147.59673,-42.813354],[147.605553,-42.83061],[147.621242,-42.842508],[147.620752,-42.850623],[147.610119,-42.865916],[147.641898,-42.877776],[147.641854,-42.890014],[147.65954,-42.886605],[147.680151,-42.900145],[147.69498,-42.891238],[147.704233,-42.894464],[147.721994,-42.886558],[147.751873,-42.90114],[147.781698,-42.899662],[147.794848,-42.891665],[147.814782,-42.88853],[147.835673,-42.864804],[147.844038,-42.845775],[147.853259,-42.842873],[147.861142,-42.827069],[147.873337,-42.831452],[147.869015,-42.808194],[147.872278,-42.786681],[147.88239,-42.763832],[147.900001,-42.743854],[147.909598,-42.739508],[147.927133,-42.739027],[147.938087,-42.734406],[147.947273,-42.709103],[147.938763,-42.700692],[147.944942,-42.690436],[147.957541,-42.685019],[147.962992,-42.669542],[147.953484,-42.66107],[147.95548,-42.644901],[147.931612,-42.631559],[147.945698,-42.610174],[147.910613,-42.581337],[147.907718,-42.569437],[147.881807,-42.566941],[147.87161,-42.55724],[147.888446,-42.54526],[147.91337,-42.548512],[147.910219,-42.531201],[147.898598,-42.521309],[147.907628,-42.510776],[147.930358,-42.530803],[147.932352,-42.550122],[147.940814,-42.546923],[147.955031,-42.551446],[147.958205,-42.531939],[147.975255,-42.516159],[147.988776,-42.524541],[147.998375,-42.521185],[148.011088,-42.509337],[147.997042,-42.501569],[147.996728,-42.476206],[148.007543,-42.458225],[148.009872,-42.44028],[148.000035,-42.440372],[147.993284,-42.418245],[147.980503,-42.405351],[147.987756,-42.389042],[148.008584,-42.373728],[148.009847,-42.363239],[148.02459,-42.342416],[148.019139,-42.338055],[148.014536,-42.320515],[147.996058,-42.311551],[147.988072,-42.324824],[147.969214,-42.341557],[147.970389,-42.32587],[147.981285,-42.31059],[148.000346,-42.309933],[148.003679,-42.296382],[148.015615,-42.285468],[148.014807,-42.268237],[148.024437,-42.254426],[148.013167,-42.249462],[148.013583,-42.23935],[148.043948,-42.203008],[148.065971,-42.192517],[148.078859,-42.163013],[148.075869,-42.123244],[148.072993,-42.112401],[148.09735,-42.09738],[148.123932,-42.092425],[148.165537,-42.09135],[148.199884,-42.09417],[148.231032,-42.09953],[148.233427,-42.092572],[148.211365,-42.084914],[148.183822,-42.08189],[148.167508,-42.084963],[148.150762,-42.074493],[148.129601,-42.080244],[148.122972,-42.070386],[148.129528,-42.061112],[148.152545,-42.062212],[148.165024,-42.051755],[148.162358,-42.038668],[148.144587,-42.03719],[148.145366,-42.015408],[148.165862,-41.996286],[148.173422,-42.008975],[148.187023,-42.01852],[148.198259,-42.02066],[148.217841,-42.001674],[148.212291,-41.99628],[148.230875,-41.984062],[148.245414,-41.992401],[148.243049,-42.002531],[148.222077,-42.020941],[148.21431,-42.035654],[148.206653,-42.039409],[148.192954,-42.036052],[148.179861,-42.04304],[148.156829,-42.065179],[148.162198,-42.077946],[148.18697,-42.077836],[148.197645,-42.067186],[148.208443,-42.077391],[148.241674,-42.091033],[148.236793,-42.101073],[148.251074,-42.114526],[148.267619,-42.112348],[148.298424,-42.12564],[148.297604,-42.140164],[148.272561,-42.148554],[148.259259,-42.165704],[148.271446,-42.168477],[148.291519,-42.190358],[148.290475,-42.198604],[148.276665,-42.207707],[148.269643,-42.22557],[148.25394,-42.228446],[148.251566,-42.243045],[148.257732,-42.252078],[148.27991,-42.254491],[148.288799,-42.260449],[148.29572,-42.283048],[148.314514,-42.276047],[148.306905,-42.270515],[148.324086,-42.25347],[148.320903,-42.24501],[148.331387,-42.230405],[148.341293,-42.227142],[148.342897,-42.211152],[148.355727,-42.193156],[148.349605,-42.179932],[148.315592,-42.169199],[148.301286,-42.172741],[148.299188,-42.161696],[148.31345,-42.160206],[148.324203,-42.149314],[148.319607,-42.132453],[148.344028,-42.123163],[148.345388,-42.118468],[148.323629,-42.09194],[148.30961,-42.057028],[148.297974,-42.05708],[148.288276,-42.04725],[148.283447,-42.032806],[148.283754,-42.003786],[148.289377,-41.982665],[148.297936,-41.965853],[148.3098,-41.961411],[148.302505,-41.949813],[148.302524,-41.9369],[148.319679,-41.925063],[148.32359,-41.917201],[148.304019,-41.8913],[148.310938,-41.873282],[148.287446,-41.865809],[148.277189,-41.855732],[148.267856,-41.836327],[148.264479,-41.810011],[148.266786,-41.793376],[148.284295,-41.757798],[148.302147,-41.740755],[148.289322,-41.734822],[148.284073,-41.719999],[148.287896,-41.701127],[148.29523,-41.693173],[148.289053,-41.684514],[148.293183,-41.658961],[148.30149,-41.645818],[148.312096,-41.639165],[148.320296,-41.621392],[148.314586,-41.571299],[148.305033,-41.568491],[148.299263,-41.558037],[148.286169,-41.552486],[148.278979,-41.515844],[148.271,-41.502425],[148.266246,-41.485072],[148.266477,-41.462171],[148.279182,-41.416605],[148.290054,-41.398553],[148.295684,-41.371856],[148.314344,-41.344693],[148.320964,-41.319962],[148.327304,-41.306454],[148.342571,-41.290382],[148.358946,-41.281473],[148.356402,-41.27395],[148.331816,-41.283025],[148.32349,-41.298533],[148.313922,-41.303134],[148.309474,-41.316973],[148.291494,-41.32468],[148.27158,-41.339573],[148.259818,-41.337527],[148.252002,-41.323734],[148.268654,-41.322005],[148.276992,-41.315201],[148.271225,-41.307471],[148.27445,-41.291279],[148.283161,-41.281764],[148.295442,-41.282706],[148.296917,-41.290775],[148.290613,-41.304037],[148.312539,-41.298949],[148.309885,-41.288513],[148.333317,-41.271103],[148.338153,-41.254367],[148.309908,-41.248364],[148.299865,-41.250687],[148.283663,-41.227757],[148.275632,-41.207706],[148.269566,-41.182875],[148.2849,-41.168601],[148.270192,-41.142119],[148.269515,-41.126026],[148.273676,-41.110275],[148.282989,-41.097912],[148.292553,-41.071333],[148.298152,-41.063829],[148.286848,-41.054343],[148.27575,-41.053899],[148.259992,-41.045274],[148.276206,-41.034389],[148.297119,-41.036492],[148.320125,-41.008941],[148.340252,-40.994089],[148.323833,-40.987847],[148.316639,-40.971309],[148.305803,-40.964518],[148.301975,-40.941664],[148.283933,-40.930908],[148.268097,-40.910613],[148.257859,-40.90417],[148.251467,-40.902796],[148.213499,-40.922157],[148.212412,-40.937587],[148.124181,-40.925468],[148.116759,-40.923553],[148.112013,-40.942224],[148.090397,-40.935621],[148.082908,-40.952519],[148.078008,-40.981413],[148.080475,-40.988431],[148.07845,-41.01529],[148.071229,-41.038518],[148.082096,-41.060249],[148.07138,-41.067486],[148.062331,-41.087321],[148.068311,-41.095743],[148.06522,-41.112936],[148.08246,-41.124759],[148.082295,-41.132139],[148.005136,-41.153403],[147.934817,-41.16847],[147.889529,-41.164957],[147.835459,-41.366796],[147.827566,-41.37165],[147.590573,-41.380856],[147.608713,-41.397738],[147.606351,-41.407449],[147.619255,-41.409226],[147.615828,-41.426402],[147.628729,-41.428175],[147.627361,-41.451475],[147.643613,-41.464363],[147.647934,-41.478488],[147.578908,-41.513592],[147.571934,-41.506031],[147.56215,-41.511211],[147.53993,-41.507451],[147.525885,-41.514713],[147.526153,-41.520515],[147.506536,-41.530441],[147.498728,-41.522016],[147.486359,-41.528639],[147.476144,-41.518051],[147.460395,-41.522064],[147.428113,-41.538732],[147.432005,-41.543015],[147.406452,-41.556178],[147.400819,-41.549793],[147.387993,-41.556073],[147.367865,-41.536326],[147.346759,-41.512041],[147.312785,-41.529397],[147.302824,-41.520428],[147.285846,-41.529689],[147.278146,-41.521684],[147.261082,-41.530936],[147.248515,-41.528177],[147.23313,-41.512415],[147.221105,-41.495251],[147.198025,-41.51016],[147.188033,-41.508309],[147.169363,-41.492893],[147.153974,-41.50105],[147.147726,-41.495126],[147.136352,-41.501281],[147.126007,-41.490514],[147.140091,-41.48302],[147.120682,-41.470839],[147.115043,-41.473286],[147.100022,-41.462866],[147.098511,-41.456097],[147.076192,-41.446506],[147.065524,-41.458888],[147.031841,-41.437337],[147.029765,-41.427888],[147.007986,-41.445219],[146.994,-41.443436],[146.996138,-41.43181],[146.972002,-41.429042],[146.934304,-41.408496],[146.92671,-41.388419],[146.910055,-41.3778],[146.89999,-41.386532],[146.872828,-41.39122],[146.825424,-41.383748],[146.802887,-41.37434],[146.798571,-41.380382],[146.770949,-41.375503],[146.697505,-41.35525],[146.703586,-41.33269],[146.654646,-41.328772],[146.619945,-41.324477],[146.617472,-41.3379],[146.589574,-41.334794],[146.583073,-41.353196],[146.589922,-41.361746],[146.557269,-41.357945],[146.54558,-41.367394],[146.528035,-41.365072],[146.494373,-41.37673],[146.484519,-41.375631],[146.479025,-41.360698],[146.459497,-41.344207],[146.459758,-41.319725],[146.447,-41.315195],[146.444449,-41.297836],[146.398708,-41.288963],[146.358921,-41.284202],[146.357527,-41.272633],[146.370102,-41.266802],[146.349472,-41.242148],[146.323461,-41.254969],[146.321033,-41.271849],[146.265684,-41.265593],[146.248055,-41.277936],[146.216538,-41.275955],[146.203298,-41.287246],[146.205314,-41.310799],[146.185555,-41.320484],[146.176291,-41.341565],[146.153993,-41.357323],[146.128718,-41.368729],[146.11467,-41.37119],[146.112479,-41.385429],[146.102339,-41.402284],[146.092996,-41.406962],[146.090306,-41.429678],[146.092537,-41.443355],[146.082866,-41.456594],[145.954065,-41.451806],[145.852831,-41.465863],[145.853526,-41.582863],[145.951331,-41.684662],[146.013454,-41.866776],[146.050484,-41.974556],[146.014916,-42.005321],[146.023422,-42.039447],[145.999753,-42.0669],[146.075328,-42.21047],[146.09069,-42.283916],[146.10695,-42.305306],[146.102667,-42.326899],[146.096186,-42.341178],[146.099125,-42.369677],[146.110305,-42.375474],[146.11245,-42.388647],[146.099548,-42.402409],[146.118229,-42.404357],[146.133106,-42.4136],[146.124075,-42.431623],[146.12571,-42.436789],[146.108732,-42.445467],[146.109093,-42.450845],[146.093617,-42.467809],[146.080732,-42.477066],[146.089743,-42.489986],[146.073511,-42.511211],[146.053361,-42.528553],[146.029295,-42.538241],[146.032682,-42.547628],[146.016433,-42.566126],[146.018229,-42.572246],[146.00694,-42.580351],[145.99276,-42.59866],[145.979887,-42.627636],[145.963868,-42.635821],[145.967088,-42.648574],[145.954701,-42.665621],[145.934281,-42.669417],[145.928044,-42.682029],[145.909128,-42.681768],[145.902245,-42.693196],[145.887098,-42.699675],[145.869925,-42.690263],[145.866864,-42.698597],[145.873548,-42.713155],[145.858025,-42.713874],[145.842663,-42.72503],[145.854263,-42.742966],[145.947531,-42.902228],[145.933796,-42.907494],[145.94052,-42.930574],[145.977021,-42.96246],[145.992963,-42.978703],[145.991437,-43.004516],[145.978159,-43.017499],[145.978141,-43.039171],[146.08907,-43.053903],[146.222191,-43.118804],[146.458808,-43.087277],[146.648406,-42.921704],[146.658083,-42.903404],[146.653597,-42.893372],[146.652731,-42.876296],[146.646037,-42.865036],[146.647289,-42.853658],[146.65657,-42.847634],[146.675126,-42.849611],[146.697394,-42.857529],[146.723042,-42.858121],[146.739431,-42.871195],[146.765581,-42.874138],[146.776179,-42.88424],[146.780537,-42.898608],[146.797936,-42.903674],[146.805489,-42.894637],[146.846451,-42.908202],[146.855266,-42.939115],[146.873892,-42.95463],[146.880302,-42.948977],[146.879704,-42.935433],[146.896016,-42.935256],[146.913518,-42.939638],[146.916581,-42.933688],[146.937466,-42.928528],[146.925992,-42.895278],[146.940581,-42.885867],[146.955489,-42.882079],[146.970537,-42.888752],[146.990529,-42.885838],[147.009243,-42.888143],[147.010492,-42.901107],[147.02279,-42.90777],[147.03231,-42.904188],[147.044641,-42.909126],[147.051271,-42.900384],[147.150368,-42.913351],[147.150353,-42.858481],[147.146491,-42.849228],[147.153641,-42.834332],[147.173858,-42.829746],[147.178795,-42.814609],[147.200835,-42.806465],[147.201103,-42.78666],[147.212892,-42.766963],[147.226904,-42.75042],[147.20834,-42.741108],[147.184099,-42.739253],[147.191446,-42.727361],[147.203873,-42.726579],[147.214594,-42.737002],[147.234957,-42.740915],[147.263649,-42.754279],[147.260522,-42.765294],[147.270837,-42.782239],[147.285786,-42.782488],[147.292566,-42.790883],[147.311656,-42.782187],[147.326189,-42.780478],[147.332586,-42.766641],[147.347579,-42.777447],[147.368526,-42.761214],[147.375254,-42.771226],[147.392172,-42.772515],[147.418517,-42.787745],[147.426405,-42.77521],[147.434128,-42.77554]]],[[[148.011519,-43.221568],[147.992705,-43.215615],[147.98518,-43.207303],[147.972698,-43.203051],[147.963572,-43.18534],[147.979594,-43.168347],[147.983168,-43.156111],[147.997537,-43.146949],[147.982741,-43.135675],[147.972237,-43.13483],[147.963387,-43.142729],[147.954355,-43.136598],[147.977242,-43.118501],[147.981089,-43.107373],[147.970726,-43.102556],[147.966439,-43.084519],[147.946004,-43.060801],[147.954041,-43.05207],[147.953306,-43.041395],[147.929259,-43.029608],[147.927269,-43.014225],[147.935417,-43.006901],[147.95316,-43.001298],[147.964387,-42.982892],[147.976332,-42.983354],[147.99951,-42.964206],[147.996223,-42.954134],[147.983432,-42.94126],[147.995307,-42.929294],[147.998862,-42.914565],[147.984734,-42.900326],[147.98406,-42.890432],[147.960916,-42.88488],[147.973833,-42.870216],[147.968981,-42.866293],[147.939856,-42.877176],[147.920356,-42.861292],[147.918298,-42.848252],[147.891706,-42.842525],[147.87963,-42.853645],[147.871735,-42.87108],[147.881885,-42.876959],[147.903957,-42.882359],[147.904945,-42.893067],[147.884089,-42.894684],[147.876415,-42.888672],[147.843996,-42.890772],[147.816086,-42.8948],[147.822886,-42.918971],[147.818286,-42.933184],[147.833264,-42.934657],[147.841826,-42.957597],[147.830846,-42.965246],[147.825207,-42.976294],[147.853545,-42.986388],[147.841162,-42.993347],[147.838229,-43.002578],[147.861926,-43.014358],[147.87016,-43.010868],[147.883453,-43.017555],[147.872443,-43.023363],[147.863127,-43.035575],[147.835922,-43.041115],[147.845498,-43.054986],[147.840701,-43.0604],[147.813794,-43.06061],[147.806686,-43.046425],[147.773829,-43.054938],[147.759037,-43.044137],[147.749379,-43.043379],[147.745717,-43.023344],[147.721831,-43.01682],[147.719686,-43.008994],[147.708038,-43.003555],[147.729835,-42.970997],[147.725528,-42.949394],[147.713888,-42.955511],[147.699784,-42.9534],[147.699473,-42.944257],[147.678878,-42.934545],[147.666107,-42.938648],[147.665885,-42.94805],[147.675717,-42.956967],[147.668944,-42.963543],[147.683644,-42.974578],[147.679341,-42.991801],[147.66752,-42.999909],[147.652957,-42.992725],[147.627209,-42.998402],[147.619071,-43.006636],[147.618985,-43.017572],[147.628333,-43.040258],[147.622388,-43.051575],[147.627123,-43.073515],[147.641437,-43.075647],[147.650347,-43.083275],[147.676952,-43.091412],[147.684186,-43.102438],[147.700878,-43.097509],[147.734104,-43.110809],[147.735735,-43.118502],[147.726344,-43.126267],[147.717491,-43.120842],[147.703396,-43.122145],[147.689239,-43.140109],[147.701488,-43.160114],[147.694551,-43.167179],[147.701292,-43.176982],[147.715518,-43.178358],[147.711578,-43.194282],[147.72677,-43.197962],[147.750715,-43.209033],[147.761764,-43.206283],[147.782569,-43.220511],[147.781104,-43.232939],[147.79752,-43.239222],[147.796718,-43.220742],[147.807769,-43.208283],[147.819081,-43.205837],[147.822018,-43.197971],[147.844472,-43.187533],[147.849819,-43.196708],[147.866474,-43.197929],[147.872074,-43.190297],[147.865559,-43.182831],[147.852999,-43.179577],[147.86135,-43.164949],[147.845553,-43.154347],[147.85737,-43.145361],[147.850384,-43.124099],[147.859882,-43.11289],[147.871465,-43.13102],[147.886423,-43.123264],[147.888164,-43.142676],[147.896313,-43.178264],[147.894518,-43.188021],[147.916506,-43.189563],[147.93176,-43.198854],[147.94516,-43.19468],[147.948592,-43.211744],[147.95772,-43.217759],[147.971479,-43.216846],[147.979459,-43.222896],[148.011519,-43.221568]]],[[[148.169014,-42.64868],[148.150533,-42.640702],[148.13629,-42.623816],[148.13783,-42.611118],[148.120142,-42.585011],[148.089799,-42.585044],[148.079143,-42.572273],[148.067397,-42.570657],[148.063664,-42.580563],[148.047326,-42.59657],[148.047748,-42.607854],[148.030626,-42.621167],[148.028209,-42.628269],[148.038781,-42.643021],[148.026029,-42.657753],[148.037118,-42.666084],[148.043303,-42.654962],[148.056848,-42.658933],[148.065864,-42.669732],[148.063262,-42.682874],[148.038744,-42.684106],[148.028597,-42.708476],[148.011709,-42.73006],[148.013573,-42.741864],[148.024052,-42.740965],[148.04192,-42.725175],[148.061718,-42.725729],[148.093028,-42.720886],[148.096308,-42.711196],[148.086968,-42.697978],[148.087118,-42.689474],[148.068213,-42.681236],[148.07098,-42.671003],[148.081273,-42.661757],[148.102925,-42.660321],[148.140012,-42.666407],[148.158655,-42.650202],[148.169014,-42.64868]]],[[[148.34606,-42.34138],[148.326331,-42.333767],[148.331715,-42.322622],[148.314394,-42.315349],[148.31933,-42.305872],[148.294424,-42.291862],[148.285008,-42.29974],[148.253975,-42.293475],[148.238925,-42.302294],[148.236565,-42.317678],[148.251987,-42.328576],[148.277068,-42.324644],[148.286632,-42.333194],[148.313913,-42.343485],[148.34606,-42.34138]]]]},"bbox":[145.842663,-43.239222,148.358946,-40.902796]}]}