{"type":"FeatureCollection","features":[
{"properties":{"electorateShortName":"lyons","electorateName":"Lyons","area":31973.48,"state":null},"type":"Feature","geometry":{"type":"MultiPolygon","coordinates":[[[[147.434128,-42.77554],[147.587838,-42.797638],[147.610119,-42.865916],[147.680151,-42.900145],[147.814782,-42.88853],[147.853259,-42.842873],[147.88239,-42.763832],[147.938087,-42.734406],[147.962992,-42.669542],[147.945698,-42.610174],[147.881807,-42.566941],[147.955031,-42.551446],[147.997042,-42.501569],[148.007543,-42.458225],[147.980503,-42.405351],[148.02459,-42.342416],[148.000346,-42.309933],[148.013583,-42.23935],[148.065971,-42.192517],[148.072993,-42.112401],[148.09735,-42.09738],[148.241674,-42.091033],[148.291519,-42.190358],[148.257732,-42.252078],[148.324086,-42.25347],[148.355727,-42.193156],[148.315592,-42.169199],[148.345388,-42.118468],[148.283447,-42.032806],[148.302524,-41.9369],[148.32359,-41.917201],[148.267856,-41.836327],[148.266786,-41.793376],[148.302147,-41.740755],[148.284073,-41.719999],[148.293183,-41.658961],[148.320296,-41.621392],[148.314586,-41.571299],[148.286169,-41.552486],[148.266477,-41.462171],[148.295684,-41.371856],[148.27158,-41.339573],[148.309885,-41.288513],[148.269566,-41.182875],[148.273676,-41.110275],[148.323833,-40.987847],[148.301975,-40.941664],[148.257859,-40.90417],[148.212412,-40.937587],[148.116759,-40.923553],[148.090397,-40.935621],[148.062331,-41.087321],[148.082295,-41.132139],[147.934817,-41.16847],[147.889529,-41.164957],[147.835459,-41.366796],[147.590573,-41.380856],[147.619255,-41.409226],[147.647934,-41.478488],[147.578908,-41.513592],[147.476144,-41.518051],[147.387993,-41.556073],[147.346759,-41.512041],[147.248515,-41.528177],[147.076192,-41.446506],[147.007986,-41.445219],[146.934304,-41.408496],[146.697505,-41.35525],[146.703586,-41.33269],[146.619945,-41.324477],[146.583073,-41.353196],[146.494373,-41.37673],[146.444449,-41.297836],[146.265684,-41.265593],[146.216538,-41.275955],[146.205314,-41.310799],[146.11467,-41.37119],[146.082866,-41.456594],[145.954065,-41.451806],[145.852831,-41.465863],[145.853526,-41.582863],[145.951331,-41.684662],[146.050484,-41.974556],[146.014916,-42.005321],[145.999753,-42.0669],[146.075328,-42.21047],[146.10695,-42.305306],[146.099125,-42.369677],[146.12571,-42.436789],[146.089743,-42.489986],[145.99276,-42.59866],[145.954701,-42.665621],[145.866864,-42.698597],[145.842663,-42.72503],[145.947531,-42.902228],[145.94052,-42.930574],[145.992963,-42.978703],[145.978141,-43.039171],[146.08907,-43.053903],[146.222191,-43.118804],[146.458808,-43.087277],[146.648406,-42.921704],[146.647289,-42.853658],[146.723042,-42.858121],[146.846451,-42.908202],[146.855266,-42.939115],[146.937466,-42.928528],[146.955489,-42.882079],[147.150368,-42.913351],[147.153641,-42.834332],[147.200835,-42.806465],[147.226904,-42.75042],[147.292566,-42.790883],[147.368526,-42.761214],[147.434128,-42.77554]]],[[[148.011519,-43.221568],[147.963572,-43.18534],[147.983168,-43.156111],[147.953306,-43.041395],[147.927269,-43.014225],[147.99951,-42.964206],[147.98406,-42.890432],[147.891706,-42.842525],[147.876415,-42.888672],[147.816086,-42.8948],[147.841826,-42.957597],[147.838229,-43.002578],[147.872443,-43.023363],[147.773829,-43.054938],[147.679341,-42.991801],[147.627209,-42.998402],[147.627123,-43.073515],[147.734104,-43.110809],[147.689239,-43.140109],[147.711578,-43.194282],[147.796718,-43.220742],[147.844472,-43.187533],[147.845553,-43.154347],[147.948592,-43.211744],[148.011519,-43.221568]]],[[[148.169014,-42.64868],[148.120142,-42.585011],[148.079143,-42.572273],[148.028209,-42.628269],[148.038744,-42.684106],[148.011709,-42.73006],[148.093028,-42.720886],[148.081273,-42.661757],[148.169014,-42.64868]]],[[[148.34606,-42.34138],[148.31933,-42.305872],[148.253975,-42.293475],[148.236565,-42.317678],[148.34606,-42.34138]]]]},"bbox":[145.842663,-43.221568,148.355727,-40.90417]}]}