{"type":"FeatureCollection","features":[
{"properties":{"electorateShortName":"mackellar","electorateName":"Mackellar","area":212.29,"state":null},"type":"Feature","geometry":{"type":"Polygon","coordinates":[[[151.299717,-33.756601],[151.307883,-33.744221],[151.299895,-33.72561],[151.300203,-33.718072],[151.310237,-33.703814],[151.308813,-33.689414],[151.319113,-33.667793],[151.326096,-33.662427],[151.323662,-33.65308],[151.331914,-33.636464],[151.343021,-33.624508],[151.33358,-33.616319],[151.326997,-33.599985],[151.326445,-33.588515],[151.335198,-33.582209],[151.328127,-33.578163],[151.310802,-33.579452],[151.302304,-33.573509],[151.284798,-33.572214],[151.272277,-33.586237],[151.260747,-33.590032],[151.25021,-33.587935],[151.254334,-33.603694],[151.226685,-33.598772],[151.215461,-33.612847],[151.196143,-33.622227],[151.175919,-33.627211],[151.165104,-33.639403],[151.161505,-33.659605],[151.171846,-33.677542],[151.165852,-33.686067],[151.176324,-33.697875],[151.191417,-33.702699],[151.187522,-33.728208],[151.18035,-33.740095],[151.193976,-33.750466],[151.203599,-33.773133],[151.209219,-33.76019],[151.218316,-33.760127],[151.227126,-33.751393],[151.247201,-33.751709],[151.263439,-33.755157],[151.299717,-33.756601]]]},"bbox":[151.161505,-33.773133,151.343021,-33.572214]}]}