{"type":"FeatureCollection","features":[
{"properties":{"electorateShortName":"makin","electorateName":"Makin","area":162.62,"state":null},"type":"Feature","geometry":{"type":"Polygon","coordinates":[[[138.78019,-34.767026],[138.778753,-34.76445],[138.777999,-34.764088],[138.775674,-34.762105],[138.77435,-34.760616],[138.77129,-34.759226],[138.769023,-34.756775],[138.768474,-34.753476],[138.77136,-34.745874],[138.770697,-34.744765],[138.770294,-34.743092],[138.771688,-34.739498],[138.773145,-34.737798],[138.775259,-34.736312],[138.775767,-34.734847],[138.771396,-34.734253],[138.769855,-34.73536],[138.768524,-34.737855],[138.767744,-34.738527],[138.766186,-34.741823],[138.766663,-34.742758],[138.765976,-34.743471],[138.764249,-34.742964],[138.762324,-34.743145],[138.76119,-34.744473],[138.755644,-34.744861],[138.756171,-34.748707],[138.751805,-34.749088],[138.751297,-34.745328],[138.75031,-34.745416],[138.750085,-34.743496],[138.746578,-34.743011],[138.744132,-34.741443],[138.74183,-34.742155],[138.741431,-34.74179],[138.739087,-34.742236],[138.737232,-34.740334],[138.738188,-34.73809],[138.737272,-34.736279],[138.736359,-34.735677],[138.734953,-34.735968],[138.732099,-34.736051],[138.730819,-34.736815],[138.72865,-34.740625],[138.726912,-34.742278],[138.724087,-34.744326],[138.722305,-34.746266],[138.722175,-34.74799],[138.722786,-34.749857],[138.722526,-34.751688],[138.720128,-34.755396],[138.717834,-34.755434],[138.715076,-34.755996],[138.713373,-34.755964],[138.711715,-34.755509],[138.709747,-34.75357],[138.708946,-34.75369],[138.70779,-34.755613],[138.707186,-34.755322],[138.705383,-34.752998],[138.704714,-34.752697],[138.703418,-34.753342],[138.702052,-34.75454],[138.701353,-34.755861],[138.700445,-34.756139],[138.699737,-34.755025],[138.698583,-34.754517],[138.695714,-34.753988],[138.694389,-34.754864],[138.691791,-34.754424],[138.690821,-34.755127],[138.687493,-34.754638],[138.685513,-34.75472],[138.681631,-34.755655],[138.680179,-34.755628],[138.680108,-34.754265],[138.678718,-34.754288],[138.676105,-34.758684],[138.669499,-34.766266],[138.655656,-34.781751],[138.651053,-34.787045],[138.649653,-34.788915],[138.647038,-34.791796],[138.636656,-34.785448],[138.625644,-34.778803],[138.607409,-34.767724],[138.60665,-34.768339],[138.604319,-34.768465],[138.602058,-34.769205],[138.600566,-34.769048],[138.599287,-34.769473],[138.598278,-34.769228],[138.596544,-34.769509],[138.593799,-34.771022],[138.593697,-34.772525],[138.591994,-34.773673],[138.591586,-34.776544],[138.592132,-34.777692],[138.591826,-34.778707],[138.592468,-34.779667],[138.591898,-34.780598],[138.590591,-34.781342],[138.589212,-34.781366],[138.585224,-34.78211],[138.580522,-34.784299],[138.578945,-34.785354],[138.577788,-34.7867],[138.576748,-34.786917],[138.575302,-34.788011],[138.572278,-34.786165],[138.556637,-34.786147],[138.550536,-34.786046],[138.549122,-34.786195],[138.542165,-34.774431],[138.543906,-34.772685],[138.542333,-34.768953],[138.54347,-34.765944],[138.539458,-34.756004],[138.530626,-34.745425],[138.523097,-34.74801],[138.530305,-34.744953],[138.526442,-34.738397],[138.516276,-34.730894],[138.493271,-34.721402],[138.49067766467365,-34.71805425787573],[138.48047104516388,-34.72799666325326],[138.47068619711547,-34.742060831537714],[138.46374386334665,-34.75772442252785],[138.45989563410248,-34.774419787529794],[138.45936823184394,-34.789111100267014],[138.4586163969856,-34.79152712143744],[138.45671653437688,-34.808536147891694],[138.45807088197657,-34.82559727919747],[138.46263046315462,-34.842093541754],[138.47023039193917,-34.857428389041246],[138.4762971603703,-34.86539935725781],[138.47751613244228,-34.87271392753901],[138.48324668730203,-34.88837771848392],[138.48566708917522,-34.89244953607429],[138.47606,-34.856766],[138.476742,-34.843713],[138.488512,-34.819798],[138.490256,-34.810966],[138.488394,-34.797054],[138.481691,-34.795753],[138.485446,-34.790504],[138.477997,-34.78294],[138.487623,-34.77059],[138.496325,-34.764612],[138.507004,-34.763389],[138.51369,-34.766567],[138.515749,-34.771573],[138.510594,-34.790777],[138.510296,-34.801181],[138.509427,-34.800304],[138.512092,-34.807273],[138.511546,-34.818085],[138.506326,-34.82632],[138.505872,-34.838453],[138.503274,-34.840852],[138.497192,-34.84217],[138.496816,-34.840448],[138.495542,-34.842118],[138.497114,-34.850552],[138.498947,-34.850612],[138.498257,-34.843806],[138.506739,-34.841257],[138.50724,-34.8406],[138.50835,-34.836794],[138.511836,-34.837205],[138.508541,-34.835876],[138.509121,-34.831164],[138.512298,-34.832031],[138.509575,-34.828072],[138.51636,-34.816505],[138.51616,-34.810835],[138.533039,-34.815146],[138.530822,-34.822573],[138.533564,-34.819865],[138.533579,-34.815136],[138.541959,-34.816942],[138.540331,-34.815441],[138.540695,-34.813132],[138.545732,-34.81061],[138.558473,-34.825161],[138.561471,-34.826549],[138.566193,-34.825394],[138.566288,-34.825037],[138.575387,-34.831842],[138.575239,-34.832082],[138.563365,-34.832749],[138.562756,-34.836587],[138.563811,-34.838794],[138.564539,-34.849757],[138.566821,-34.849651],[138.571817,-34.849857],[138.577621,-34.849677],[138.582358,-34.848977],[138.597779,-34.848237],[138.606123,-34.847785],[138.617222,-34.847274],[138.623328,-34.847372],[138.63534,-34.846848],[138.663039,-34.84538],[138.690824,-34.843855],[138.705386,-34.842973],[138.708683,-34.840944],[138.709567,-34.840614],[138.713952,-34.840285],[138.720257,-34.839555],[138.723594,-34.840154],[138.725105,-34.840212],[138.725399,-34.838323],[138.72746,-34.837125],[138.729803,-34.837421],[138.7315,-34.840716],[138.731298,-34.843076],[138.733791,-34.84273],[138.738412,-34.8402],[138.740272,-34.840202],[138.74137,-34.841072],[138.744929,-34.841323],[138.747028,-34.840674],[138.746451,-34.839581],[138.746168,-34.836968],[138.746918,-34.83554],[138.748134,-34.834845],[138.748627,-34.833954],[138.750427,-34.828628],[138.753844,-34.823008],[138.756098,-34.821073],[138.754794,-34.820031],[138.754099,-34.820862],[138.75282,-34.819623],[138.753519,-34.81748],[138.751898,-34.81671],[138.74902,-34.814462],[138.749141,-34.813219],[138.750269,-34.811233],[138.75041,-34.808519],[138.750851,-34.806979],[138.753271,-34.804113],[138.755114,-34.803441],[138.758361,-34.801018],[138.759137,-34.799788],[138.759011,-34.798677],[138.759915,-34.79609],[138.761169,-34.795324],[138.761808,-34.793197],[138.761078,-34.791289],[138.760332,-34.79037],[138.758664,-34.786533],[138.758651,-34.785649],[138.756607,-34.784902],[138.753767,-34.784234],[138.754659,-34.783292],[138.763527,-34.778569],[138.766113,-34.778175],[138.766749,-34.779281],[138.768021,-34.780351],[138.768357,-34.781271],[138.769605,-34.78091],[138.768734,-34.779986],[138.769235,-34.778891],[138.771216,-34.776911],[138.771359,-34.776111],[138.772941,-34.773503],[138.771673,-34.771546],[138.77473,-34.769065],[138.774967,-34.768652],[138.777095,-34.768145],[138.778793,-34.768612],[138.780147,-34.768232],[138.78019,-34.767026]],[[138.537055,-34.812005],[138.524303,-34.810078],[138.531174,-34.803385],[138.537721,-34.801407],[138.540294,-34.805248],[138.544082,-34.80611],[138.540391,-34.81075],[138.537055,-34.812005]],[[138.529523,-34.774156],[138.541282,-34.787312],[138.546309,-34.799042],[138.545146,-34.802006],[138.537991,-34.800077],[138.529285,-34.801922],[138.523699,-34.809017],[138.518591,-34.805594],[138.516103,-34.796182],[138.522502,-34.769668],[138.518938,-34.763234],[138.513522,-34.759487],[138.514615,-34.756904],[138.518133,-34.756868],[138.52175,-34.760124],[138.529523,-34.774156]],[[138.511818,-34.755477],[138.515763,-34.755783],[138.509408,-34.75751],[138.511818,-34.755477]]]},"bbox":[138.45671653437688,-34.89244953607429,138.78019,-34.71805425787573]}]}