{"type":"FeatureCollection","features":[
{"properties":{"electorateShortName":"mallee","electorateName":"Mallee","area":83411.92,"state":null},"type":"Feature","geometry":{"type":"Polygon","coordinates":[[[144.408376,-35.898742],[144.36476,-35.819647],[144.375727,-35.801211],[144.296367,-35.737179],[144.24841,-35.7215],[144.117546,-35.625926],[144.104918,-35.590724],[144.04785,-35.556174],[143.989386,-35.553192],[143.948097,-35.500832],[143.866592,-35.480323],[143.746463,-35.388599],[143.642338,-35.401037],[143.563748,-35.316119],[143.584421,-35.278789],[143.563927,-35.202627],[143.471482,-35.219293],[143.396379,-35.193113],[143.346988,-35.104778],[143.319601,-34.968697],[143.342789,-34.932533],[143.323091,-34.884688],[143.351547,-34.796004],[143.273544,-34.777017],[143.196437,-34.728109],[143.104118,-34.694001],[143.040044,-34.702511],[142.924713,-34.649591],[142.763518,-34.596737],[142.699546,-34.603155],[142.678929,-34.680153],[142.696762,-34.720165],[142.616551,-34.737954],[142.63143,-34.784396],[142.526185,-34.759814],[142.51417,-34.690931],[142.471582,-34.666869],[142.434747,-34.576146],[142.368408,-34.527088],[142.351891,-34.394745],[142.3337,-34.339302],[142.238544,-34.30782],[142.249565,-34.266928],[142.220316,-34.181665],[142.082078,-34.172992],[142.074484,-34.130492],[141.983492,-34.112412],[141.899106,-34.111489],[141.877847,-34.136849],[141.704907,-34.095686],[141.635074,-34.12039],[141.567974,-34.19183],[141.517587,-34.206455],[141.49464,-34.154513],[141.452499,-34.161286],[141.357551,-34.110689],[141.333928,-34.130235],[141.261021,-34.078979],[141.008944,-34.044659],[141.002956,-34.021892],[140.961682,-34.095818],[140.964347,-34.438654],[140.965621,-35.008257],[140.966225,-35.389142],[140.963103,-35.748535],[140.96735,-36.373918],[140.96932,-36.793047],[140.973283,-37.358326],[141.0976,-37.449839],[141.168237,-37.41988],[141.261036,-37.429675],[141.279118,-37.393094],[141.221004,-37.348705],[141.43153,-37.372302],[141.431506,-37.297536],[141.531444,-37.297643],[141.491325,-37.220707],[141.576178,-37.188122],[141.599007,-37.161094],[141.668383,-37.155188],[141.707912,-37.184733],[141.88185,-37.145686],[141.923352,-37.121251],[141.937174,-37.206681],[142.079378,-37.223647],[142.114488,-37.112054],[142.215704,-37.111402],[142.239742,-37.147674],[142.42309,-37.260097],[142.501402,-37.292561],[142.592197,-37.290376],[142.595244,-37.217598],[142.542773,-37.157418],[142.717082,-37.1573],[142.837885,-37.191641],[142.953974,-37.207778],[143.04891,-37.18975],[143.066938,-37.147368],[143.180461,-37.188585],[143.224695,-37.153609],[143.293612,-37.210623],[143.405776,-37.233753],[143.46687,-37.269288],[143.489971,-37.172003],[143.585412,-37.184553],[143.665129,-37.236655],[143.860272,-37.234298],[143.875002,-37.186402],[143.948948,-37.197919],[143.96734,-37.099818],[144.012588,-37.066759],[143.973445,-37.029378],[143.89967,-37.021318],[143.846647,-36.927861],[143.891801,-36.881611],[144.025899,-36.897897],[144.071279,-36.766439],[144.068462,-36.662011],[144.125626,-36.662021],[144.170608,-36.524435],[144.209671,-36.487542],[144.344104,-36.48726],[144.344316,-36.385219],[144.331834,-36.327718],[144.281729,-36.327723],[144.272231,-36.202088],[144.317969,-36.091068],[144.266472,-35.929307],[144.335568,-35.934197],[144.343562,-35.894326],[144.408376,-35.898742]]]},"bbox":[140.961682,-37.449839,144.408376,-34.021892]}]}