{"type":"FeatureCollection","features":[
{"properties":{"electorateShortName":"maranoa","electorateName":"Maranoa","area":729861.86,"state":null},"type":"Feature","geometry":{"type":"Polygon","coordinates":[[[152.487617,-28.253908],[152.442049,-28.176017],[152.374893,-28.012336],[152.382276,-27.965632],[152.276931,-27.969723],[152.188454,-27.924176],[152.148272,-27.862854],[152.013697,-27.834761],[151.941678,-27.849462],[151.760196,-27.822867],[151.659481,-27.858572],[151.623829,-27.906668],[151.579891,-27.859109],[151.473438,-27.796217],[151.416556,-27.778568],[151.361344,-27.709305],[151.327465,-27.629251],[151.260165,-27.537731],[151.201819,-27.510589],[151.081734,-27.493046],[151.087765,-27.376423],[151.308622,-27.413824],[151.337736,-27.208293],[151.450784,-27.278638],[151.464934,-27.110822],[151.568505,-27.124785],[151.58118,-27.055961],[151.627521,-27.002613],[151.69397,-26.969204],[151.772878,-26.989885],[151.761824,-27.074402],[151.813489,-27.154896],[151.852695,-27.168106],[151.881714,-27.223721],[151.932792,-27.276023],[151.915407,-27.316282],[151.989037,-27.355141],[152.036431,-27.297562],[152.062329,-27.32839],[152.070838,-27.402759],[152.136975,-27.423638],[152.191723,-27.386849],[152.206186,-27.292046],[152.151987,-27.269404],[152.233115,-27.222092],[152.158854,-27.206431],[152.188492,-27.169149],[152.134036,-27.141624],[152.191318,-27.072344],[152.198108,-27.008236],[152.125438,-26.954225],[152.154591,-26.873643],[152.184254,-26.871025],[152.176618,-26.779782],[152.073393,-26.66841],[152.126748,-26.637973],[152.125717,-26.50656],[152.167652,-26.475419],[152.16719,-26.416696],[152.120144,-26.378695],[152.011798,-26.375274],[151.995889,-26.432648],[151.922653,-26.417623],[151.891556,-26.390819],[151.719506,-26.373923],[151.6715,-26.394175],[151.507509,-26.375876],[151.428038,-26.433727],[151.365386,-26.400973],[151.284892,-26.393278],[151.200782,-26.449264],[151.207725,-26.478767],[151.076963,-26.462816],[151.114728,-26.379598],[151.135653,-26.263126],[151.016714,-26.256222],[151.02286,-26.19499],[151.115867,-26.140866],[151.067346,-26.0854],[151.015886,-26.07722],[150.983982,-26.007806],[150.920428,-26.005017],[150.849566,-26.056405],[150.789811,-26.048923],[150.763635,-25.981599],[150.672754,-25.969587],[150.698644,-25.856755],[150.644123,-25.786199],[150.664276,-25.732738],[150.654161,-25.659782],[150.524181,-25.645387],[150.446103,-25.59883],[150.418493,-25.67516],[150.426022,-25.773976],[150.386739,-25.80581],[150.174465,-25.780107],[150.140981,-25.82252],[150.096674,-25.794322],[150.028006,-25.834568],[149.961377,-25.850635],[149.906393,-25.817178],[149.823117,-25.849048],[149.736105,-25.849599],[149.649194,-25.894488],[149.584391,-25.886616],[149.575487,-25.944165],[149.476835,-25.933506],[149.483531,-25.891873],[149.401437,-25.882486],[149.327807,-25.92525],[149.3028,-25.966084],[149.085523,-25.941109],[149.110591,-25.876186],[149.025279,-25.798982],[148.911223,-25.767597],[148.942382,-25.685517],[148.973513,-25.713302],[149.059655,-25.652623],[149.019693,-25.604013],[149.024318,-25.559799],[148.938047,-25.458588],[148.900436,-25.472457],[148.775948,-25.434942],[148.718979,-25.386953],[148.745256,-25.279722],[148.643119,-25.284125],[148.566593,-25.249519],[148.400133,-25.24599],[148.306379,-25.204066],[148.294554,-25.166089],[148.213314,-25.086419],[148.16059,-25.084158],[148.085083,-25.002144],[148.057673,-24.915533],[147.951945,-24.883207],[147.919557,-24.824789],[147.854187,-24.779593],[147.824435,-24.735092],[147.730304,-24.73301],[147.647279,-24.796988],[147.542436,-24.817561],[147.485925,-24.875806],[147.318466,-24.872592],[147.296394,-24.895801],[147.136624,-24.882882],[147.138836,-24.848994],[147.091547,-24.814128],[146.903382,-24.805192],[146.882273,-24.762487],[146.942012,-24.704363],[146.883106,-24.600802],[146.800113,-24.620586],[146.774156,-24.662766],[146.682499,-24.605848],[146.680792,-24.578937],[146.596051,-24.453012],[146.595864,-24.417187],[146.712721,-24.377528],[146.729701,-24.418552],[146.805026,-24.405198],[146.864237,-24.368793],[146.923093,-24.29469],[146.957122,-24.16999],[147.110288,-24.093341],[147.183316,-24.085741],[147.168985,-23.955351],[147.241147,-23.9032],[147.229553,-23.787489],[147.199777,-23.773309],[147.199904,-23.606229],[147.2344,-23.551871],[147.283772,-23.524784],[147.259839,-23.43807],[147.286615,-23.351236],[147.161882,-23.33971],[147.074854,-23.306916],[147.079057,-23.279834],[146.939723,-23.260355],[146.932705,-23.315483],[146.854576,-23.304746],[146.88446,-23.220274],[146.853726,-23.167071],[146.788875,-23.126644],[146.779435,-23.021589],[146.702277,-22.96222],[146.646063,-22.883208],[146.559193,-22.877335],[146.526585,-22.81233],[146.548396,-22.76889],[146.401429,-22.755504],[146.428595,-22.487942],[146.387628,-22.519329],[146.311092,-22.493311],[146.283188,-22.463379],[146.108921,-22.445663],[146.122071,-22.347422],[146.052132,-22.338502],[146.070664,-22.226622],[146.074055,-22.123377],[146.031455,-22.104814],[145.76961,-22.06659],[145.661171,-22.041156],[145.668263,-21.932034],[145.640624,-21.893986],[145.64578,-21.797513],[145.678477,-21.668189],[145.532833,-21.658254],[145.529402,-21.701941],[145.434731,-21.692052],[145.418234,-21.846247],[145.262042,-21.828722],[145.243999,-21.792608],[145.166068,-21.784894],[145.152964,-21.898926],[145.075195,-21.891442],[145.082206,-21.942606],[144.956305,-21.930311],[144.943048,-22.059149],[144.800906,-22.045386],[144.796356,-22.098431],[144.752316,-22.0948],[144.737423,-22.210332],[144.500514,-22.185662],[144.501776,-22.165143],[144.397776,-22.157051],[144.417213,-22.061724],[144.26849,-22.047868],[144.263435,-21.997391],[144.180328,-21.989558],[144.185983,-21.913747],[144.038846,-21.894713],[144.044621,-21.830302],[143.630837,-21.797422],[143.649256,-21.641178],[143.329875,-21.611515],[143.35953,-21.322011],[143.18803,-21.308656],[142.953327,-21.493758],[142.862092,-21.54506],[142.815399,-21.493135],[142.693958,-21.587863],[142.718468,-21.614949],[142.49559,-21.598003],[142.491224,-21.644184],[142.332562,-21.636322],[142.335189,-21.607104],[142.228163,-21.596278],[142.231842,-21.550869],[142.071999,-21.540753],[142.06622,-21.695149],[142.048704,-21.815995],[141.740477,-21.791727],[141.738279,-21.807024],[141.580016,-21.793194],[141.583156,-21.755977],[141.50783,-21.750468],[141.481129,-21.964069],[141.304782,-21.949605],[141.284543,-21.988843],[141.294338,-22.061885],[141.198634,-22.055173],[141.18285,-22.249626],[141.245778,-22.335434],[141.07972,-22.465648],[141.198923,-22.597559],[141.145629,-22.633357],[141.090848,-22.618233],[141.117252,-22.702695],[141.122257,-22.804494],[140.999074,-22.898415],[141.046356,-22.947653],[140.924565,-23.044439],[140.946999,-23.067769],[140.82219,-23.161545],[140.759621,-23.223156],[140.662341,-23.157725],[140.572649,-23.231406],[140.413234,-23.34621],[140.341912,-23.418267],[140.355569,-23.525775],[139.937919,-23.487231],[139.936229,-23.577092],[139.862623,-23.629454],[139.892609,-23.693644],[139.463728,-23.671293],[139.475759,-23.520779],[139.295422,-23.509979],[139.338996,-23.473871],[139.174868,-23.309969],[139.122701,-23.352076],[139.076354,-23.306816],[138.899454,-23.448333],[138.921104,-23.476494],[138.736465,-23.611343],[138.592055,-23.46253],[138.464389,-23.555056],[137.998246,-23.520895],[137.9986,-24.249828],[137.998745,-24.833129],[137.996879,-25.137999],[137.998902,-25.457199],[137.999054,-25.996867],[138.48863,-25.996773],[139.160052,-25.996671],[139.87258,-25.996524],[140.355301,-25.996521],[140.999394,-25.996376],[140.999446,-26.498488],[140.999466,-26.909368],[140.99956,-27.6678],[140.999375,-28.460198],[140.999265,-28.999101],[141.537076,-28.998996],[142.264797,-28.999074],[142.70748,-28.999091],[143.451901,-28.999069],[144.196177,-28.999115],[144.87418,-28.999091],[145.666844,-28.999081],[146.067784,-28.998645],[146.745786,-28.998946],[147.599628,-28.999057],[148.361055,-28.999043],[148.958086,-28.999051],[149.042373,-28.939312],[149.081108,-28.845866],[149.14239,-28.823873],[149.293978,-28.711683],[149.391403,-28.691734],[149.461772,-28.591551],[149.587511,-28.572882],[149.696606,-28.630759],[149.830077,-28.603846],[149.97158,-28.607665],[150.169679,-28.551113],[150.181437,-28.565038],[150.289648,-28.537157],[150.414296,-28.649864],[150.483443,-28.662131],[150.58306,-28.656108],[150.632541,-28.676572],[150.729851,-28.634142],[150.930908,-28.705519],[150.948417,-28.734381],[151.010299,-28.740641],[151.055809,-28.849073],[151.103478,-28.837047],[151.281944,-28.949959],[151.281159,-29.103695],[151.33931,-29.177266],[151.395282,-29.177187],[151.502799,-29.069884],[151.499374,-29.017755],[151.54908,-28.952484],[151.636751,-28.922061],[151.726628,-28.866876],[151.772735,-28.938251],[151.834235,-28.957209],[151.847287,-28.90863],[151.927348,-28.925411],[152.023571,-28.891181],[152.043603,-28.730613],[152.076049,-28.708175],[152.013854,-28.665753],[151.955149,-28.519412],[152.016864,-28.525281],[152.06929,-28.468759],[152.164947,-28.432626],[152.217189,-28.449236],[152.312222,-28.362717],[152.38508,-28.368855],[152.44275,-28.290772],[152.487617,-28.253908]]]},"bbox":[137.996879,-29.177266,152.487617,-21.308656]}]}