{"type":"FeatureCollection","features":[
{"properties":{"electorateShortName":"maribyrnong","electorateName":"Maribyrnong","area":97.87,"state":null},"type":"Feature","geometry":{"type":"Polygon","coordinates":[[[144.916493,-37.798214],[144.936253,-37.801719],[144.936622,-37.790583],[144.940362,-37.787619],[144.937074,-37.777774],[144.936339,-37.774116],[144.938447,-37.761167],[144.934577,-37.756592],[144.926719,-37.751462],[144.932833,-37.745468],[144.924412,-37.728788],[144.914588,-37.723818],[144.910201,-37.717904],[144.902964,-37.714741],[144.898013,-37.708841],[144.90376,-37.70422],[144.903008,-37.697249],[144.909592,-37.69402],[144.905747,-37.68887],[144.905434,-37.681206],[144.886588,-37.680508],[144.883488,-37.682175],[144.882268,-37.689121],[144.866336,-37.677922],[144.867576,-37.67104],[144.862811,-37.670485],[144.851817,-37.658993],[144.845442,-37.654777],[144.842998,-37.645038],[144.833918,-37.643988],[144.815865,-37.64127],[144.813369,-37.655095],[144.805678,-37.652917],[144.797644,-37.65475],[144.808837,-37.66497],[144.80475,-37.669517],[144.803342,-37.675267],[144.810007,-37.68151],[144.819833,-37.682828],[144.820229,-37.69255],[144.812304,-37.695152],[144.810576,-37.698761],[144.824878,-37.698377],[144.82524,-37.703457],[144.830849,-37.705588],[144.835358,-37.703427],[144.841558,-37.713174],[144.841726,-37.719684],[144.838326,-37.726587],[144.830334,-37.726644],[144.830502,-37.73459],[144.837214,-37.7414],[144.839456,-37.747046],[144.846761,-37.747919],[144.849607,-37.754715],[144.848295,-37.759738],[144.853851,-37.762429],[144.851212,-37.768458],[144.852653,-37.773229],[144.860775,-37.776128],[144.865126,-37.772304],[144.871243,-37.772768],[144.870618,-37.766395],[144.87299,-37.761669],[144.882004,-37.755899],[144.884295,-37.760988],[144.89409,-37.765796],[144.901648,-37.765449],[144.90194,-37.769616],[144.895969,-37.772814],[144.897927,-37.780619],[144.903984,-37.784582],[144.902889,-37.790758],[144.916493,-37.798214]]]},"bbox":[144.797644,-37.801719,144.940362,-37.64127]}]}