{"type":"FeatureCollection","features":[
{"properties":{"electorateShortName":"maribyrnong","electorateName":"Maribyrnong","area":97.87,"state":null},"type":"Feature","geometry":{"type":"MultiPolygon","coordinates":[[[[144.916493,-37.798214],[144.937074,-37.777774],[144.909592,-37.69402],[144.833918,-37.643988],[144.80475,-37.669517],[144.830334,-37.726644],[144.916493,-37.798214]]],[[[144.850369,-37.863943],[144.88384963197024,-37.88208539276103],[144.90277687152977,-37.88716268082096],[144.9177708538899,-37.890440553356264],[144.95127570208217,-37.890963393007986],[144.9675152228475,-37.88655145773115],[144.97598597755038,-37.8824331620877],[144.975658,-37.882121],[144.975503,-37.878642],[144.975607,-37.870261],[144.969681,-37.864589],[144.927165,-37.841327],[144.926912,-37.840035],[144.918525,-37.839688],[144.912499,-37.849458],[144.907213,-37.849526],[144.898362,-37.841204],[144.905593,-37.851732],[144.902042,-37.854318],[144.903492,-37.861283],[144.911555,-37.862068],[144.902906,-37.872753],[144.89215,-37.867605],[144.878621,-37.868083],[144.868582,-37.858712],[144.850369,-37.863943]]]]},"bbox":[144.80475,-37.890963393007986,144.97598597755038,-37.643988]}]}