{"type":"FeatureCollection","features":[
{"properties":{"electorateShortName":"mayo","electorateName":"Mayo","area":9134.78,"state":null},"type":"Feature","geometry":{"type":"MultiPolygon","coordinates":[[[[138.878089,-35.558867],[138.880768,-35.555786],[138.899397,-35.554881],[138.905531,-35.555812],[138.911913,-35.557922],[138.915136,-35.559381],[138.916006,-35.560588],[138.920027,-35.561079],[138.9239,-35.559006],[138.927697,-35.559815],[138.928806,-35.561763],[138.931535,-35.562441],[138.933832,-35.559885],[138.933856,-35.55729],[138.93579,-35.555499],[138.943049,-35.555814],[138.948175,-35.552744],[138.954046,-35.551104],[138.959807,-35.547804],[138.96301,-35.545372],[138.966274,-35.541346],[138.966368,-35.530388],[138.965952,-35.528807],[138.981025,-35.518259],[138.984371,-35.518734],[138.986404,-35.520118],[138.989648,-35.518869],[138.989845,-35.516948],[138.99168,-35.515891],[138.997182,-35.5141],[139.001369,-35.513158],[139.006917,-35.512766],[139.011125,-35.514701],[139.017492,-35.514921],[139.020699,-35.513821],[139.021523,-35.512237],[139.025332,-35.512302],[139.029754,-35.514046],[139.03377,-35.51312],[139.039542,-35.507556],[139.04138,-35.50508],[139.046729,-35.500949],[139.144709,-35.471704],[139.150775,-35.374659],[139.153896,-35.32535],[139.153863,-35.324322],[139.156887,-35.276819],[139.158312,-35.253485],[139.155585,-35.252645],[139.11146,-35.234088],[139.107617,-35.232366],[139.090615,-35.218926],[139.086072,-35.216629],[139.068108,-35.215307],[139.066437,-35.214865],[139.066698,-35.192527],[139.066687,-35.165936],[139.04365,-35.15015],[139.038078,-35.146122],[139.038793,-35.144248],[139.036648,-35.140621],[139.033507,-35.142218],[139.031191,-35.141588],[139.027421,-35.13878],[139.027356,-35.136597],[139.02875,-35.133492],[139.030319,-35.132155],[139.030116,-35.130569],[139.033144,-35.129527],[139.035745,-35.124027],[139.037137,-35.123504],[139.036897,-35.120811],[139.040733,-35.117723],[139.041149,-35.114801],[139.042582,-35.115087],[139.04403,-35.111613],[139.043852,-35.10869],[139.041934,-35.106799],[139.040621,-35.103232],[139.040392,-35.100833],[139.041688,-35.096559],[139.037744,-35.096167],[139.036679,-35.095033],[139.038329,-35.092758],[139.039187,-35.089417],[139.037558,-35.087567],[139.037974,-35.084355],[139.034996,-35.082553],[139.036065,-35.07982],[139.035971,-35.077692],[139.031967,-35.073983],[139.034394,-35.068826],[139.031458,-35.066845],[139.033632,-35.064746],[139.03102,-35.063517],[139.029078,-35.060404],[139.030357,-35.057266],[139.030548,-35.053491],[139.031539,-35.051758],[139.02951,-35.048611],[139.031796,-35.046018],[139.031496,-35.043638],[139.032892,-35.042781],[139.033355,-35.040351],[139.032311,-35.038906],[139.032989,-35.037172],[139.03132,-35.035472],[139.031084,-35.033321],[139.033429,-35.027363],[139.036571,-35.024544],[139.03582,-35.02298],[139.03738,-35.021137],[139.036824,-35.015766],[139.037553,-35.013434],[139.034882,-35.011701],[139.035895,-35.009604],[139.033954,-35.007773],[139.033398,-35.005728],[139.031236,-35.001844],[139.034902,-34.999073],[139.034074,-34.996142],[139.036738,-34.995275],[139.036422,-34.992633],[139.035151,-34.990886],[139.036519,-34.988653],[139.036917,-34.984096],[139.040541,-34.979077],[139.041161,-34.976666],[139.03938,-34.973388],[139.036452,-34.973526],[139.03495,-34.97072],[139.035769,-34.968764],[139.030257,-34.966607],[139.027696,-34.963022],[139.028285,-34.960611],[139.028227,-34.956885],[139.026035,-34.954714],[139.022451,-34.953789],[139.02204,-34.95251],[139.019372,-34.952625],[139.020385,-34.948833],[139.034957,-34.928687],[138.975208,-34.8949],[138.975941,-34.892699],[138.977665,-34.89163],[138.978134,-34.888276],[138.980012,-34.885749],[138.980761,-34.882973],[138.977132,-34.87837],[138.989425,-34.879003],[138.993324,-34.873558],[138.996696,-34.873564],[138.998926,-34.872736],[138.999043,-34.870121],[139.000892,-34.869828],[139.003827,-34.866909],[139.008523,-34.865581],[139.009075,-34.863681],[139.005413,-34.85822],[139.003061,-34.85687],[139.003917,-34.854697],[139.00191,-34.850872],[139.00569,-34.846932],[139.006916,-34.841273],[139.002976,-34.838525],[139.002876,-34.836371],[139.001475,-34.834427],[139.001894,-34.832388],[139.003422,-34.831229],[139.010199,-34.832343],[139.016283,-34.830971],[139.01913,-34.829347],[139.020842,-34.825779],[139.022794,-34.825215],[139.025074,-34.823358],[139.027407,-34.824998],[139.030687,-34.825193],[139.037326,-34.823293],[139.040592,-34.82011],[139.041528,-34.818379],[139.043574,-34.817193],[139.041774,-34.815338],[139.032714,-34.81089],[139.026911,-34.809829],[139.0216,-34.807485],[139.017542,-34.804627],[139.011238,-34.804146],[139.007496,-34.80211],[139.004581,-34.79914],[139.00478,-34.794065],[138.988073,-34.781386],[138.98808,-34.779468],[138.989908,-34.775893],[138.991086,-34.772277],[138.989422,-34.76976],[138.986886,-34.770411],[138.981673,-34.770756],[138.979761,-34.771668],[138.976951,-34.771425],[138.972456,-34.773414],[138.968466,-34.773453],[138.967229,-34.772406],[138.957392,-34.772915],[138.95183,-34.774582],[138.948101,-34.773129],[138.949522,-34.769128],[138.948565,-34.765403],[138.944017,-34.763536],[138.941905,-34.763468],[138.940667,-34.760821],[138.934342,-34.759466],[138.930541,-34.756935],[138.92426,-34.758511],[138.928028,-34.755628],[138.92924,-34.752708],[138.924226,-34.750444],[138.91959,-34.745022],[138.926849,-34.743768],[138.926642,-34.73471],[138.917461,-34.734708],[138.917484,-34.725582],[138.91557,-34.721464],[138.910074,-34.711241],[138.91065,-34.709285],[138.909409,-34.708276],[138.90502,-34.70865],[138.903451,-34.708054],[138.903769,-34.704757],[138.898079,-34.704891],[138.896334,-34.707484],[138.893578,-34.705368],[138.890836,-34.705119],[138.891769,-34.703243],[138.887929,-34.700579],[138.883365,-34.699945],[138.880715,-34.701254],[138.878684,-34.70082],[138.877457,-34.703268],[138.876239,-34.703525],[138.873105,-34.701372],[138.86752,-34.701508],[138.864908,-34.702497],[138.863426,-34.704268],[138.859883,-34.702896],[138.859758,-34.700713],[138.861909,-34.697395],[138.861939,-34.694908],[138.858655,-34.691888],[138.85492,-34.69173],[138.852213,-34.688326],[138.853394,-34.687132],[138.851313,-34.68522],[138.847693,-34.684426],[138.848597,-34.680974],[138.847549,-34.680538],[138.846939,-34.682323],[138.843385,-34.68518],[138.843026,-34.688084],[138.841335,-34.692938],[138.839953,-34.700378],[138.835862,-34.704693],[138.83464,-34.709155],[138.832696,-34.712674],[138.833565,-34.716121],[138.830191,-34.716164],[138.828067,-34.717044],[138.827957,-34.721072],[138.826329,-34.725541],[138.824931,-34.727412],[138.819551,-34.728794],[138.817276,-34.731825],[138.815938,-34.735785],[138.811986,-34.738485],[138.811628,-34.742121],[138.812869,-34.747462],[138.812674,-34.749847],[138.813344,-34.753481],[138.814875,-34.755399],[138.813778,-34.759445],[138.814577,-34.763399],[138.813581,-34.76501],[138.811735,-34.77059],[138.81156,-34.772616],[138.813864,-34.774914],[138.810323,-34.775393],[138.805752,-34.774103],[138.801883,-34.771326],[138.799363,-34.77051],[138.795804,-34.771098],[138.793297,-34.770663],[138.791652,-34.769185],[138.787461,-34.767852],[138.784667,-34.768293],[138.78019,-34.767026],[138.77473,-34.769065],[138.771673,-34.771546],[138.772941,-34.773503],[138.771216,-34.776911],[138.768021,-34.780351],[138.766113,-34.778175],[138.763527,-34.778569],[138.754659,-34.783292],[138.753767,-34.784234],[138.758651,-34.785649],[138.758664,-34.786533],[138.761808,-34.793197],[138.759915,-34.79609],[138.758361,-34.801018],[138.755114,-34.803441],[138.753271,-34.804113],[138.750851,-34.806979],[138.750269,-34.811233],[138.74902,-34.814462],[138.753519,-34.81748],[138.75282,-34.819623],[138.756098,-34.821073],[138.753844,-34.823008],[138.750427,-34.828628],[138.748627,-34.833954],[138.746168,-34.836968],[138.747028,-34.840674],[138.747662,-34.841809],[138.746403,-34.844686],[138.746161,-34.847067],[138.744939,-34.849576],[138.747367,-34.851853],[138.747715,-34.855599],[138.7485,-34.856758],[138.75147,-34.858028],[138.752673,-34.861325],[138.756521,-34.865551],[138.754538,-34.868756],[138.753014,-34.869045],[138.751949,-34.866041],[138.748727,-34.865334],[138.742428,-34.862141],[138.7413,-34.860218],[138.738693,-34.860708],[138.737328,-34.859421],[138.733133,-34.859261],[138.731234,-34.855908],[138.729629,-34.858998],[138.72689,-34.859966],[138.722694,-34.859199],[138.723826,-34.864323],[138.71897,-34.870125],[138.719788,-34.873976],[138.712763,-34.874338],[138.713249,-34.881587],[138.706968,-34.881873],[138.7079,-34.894075],[138.712735,-34.894238],[138.707447,-34.898168],[138.705582,-34.900971],[138.701786,-34.902853],[138.700188,-34.900547],[138.696987,-34.898381],[138.690752,-34.895272],[138.691256,-34.903457],[138.69521,-34.903277],[138.695756,-34.910464],[138.692195,-34.909266],[138.689858,-34.912253],[138.685021,-34.912204],[138.692079,-34.914634],[138.697848,-34.921228],[138.697784,-34.92672],[138.700998,-34.928249],[138.697579,-34.931909],[138.693491,-34.929239],[138.691182,-34.929314],[138.688994,-34.930713],[138.68467,-34.930912],[138.685227,-34.9381],[138.675456,-34.938728],[138.671866,-34.942077],[138.672408,-34.951125],[138.676619,-34.955863],[138.676668,-34.959227],[138.678665,-34.960806],[138.677365,-34.961927],[138.685944,-34.974632],[138.685236,-34.976197],[138.677893,-34.975447],[138.675338,-34.974486],[138.670041,-34.978219],[138.667416,-34.980781],[138.665171,-34.981662],[138.669404,-34.985798],[138.670803,-34.984757],[138.673752,-34.985276],[138.671399,-34.988126],[138.671219,-34.989486],[138.675241,-34.990667],[138.677605,-34.999002],[138.680021,-35.000422],[138.677069,-35.007325],[138.681316,-35.007596],[138.675584,-35.015608],[138.67171,-35.025805],[138.667823,-35.023967],[138.662695,-35.023488],[138.65991,-35.023829],[138.658296,-35.022805],[138.65484,-35.022615],[138.650947,-35.019676],[138.648654,-35.015738],[138.645418,-35.014972],[138.640815,-35.015921],[138.620448,-35.017094],[138.61855,-35.01832],[138.619434,-35.02321],[138.623691,-35.024847],[138.625591,-35.029366],[138.625461,-35.03062],[138.620766,-35.030869],[138.62057,-35.03234],[138.609845,-35.032867],[138.609926,-35.033948],[138.603737,-35.034095],[138.603896,-35.036037],[138.596186,-35.037534],[138.595895,-35.033368],[138.591033,-35.034502],[138.590142,-35.035949],[138.586311,-35.037955],[138.587329,-35.040326],[138.590406,-35.041171],[138.596759,-35.045825],[138.598983,-35.049336],[138.602394,-35.049089],[138.603656,-35.047631],[138.609921,-35.050006],[138.612048,-35.054319],[138.616316,-35.055235],[138.616552,-35.05747],[138.618485,-35.058342],[138.619279,-35.060528],[138.625424,-35.064487],[138.62212,-35.06507],[138.622366,-35.066405],[138.62805,-35.068859],[138.627004,-35.07147],[138.627653,-35.072774],[138.625232,-35.076779],[138.622192,-35.078614],[138.621092,-35.082948],[138.619261,-35.08613],[138.617193,-35.08555],[138.615965,-35.086912],[138.61281,-35.087601],[138.609779,-35.086361],[138.603828,-35.089634],[138.597513,-35.090831],[138.597718,-35.094158],[138.591477,-35.094115],[138.591666,-35.096493],[138.585352,-35.096859],[138.585573,-35.099818],[138.588047,-35.100608],[138.589267,-35.102779],[138.594487,-35.106827],[138.595342,-35.108644],[138.594277,-35.109895],[138.593269,-35.11581],[138.590721,-35.118747],[138.587581,-35.121279],[138.586759,-35.123299],[138.587234,-35.125284],[138.586353,-35.127521],[138.585624,-35.132359],[138.586716,-35.134327],[138.602783,-35.133541],[138.605034,-35.134235],[138.606714,-35.132699],[138.607192,-35.136612],[138.60555,-35.13722],[138.604891,-35.139487],[138.605755,-35.140694],[138.601392,-35.142323],[138.599345,-35.141485],[138.596335,-35.141939],[138.593333,-35.144755],[138.591016,-35.144799],[138.590359,-35.146246],[138.587602,-35.146005],[138.586053,-35.148148],[138.588495,-35.149058],[138.587409,-35.151972],[138.583559,-35.151886],[138.582688,-35.155535],[138.579705,-35.156046],[138.579769,-35.160161],[138.575643,-35.159567],[138.572425,-35.157445],[138.569786,-35.158877],[138.566039,-35.158471],[138.565726,-35.160393],[138.564179,-35.161855],[138.56072,-35.161166],[138.557026,-35.161358],[138.553573,-35.158904],[138.551209,-35.159298],[138.548137,-35.164058],[138.542929,-35.163404],[138.538839,-35.161144],[138.535265,-35.161345],[138.535072,-35.162897],[138.529714,-35.165238],[138.529969,-35.168304],[138.527819,-35.16806],[138.525184,-35.169385],[138.520022,-35.168865],[138.519665,-35.170492],[138.520645,-35.17265],[138.517818,-35.174183],[138.513392,-35.174976],[138.510199,-35.17647],[138.50819,-35.178406],[138.503579,-35.177793],[138.504568,-35.182107],[138.500642,-35.18457],[138.494959,-35.185227],[138.495826,-35.188171],[138.500347,-35.191223],[138.503368,-35.19464],[138.503825,-35.200534],[138.50236,-35.200599],[138.497854,-35.206051],[138.491008,-35.206586],[138.49008,-35.211919],[138.490361,-35.214287],[138.492298,-35.217749],[138.494274,-35.243023],[138.48149,-35.243694],[138.481677,-35.246305],[138.461979,-35.247361],[138.460289,-35.261048],[138.45047,-35.2689],[138.44405,-35.270675],[138.443088,-35.27262],[138.442395,-35.284476],[138.446634,-35.301025],[138.447529,-35.320045],[138.446006,-35.337163],[138.440354,-35.351062],[138.425845,-35.356413],[138.410451,-35.366405],[138.391453,-35.368821],[138.384877,-35.373563],[138.381895,-35.370906],[138.372819,-35.373919],[138.36265,-35.378484],[138.359218,-35.382999],[138.347553,-35.390649],[138.341253,-35.392864],[138.330235,-35.405464],[138.326318,-35.417161],[138.304253,-35.45],[138.294318,-35.468183],[138.287569,-35.474068],[138.28167,-35.475853],[138.26028,-35.490806],[138.247566,-35.497002],[138.24454,-35.500848],[138.229843,-35.505645],[138.223828,-35.510264],[138.217995,-35.511387],[138.214433,-35.509842],[138.212903,-35.512759],[138.193862,-35.52365],[138.187444,-35.523922],[138.183151,-35.521445],[138.169201,-35.518345],[138.165488,-35.519377],[138.161148,-35.527453],[138.153364,-35.531857],[138.150778,-35.53696],[138.12743,-35.555371],[138.121753,-35.564214],[138.117057,-35.576869],[138.114999,-35.57803],[138.115465,-35.581857],[138.109538,-35.589092],[138.108686,-35.592452],[138.096145,-35.600276],[138.093913,-35.603403],[138.096109,-35.614007],[138.09553,-35.623871],[138.100274,-35.629323],[138.104282,-35.631995],[138.115344,-35.632607],[138.118164,-35.637602],[138.124803,-35.640275],[138.128585,-35.645389],[138.135796,-35.645096],[138.139689,-35.649497],[138.144385,-35.650507],[138.145095,-35.652908],[138.149338,-35.65487],[138.155604,-35.654239],[138.156886,-35.658167],[138.162849,-35.660613],[138.171595,-35.660636],[138.177154,-35.663596],[138.179736,-35.662297],[138.185299,-35.664729],[138.191358,-35.66509],[138.201088,-35.663058],[138.210159,-35.663273],[138.217516,-35.660683],[138.222378,-35.662078],[138.226465,-35.659331],[138.227449,-35.660694],[138.232054,-35.659589],[138.240204,-35.65453],[138.243271,-35.655399],[138.245471,-35.653128],[138.247162,-35.653753],[138.25555,-35.649555],[138.263399,-35.642231],[138.275956,-35.639375],[138.283605,-35.638878],[138.288003,-35.640249],[138.299992,-35.638204],[138.358897,-35.640025],[138.367899,-35.642299],[138.373872,-35.639781],[138.38673,-35.638669],[138.389641,-35.640207],[138.39947,-35.6404],[138.401056,-35.638454],[138.403866,-35.640362],[138.410026,-35.640576],[138.415074,-35.638746],[138.420785,-35.63366],[138.431096,-35.629274],[138.440202,-35.630995],[138.450547,-35.630357],[138.456705,-35.632701],[138.465779,-35.630263],[138.479629,-35.634785],[138.483079,-35.632344],[138.494522,-35.63353],[138.510899,-35.637842],[138.52236,-35.642968],[138.555695,-35.619159],[138.559295,-35.613698],[138.565936,-35.608529],[138.574703,-35.605663],[138.580769,-35.605781],[138.582355,-35.604275],[138.581985,-35.601239],[138.592269,-35.594548],[138.600091,-35.592284],[138.602268,-35.594677],[138.603774,-35.594283],[138.606049,-35.590311],[138.59803,-35.585593],[138.59822,-35.579469],[138.612679,-35.565224],[138.613193,-35.561832],[138.619896,-35.55778],[138.626004,-35.557911],[138.625371,-35.550534],[138.631381,-35.543926],[138.645214,-35.539476],[138.662407,-35.536439],[138.678334,-35.536402],[138.684432,-35.538108],[138.686199,-35.536585],[138.684109,-35.535097],[138.685262,-35.533165],[138.691072,-35.532875],[138.695197,-35.529053],[138.69539,-35.527267],[138.692449,-35.526251],[138.694132,-35.521804],[138.711492,-35.513428],[138.738273,-35.515953],[138.785994,-35.526629],[138.817882,-35.536615],[138.878089,-35.558867]]],[[[138.134906,-35.841439],[138.128129,-35.838765],[138.125483,-35.833915],[138.123264,-35.83424],[138.123636,-35.827507],[138.119071,-35.819876],[138.124551,-35.811165],[138.125725,-35.80235],[138.12396,-35.802445],[138.121357,-35.806967],[138.117296,-35.808783],[138.106517,-35.809476],[138.089908,-35.804474],[138.07695,-35.795898],[138.072186,-35.790986],[138.066857,-35.780365],[138.068533,-35.765753],[138.06779,-35.759784],[138.058969,-35.751822],[138.0469,-35.746492],[138.04545,-35.745259],[138.045983,-35.742821],[138.038516,-35.740708],[138.033315,-35.742129],[138.029547,-35.737152],[138.021679,-35.737405],[138.020166,-35.733525],[138.01553,-35.732456],[138.015187,-35.730705],[138.012211,-35.729453],[138.007089,-35.728602],[138.005581,-35.726301],[137.993636,-35.726502],[137.991324,-35.724467],[137.973313,-35.719802],[137.96516,-35.719639],[137.95875,-35.722274],[137.94621,-35.721414],[137.942614,-35.720192],[137.940728,-35.716206],[137.934864,-35.716437],[137.935168,-35.718671],[137.929486,-35.719687],[137.915576,-35.719725],[137.906916,-35.716858],[137.900608,-35.719757],[137.898563,-35.72352],[137.8949,-35.725039],[137.893642,-35.728166],[137.894784,-35.741846],[137.891753,-35.745698],[137.892535,-35.757945],[137.881494,-35.765614],[137.874469,-35.773446],[137.866593,-35.776536],[137.865213,-35.778436],[137.866165,-35.779761],[137.859481,-35.786562],[137.857905,-35.790902],[137.852159,-35.79495],[137.833309,-35.798053],[137.831294,-35.800261],[137.822554,-35.800182],[137.800823,-35.795775],[137.780567,-35.784621],[137.777351,-35.784445],[137.77905,-35.790904],[137.778092,-35.796203],[137.772983,-35.798432],[137.770571,-35.797259],[137.762804,-35.798023],[137.762393,-35.803409],[137.758373,-35.806042],[137.76301,-35.80647],[137.765434,-35.810842],[137.770736,-35.814085],[137.774677,-35.812471],[137.77397,-35.811241],[137.776633,-35.808332],[137.782923,-35.811862],[137.790559,-35.812196],[137.798297,-35.810204],[137.810688,-35.815249],[137.814758,-35.822033],[137.812494,-35.825357],[137.807109,-35.822162],[137.805137,-35.823012],[137.806517,-35.826132],[137.802718,-35.829479],[137.797982,-35.830584],[137.798239,-35.83354],[137.796662,-35.834287],[137.781015,-35.830742],[137.772401,-35.822796],[137.768882,-35.824986],[137.768561,-35.828525],[137.766489,-35.830782],[137.763776,-35.830554],[137.760509,-35.833317],[137.755722,-35.832208],[137.754157,-35.833933],[137.755423,-35.837059],[137.762208,-35.838863],[137.761863,-35.84095],[137.758288,-35.843101],[137.754379,-35.842984],[137.74926,-35.834317],[137.750323,-35.830942],[137.748826,-35.829043],[137.753974,-35.825677],[137.749499,-35.822868],[137.747764,-35.823746],[137.745875,-35.822572],[137.743908,-35.811414],[137.746078,-35.800946],[137.755263,-35.793422],[137.758074,-35.792805],[137.760125,-35.78963],[137.772751,-35.788005],[137.771947,-35.780922],[137.778458,-35.775145],[137.781282,-35.774636],[137.790032,-35.765287],[137.800636,-35.760953],[137.803452,-35.757605],[137.799702,-35.748718],[137.793007,-35.745141],[137.792524,-35.737731],[137.786036,-35.735039],[137.783851,-35.730058],[137.784268,-35.727326],[137.780334,-35.723932],[137.76861,-35.722997],[137.732946,-35.735625],[137.724069,-35.73424],[137.708393,-35.738652],[137.69626,-35.739791],[137.667942,-35.739553],[137.626884,-35.731666],[137.616692,-35.735178],[137.596038,-35.735349],[137.585827,-35.732437],[137.577915,-35.725671],[137.57711,-35.720968],[137.583355,-35.715124],[137.578323,-35.717104],[137.579197,-35.709027],[137.580111,-35.707615],[137.583935,-35.708807],[137.588058,-35.704125],[137.590861,-35.703187],[137.590845,-35.700935],[137.603349,-35.692678],[137.604601,-35.688205],[137.602614,-35.686102],[137.605689,-35.678765],[137.621391,-35.665136],[137.631407,-35.660369],[137.635754,-35.660249],[137.64369,-35.654125],[137.642439,-35.652763],[137.641217,-35.638891],[137.638953,-35.641683],[137.632281,-35.641924],[137.616545,-35.63609],[137.589341,-35.643213],[137.580481,-35.64155],[137.577526,-35.639039],[137.577857,-35.636415],[137.575159,-35.635485],[137.573069,-35.636966],[137.569756,-35.63243],[137.57036,-35.627845],[137.568206,-35.623216],[137.569625,-35.618675],[137.574684,-35.612801],[137.598203,-35.595276],[137.606786,-35.591003],[137.615658,-35.589155],[137.623342,-35.592563],[137.626677,-35.597161],[137.630374,-35.5909],[137.630437,-35.573792],[137.631701,-35.570795],[137.633859,-35.569914],[137.634199,-35.565733],[137.632066,-35.563675],[137.629682,-35.564533],[137.621661,-35.561188],[137.613418,-35.568285],[137.605438,-35.57151],[137.598821,-35.571154],[137.595094,-35.565343],[137.591737,-35.564088],[137.585803,-35.568432],[137.564368,-35.571125],[137.562093,-35.574995],[137.55762,-35.575886],[137.551643,-35.583152],[137.545784,-35.587221],[137.533586,-35.59257],[137.518809,-35.595531],[137.507196,-35.593907],[137.502974,-35.585924],[137.490998,-35.579767],[137.484967,-35.581074],[137.483843,-35.584421],[137.481309,-35.586057],[137.465719,-35.588301],[137.454823,-35.594315],[137.446932,-35.596223],[137.434367,-35.594258],[137.41308,-35.588097],[137.384503,-35.590662],[137.372158,-35.585551],[137.363938,-35.58742],[137.351365,-35.587009],[137.342919,-35.582281],[137.32702,-35.578233],[137.313489,-35.57924],[137.309586,-35.58058],[137.305977,-35.584319],[137.306203,-35.586696],[137.302213,-35.587828],[137.302572,-35.589471],[137.296421,-35.590178],[137.286373,-35.595028],[137.285143,-35.598036],[137.268693,-35.603573],[137.260626,-35.600332],[137.257919,-35.602572],[137.239456,-35.604191],[137.231897,-35.608315],[137.234419,-35.610681],[137.230973,-35.612666],[137.227947,-35.612027],[137.224468,-35.616932],[137.221316,-35.61796],[137.211204,-35.616764],[137.209379,-35.621177],[137.203466,-35.624715],[137.187543,-35.622965],[137.184955,-35.621209],[137.181662,-35.622495],[137.181455,-35.625426],[137.179655,-35.626761],[137.169439,-35.62958],[137.16347,-35.633111],[137.155467,-35.629432],[137.149621,-35.632272],[137.147633,-35.63025],[137.142041,-35.630367],[137.141532,-35.632428],[137.137108,-35.633787],[137.137954,-35.635475],[137.133804,-35.637394],[137.134248,-35.639334],[137.127559,-35.63953],[137.128161,-35.642509],[137.125294,-35.642977],[137.124277,-35.647189],[137.120777,-35.648078],[137.122667,-35.649872],[137.12178,-35.651733],[137.117827,-35.651815],[137.114239,-35.655527],[137.112636,-35.654473],[137.110389,-35.655896],[137.107866,-35.655266],[137.103182,-35.658094],[137.099983,-35.657084],[137.09936,-35.658463],[137.093665,-35.658131],[137.092768,-35.660297],[137.088454,-35.659943],[137.086486,-35.662387],[137.084378,-35.661476],[137.080912,-35.663548],[137.074103,-35.66334],[137.072739,-35.667359],[137.069652,-35.669155],[137.054882,-35.666868],[137.040105,-35.670153],[137.034722,-35.67062],[137.031368,-35.669134],[137.026943,-35.67191],[137.018734,-35.673259],[137.014258,-35.672417],[137.009903,-35.673823],[136.998758,-35.671858],[136.979962,-35.67425],[136.976604,-35.6724],[136.973188,-35.673523],[136.97173,-35.675797],[136.969276,-35.67332],[136.962353,-35.675584],[136.958606,-35.67372],[136.952722,-35.674107],[136.942609,-35.676798],[136.939061,-35.676147],[136.925991,-35.680946],[136.914912,-35.682109],[136.904591,-35.68591],[136.897569,-35.686047],[136.891787,-35.688922],[136.881789,-35.687596],[136.879651,-35.68839],[136.871928,-35.687725],[136.872174,-35.689066],[136.867601,-35.689614],[136.866068,-35.692357],[136.86171,-35.693844],[136.846784,-35.692059],[136.847326,-35.694749],[136.844142,-35.69338],[136.839381,-35.695608],[136.82789,-35.69657],[136.825542,-35.695532],[136.824003,-35.699219],[136.820552,-35.697498],[136.8175,-35.699348],[136.810849,-35.698675],[136.805895,-35.700112],[136.804431,-35.702021],[136.8008,-35.699989],[136.783664,-35.700213],[136.781125,-35.701858],[136.78228,-35.703838],[136.779564,-35.706953],[136.778416,-35.71221],[136.766483,-35.715244],[136.766846,-35.71651],[136.758786,-35.722716],[136.748107,-35.723853],[136.73876,-35.722131],[136.732128,-35.723938],[136.720292,-35.720286],[136.71751,-35.72248],[136.717248,-35.725262],[136.712702,-35.727991],[136.711865,-35.731354],[136.697258,-35.739468],[136.691414,-35.739596],[136.671908,-35.744532],[136.658268,-35.745861],[136.652072,-35.744129],[136.640322,-35.746744],[136.639375,-35.748447],[136.629042,-35.749002],[136.626947,-35.746905],[136.616721,-35.745218],[136.604606,-35.745331],[136.596875,-35.747954],[136.587436,-35.748857],[136.582184,-35.75385],[136.580524,-35.760782],[136.573788,-35.76589],[136.579361,-35.792374],[136.577621,-35.797405],[136.571257,-35.801207],[136.571036,-35.807548],[136.565842,-35.809577],[136.568034,-35.821109],[136.560478,-35.828319],[136.564308,-35.842852],[136.563908,-35.849535],[136.561724,-35.852489],[136.555077,-35.854103],[136.554748,-35.855409],[136.541723,-35.85823],[136.539651,-35.861061],[136.540567,-35.864054],[136.538317,-35.864976],[136.538934,-35.867223],[136.535739,-35.870012],[136.53558,-35.874126],[136.532942,-35.876557],[136.53819,-35.879226],[136.534558,-35.881876],[136.536053,-35.883847],[136.53441,-35.886475],[136.543222,-35.88455],[136.549201,-35.88435],[136.550858,-35.887591],[136.54581,-35.889908],[136.545247,-35.892712],[136.538853,-35.899329],[136.550767,-35.90193],[136.554694,-35.905733],[136.553144,-35.907962],[136.555967,-35.910999],[136.561888,-35.913059],[136.564073,-35.91713],[136.579779,-35.930728],[136.579125,-35.936362],[136.58101,-35.939183],[136.580876,-35.942063],[136.581657,-35.945967],[136.580047,-35.947909],[136.581743,-35.950849],[136.58781,-35.95081],[136.592222,-35.953022],[136.594127,-35.954931],[136.594303,-35.9601],[136.598472,-35.960667],[136.59835,-35.961762],[136.625028,-35.954423],[136.628994,-35.956346],[136.629832,-35.960424],[136.638807,-35.960671],[136.64281,-35.963131],[136.652669,-35.965182],[136.66562,-35.975745],[136.666224,-35.978634],[136.672829,-35.984389],[136.677604,-35.992311],[136.689064,-36.004771],[136.691396,-36.012244],[136.694982,-36.014478],[136.696124,-36.018237],[136.701904,-36.02374],[136.708435,-36.036926],[136.707002,-36.043206],[136.704949,-36.045282],[136.706699,-36.047274],[136.705634,-36.051282],[136.701047,-36.05429],[136.696256,-36.054659],[136.696971,-36.058167],[136.705236,-36.064064],[136.709332,-36.056977],[136.713532,-36.05592],[136.718766,-36.057968],[136.720168,-36.055567],[136.71841,-36.051294],[136.720525,-36.049403],[136.723092,-36.049548],[136.727088,-36.045071],[136.733787,-36.043446],[136.746369,-36.044756],[136.753452,-36.046293],[136.753613,-36.048192],[136.75799,-36.049731],[136.763364,-36.047878],[136.764109,-36.045267],[136.766365,-36.044006],[136.770716,-36.045314],[136.774976,-36.043631],[136.773078,-36.03831],[136.776572,-36.037756],[136.776332,-36.034024],[136.781837,-36.031408],[136.800512,-36.032175],[136.812343,-36.035051],[136.814521,-36.036483],[136.814436,-36.038726],[136.817813,-36.037993],[136.815741,-36.036378],[136.817304,-36.033252],[136.824789,-36.031457],[136.827447,-36.025269],[136.831676,-36.026004],[136.829469,-36.022192],[136.831686,-36.019765],[136.841102,-36.01804],[136.852261,-36.019888],[136.854045,-36.016575],[136.867262,-36.019343],[136.873424,-36.023932],[136.891835,-36.029749],[136.904291,-36.037507],[136.907828,-36.042479],[136.910146,-36.041119],[136.915453,-36.043576],[136.921988,-36.040973],[136.921494,-36.039498],[136.923406,-36.037713],[136.928327,-36.0391],[136.930281,-36.034337],[136.942162,-36.026688],[136.94907,-36.029844],[136.957731,-36.025544],[136.960169,-36.027072],[136.964896,-36.026807],[136.96989,-36.021596],[136.973439,-36.021436],[136.974104,-36.023168],[136.99119,-36.020788],[136.997279,-36.017338],[137.001871,-36.020188],[137.010144,-36.019256],[137.017994,-36.020775],[137.024518,-36.022907],[137.028309,-36.026442],[137.035157,-36.026003],[137.036082,-36.027651],[137.044965,-36.026511],[137.047014,-36.027585],[137.050806,-36.023665],[137.056253,-36.022167],[137.05762,-36.0201],[137.063109,-36.022172],[137.069842,-36.020009],[137.07476,-36.021487],[137.082898,-36.021181],[137.092381,-36.025105],[137.094282,-36.023468],[137.097046,-36.023812],[137.097498,-36.020093],[137.102588,-36.018171],[137.122566,-36.026635],[137.122064,-36.030118],[137.130947,-36.033985],[137.137486,-36.029403],[137.137868,-36.024804],[137.142006,-36.024582],[137.142711,-36.022416],[137.145803,-36.020706],[137.150841,-36.023097],[137.155371,-36.022276],[137.156473,-36.027035],[137.162682,-36.024739],[137.163038,-36.023251],[137.160832,-36.022091],[137.161316,-36.016479],[137.169137,-36.014745],[137.168805,-36.011395],[137.169952,-36.01082],[137.176463,-36.010021],[137.177617,-36.004344],[137.189772,-35.997078],[137.184203,-35.996628],[137.179962,-35.993958],[137.17861,-35.990349],[137.180849,-35.983985],[137.192306,-35.976693],[137.20949,-35.973988],[137.229213,-35.977136],[137.231526,-35.97852],[137.23131,-35.980865],[137.235788,-35.979375],[137.23688,-35.982309],[137.239245,-35.98104],[137.241988,-35.981784],[137.24137,-35.983235],[137.246139,-35.982639],[137.250182,-35.984661],[137.250534,-35.982631],[137.253147,-35.981584],[137.257945,-35.982221],[137.270664,-35.988649],[137.270201,-35.991275],[137.277285,-35.992297],[137.278364,-35.994258],[137.285415,-35.990762],[137.288866,-35.991727],[137.296192,-35.990322],[137.298111,-35.991637],[137.302543,-35.990891],[137.302774,-35.993405],[137.323105,-35.995906],[137.324716,-35.997958],[137.329927,-35.994525],[137.33182,-35.995384],[137.332641,-35.993027],[137.340854,-35.995878],[137.34682,-35.993707],[137.352838,-35.994094],[137.359841,-35.996406],[137.361537,-36.000278],[137.365244,-35.997982],[137.371018,-35.998416],[137.374885,-36.003174],[137.372234,-36.006925],[137.374391,-36.008374],[137.377304,-36.005964],[137.38045,-36.0082],[137.379444,-36.013892],[137.383827,-36.015066],[137.396838,-36.023915],[137.403302,-36.032255],[137.406806,-36.032412],[137.405847,-36.034576],[137.407484,-36.03629],[137.41078,-36.035816],[137.414589,-36.040002],[137.420237,-36.041416],[137.433812,-36.052892],[137.456643,-36.066279],[137.458241,-36.068261],[137.458258,-36.073187],[137.460723,-36.074971],[137.463254,-36.072508],[137.467349,-36.072844],[137.46757,-36.070298],[137.47452,-36.066102],[137.48278,-36.065675],[137.480444,-36.063224],[137.485394,-36.057029],[137.487137,-36.057687],[137.492552,-36.054714],[137.499856,-36.056595],[137.504002,-36.055873],[137.506812,-36.05332],[137.505833,-36.050959],[137.51332,-36.047234],[137.519693,-36.03761],[137.522629,-36.038009],[137.53225,-36.031236],[137.535973,-36.025864],[137.541709,-36.024075],[137.546981,-36.024827],[137.551883,-36.021774],[137.559419,-36.023076],[137.571649,-36.021558],[137.578955,-36.018148],[137.58664,-36.019559],[137.593978,-36.010196],[137.602643,-36.00929],[137.604748,-36.005596],[137.604179,-36.003462],[137.607722,-36.001635],[137.608033,-35.996932],[137.614907,-35.99176],[137.614473,-35.989804],[137.616799,-35.989256],[137.615774,-35.982969],[137.620444,-35.978592],[137.605102,-35.964858],[137.599337,-35.951333],[137.59973,-35.946606],[137.598172,-35.942693],[137.601208,-35.929985],[137.611978,-35.913111],[137.630401,-35.899304],[137.651523,-35.887856],[137.660289,-35.884899],[137.701415,-35.876829],[137.714783,-35.875765],[137.726115,-35.876742],[137.729142,-35.87382],[137.728057,-35.872876],[137.730565,-35.870668],[137.730658,-35.867589],[137.73699,-35.863106],[137.73747,-35.861246],[137.734907,-35.859596],[137.736051,-35.855389],[137.741097,-35.853115],[137.749215,-35.852059],[137.751146,-35.85405],[137.755199,-35.85129],[137.759675,-35.852383],[137.771777,-35.85118],[137.772527,-35.852807],[137.775406,-35.850832],[137.791082,-35.853421],[137.794567,-35.851286],[137.798618,-35.853524],[137.803232,-35.850616],[137.807288,-35.852556],[137.815333,-35.852397],[137.830155,-35.855947],[137.835816,-35.855281],[137.856083,-35.859755],[137.868139,-35.863259],[137.870564,-35.865149],[137.874263,-35.870569],[137.878816,-35.868912],[137.879382,-35.870293],[137.883486,-35.87037],[137.883293,-35.867983],[137.886186,-35.864813],[137.886541,-35.867379],[137.891234,-35.867543],[137.904912,-35.861025],[137.911134,-35.859789],[137.912844,-35.861406],[137.93789,-35.864917],[137.944361,-35.868486],[137.95756,-35.872413],[137.974202,-35.880236],[137.975796,-35.881916],[137.974776,-35.884425],[137.975767,-35.885859],[137.97802,-35.886243],[137.980629,-35.884271],[137.994158,-35.888079],[138.006636,-35.89373],[138.01026,-35.897873],[138.02023,-35.902429],[138.037705,-35.902727],[138.040822,-35.904274],[138.05626,-35.895055],[138.059115,-35.887547],[138.065273,-35.880684],[138.06853,-35.880962],[138.075244,-35.876902],[138.07574,-35.874497],[138.078312,-35.874695],[138.08666,-35.865426],[138.089149,-35.86401],[138.090017,-35.862568],[138.097519,-35.859149],[138.110893,-35.848409],[138.11735,-35.848939],[138.119088,-35.846756],[138.123901,-35.845135],[138.12666,-35.848195],[138.132264,-35.845304],[138.134906,-35.841439]]],[[[138.635532,-35.563835],[138.629308,-35.56208],[138.625808,-35.563784],[138.626022,-35.565124],[138.630733,-35.566868],[138.635532,-35.563835]]],[[[137.776387,-35.822066],[137.770066,-35.818469],[137.770175,-35.821133],[137.774869,-35.823689],[137.776387,-35.822066]]],[[[138.594028,-35.607963],[138.592823,-35.606865],[138.59032,-35.607798],[138.589504,-35.610878],[138.592557,-35.610993],[138.594028,-35.607963]]],[[[137.807526,-35.818054],[137.800945,-35.819802],[137.804018,-35.821361],[137.807526,-35.818054]]],[[[137.643796,-35.625267],[137.641018,-35.621982],[137.639211,-35.622209],[137.639877,-35.624528],[137.643796,-35.625267]]],[[[137.752744,-35.807837],[137.751789,-35.803419],[137.746859,-35.808536],[137.752744,-35.807837]]],[[[136.705037,-36.066751],[136.700261,-36.065764],[136.703852,-36.068821],[136.705037,-36.066751]]],[[[136.538701,-35.900184],[136.536711,-35.899424],[136.533895,-35.901488],[136.535954,-35.902186],[136.538701,-35.900184]]]]},"bbox":[136.532942,-36.074971,139.158312,-34.680538]}]}