{"type":"FeatureCollection","features":[
{"properties":{"electorateShortName":"mayo","electorateName":"Mayo","area":9134.78,"state":null},"type":"Feature","geometry":{"type":"MultiPolygon","coordinates":[[[[138.461979,-35.247361],[138.46993,-35.239157],[138.467525,-35.219357],[138.470605,-35.203313],[138.465391,-35.173377],[138.469941,-35.164377],[138.466484,-35.144105],[138.46975,-35.140369],[138.467413,-35.121535],[138.480986,-35.094714],[138.493568,-35.084609],[138.48003519846705,-35.088235875589746],[138.45436839736377,-35.10233478689773],[138.44081844285466,-35.11322314386816],[138.43967224803413,-35.114540923080185],[138.42965467675745,-35.12329683476661],[138.41926826241726,-35.13653498582742],[138.41152753133827,-35.15147511061664],[138.4056833121342,-35.17740565306538],[138.39434299535952,-35.18798616630532],[138.38260664964247,-35.20549718261227],[138.37349226860348,-35.21480366083423],[138.3633781052496,-35.230774556426276],[138.3560864035899,-35.249582590812],[138.35267222535776,-35.28577748824463],[138.33596038925728,-35.29181271026457],[138.31270867058885,-35.30361168457802],[138.28459982530464,-35.322932477801935],[138.2624844477784,-35.346219906001764],[138.2521681970458,-35.3606803615088],[138.24483577096947,-35.37705618164233],[138.2267295517668,-35.4044491790641],[138.198943501867,-35.42134558806367],[138.17533929569373,-35.42919613565331],[138.145099803065,-35.431632069555334],[138.12450810107924,-35.43924805464039],[138.1092900434251,-35.4490791360438],[138.08321238624248,-35.47562351876059],[138.06077978616864,-35.49489167298462],[138.04601662040028,-35.51559300859583],[138.03771253583164,-35.53222721544474],[138.02065958035652,-35.551115941270936],[138.011512166279,-35.567207660492166],[138.0058501916164,-35.58483039168573],[138.00391314993647,-35.603238718098815],[138.00632628328657,-35.63538287646088],[137.97511197817212,-35.62981998136552],[137.93718538612245,-35.6262757498785],[137.92058292284543,-35.628058817996525],[137.90191984625253,-35.6269967822933],[137.8852462119407,-35.62950572306651],[137.86302517345214,-35.637979673382695],[137.83847963782577,-35.65534016521587],[137.82356822735807,-35.64499657332254],[137.8060986233256,-35.63769868749902],[137.78748886726953,-35.634216851477824],[137.75691059202816,-35.63376066293315],[137.73222763471446,-35.63972047148457],[137.73298346781056,-35.613200700420485],[137.72912356851475,-35.59664522417527],[137.7226943697293,-35.58217945985133],[137.72378679547535,-35.55712911123574],[137.71525808443005,-35.526625138496705],[137.7071116203907,-35.51297174728778],[137.69455674279106,-35.49890689777814],[137.6815393262931,-35.488492621841964],[137.66682448439477,-35.48065784657627],[137.64049096316572,-35.473179861244674],[137.62404187629176,-35.471219497577856],[137.57068959362806,-35.47658367619246],[137.5370965847809,-35.48535629992855],[137.51839296201175,-35.494089919439006],[137.48727829043924,-35.489843900849756],[137.46590525184266,-35.49311577265778],[137.44016903166042,-35.502243533777964],[137.42171613104813,-35.49851230688494],[137.39607549101274,-35.4992614710576],[137.36512519345877,-35.49506354204535],[137.33488609275707,-35.488577411302266],[137.30680951905967,-35.4894882059546],[137.28426412782534,-35.49411710738952],[137.26125405959948,-35.504658833405166],[137.25367158696946,-35.51085338613952],[137.21342272181954,-35.5180384119531],[137.1836586204087,-35.53143667375658],[137.1689647840175,-35.53264087371953],[137.14613504237823,-35.54006412667493],[137.1300225191903,-35.54045741049684],[137.11250492908334,-35.54445535268779],[137.09613062763003,-35.5518534441196],[137.0685020226318,-35.57216387567573],[137.04955788615268,-35.57727379299798],[137.00091500038693,-35.581883851772126],[136.94681531951528,-35.58430103624674],[136.92347034285044,-35.58750766668998],[136.8888227811444,-35.59648702423017],[136.87158173748642,-35.59661550342796],[136.84346720432725,-35.602351302150744],[136.80937537757134,-35.60699590386261],[136.79750561662237,-35.61002437481321],[136.76575333580143,-35.61201318079402],[136.7496453613169,-35.61688994063376],[136.7266341984246,-35.63072672084451],[136.71109338238907,-35.63075731502112],[136.69341849000878,-35.63439179495245],[136.67682388374993,-35.64147912929908],[136.65872545757233,-35.65457699163115],[136.63137043892752,-35.65641825935224],[136.61588158129237,-35.65522191466162],[136.5895382559335,-35.65660128069048],[136.55938495827644,-35.6633401065916],[136.54127644861916,-35.671595781938684],[136.52542505154005,-35.68362938107136],[136.50887206184996,-35.70164502203157],[136.49685126015402,-35.71919162677488],[136.48947187657316,-35.73441316200335],[136.48507114676303,-35.75074668623677],[136.48316738370642,-35.7740114573961],[136.47639367950413,-35.79679780828339],[136.4584568458277,-35.822234342556335],[136.44570115131458,-35.85444287960943],[136.4430810861677,-35.87155538373901],[136.44402443264013,-35.90631305154561],[136.44673811988926,-35.92393077722034],[136.4528708139788,-35.940668113317834],[136.46218194040654,-35.955868484401535],[136.4743062405159,-35.96893560739378],[136.49787213252844,-35.98348856752037],[136.5037845315118,-35.995820960052626],[136.5149200914934,-36.01113746406004],[136.52901397580894,-36.02378493084248],[136.5483687262059,-36.03749536479019],[136.57032897831425,-36.047288734672186],[136.58743413090178,-36.05109756851462],[136.60495313435518,-36.05151944323836],[136.60168579023215,-36.07626702591744],[136.60203827008536,-36.09407050454507],[136.60588908226157,-36.11145611177851],[136.61308748025573,-36.12774325884634],[136.62597067069814,-36.145320358043755],[136.6402859033171,-36.15861917385943],[136.65713392639705,-36.16851505711121],[136.67572062732506,-36.17454157647545],[136.695169942864,-36.17641467874211],[136.71626560412025,-36.17429802065706],[136.7335913838476,-36.16861017472488],[136.749414996256,-36.15954664754966],[136.76962808668142,-36.13877956215493],[136.80619517780704,-36.128066297603404],[136.8283241421021,-36.128096373388644],[136.8441734182712,-36.124562020258274],[136.85926473943087,-36.118148518940345],[136.87308544513343,-36.12550282116805],[136.88898392295064,-36.13048411780663],[136.91299920023317,-36.13354254304076],[136.93120189704584,-36.13218735503896],[136.95913418102748,-36.12366309831799],[136.9752134635115,-36.11586882222588],[136.99802169921185,-36.11119268973742],[137.02977004838996,-36.117429389754285],[137.05311434362056,-36.11737801647518],[137.07384782643587,-36.113167382728065],[137.09016834721353,-36.11507779682019],[137.11251796647667,-36.122077966367335],[137.13077894988433,-36.1239848431063],[137.149046927075,-36.12214617422017],[137.18768789433116,-36.11144844899893],[137.20976572344478,-36.101440518802264],[137.22382506342282,-36.09078084881779],[137.23828375383823,-36.075254130406464],[137.26823959596416,-36.08368672269534],[137.29377160240608,-36.084602477619185],[137.32693241862006,-36.0879307041302],[137.35105216593507,-36.11037303891679],[137.36599593749241,-36.11960635848631],[137.38022853948414,-36.12493051499278],[137.4079565218811,-36.14787983888066],[137.42347271497437,-36.15690033702594],[137.44047028124209,-36.1626626608516],[137.4582732597169,-36.16493765366982],[137.47617365971578,-36.16363484333169],[137.49477442424458,-36.15856357830628],[137.5509784223669,-36.13264028301566],[137.57571422855747,-36.11174404111757],[137.60283811003143,-36.10808934073926],[137.61853316642154,-36.10371852670737],[137.63318307661973,-36.0965897861752],[137.65876984338541,-36.079644654796894],[137.67103129654106,-36.067796759406164],[137.69163856588662,-36.03924639285602],[137.69964978159857,-36.02440920737149],[137.70872314911446,-35.99610747406223],[137.709218703474,-35.96701405588239],[137.737553130691,-35.96601220312677],[137.75620292528706,-35.96156367619141],[137.77348723239933,-35.95326566691098],[137.78670417909694,-35.94298608173905],[137.8064820940712,-35.94282253658894],[137.82484934816569,-35.94579047532577],[137.8495982273556,-35.95712331237322],[137.86808263913014,-35.96035654445645],[137.89843041429702,-35.95912057454078],[137.91827605443467,-35.95457316560532],[137.94337820560952,-35.96982903035567],[137.96504227192486,-35.97510701694078],[137.98282326402787,-35.984287024065516],[138.00033966355286,-35.99020356645304],[138.03532797301713,-35.994106152748955],[138.05326695472527,-35.993409420018565],[138.07071076166972,-35.9891660604406],[138.1024033187676,-35.972325913888156],[138.11835165152448,-35.96020580053969],[138.12675851811886,-35.95018258551112],[138.14576319969902,-35.935757508023926],[138.16792222892457,-35.928178926286314],[138.18610120836286,-35.91742580665856],[138.1972143212714,-35.907605330376995],[138.20920580817383,-35.89222815735992],[138.21779395889467,-35.876504456938086],[138.2230973817034,-35.859391164026704],[138.22490590975366,-35.84156645325624],[138.24981603924465,-35.858780049381316],[138.26649639458682,-35.86527152435025],[138.28413148690927,-35.86833371643958],[138.30202380802947,-35.867845508957664],[138.31946567577833,-35.86382621162555],[138.3357672244466,-35.856434796833405],[138.35292869054925,-35.84362261191936],[138.36537075441532,-35.830106781796104],[138.38649345385844,-35.79420588743816],[138.39182217578528,-35.777020596622584],[138.39362599602148,-35.75911876067359],[138.38842440703255,-35.730200459944996],[138.42405616192158,-35.72947568816849],[138.44877099479476,-35.72192416314433],[138.48450835527856,-35.72463024333985],[138.50338630077917,-35.73094526261869],[138.5219769984483,-35.732967185050825],[138.54058423148646,-35.731103562554104],[138.5584046677309,-35.72543485351199],[138.5746689434853,-35.71620579373692],[138.5966755550144,-35.700487917213856],[138.62323548583547,-35.69560287239586],[138.63887489720034,-35.6881593942331],[138.65279885059056,-35.677857934288646],[138.66449164995063,-35.6650800237347],[138.67927131656307,-35.64265930833619],[138.69978060950314,-35.62644919144332],[138.72872392169307,-35.61645482937256],[138.7399568592794,-35.60855443014346],[138.76268094081252,-35.61363819398846],[138.78881507351093,-35.62182232121896],[138.8468885295778,-35.64328578135483],[138.86441674702257,-35.64782243546362],[138.8924678052544,-35.64725452667261],[138.90658466239796,-35.65056394352356],[138.93009203680785,-35.65242943179668],[138.94629649014334,-35.6512221827402],[138.96266975214414,-35.64688686706834],[139.00907436339526,-35.62307811132679],[138.986945,-35.610396],[138.942095,-35.587061],[138.892264,-35.563746],[138.878089,-35.558867],[138.880768,-35.555786],[138.899397,-35.554881],[138.931535,-35.562441],[138.93579,-35.555499],[138.954046,-35.551104],[138.966274,-35.541346],[138.965952,-35.528807],[138.981025,-35.518259],[139.006917,-35.512766],[139.03377,-35.51312],[139.046729,-35.500949],[139.144709,-35.471704],[139.158312,-35.253485],[139.107617,-35.232366],[139.086072,-35.216629],[139.066437,-35.214865],[139.066687,-35.165936],[139.027421,-35.13878],[139.04403,-35.111613],[139.037744,-35.096167],[139.039187,-35.089417],[139.031967,-35.073983],[139.029078,-35.060404],[139.032892,-35.042781],[139.031084,-35.033321],[139.036571,-35.024544],[139.037553,-35.013434],[139.031236,-35.001844],[139.041161,-34.976666],[139.027696,-34.963022],[139.028227,-34.956885],[139.020385,-34.948833],[139.034957,-34.928687],[138.975208,-34.8949],[138.980761,-34.882973],[138.998926,-34.872736],[139.009075,-34.863681],[139.00191,-34.850872],[139.006916,-34.841273],[139.001475,-34.834427],[139.01913,-34.829347],[139.025074,-34.823358],[139.037326,-34.823293],[139.043574,-34.817193],[139.032714,-34.81089],[139.004581,-34.79914],[139.00478,-34.794065],[138.988073,-34.781386],[138.989422,-34.76976],[138.972456,-34.773414],[138.948101,-34.773129],[138.948565,-34.765403],[138.928028,-34.755628],[138.926642,-34.73471],[138.917461,-34.734708],[138.917484,-34.725582],[138.909409,-34.708276],[138.896334,-34.707484],[138.887929,-34.700579],[138.859883,-34.702896],[138.847549,-34.680538],[138.843385,-34.68518],[138.839953,-34.700378],[138.819551,-34.728794],[138.811628,-34.742121],[138.814577,-34.763399],[138.810323,-34.775393],[138.799363,-34.77051],[138.78019,-34.767026],[138.768021,-34.780351],[138.758651,-34.785649],[138.761808,-34.793197],[138.750851,-34.806979],[138.74902,-34.814462],[138.753844,-34.823008],[138.747028,-34.840674],[138.744939,-34.849576],[138.756521,-34.865551],[138.7413,-34.860218],[138.722694,-34.859199],[138.723826,-34.864323],[138.706968,-34.881873],[138.705582,-34.900971],[138.690752,-34.895272],[138.689858,-34.912253],[138.697848,-34.921228],[138.685227,-34.9381],[138.671866,-34.942077],[138.672408,-34.951125],[138.685944,-34.974632],[138.675338,-34.974486],[138.665171,-34.981662],[138.675241,-34.990667],[138.680021,-35.000422],[138.67171,-35.025805],[138.65484,-35.022615],[138.648654,-35.015738],[138.620448,-35.017094],[138.625461,-35.03062],[138.586311,-35.037955],[138.596759,-35.045825],[138.609921,-35.050006],[138.625424,-35.064487],[138.627653,-35.072774],[138.619261,-35.08613],[138.609779,-35.086361],[138.585573,-35.099818],[138.594487,-35.106827],[138.587581,-35.121279],[138.586716,-35.134327],[138.602783,-35.133541],[138.587409,-35.151972],[138.579705,-35.156046],[138.538839,-35.161144],[138.520022,-35.168865],[138.495826,-35.188171],[138.503368,-35.19464],[138.497854,-35.206051],[138.491008,-35.206586],[138.494274,-35.243023],[138.481677,-35.246305],[138.461979,-35.247361]]],[[[138.511424,-35.00605],[138.50082755170635,-35.00980220142105],[138.4967368779303,-35.02920990677917],[138.49699654986853,-35.04904233501412],[138.503686,-35.056544],[138.508463,-35.044067],[138.515333,-35.03834],[138.517614,-35.03213],[138.511424,-35.00605]]]]},"bbox":[136.4430810861677,-36.17641467874211,139.158312,-34.680538]}]}