{"type":"FeatureCollection","features":[
{"properties":{"electorateShortName":"mcewen","electorateName":"McEwen","area":2676.25,"state":null},"type":"Feature","geometry":{"type":"Polygon","coordinates":[[[145.10354,-37.682943],[145.118736,-37.679377],[145.142941,-37.686773],[145.178531,-37.691171],[145.191744,-37.68951],[145.198403,-37.682533],[145.20003,-37.666638],[145.21044,-37.656809],[145.22489,-37.663426],[145.243286,-37.66262],[145.265251,-37.678446],[145.266932,-37.695643],[145.264111,-37.707353],[145.275699,-37.710419],[145.28699,-37.703175],[145.293592,-37.712234],[145.312379,-37.715572],[145.318124,-37.691303],[145.331339,-37.687701],[145.330366,-37.671934],[145.335522,-37.662364],[145.345786,-37.655737],[145.353194,-37.639928],[145.35783,-37.618674],[145.355816,-37.59959],[145.364406,-37.5628],[145.366412,-37.545126],[145.332594,-37.5396],[145.333806,-37.532612],[145.320573,-37.528166],[145.297063,-37.513695],[145.294389,-37.498582],[145.276305,-37.496489],[145.253858,-37.507272],[145.25671,-37.491981],[145.239319,-37.487739],[145.241036,-37.477723],[145.222272,-37.472599],[145.224764,-37.458158],[145.234138,-37.446846],[145.234841,-37.437998],[145.26562,-37.419354],[145.265812,-37.37325],[145.271372,-37.368061],[145.270067,-37.347207],[145.279329,-37.337825],[145.251861,-37.304952],[145.227443,-37.305096],[145.227314,-37.294262],[145.195382,-37.29412],[145.125267,-37.293897],[145.117602,-37.263218],[145.056073,-37.263703],[145.031007,-37.265853],[145.039302,-37.255946],[145.025451,-37.236154],[145.014252,-37.227777],[144.987744,-37.24255],[144.976699,-37.23414],[144.989886,-37.201097],[144.963638,-37.200891],[144.962655,-37.214355],[144.945502,-37.214308],[144.930818,-37.209661],[144.921301,-37.215605],[144.925424,-37.225426],[144.886867,-37.221072],[144.874257,-37.228397],[144.861056,-37.227057],[144.850129,-37.220251],[144.852212,-37.208949],[144.812948,-37.209145],[144.812352,-37.213926],[144.785721,-37.21308],[144.769623,-37.220669],[144.731378,-37.220546],[144.704053,-37.21301],[144.703932,-37.212984],[144.691325,-37.220226],[144.659956,-37.208274],[144.647049,-37.221896],[144.625818,-37.230053],[144.617372,-37.240913],[144.594923,-37.242743],[144.583938,-37.262406],[144.579827,-37.275313],[144.569456,-37.273566],[144.564596,-37.299494],[144.494115,-37.292216],[144.491109,-37.299802],[144.501005,-37.307087],[144.480389,-37.33282],[144.46057,-37.338599],[144.455827,-37.364842],[144.446929,-37.367592],[144.446388,-37.386072],[144.415258,-37.382483],[144.413816,-37.397089],[144.381967,-37.393327],[144.377801,-37.415917],[144.382586,-37.423725],[144.379278,-37.438789],[144.432614,-37.451117],[144.450203,-37.45065],[144.465224,-37.429068],[144.471553,-37.431109],[144.459315,-37.497101],[144.469781,-37.507463],[144.468257,-37.524001],[144.459283,-37.546397],[144.483698,-37.550821],[144.556225,-37.5589],[144.561176,-37.552417],[144.626752,-37.560014],[144.626207,-37.562907],[144.671646,-37.567722],[144.648957,-37.543795],[144.632409,-37.530122],[144.638052,-37.499502],[144.645029,-37.495044],[144.678858,-37.49953],[144.691676,-37.486694],[144.711111,-37.48237],[144.740515,-37.489306],[144.751939,-37.497018],[144.773118,-37.502919],[144.870505,-37.515536],[144.86685,-37.508123],[144.890031,-37.503921],[144.977205,-37.513729],[144.97675,-37.528811],[144.953095,-37.547966],[144.965536,-37.560237],[144.965343,-37.572253],[144.957551,-37.581563],[144.952624,-37.60034],[145.079541,-37.613529],[145.08197,-37.598964],[145.104953,-37.601684],[145.105065,-37.612377],[145.11624,-37.617721],[145.119108,-37.627837],[145.109698,-37.63203],[145.103321,-37.661361],[145.087309,-37.667709],[145.084496,-37.676567],[145.10354,-37.682943]]]},"bbox":[144.377801,-37.715572,145.366412,-37.200891]}]}