{"type":"FeatureCollection","features":[
{"properties":{"electorateShortName":"mcpherson","electorateName":"McPherson","area":229.47,"state":null},"type":"Feature","geometry":{"type":"Polygon","coordinates":[[[153.552171,-28.164408],[153.549894,-28.161231],[153.548107,-28.164074],[153.5447,-28.164489],[153.543606,-28.166862],[153.541022,-28.167158],[153.536968,-28.164631],[153.529502,-28.167231],[153.523041,-28.165993],[153.514318,-28.161019],[153.498658,-28.145515],[153.490756,-28.132232],[153.488613,-28.131105],[153.48632,-28.126571],[153.48326,-28.127787],[153.478464,-28.125954],[153.47553,-28.122612],[153.466763,-28.108398],[153.460987,-28.096292],[153.460305,-28.095753],[153.46003,-28.090866],[153.45439,-28.089031],[153.452174,-28.086693],[153.447581,-28.076061],[153.424535,-28.072587],[153.425556,-28.068018],[153.42115,-28.067279],[153.419893,-28.069434],[153.41764,-28.061991],[153.413979,-28.05714],[153.410695,-28.054707],[153.40841,-28.052157],[153.406892,-28.04762],[153.406913,-28.045007],[153.408801,-28.03519],[153.403146,-28.032165],[153.395781,-28.030988],[153.390628,-28.03215],[153.385088,-28.03265],[153.37936,-28.035274],[153.376369,-28.038654],[153.374925,-28.041139],[153.370063,-28.045405],[153.368455,-28.046136],[153.356671,-28.048851],[153.355703,-28.0495],[153.35452,-28.052047],[153.355358,-28.054318],[153.355743,-28.059406],[153.354361,-28.063424],[153.354776,-28.065892],[153.354112,-28.070074],[153.353044,-28.070769],[153.35267,-28.074043],[153.351357,-28.076425],[153.350612,-28.080139],[153.346496,-28.080233],[153.34409,-28.080921],[153.33826,-28.084667],[153.339545,-28.088116],[153.348923,-28.086145],[153.353015,-28.087664],[153.356723,-28.087012],[153.360375,-28.085423],[153.363423,-28.086206],[153.366144,-28.090317],[153.366106,-28.091998],[153.368958,-28.09674],[153.367083,-28.098251],[153.367778,-28.102101],[153.370122,-28.106398],[153.367009,-28.111599],[153.363684,-28.113269],[153.361188,-28.122385],[153.360592,-28.125727],[153.358115,-28.127555],[153.360838,-28.130033],[153.365224,-28.132919],[153.365198,-28.135507],[153.364061,-28.137706],[153.361995,-28.139638],[153.361535,-28.141991],[153.361652,-28.147692],[153.360091,-28.148253],[153.358489,-28.157291],[153.352407,-28.160071],[153.348522,-28.160563],[153.347707,-28.165363],[153.348018,-28.168213],[153.345195,-28.169328],[153.340592,-28.173369],[153.337392,-28.173312],[153.33465,-28.175757],[153.3324,-28.178971],[153.329567,-28.180981],[153.326534,-28.185578],[153.321594,-28.185691],[153.319658,-28.187666],[153.319504,-28.19128],[153.320209,-28.195053],[153.31954,-28.197365],[153.315303,-28.199882],[153.314677,-28.202417],[153.313149,-28.204046],[153.317285,-28.207015],[153.313152,-28.211547],[153.311844,-28.211353],[153.301409,-28.222594],[153.299259,-28.221931],[153.298366,-28.219508],[153.296474,-28.219145],[153.295365,-28.222876],[153.294303,-28.22832],[153.294263,-28.230486],[153.296643,-28.23266],[153.296863,-28.234233],[153.300823,-28.238346],[153.304989,-28.239676],[153.314307,-28.237362],[153.316484,-28.238649],[153.321718,-28.238024],[153.324189,-28.236483],[153.330213,-28.237064],[153.331102,-28.238368],[153.331698,-28.245415],[153.334174,-28.246746],[153.334495,-28.247971],[153.33958,-28.250311],[153.342274,-28.249959],[153.346223,-28.248172],[153.348064,-28.248821],[153.354096,-28.248587],[153.356812,-28.249619],[153.361237,-28.24835],[153.369669,-28.245229],[153.372359,-28.242801],[153.378468,-28.240432],[153.382862,-28.23721],[153.385011,-28.237194],[153.389527,-28.234935],[153.390422,-28.23223],[153.389655,-28.230025],[153.394932,-28.222519],[153.399024,-28.217899],[153.402218,-28.215271],[153.40661,-28.210415],[153.409805,-28.20988],[153.413933,-28.208334],[153.416685,-28.205956],[153.418611,-28.202232],[153.419196,-28.199681],[153.421973,-28.199364],[153.424947,-28.197475],[153.426871,-28.195035],[153.428865,-28.194275],[153.431159,-28.191044],[153.436847,-28.186652],[153.443372,-28.184337],[153.446127,-28.184292],[153.448719,-28.183433],[153.450629,-28.181801],[153.457134,-28.18054],[153.459246,-28.178111],[153.458678,-28.175157],[153.465032,-28.167595],[153.466665,-28.164603],[153.468504,-28.162512],[153.472471,-28.161953],[153.474629,-28.159599],[153.474974,-28.158138],[153.476931,-28.15702],[153.480566,-28.1575],[153.481498,-28.158373],[153.485949,-28.157028],[153.531167,-28.175249],[153.533867,-28.176857],[153.535642,-28.176005],[153.539412,-28.172165],[153.541487,-28.168967],[153.552171,-28.164408]]]},"bbox":[153.294263,-28.250311,153.552171,-28.030988]}]}