{"type":"FeatureCollection","features":[
{"properties":{"electorateShortName":"melbourne","electorateName":"Melbourne","area":40.07,"state":null},"type":"Feature","geometry":{"type":"MultiPolygon","coordinates":[[[[145.024618,-37.834499],[145.016119,-37.824462],[145.014379,-37.815533],[145.001945,-37.796659],[145.008478,-37.788892],[144.992114,-37.782632],[144.986865,-37.774378],[144.9715,-37.772661],[144.970526,-37.779289],[144.938769,-37.775448],[144.937074,-37.777774],[144.940362,-37.787619],[144.936253,-37.801719],[144.916493,-37.798214],[144.906437,-37.80885],[144.906529,-37.821593],[144.927769,-37.819295],[144.955268,-37.823346],[144.974452,-37.820252],[144.98792,-37.829672],[144.996686,-37.834302],[145.012916,-37.830504],[145.024618,-37.834499]]],[[[144.840214,-37.871507],[144.841558834486,-37.88387363577937],[144.85550412292446,-37.89573112729915],[144.87156014784495,-37.90452176086713],[144.8890627226879,-37.90988189599976],[144.90728782173554,-37.91158980099633],[144.92191767994035,-37.909969526147066],[144.9227473650905,-37.910163758039225],[144.9252472638084,-37.910726366853446],[144.93095328492376,-37.911846267139836],[144.94507465485015,-37.91344718028189],[144.95108001163067,-37.91361563840061],[144.95686118634214,-37.91627300191317],[144.9661436436617,-37.91954443232263],[144.98052323434726,-37.92286340862922],[144.9863085207719,-37.92363625363771],[144.987407,-37.919984],[144.984792,-37.913367],[144.98499,-37.891003],[144.975658,-37.882121],[144.975503,-37.878642],[144.975607,-37.870261],[144.969681,-37.864589],[144.963316,-37.855467],[144.935592,-37.842548],[144.927165,-37.841327],[144.926912,-37.840035],[144.918525,-37.839688],[144.912499,-37.849458],[144.907213,-37.849526],[144.898362,-37.841204],[144.905593,-37.851732],[144.902042,-37.854318],[144.903492,-37.861283],[144.911555,-37.862068],[144.902906,-37.872753],[144.89215,-37.867605],[144.878621,-37.868083],[144.868582,-37.858712],[144.850369,-37.863943],[144.840214,-37.871507]]]]},"bbox":[144.840214,-37.92363625363771,145.024618,-37.772661]}]}