{"type":"FeatureCollection","features":[
{"properties":{"electorateShortName":"menzies","electorateName":"Menzies","area":137.31,"state":null},"type":"Feature","geometry":{"type":"Polygon","coordinates":[[[145.289573,-37.762819],[145.293592,-37.712234],[145.264111,-37.707353],[145.15549,-37.733969],[145.067113,-37.780935],[145.11503,-37.816894],[145.154192,-37.817561],[145.21336,-37.817222],[145.240569,-37.764763],[145.289573,-37.762819]]]},"bbox":[145.067113,-37.817561,145.293592,-37.707353]}]}