{"type":"FeatureCollection","features":[
{"properties":{"electorateShortName":"monash","electorateName":"Monash","area":8255.15,"state":null},"type":"Feature","geometry":{"type":"Polygon","coordinates":[[[145.520721,-38.306578],[145.51795,-38.290894],[145.504597,-38.283536],[145.497964,-38.274077],[145.497732,-38.264474],[145.490359,-38.250641],[145.488988,-38.233414],[145.47918,-38.232301],[145.47441705545623,-38.229543141352416],[145.46067604943394,-38.239536192808394],[145.44837983116187,-38.25303591103132],[145.43383756278965,-38.28001370835668],[145.42655986614335,-38.30815548005239],[145.450964,-38.306422],[145.459541,-38.311585],[145.472552,-38.332312],[145.492215,-38.343217],[145.502057119961,-38.35315263598072],[145.476252,-38.366455],[145.458997,-38.366097],[145.426461,-38.371668],[145.406087,-38.372763],[145.390367,-38.385129],[145.392378,-38.396471],[145.385944,-38.406721],[145.377008,-38.40987],[145.368225,-38.424275],[145.33591,-38.424042],[145.208608,-38.406178],[145.175813,-38.396709],[145.129935,-38.390452],[145.10234690306822,-38.401785484472455],[145.08617470648534,-38.41873732145827],[145.07853726276292,-38.4303780791697],[145.04666029069688,-38.454043742862886],[145.03499339677626,-38.46796203743131],[145.02635832497648,-38.48393923594861],[145.02110669897917,-38.501324740308064],[145.01945236715875,-38.5194106056088],[145.0214626945886,-38.53746036796383],[145.02705581990742,-38.55473903361302],[145.0360039887477,-38.570543008171775],[145.04794282798738,-38.58422874728435],[145.0631670149826,-38.596114867721425],[145.07897834891583,-38.60391134898021],[145.09600617544996,-38.60847605316445],[145.11359716546923,-38.60963384023837],[145.14688503857815,-38.60723626965327],[145.16571389347803,-38.60375830239108],[145.19311128833445,-38.61545654224065],[145.20993768547828,-38.61924517596591],[145.22717781365685,-38.619754456568174],[145.24419851024905,-38.616965680158614],[145.2666539334714,-38.607163544043964],[145.28625661444335,-38.630664949716596],[145.30920764072349,-38.646660008369594],[145.3262630099505,-38.65362006635023],[145.34437821329698,-38.6569618374794],[145.36279436234287,-38.65654532711483],[145.38995316524503,-38.65126185473903],[145.40655197050935,-38.64364910300608],[145.4204786189945,-38.63342522736805],[145.4394281782706,-38.63806447744822],[145.46756696893536,-38.66807130868007],[145.48875484854548,-38.70557969911963],[145.49862260337048,-38.71664274796227],[145.51610356462274,-38.72995086531072],[145.56822323610166,-38.76014443874186],[145.5863204532947,-38.76644520263633],[145.6053413843157,-38.76877180506895],[145.63088019241562,-38.764986602242644],[145.6457580806818,-38.76772006704012],[145.6640509441572,-38.76731839175406],[145.70315852303204,-38.75603701951297],[145.72162847618716,-38.746420504136594],[145.73370734515672,-38.75560535623909],[145.7649174296772,-38.78777649214516],[145.79296540624438,-38.82423046800416],[145.8081744305954,-38.85814234749386],[145.82106954542368,-38.89136841569891],[145.82532306986445,-38.92299974990621],[145.83161561159588,-38.93917478201949],[145.84089586355307,-38.95384122906433],[145.85533631231172,-38.970948159551995],[145.8680124114344,-38.98221440440571],[145.88257696898083,-38.99090263929827],[145.89851283210413,-38.996704365643666],[145.91525415615334,-38.99941357791878],[145.93220649647296,-38.998934078430246],[145.94876791572096,-38.99528289306606],[145.96412874882296,-38.98868485563282],[146.0007740278385,-38.98249428646084],[146.01959403841332,-38.97558703560781],[146.0555075425635,-38.95366486384681],[146.07082250658058,-38.94064989174526],[146.08774658061984,-38.91566170845614],[146.13644207408117,-38.94743961640049],[146.1338556441521,-38.96516610117141],[146.13433656343472,-38.983181211328926],[146.13839704722665,-39.0007393418877],[146.14657334360928,-39.02288102803139],[146.13483704657497,-39.046967791493444],[146.13157404857304,-39.06319762149707],[146.13133891173092,-39.07975054415662],[146.13413959164356,-39.09606650964856],[146.1443753905812,-39.12539188484724],[146.1503997879797,-39.14902133182387],[146.15901019306824,-39.16548846289953],[146.1708188860318,-39.17983629382074],[146.1853224586715,-39.19145317215948],[146.20424914098703,-39.20154410360829],[146.21554923522385,-39.20473101137246],[146.22614195000648,-39.21907235285091],[146.23857986797398,-39.230356149699034],[146.25289758003808,-39.23913276612708],[146.26859657196817,-39.245096617823336],[146.2873605488531,-39.248681951865656],[146.30402100275793,-39.24854087954463],[146.30650370096092,-39.24805347405595],[146.31106713420274,-39.248337547176995],[146.3291880295283,-39.247140606572756],[146.34669973101805,-39.24233021935927],[146.3679299675613,-39.23008950794143],[146.388608,-39.224415],[146.44305215099766,-39.21912626929782],[146.45990186509982,-39.21387162887098],[146.47722503117208,-39.20419053416217],[146.49111453967384,-39.19254344609839],[146.50238846266018,-39.178349371021675],[146.51424796992598,-39.14984979811366],[146.528402339227,-39.142563093361204],[146.54188722722347,-39.13196041616171],[146.55311550396286,-39.118991809083944],[146.56398539037465,-39.10100216439561],[146.5699766237679,-39.08543758939788],[146.5729931323492,-39.069034798525244],[146.57293133037857,-39.05235705728283],[146.56632159205287,-39.02587202867553],[146.56407531309125,-39.007673855050975],[146.55807180311652,-38.99005608327755],[146.5818163476238,-38.97019702864035],[146.59727421337763,-38.990194239640836],[146.60428764771058,-39.00358026987083],[146.6160319229517,-39.01785695221263],[146.63044545067152,-39.02943287024522],[146.64710823652715,-39.03845871680241],[146.67871481340077,-39.045279158014736],[146.72040148392455,-39.040431293070405],[146.7387899402961,-39.03523218424493],[146.75491338912667,-39.027326258788946],[146.76914631657357,-39.0163766909528],[146.78092209528197,-39.002819394197225],[146.78977191949377,-38.98719409833035],[146.79534346868303,-38.97012286231361],[146.79741493379527,-38.95228530946026],[146.79590384769207,-38.93439157093819],[146.7908703682521,-38.917154014724076],[146.78251488342443,-38.9012588855078],[146.77117003358006,-38.887338984591615],[146.75728746875959,-38.875948477425005],[146.73017068722658,-38.86317300982468],[146.7102021210817,-38.84606689478448],[146.6960603342615,-38.83877961397863],[146.68085638334227,-38.83409618868752],[146.662065334721,-38.83206295837188],[146.64485958857102,-38.83314146653462],[146.6281751331847,-38.837480801609885],[146.61262414570152,-38.84492174702918],[146.5904774127716,-38.86426615976239],[146.58424034549245,-38.85408978620982],[146.5656169756103,-38.83629393207573],[146.56428617503798,-38.827656280373965],[146.56795776708137,-38.812199142053565],[146.56763280059212,-38.78225081413292],[146.546138,-38.79085],[146.518897,-38.78084],[146.494509,-38.774759],[146.482637,-38.777852],[146.468046,-38.772193],[146.438635,-38.754542],[146.42664,-38.739211],[146.42636,-38.721348],[146.435299,-38.712196],[146.450755,-38.709394],[146.465169,-38.703575],[146.486445,-38.706831],[146.518226,-38.707452],[146.525857,-38.664176],[146.520416,-38.663544],[146.52835,-38.623066],[146.525602,-38.619309],[146.493322,-38.613365],[146.478054,-38.613986],[146.476232,-38.609322],[146.461553,-38.607385],[146.463128,-38.5985],[146.427666,-38.604984],[146.409233,-38.602628],[146.405016,-38.596958],[146.394112,-38.598457],[146.370593,-38.585068],[146.365454,-38.576814],[146.34194,-38.569894],[146.336851,-38.570716],[146.317294,-38.56193],[146.311223,-38.551312],[146.321139,-38.535176],[146.327389,-38.531358],[146.316498,-38.520253],[146.304417,-38.521017],[146.290388,-38.527856],[146.284338,-38.516574],[146.28529,-38.506369],[146.291694,-38.500076],[146.254758,-38.49611],[146.262567,-38.47099],[146.238424,-38.467969],[146.23718,-38.452907],[146.269265,-38.456953],[146.272185,-38.446422],[146.223298,-38.440052],[146.234541,-38.384946],[146.232719,-38.374839],[146.218034,-38.373819],[146.232875,-38.354381],[146.243482,-38.356223],[146.250515,-38.326651],[146.228567,-38.32389],[146.24013,-38.306168],[146.252297,-38.298638],[146.256537,-38.279648],[146.262287,-38.272613],[146.258234,-38.2648],[146.274694,-38.253227],[146.287154,-38.239553],[146.285888,-38.232342],[146.293973,-38.225031],[146.304084,-38.205869],[146.328085,-38.200756],[146.328474,-38.183037],[146.34001,-38.169907],[146.307004,-38.155508],[146.319168,-38.138475],[146.321386,-38.114982],[146.3185,-38.104955],[146.320908,-38.094101],[146.328577,-38.08615],[146.340831,-38.083549],[146.359128,-38.087293],[146.37656,-38.093511],[146.374382,-38.100073],[146.39788,-38.102481],[146.419037,-38.1105],[146.424409,-38.096541],[146.478977,-38.1038],[146.480989,-38.090994],[146.475718,-38.075308],[146.483669,-38.075472],[146.527911,-38.084253],[146.534787,-38.056958],[146.552506,-38.055964],[146.569508,-38.058099],[146.572309,-38.043466],[146.567027,-38.039236],[146.575261,-38.030063],[146.587259,-37.978101],[146.580973,-37.976457],[146.570282,-37.983718],[146.557272,-37.975688],[146.546308,-37.975716],[146.546985,-37.967518],[146.523207,-37.964227],[146.514789,-37.983417],[146.496781,-37.988899],[146.491118,-37.985473],[146.473313,-37.994692],[146.485497,-37.878825],[146.504747,-37.695143],[146.515964,-37.678783],[146.507561,-37.670709],[146.488624,-37.642319],[146.474474,-37.640852],[146.460826,-37.628515],[146.45415,-37.616351],[146.443657,-37.612122],[146.435836,-37.618044],[146.426415,-37.618575],[146.403203,-37.60403],[146.383439,-37.609666],[146.382641,-37.621977],[146.367643,-37.629321],[146.346652,-37.623587],[146.332962,-37.608632],[146.31962,-37.599116],[146.311636,-37.598965],[146.298792,-37.591075],[146.276237,-37.604879],[146.250088,-37.610403],[146.230272,-37.607936],[146.204433,-37.599147],[146.191923,-37.58753],[146.18705,-37.580067],[146.176144,-37.584872],[146.168465,-37.599562],[146.158819,-37.600772],[146.165545,-37.61721],[146.150314,-37.623782],[146.139331,-37.632549],[146.139811,-37.639081],[146.130947,-37.643909],[146.133926,-37.679097],[146.140368,-37.682051],[146.142495,-37.69226],[146.136244,-37.697937],[146.138585,-37.710135],[146.150558,-37.715199],[146.159047,-37.730449],[146.163222,-37.747768],[146.158857,-37.761954],[146.14227,-37.771882],[146.133761,-37.788026],[146.124095,-37.789404],[146.103272,-37.768229],[146.097799,-37.758143],[146.084572,-37.760861],[146.060742,-37.770198],[146.044161,-37.774023],[146.021449,-37.774841],[145.999515,-37.765447],[145.990279,-37.768788],[145.963577,-37.76596],[145.943614,-37.758232],[145.936771,-37.771579],[145.923703,-37.771607],[145.918165,-37.776138],[145.918059,-37.786006],[145.928833,-37.797838],[145.92298,-37.807005],[145.93131,-37.821359],[145.92638,-37.829646],[145.914703,-37.826069],[145.907272,-37.816942],[145.894867,-37.825818],[145.868967,-37.810899],[145.857424,-37.801097],[145.845103,-37.797714],[145.828034,-37.812267],[145.815071,-37.807237],[145.804158,-37.814014],[145.795436,-37.814795],[145.793828,-37.826352],[145.804009,-37.826154],[145.811209,-37.836134],[145.804138,-37.849525],[145.811644,-37.855634],[145.805232,-37.870498],[145.792875,-37.877703],[145.767825,-37.879737],[145.758913,-37.900636],[145.747876,-37.907446],[145.750759,-37.9172],[145.741436,-37.929141],[145.746843,-37.938506],[145.731067,-37.958834],[145.739578,-37.971795],[145.756012,-37.982549],[145.762536,-37.990723],[145.764688,-38.019211],[145.757189,-38.025727],[145.755089,-38.039983],[145.757231,-38.054138],[145.752723,-38.065805],[145.754443,-38.079198],[145.739211,-38.10053],[145.762787,-38.108946],[145.7579,-38.115639],[145.748478,-38.142826],[145.729725,-38.15398],[145.707842,-38.190822],[145.700802,-38.205926],[145.717412,-38.206726],[145.712957,-38.239263],[145.712927,-38.250871],[145.736357,-38.248976],[145.736539,-38.268873],[145.73268,-38.289375],[145.681492,-38.282232],[145.680275,-38.289597],[145.63507,-38.284658],[145.621789,-38.28861],[145.612426,-38.285715],[145.607131,-38.315264],[145.605684,-38.332457],[145.593617,-38.330099],[145.584132,-38.315629],[145.553667,-38.293571],[145.545349,-38.292232],[145.541805,-38.309385],[145.520721,-38.306578]]]},"bbox":[145.01945236715875,-39.248681951865656,146.79741493379527,-37.580067]}]}