{"type":"FeatureCollection","features":[
{"properties":{"electorateShortName":"moncrieff","electorateName":"Moncrieff","area":100.31,"state":null},"type":"Feature","geometry":{"type":"Polygon","coordinates":[[[153.447581,-28.076061],[153.452174,-28.086693],[153.45439,-28.089031],[153.46003,-28.090866],[153.460305,-28.095753],[153.460987,-28.096292],[153.466763,-28.108398],[153.47553,-28.122612],[153.478464,-28.125954],[153.48326,-28.127787],[153.485443,-28.127407],[153.485086,-28.125971],[153.486982,-28.124607],[153.48632,-28.126571],[153.488613,-28.131105],[153.490756,-28.132232],[153.498658,-28.145515],[153.50121300268066,-28.14804455054666],[153.50362297201008,-28.14648327895505],[153.51618531728286,-28.13431430591608],[153.52615682116075,-28.119945397328816],[153.5331609098939,-28.103919194890484],[153.53693307413732,-28.086840927984955],[153.537330858144,-28.069355557200783],[153.53433923960466,-28.05212341740066],[153.52580969945868,-28.021209356441],[153.52057424643834,-27.988611979504988],[153.51946125135797,-27.9726821556753],[153.51982591564783,-27.959847867031822],[153.5217031644282,-27.952800246094466],[153.52182395453477,-27.951015408817277],[153.52257774258965,-27.948155055523543],[153.5236722689559,-27.93064522214396],[153.52134899912687,-27.91325572329411],[153.51569621513406,-27.896647343298525],[153.50692871736268,-27.88145118471234],[153.49537966234263,-27.86824468702783],[153.48148790311882,-27.85752968452596],[153.46578131325532,-27.849713337053696],[153.44885672814476,-27.84509265833922],[153.4313572658342,-27.843843229754345],[153.4309356750753,-27.84389576214968],[153.425998,-27.881689],[153.425061,-27.909924],[153.428775,-27.925219],[153.433728,-27.933812],[153.429378,-27.934792],[153.424358,-27.936692],[153.422768,-27.938252],[153.421281,-27.940901],[153.421041,-27.945085],[153.421285,-27.948964],[153.413165,-27.958244],[153.41074,-27.958769],[153.409954,-27.957659],[153.398578,-27.955987],[153.398544,-27.956167],[153.385636,-27.954251],[153.383737,-27.953909],[153.383149,-27.955205],[153.380591,-27.957572],[153.377562,-27.960846],[153.376947,-27.962103],[153.376468,-27.964667],[153.370764,-27.964182],[153.355391,-27.961828],[153.352691,-27.961291],[153.351619,-27.961573],[153.345238,-27.96065],[153.345508,-27.962771],[153.346693,-27.96691],[153.347121,-27.971063],[153.346915,-27.97248],[153.346107,-27.97467],[153.344076,-27.976893],[153.341081,-27.979154],[153.339099,-27.981073],[153.338445,-27.982192],[153.337352,-27.981984],[153.336732,-27.985127],[153.333165,-27.985276],[153.332663,-27.986056],[153.328989,-27.985605],[153.328438,-27.985348],[153.328884,-27.98298],[153.322889,-27.982192],[153.321337,-27.982952],[153.321115,-27.983487],[153.319025,-27.984515],[153.317486,-27.98446],[153.316456,-27.989364],[153.316512,-27.990357],[153.314816,-27.991105],[153.31442,-27.991678],[153.312673,-27.992279],[153.311412,-27.993145],[153.309189,-27.995228],[153.307453,-27.996033],[153.305352,-27.996468],[153.303107,-27.997846],[153.301534,-27.999767],[153.298986,-28.001975],[153.296844,-28.002719],[153.294176,-28.003216],[153.292414,-28.004218],[153.289731,-28.007233],[153.28733,-28.008333],[153.286114,-28.010255],[153.304534,-28.013101],[153.30429,-28.011585],[153.307263,-28.010939],[153.309503,-28.011917],[153.310351,-28.012731],[153.311192,-28.012388],[153.314313,-28.012857],[153.314463,-28.012107],[153.324398,-28.013614],[153.325506,-28.014585],[153.325111,-28.017547],[153.322757,-28.019693],[153.32395,-28.022228],[153.325847,-28.022503],[153.328541,-28.022068],[153.329772,-28.02135],[153.331341,-28.021439],[153.333275,-28.022729],[153.338298,-28.022589],[153.340618,-28.024521],[153.342366,-28.025439],[153.343054,-28.027675],[153.343628,-28.028421],[153.348276,-28.029976],[153.350039,-28.03088],[153.351808,-28.031335],[153.353084,-28.040635],[153.353421,-28.042577],[153.355703,-28.0495],[153.356671,-28.048851],[153.362541,-28.04733],[153.368455,-28.046136],[153.370063,-28.045405],[153.373391,-28.042656],[153.374925,-28.041139],[153.376369,-28.038654],[153.37936,-28.035274],[153.380594,-28.034469],[153.385088,-28.03265],[153.387114,-28.03224],[153.390628,-28.03215],[153.395781,-28.030988],[153.403146,-28.032165],[153.404887,-28.032779],[153.406938,-28.034254],[153.408801,-28.03519],[153.408726,-28.036275],[153.406913,-28.045007],[153.406892,-28.04762],[153.40841,-28.052157],[153.409215,-28.053331],[153.410695,-28.054707],[153.41303,-28.056186],[153.413979,-28.05714],[153.41764,-28.061991],[153.419893,-28.069434],[153.42115,-28.067279],[153.425556,-28.068018],[153.424535,-28.072587],[153.431441,-28.073618],[153.431203,-28.074872],[153.434085,-28.075301],[153.434306,-28.074132],[153.445133,-28.075773],[153.445572,-28.076645],[153.447581,-28.076061]]]},"bbox":[153.286114,-28.14804455054666,153.537330858144,-27.843843229754345]}]}