{"type":"FeatureCollection","features":[
{"properties":{"electorateShortName":"moncrieff","electorateName":"Moncrieff","area":100.31,"state":null},"type":"Feature","geometry":{"type":"Polygon","coordinates":[[[153.447581,-28.076061],[153.45439,-28.089031],[153.46003,-28.090866],[153.466763,-28.108398],[153.478464,-28.125954],[153.48632,-28.126571],[153.498658,-28.145515],[153.50362297201008,-28.14648327895505],[153.51618531728286,-28.13431430591608],[153.52615682116075,-28.119945397328816],[153.5331609098939,-28.103919194890484],[153.53693307413732,-28.086840927984955],[153.537330858144,-28.069355557200783],[153.53433923960466,-28.05212341740066],[153.52580969945868,-28.021209356441],[153.52057424643834,-27.988611979504988],[153.51982591564783,-27.959847867031822],[153.5217031644282,-27.952800246094466],[153.52257774258965,-27.948155055523543],[153.5236722689559,-27.93064522214396],[153.52134899912687,-27.91325572329411],[153.51569621513406,-27.896647343298525],[153.50692871736268,-27.88145118471234],[153.49537966234263,-27.86824468702783],[153.48148790311882,-27.85752968452596],[153.46578131325532,-27.849713337053696],[153.44885672814476,-27.84509265833922],[153.4309356750753,-27.84389576214968],[153.425998,-27.881689],[153.425061,-27.909924],[153.428775,-27.925219],[153.433728,-27.933812],[153.424358,-27.936692],[153.421285,-27.948964],[153.413165,-27.958244],[153.383737,-27.953909],[153.376468,-27.964667],[153.345238,-27.96065],[153.344076,-27.976893],[153.332663,-27.986056],[153.322889,-27.982192],[153.316512,-27.990357],[153.294176,-28.003216],[153.286114,-28.010255],[153.304534,-28.013101],[153.324398,-28.013614],[153.32395,-28.022228],[153.338298,-28.022589],[153.351808,-28.031335],[153.355703,-28.0495],[153.368455,-28.046136],[153.37936,-28.035274],[153.395781,-28.030988],[153.408801,-28.03519],[153.40841,-28.052157],[153.424535,-28.072587],[153.447581,-28.076061]]]},"bbox":[153.286114,-28.14648327895505,153.537330858144,-27.84389576214968]}]}