{"type":"FeatureCollection","features":[
{"properties":{"electorateShortName":"moore","electorateName":"Moore","area":102.19,"state":null},"type":"Feature","geometry":{"type":"Polygon","coordinates":[[[115.820852,-31.820103],[115.819625,-31.805375],[115.808556,-31.783339],[115.796116,-31.776717],[115.799087,-31.770411],[115.787774,-31.751885],[115.792254,-31.742984],[115.768635,-31.717476],[115.74975,-31.722362],[115.748035,-31.71199],[115.70661,-31.712027],[115.704884,-31.701943],[115.697502,-31.689138],[115.697805,-31.682363],[115.690458,-31.674504],[115.689732,-31.665604],[115.680263,-31.644081],[115.66871,-31.631479],[115.65101236742684,-31.641253394381373],[115.63882390685312,-31.65282357462712],[115.62899898534766,-31.666458036827304],[115.62188017444312,-31.681681379869552],[115.61771569006272,-31.69796280216375],[115.61665073782427,-31.714734609424937],[115.6187224500672,-31.7314120088163],[115.62385859113671,-31.747413499277833],[115.62650259113671,-31.753596499277833],[115.63693420910182,-31.771518433866852],[115.63944428665067,-31.787192037806953],[115.63744954375649,-31.804980719690768],[115.63901472203372,-31.822812332611026],[115.64537225910097,-31.848018602113537],[115.65206165330883,-31.865041536802387],[115.66205446685066,-31.880360543878812],[115.662633306638,-31.880943826028183],[115.66410805250456,-31.893599786788922],[115.67066313859794,-31.91231931678921],[115.68115930539722,-31.92914847124347],[115.69864561014256,-31.946102848693357],[115.7156176477184,-31.95631740427064],[115.73441314023482,-31.962571736064096],[115.75412158018844,-31.964562866324062],[115.75437535777908,-31.96456043395099],[115.755236,-31.902835],[115.750917,-31.876067],[115.751811,-31.873396],[115.765525,-31.873991],[115.769118,-31.858308],[115.790701,-31.859448],[115.79075,-31.86867],[115.801175,-31.86798],[115.800987,-31.858072],[115.795193,-31.841429],[115.784171,-31.82341],[115.820852,-31.820103]]]},"bbox":[115.61665073782427,-31.964562866324062,115.820852,-31.631479]}]}