{"type":"FeatureCollection","features":[
{"properties":{"electorateShortName":"moreton","electorateName":"Moreton","area":108.05,"state":null},"type":"Feature","geometry":{"type":"MultiPolygon","coordinates":[[[[153.111147,-27.593945],[153.055774,-27.525627],[153.021748,-27.500406],[152.965154,-27.543654],[153.025278,-27.612874],[153.10107,-27.618091],[153.111147,-27.593945]]],[[[153.003899,-27.47611],[153.003037,-27.476914],[153.006586,-27.473604],[153.003899,-27.47611]]]]},"bbox":[152.965154,-27.618091,153.111147,-27.473604]}]}