{"type":"FeatureCollection","features":[
{"properties":{"electorateShortName":"north-sydney","electorateName":"North Sydney","area":41.61,"state":null},"type":"Feature","geometry":{"type":"MultiPolygon","coordinates":[[[[151.22665,-33.854461],[151.22163,-33.846475],[151.22028,-33.84388],[151.217078,-33.841797],[151.215807,-33.840689],[151.215501,-33.839763],[151.213501,-33.837705],[151.216343,-33.833215],[151.215976,-33.831322],[151.21681,-33.830093],[151.218536,-33.830024],[151.222415,-33.831482],[151.223432,-33.831431],[151.227065,-33.830033],[151.228381,-33.829039],[151.230912,-33.827778],[151.232318,-33.820718],[151.232907,-33.818332],[151.229988,-33.815647],[151.234028,-33.814165],[151.234281,-33.813483],[151.233208,-33.811542],[151.234849,-33.808185],[151.235228,-33.806873],[151.234723,-33.805772],[151.233018,-33.804093],[151.233397,-33.801261],[151.234281,-33.799425],[151.234281,-33.798376],[151.232766,-33.794651],[151.232938,-33.792589],[151.2319,-33.79299],[151.229125,-33.79311],[151.227121,-33.794695],[151.224925,-33.794695],[151.219566,-33.791325],[151.217925,-33.792107],[151.216138,-33.791786],[151.214302,-33.789547],[151.212951,-33.790505],[151.211849,-33.789423],[151.209752,-33.789376],[151.208623,-33.787876],[151.206999,-33.787522],[151.205846,-33.786864],[151.203381,-33.786613],[151.202475,-33.785655],[151.200848,-33.78525],[151.202999,-33.790238],[151.198453,-33.791512],[151.183879,-33.796072],[151.178237,-33.797722],[151.177998,-33.796098],[151.17511,-33.795733],[151.173516,-33.796235],[151.17129,-33.796181],[151.168269,-33.796875],[151.166368,-33.795864],[151.164582,-33.794275],[151.163347,-33.793879],[151.159758,-33.794161],[151.157106,-33.792709],[151.157687,-33.79675],[151.159079,-33.798713],[151.158202,-33.800259],[151.157163,-33.800751],[151.15607,-33.80015],[151.153703,-33.800499],[151.152604,-33.799016],[151.150419,-33.799615],[151.14893,-33.799139],[151.145154,-33.799862],[151.142671,-33.801974],[151.143579,-33.802933],[151.14398,-33.80431],[151.143542,-33.805595],[151.142396,-33.806498],[151.141076,-33.806574],[151.140899,-33.807935],[151.141789,-33.809464],[151.141567,-33.810035],[151.139064,-33.809318],[151.140796,-33.811727],[151.140788,-33.814081],[151.141506,-33.814722],[151.143092,-33.815006],[151.143902,-33.81625],[151.143037,-33.817115],[151.141936,-33.816841],[151.140566,-33.817156],[151.139646,-33.815928],[151.13861,-33.815248],[151.135794,-33.815307],[151.137719,-33.818003],[151.137384,-33.818974],[151.136034,-33.819556],[151.130158,-33.828068],[151.126708,-33.830181],[151.127107,-33.833561],[151.128351,-33.836121],[151.128081,-33.838521],[151.128305,-33.842931],[151.131424,-33.842188],[151.132044,-33.843021],[151.132331,-33.844924],[151.13405,-33.846432],[151.135387,-33.846828],[151.138539,-33.845837],[151.139972,-33.844845],[151.141596,-33.844607],[151.142981,-33.842946],[151.145369,-33.842272],[151.146945,-33.84247],[151.15172,-33.840804],[151.154299,-33.84128],[151.156257,-33.842113],[151.156257,-33.843382],[151.159279,-33.845383],[151.16194,-33.846754],[151.164614,-33.846674],[151.167336,-33.845802],[151.170727,-33.845088],[151.173688,-33.844691],[151.178893,-33.844493],[151.182761,-33.844215],[151.187207,-33.844913],[151.191549,-33.84953],[151.195942,-33.849776],[151.22665,-33.854461]]],[[[151.25946,-33.937314],[151.25988472899203,-33.9375956308237],[151.2677854930286,-33.9345101799664],[151.28320215754974,-33.924474237865915],[151.29625624273294,-33.91151335291033],[151.30640238809562,-33.89616899195653],[151.31321671814956,-33.87908219633191],[151.31641455064593,-33.86096680105257],[151.3162387711916,-33.85511433189016],[151.3192487841443,-33.845000443701274],[151.3195061532116,-33.84368011443565],[151.31979665374266,-33.84218202554323],[151.31992093797098,-33.84174648258379],[151.32076309504762,-33.837993327382044],[151.32180690677154,-33.83234988163393],[151.32339825241385,-33.826057391524294],[151.32351465462096,-33.82249303104261],[151.3247472943902,-33.81616256037096],[151.32497893287396,-33.80018195761082],[151.32336913519725,-33.79041310991469],[151.32195111838237,-33.77803023034573],[151.32060811838235,-33.77224323034573],[151.31447053116239,-33.75447802569795],[151.3082468145573,-33.74413910283179],[151.307883,-33.744221],[151.30129,-33.748421],[151.297485,-33.753217],[151.299717,-33.756601],[151.301848,-33.760243],[151.302525,-33.768177],[151.30037,-33.766802],[151.298518,-33.767561],[151.29314,-33.773274],[151.295954,-33.781772],[151.292508,-33.780693],[151.289885,-33.782404],[151.291345,-33.785715],[151.288595,-33.787268],[151.288071,-33.79454],[151.290332,-33.799121],[151.29413,-33.800895],[151.297349,-33.800874],[151.297149,-33.799331],[151.298607,-33.79939],[151.30214,-33.802652],[151.303564,-33.806415],[151.307595,-33.807763],[151.301061,-33.818464],[151.301529,-33.823317],[151.290672,-33.828322],[151.280955,-33.832769],[151.287848,-33.850202],[151.286273,-33.852492],[151.286331,-33.857691],[151.282829,-33.862556],[151.28462,-33.873529],[151.282691,-33.877446],[151.286014,-33.886101],[151.285919,-33.891886],[151.283835,-33.893925],[151.281274,-33.891017],[151.274849,-33.893336],[151.276311,-33.898964],[151.272591,-33.899507],[151.268554,-33.903922],[151.270355,-33.906403],[151.271398,-33.914235],[151.266539,-33.913935],[151.268249,-33.915175],[151.266978,-33.916334],[151.261402,-33.914886],[151.262888,-33.917735],[151.257682,-33.922042],[151.261377,-33.927516],[151.259779,-33.929651],[151.261772,-33.935191],[151.25946,-33.937314]]]]},"bbox":[151.126708,-33.9375956308237,151.32497893287396,-33.74413910283179]}]}