{"type":"FeatureCollection","features":[
{"properties":{"electorateShortName":"page","electorateName":"Page","area":19318.14,"state":null},"type":"Feature","geometry":{"type":"Polygon","coordinates":[[[153.544475,-28.917804],[153.475801,-28.924591],[153.486858,-28.864848],[153.441382,-28.823097],[153.448133,-28.746851],[153.40682,-28.742889],[153.418182,-28.677922],[153.412627,-28.618563],[153.32783,-28.542733],[153.247732,-28.515887],[153.160263,-28.524129],[153.124034,-28.430592],[153.1094,-28.35744],[153.065283,-28.344234],[152.941574,-28.334512],[152.882129,-28.312092],[152.831926,-28.319961],[152.803636,-28.353735],[152.740742,-28.359934],[152.627857,-28.303031],[152.597846,-28.314779],[152.627861,-28.327548],[152.577038,-28.437617],[152.500138,-28.528526],[152.447754,-28.527473],[152.441811,-28.592688],[152.408765,-28.628211],[152.375208,-28.699883],[152.498235,-28.74483],[152.480325,-28.780262],[152.556973,-28.824527],[152.573306,-28.86365],[152.548638,-28.932364],[152.558516,-28.990078],[152.467109,-28.973664],[152.46464,-29.008025],[152.421006,-29.084096],[152.455006,-29.089027],[152.444231,-29.144175],[152.394086,-29.24125],[152.351323,-29.249123],[152.298279,-29.307447],[152.331517,-29.341837],[152.451081,-29.358053],[152.388785,-29.445316],[152.412456,-29.50688],[152.354492,-29.545471],[152.336123,-29.640777],[152.280708,-29.665904],[152.264365,-29.750938],[152.205433,-29.771754],[152.17596,-29.817476],[152.168757,-29.869874],[152.197742,-29.875924],[152.267689,-29.847868],[152.285582,-29.907048],[152.275042,-29.960416],[152.308005,-29.980175],[152.313319,-30.030123],[152.280721,-30.087436],[152.309672,-30.147907],[152.315421,-30.208575],[152.337677,-30.26243],[152.35178,-30.355359],[152.428078,-30.418897],[152.478585,-30.396993],[152.474912,-30.356637],[152.547091,-30.28865],[152.559647,-30.243719],[152.655376,-30.255316],[152.697823,-30.223335],[152.692987,-30.189015],[152.803453,-30.189567],[152.82954,-30.222078],[152.911059,-30.228489],[152.952152,-30.215507],[153.063319,-30.287125],[153.092125,-30.241608],[153.1495,-30.240696],[153.20109,-30.157596],[153.197084,-30.040577],[153.261773,-29.939942],[153.267648,-29.86525],[153.302914,-29.779179],[153.29201,-29.755913],[153.333974,-29.674551],[153.322947,-29.644035],[153.358717,-29.524101],[153.358416,-29.465843],[153.375511,-29.366632],[153.340263,-29.320414],[153.358856,-29.264965],[153.453325,-29.141867],[153.433862,-29.091555],[153.452966,-29.039249],[153.544475,-28.917804]]]},"bbox":[152.168757,-30.418897,153.544475,-28.303031]}]}