{"type":"FeatureCollection","features":[
{"properties":{"electorateShortName":"parkes","electorateName":"Parkes","area":393047.12,"state":null},"type":"Feature","geometry":{"type":"Polygon","coordinates":[[[149.795665,-32.05809],[149.80291,-32.057922],[149.805267,-32.055177],[149.80816,-32.039277],[149.813342,-32.039654],[149.825749,-32.037255],[149.827619,-32.034151],[149.840599,-32.030793],[149.849875,-32.025559],[149.858374,-32.03043],[149.859837,-32.02253],[149.869721,-32.023779],[149.868526,-32.03024],[149.87485,-32.031064],[149.872892,-32.018975],[149.873485,-32.01204],[149.879703,-31.999875],[149.873787,-31.995918],[149.875564,-31.984515],[149.858932,-31.982647],[149.857806,-31.989533],[149.839116,-31.987378],[149.846338,-31.98054],[149.851323,-31.970932],[149.866099,-31.961503],[149.866233,-31.956917],[149.872976,-31.944084],[149.878336,-31.939045],[149.883297,-31.937943],[149.888344,-31.929688],[149.898585,-31.918615],[149.897359,-31.912621],[149.909069,-31.899965],[149.919454,-31.893978],[149.919587,-31.886679],[149.924604,-31.886163],[149.92829,-31.881696],[149.941452,-31.878752],[149.959059,-31.863238],[149.968322,-31.861497],[149.978572,-31.85351],[149.986155,-31.849877],[149.992219,-31.843498],[150.009959,-31.837442],[150.023983,-31.828752],[150.025732,-31.824981],[150.034337,-31.816898],[150.041078,-31.804479],[150.041336,-31.798357],[150.045344,-31.797175],[150.049893,-31.786316],[150.061711,-31.776951],[150.068656,-31.772915],[150.069755,-31.76552],[150.084247,-31.758537],[150.089364,-31.754411],[150.099944,-31.748999],[150.110257,-31.748919],[150.110638,-31.746135],[150.102595,-31.740355],[150.094151,-31.740402],[150.087071,-31.742291],[150.075072,-31.739869],[150.057577,-31.719709],[150.051531,-31.721227],[150.044686,-31.710931],[150.050241,-31.704444],[150.052178,-31.698507],[150.030212,-31.69088],[150.02086,-31.696345],[150.013668,-31.697585],[150.01387,-31.704792],[150.002707,-31.707615],[149.995779,-31.714723],[149.990545,-31.713973],[149.993737,-31.721789],[149.98412,-31.727937],[149.980844,-31.718763],[149.971625,-31.709498],[149.971833,-31.706119],[149.965541,-31.700973],[149.958311,-31.700183],[149.946991,-31.702277],[149.941737,-31.711008],[149.93933,-31.706498],[149.933434,-31.705155],[149.930174,-31.698388],[149.925439,-31.700331],[149.919362,-31.706317],[149.904783,-31.706764],[149.897302,-31.698558],[149.883716,-31.694618],[149.878832,-31.691837],[149.877771,-31.683283],[149.870213,-31.683005],[149.86681,-31.678956],[149.863574,-31.669611],[149.86475,-31.65512],[149.866465,-31.651505],[149.863071,-31.643363],[149.864563,-31.636342],[149.851432,-31.628732],[149.849681,-31.623959],[149.842905,-31.619753],[149.840889,-31.616108],[149.857331,-31.618312],[149.863643,-31.617768],[149.887255,-31.621153],[149.89666,-31.620186],[149.898799,-31.617178],[149.896758,-31.602487],[149.89291,-31.592552],[149.899503,-31.584291],[149.911314,-31.572789],[149.913288,-31.561597],[149.911777,-31.552989],[149.903174,-31.54531],[149.905761,-31.543933],[149.904408,-31.536897],[149.892615,-31.537123],[149.875955,-31.534964],[149.874525,-31.538332],[149.866949,-31.537269],[149.882911,-31.451994],[149.89765,-31.45113],[149.93685,-31.45683],[149.943549,-31.45513],[149.968049,-31.45813],[149.986349,-31.45443],[150.002257,-31.445629],[150.004391,-31.429592],[149.98813,-31.427367],[149.999201,-31.361647],[149.995759,-31.360109],[149.99871,-31.344639],[149.986677,-31.329315],[149.994616,-31.324779],[150.005558,-31.326216],[150.006557,-31.320806],[150.041308,-31.325018],[150.039868,-31.332773],[150.078838,-31.338094],[150.086472,-31.297257],[150.091357,-31.297896],[150.094952,-31.278132],[150.096406,-31.278328],[150.103379,-31.240018],[150.134651,-31.244313],[150.138318,-31.223918],[150.147657,-31.225161],[150.144799,-31.236738],[150.158496,-31.237667],[150.159665,-31.232256],[150.165295,-31.233006],[150.163289,-31.243325],[150.156288,-31.242337],[150.154467,-31.251937],[150.157848,-31.252418],[150.148646,-31.303841],[150.152988,-31.304395],[150.151496,-31.312758],[150.15936,-31.313773],[150.156807,-31.328574],[150.160931,-31.329103],[150.15888,-31.340962],[150.163276,-31.34153],[150.160961,-31.354959],[150.191955,-31.358432],[150.192906,-31.352953],[150.201711,-31.354087],[150.200263,-31.362883],[150.227149,-31.366392],[150.226534,-31.369676],[150.237233,-31.371153],[150.237969,-31.367195],[150.285905,-31.373839],[150.304184,-31.37732],[150.303409,-31.381349],[150.33888,-31.386238],[150.350951,-31.389338],[150.351856,-31.384543],[150.366284,-31.386459],[150.370359,-31.384207],[150.383718,-31.386122],[150.382465,-31.392679],[150.417667,-31.397631],[150.418905,-31.391036],[150.434616,-31.3933],[150.434163,-31.387001],[150.429634,-31.384383],[150.43187,-31.377709],[150.433278,-31.36388],[150.426929,-31.357941],[150.427821,-31.350392],[150.419482,-31.34003],[150.469625,-31.346978],[150.468341,-31.353996],[150.484234,-31.356201],[150.485538,-31.349161],[150.498841,-31.350986],[150.497969,-31.355606],[150.507647,-31.356856],[150.505697,-31.367288],[150.516695,-31.366749],[150.518266,-31.358407],[150.532884,-31.360397],[150.543292,-31.36287],[150.547014,-31.357459],[150.549846,-31.343969],[150.534605,-31.343092],[150.537653,-31.328101],[150.546135,-31.3292],[150.548091,-31.318962],[150.551579,-31.310253],[150.546772,-31.309566],[150.550514,-31.289523],[150.548966,-31.285435],[150.550391,-31.278162],[150.546033,-31.277541],[150.548416,-31.264927],[150.566555,-31.268537],[150.56586,-31.272451],[150.575295,-31.273798],[150.583751,-31.228476],[150.562324,-31.235923],[150.564196,-31.225842],[150.56046,-31.225274],[150.561964,-31.217305],[150.569044,-31.220816],[150.580167,-31.222317],[150.585536,-31.217611],[150.586718,-31.210359],[150.571431,-31.208215],[150.572125,-31.206047],[150.579729,-31.147056],[150.589532,-31.147311],[150.590495,-31.142482],[150.580899,-31.141223],[150.58431,-31.125056],[150.596757,-31.059287],[150.599399,-31.046846],[150.596476,-31.043532],[150.595879,-31.03697],[150.589728,-31.036198],[150.583118,-31.028432],[150.578,-31.028097],[150.575263,-31.020065],[150.561927,-31.014672],[150.5579,-31.016074],[150.551811,-31.011416],[150.549726,-31.005414],[150.544419,-30.999412],[150.539871,-30.986252],[150.533144,-30.978633],[150.527741,-30.968574],[150.533062,-30.9405],[150.528592,-30.938181],[150.523233,-30.928141],[150.51357,-30.928452],[150.510418,-30.921303],[150.500552,-30.922243],[150.49177,-30.92138],[150.493029,-30.916593],[150.498687,-30.912981],[150.499366,-30.908822],[150.506294,-30.909852],[150.507019,-30.90615],[150.515505,-30.907365],[150.52454,-30.906436],[150.530215,-30.903012],[150.531694,-30.889384],[150.530401,-30.875117],[150.521061,-30.854963],[150.54661,-30.858757],[150.549465,-30.843992],[150.555997,-30.844956],[150.55754,-30.836976],[150.561702,-30.837589],[150.563202,-30.829941],[150.55599,-30.828422],[150.559266,-30.810814],[150.54384,-30.813422],[150.520149,-30.800458],[150.515322,-30.801635],[150.501624,-30.801019],[150.487268,-30.798984],[150.490387,-30.783325],[150.463393,-30.778957],[150.464437,-30.773983],[150.456319,-30.772761],[150.457808,-30.763312],[150.466331,-30.764641],[150.467416,-30.759534],[150.452613,-30.757233],[150.458334,-30.748598],[150.467178,-30.745206],[150.463847,-30.739544],[150.467057,-30.734025],[150.464447,-30.725508],[150.464497,-30.717095],[150.453462,-30.715383],[150.457961,-30.690158],[150.509647,-30.660088],[150.506386,-30.656015],[150.507405,-30.651059],[150.502756,-30.642227],[150.499184,-30.638655],[150.490168,-30.636809],[150.48611,-30.63214],[150.475413,-30.626218],[150.468508,-30.628335],[150.461953,-30.621007],[150.456351,-30.619198],[150.454351,-30.607517],[150.449033,-30.604869],[150.441236,-30.604886],[150.437868,-30.597427],[150.430031,-30.60087],[150.421935,-30.597152],[150.420946,-30.592643],[150.410649,-30.589852],[150.402578,-30.593862],[150.396077,-30.593689],[150.394623,-30.602644],[150.390829,-30.605231],[150.384609,-30.602017],[150.378269,-30.602705],[150.371693,-30.594562],[150.371989,-30.588984],[150.36502,-30.583433],[150.366634,-30.575504],[150.359985,-30.570019],[150.360449,-30.55944],[150.373754,-30.561229],[150.372742,-30.566742],[150.390702,-30.56932],[150.39169,-30.562965],[150.388654,-30.551035],[150.393759,-30.547065],[150.366127,-30.543415],[150.368537,-30.530077],[150.354745,-30.528235],[150.356477,-30.519738],[150.358849,-30.519138],[150.36257,-30.498579],[150.348388,-30.496715],[150.364157,-30.489295],[150.367582,-30.470081],[150.36321,-30.468485],[150.350862,-30.472987],[150.346536,-30.469539],[150.35188,-30.465212],[150.351826,-30.457706],[150.360984,-30.454077],[150.364082,-30.445719],[150.362791,-30.433258],[150.355686,-30.428051],[150.351488,-30.418184],[150.344603,-30.412213],[150.338779,-30.41508],[150.328624,-30.402452],[150.319713,-30.411142],[150.322614,-30.419724],[150.319199,-30.425522],[150.314174,-30.429023],[150.300528,-30.432724],[150.29346,-30.428206],[150.283241,-30.430848],[150.274604,-30.421448],[150.27017,-30.420651],[150.263307,-30.415754],[150.25277,-30.413992],[150.245546,-30.406038],[150.239201,-30.40157],[150.229654,-30.402077],[150.225751,-30.399298],[150.227391,-30.391036],[150.237671,-30.384604],[150.235857,-30.378521],[150.228799,-30.376523],[150.224023,-30.370921],[150.203418,-30.375046],[150.192199,-30.366188],[150.188295,-30.359725],[150.195547,-30.345626],[150.193704,-30.340276],[150.194135,-30.331729],[150.191254,-30.32616],[150.194998,-30.321087],[150.189526,-30.307726],[150.182964,-30.299506],[150.193656,-30.293246],[150.186723,-30.290665],[150.181347,-30.279575],[150.172995,-30.278854],[150.169036,-30.274894],[150.169542,-30.267385],[150.175503,-30.265359],[150.17117,-30.255697],[150.17393,-30.248429],[150.173049,-30.243568],[150.168487,-30.239443],[150.167062,-30.228544],[150.16293,-30.221816],[150.158769,-30.222448],[150.146369,-30.215644],[150.144859,-30.202355],[150.136509,-30.20072],[150.129844,-30.203072],[150.125231,-30.19599],[150.111106,-30.194335],[150.102263,-30.191946],[150.100706,-30.188012],[150.089365,-30.171677],[150.090429,-30.164582],[150.088669,-30.158066],[150.080728,-30.140085],[150.074402,-30.137122],[150.076534,-30.132673],[150.074876,-30.12775],[150.077205,-30.12205],[150.074464,-30.113683],[150.07566,-30.107363],[150.083633,-30.097049],[150.091593,-30.096286],[150.091529,-30.092626],[150.102979,-30.081962],[150.113319,-30.080521],[150.118096,-30.077794],[150.119478,-30.07208],[150.124153,-30.070046],[150.139505,-30.086488],[150.144869,-30.087298],[150.153588,-30.082015],[150.158003,-30.082769],[150.162812,-30.078139],[150.164022,-30.070652],[150.171956,-30.062964],[150.179171,-30.065514],[150.188487,-30.065706],[150.197512,-30.062574],[150.200962,-30.055795],[150.204337,-30.053722],[150.213702,-30.042997],[150.21378,-30.039823],[150.224954,-30.027031],[150.231681,-30.024417],[150.236992,-30.016169],[150.236102,-30.012698],[150.245146,-30.009724],[150.248841,-30.010267],[150.250879,-30.001988],[150.248852,-29.99348],[150.254329,-29.989891],[150.264322,-29.98866],[150.272628,-29.989392],[150.278474,-29.995908],[150.285121,-29.996387],[150.285923,-29.991851],[150.292859,-29.990531],[150.292467,-29.963772],[150.301924,-29.957239],[150.302223,-29.949311],[150.298682,-29.946048],[150.30252,-29.938875],[150.300885,-29.932541],[150.300511,-29.920914],[150.312038,-29.90691],[150.313714,-29.897114],[150.312409,-29.892556],[150.305017,-29.889455],[150.306053,-29.885274],[150.301511,-29.873729],[150.293831,-29.870525],[150.294258,-29.857041],[150.296765,-29.850213],[150.294081,-29.846606],[150.301779,-29.840026],[150.302375,-29.827035],[150.307027,-29.825922],[150.306484,-29.81985],[150.29936,-29.817174],[150.298251,-29.808285],[150.29072,-29.802698],[150.292227,-29.796397],[150.289255,-29.789468],[150.290127,-29.774071],[150.293233,-29.763954],[150.291971,-29.75543],[150.28796,-29.749832],[150.298058,-29.744221],[150.302421,-29.735565],[150.381499,-29.746991],[150.381113,-29.749611],[150.400192,-29.752484],[150.406833,-29.745087],[150.412538,-29.746103],[150.416526,-29.752124],[150.425223,-29.757331],[150.415073,-29.765222],[150.412372,-29.770495],[150.413941,-29.776688],[150.418598,-29.778563],[150.425027,-29.775174],[150.433273,-29.766584],[150.439801,-29.765404],[150.448701,-29.774823],[150.453672,-29.775867],[150.462626,-29.771564],[150.480289,-29.779089],[150.494735,-29.788766],[150.509293,-29.799972],[150.509532,-29.807136],[150.520859,-29.80637],[150.525355,-29.810999],[150.530825,-29.810712],[150.539751,-29.806379],[150.547449,-29.813302],[150.553719,-29.812168],[150.565085,-29.800027],[150.569512,-29.798929],[150.578438,-29.801969],[150.585374,-29.796436],[150.594135,-29.801406],[150.600278,-29.801834],[150.599641,-29.796922],[150.612074,-29.795893],[150.621443,-29.790912],[150.627965,-29.780895],[150.651497,-29.771412],[150.657582,-29.774186],[150.662204,-29.770537],[150.663209,-29.764353],[150.676957,-29.754931],[150.675575,-29.74944],[150.68018,-29.744924],[150.679402,-29.739239],[150.682756,-29.732732],[150.680174,-29.727844],[150.685688,-29.725492],[150.685267,-29.717795],[150.682268,-29.71335],[150.689381,-29.710294],[150.687627,-29.705711],[150.692397,-29.693309],[150.68871,-29.677912],[150.697614,-29.670835],[150.695857,-29.667393],[150.699979,-29.663597],[150.711784,-29.657177],[150.709318,-29.647989],[150.717548,-29.642989],[150.726032,-29.635639],[150.728484,-29.621458],[150.724725,-29.620843],[150.733308,-29.569273],[150.748532,-29.569203],[150.755306,-29.566086],[150.760274,-29.558044],[150.767796,-29.554631],[150.771915,-29.550261],[150.781368,-29.546082],[150.791326,-29.539469],[150.79743,-29.533904],[150.80968,-29.527091],[150.813498,-29.527107],[150.83414,-29.517945],[150.856784,-29.512519],[150.858838,-29.500892],[150.855832,-29.500475],[150.858467,-29.485476],[150.864235,-29.486344],[150.865916,-29.476709],[150.859924,-29.475912],[150.863628,-29.456517],[150.88343,-29.459179],[150.890605,-29.420644],[150.89041,-29.41715],[150.878056,-29.415147],[150.878722,-29.41158],[150.851655,-29.407877],[150.850265,-29.414715],[150.827929,-29.411862],[150.830182,-29.396522],[150.821715,-29.391475],[150.82386,-29.384785],[150.817675,-29.37705],[150.822838,-29.372062],[150.818844,-29.363667],[150.811421,-29.358741],[150.809716,-29.349858],[150.800886,-29.340002],[150.805525,-29.335301],[150.804999,-29.330516],[150.796502,-29.327538],[150.802741,-29.324269],[150.795123,-29.313725],[150.785158,-29.314817],[150.784633,-29.308971],[150.775484,-29.307798],[150.777802,-29.300375],[150.771431,-29.299172],[150.77437,-29.292466],[150.772049,-29.286993],[150.764667,-29.285389],[150.764503,-29.280575],[150.758917,-29.275904],[150.763848,-29.270258],[150.756532,-29.268109],[150.757675,-29.263925],[150.751241,-29.263237],[150.75098,-29.258824],[150.754767,-29.254038],[150.753265,-29.249081],[150.759735,-29.233825],[150.758755,-29.231158],[150.763324,-29.222242],[150.761037,-29.216336],[150.763679,-29.209513],[150.754768,-29.204697],[150.75815,-29.192418],[150.750719,-29.19171],[150.750129,-29.179468],[150.752315,-29.174021],[150.745102,-29.165621],[150.752277,-29.15097],[150.747938,-29.147989],[150.743958,-29.141682],[150.74912,-29.13476],[150.738836,-29.133711],[150.738966,-29.129899],[150.731399,-29.125254],[150.733682,-29.12015],[150.726148,-29.117111],[150.722301,-29.096583],[150.712878,-29.098559],[150.709683,-29.09509],[150.70502,-29.09979],[150.701825,-29.098413],[150.70525,-29.089871],[150.702024,-29.083907],[150.695404,-29.088463],[150.693026,-29.083875],[150.688006,-29.081351],[150.687814,-29.072692],[150.678621,-29.075871],[150.671319,-29.075524],[150.670184,-29.065031],[150.665035,-29.06368],[150.666668,-29.057575],[150.656011,-29.057253],[150.64891,-29.051343],[150.649891,-29.046327],[150.638753,-29.038034],[150.634166,-29.028971],[150.626384,-29.023432],[150.627567,-29.012195],[150.620824,-29.01153],[150.611552,-29.000026],[150.614753,-28.996949],[150.617528,-28.98947],[150.613429,-28.98399],[150.620998,-28.974253],[150.620404,-28.970864],[150.624559,-28.949993],[150.630952,-28.941345],[150.623164,-28.933958],[150.620906,-28.928251],[150.616803,-28.926155],[150.61935,-28.917927],[150.614362,-28.907614],[150.609719,-28.904981],[150.611922,-28.887505],[150.614679,-28.884258],[150.619468,-28.873027],[150.625561,-28.866334],[150.635399,-28.845794],[150.6394,-28.843842],[150.634318,-28.836246],[150.63764,-28.826871],[150.643871,-28.82435],[150.645389,-28.813819],[150.649824,-28.813517],[150.660794,-28.802059],[150.672147,-28.793301],[150.670224,-28.787891],[150.665282,-28.782079],[150.672684,-28.741396],[150.669536,-28.742482],[150.655817,-28.737463],[150.639321,-28.737488],[150.633508,-28.730739],[150.615702,-28.731246],[150.609919,-28.725619],[150.603168,-28.725041],[150.598366,-28.716449],[150.576777,-28.70628],[150.571662,-28.706195],[150.564286,-28.709448],[150.561387,-28.70574],[150.553705,-28.706901],[150.546796,-28.703933],[150.539403,-28.707396],[150.529727,-28.699457],[150.531032,-28.69469],[150.522155,-28.685478],[150.521234,-28.680303],[150.513475,-28.683985],[150.498843,-28.682525],[150.492475,-28.676761],[150.483403,-28.676713],[150.479113,-28.673968],[150.48542,-28.666146],[150.483443,-28.662131],[150.473599,-28.659949],[150.462976,-28.667695],[150.458353,-28.66487],[150.445551,-28.665141],[150.437262,-28.66121],[150.4305,-28.652129],[150.414296,-28.649864],[150.41641,-28.644149],[150.416115,-28.635317],[150.408798,-28.63389],[150.402446,-28.627563],[150.398146,-28.62834],[150.392281,-28.633355],[150.387879,-28.633924],[150.386103,-28.625195],[150.38011,-28.627067],[150.37595,-28.622436],[150.370045,-28.62068],[150.369432,-28.611233],[150.363809,-28.607244],[150.369605,-28.598407],[150.362879,-28.595387],[150.36322,-28.589415],[150.356447,-28.589807],[150.349452,-28.582527],[150.351572,-28.576053],[150.329605,-28.572074],[150.324473,-28.568359],[150.319715,-28.556537],[150.312722,-28.555132],[150.309109,-28.550592],[150.300536,-28.548467],[150.297166,-28.54121],[150.289648,-28.537157],[150.282523,-28.542639],[150.272191,-28.53933],[150.262192,-28.544869],[150.254795,-28.546105],[150.249043,-28.552242],[150.244011,-28.554447],[150.236053,-28.55381],[150.229074,-28.567687],[150.219983,-28.566728],[150.212304,-28.568484],[150.212287,-28.574181],[150.20322,-28.572507],[150.197123,-28.567147],[150.181437,-28.565038],[150.184067,-28.558642],[150.169825,-28.559393],[150.169679,-28.551113],[150.161356,-28.554497],[150.152262,-28.555528],[150.141293,-28.559879],[150.130734,-28.562688],[150.121475,-28.559734],[150.11282,-28.563591],[150.115733,-28.566362],[150.110908,-28.570297],[150.097152,-28.563369],[150.091932,-28.564239],[150.091024,-28.569217],[150.092923,-28.578618],[150.087386,-28.580732],[150.081008,-28.578056],[150.079036,-28.584309],[150.072567,-28.580124],[150.073281,-28.576562],[150.059394,-28.578451],[150.057701,-28.582964],[150.049319,-28.588994],[150.037923,-28.583674],[150.031806,-28.584102],[150.030222,-28.580345],[150.02093,-28.582711],[150.017933,-28.580389],[149.994799,-28.593672],[149.992715,-28.600555],[149.984654,-28.603087],[149.976841,-28.611116],[149.97158,-28.607665],[149.957355,-28.609874],[149.94996,-28.608341],[149.949102,-28.612535],[149.937246,-28.614581],[149.925115,-28.608895],[149.917404,-28.608056],[149.903232,-28.615107],[149.903163,-28.61966],[149.889815,-28.618768],[149.887304,-28.615159],[149.878226,-28.609867],[149.873229,-28.603448],[149.868058,-28.607214],[149.865366,-28.602713],[149.85839,-28.605603],[149.851357,-28.605283],[149.844852,-28.610477],[149.83914,-28.603501],[149.830077,-28.603846],[149.826509,-28.608765],[149.818185,-28.612818],[149.812191,-28.606157],[149.799654,-28.608081],[149.797277,-28.610244],[149.783895,-28.612174],[149.772194,-28.608872],[149.764244,-28.614094],[149.756417,-28.611907],[149.741585,-28.613086],[149.738773,-28.61598],[149.727794,-28.615673],[149.729713,-28.611102],[149.721169,-28.609183],[149.716991,-28.614285],[149.708894,-28.613076],[149.703151,-28.618877],[149.706194,-28.622261],[149.703381,-28.626083],[149.7056,-28.631067],[149.702712,-28.633629],[149.696606,-28.630759],[149.671085,-28.631934],[149.67277,-28.623563],[149.663735,-28.61711],[149.664601,-28.613285],[149.660927,-28.609536],[149.651171,-28.613529],[149.646218,-28.610025],[149.645675,-28.604052],[149.624832,-28.593436],[149.618393,-28.598606],[149.609868,-28.599693],[149.604841,-28.591064],[149.605716,-28.587469],[149.597205,-28.584244],[149.599526,-28.581341],[149.587511,-28.572882],[149.58389,-28.574322],[149.567962,-28.571309],[149.561804,-28.573937],[149.55662,-28.578552],[149.544491,-28.575399],[149.529213,-28.574282],[149.524574,-28.579434],[149.514827,-28.579702],[149.503274,-28.578381],[149.495463,-28.578765],[149.489865,-28.584564],[149.484809,-28.582563],[149.480875,-28.589708],[149.474862,-28.593894],[149.461772,-28.591551],[149.455597,-28.596022],[149.450648,-28.605189],[149.444233,-28.606455],[149.439052,-28.615531],[149.442589,-28.620811],[149.434675,-28.626518],[149.429699,-28.627981],[149.429017,-28.632224],[149.432649,-28.635445],[149.426309,-28.646952],[149.42627,-28.649695],[149.416943,-28.651587],[149.41741,-28.660456],[149.410694,-28.663466],[149.41208,-28.667232],[149.404855,-28.675513],[149.399273,-28.674854],[149.394119,-28.677104],[149.394167,-28.685725],[149.391403,-28.691734],[149.367922,-28.688879],[149.358975,-28.68433],[149.348262,-28.690989],[149.345872,-28.694837],[149.339402,-28.69568],[149.328147,-28.707439],[149.319586,-28.708302],[149.313974,-28.71206],[149.305889,-28.711453],[149.303019,-28.709285],[149.293978,-28.711683],[149.290852,-28.718805],[149.279917,-28.731434],[149.272167,-28.73356],[149.272215,-28.740224],[149.269404,-28.743253],[149.25983,-28.735709],[149.253716,-28.740149],[149.247182,-28.738815],[149.237119,-28.750356],[149.230408,-28.75137],[149.227815,-28.76018],[149.208266,-28.765903],[149.201837,-28.770665],[149.19392,-28.771459],[149.188805,-28.775118],[149.192314,-28.78014],[149.186373,-28.782338],[149.184324,-28.790786],[149.186797,-28.794288],[149.169073,-28.808112],[149.160868,-28.807065],[149.160775,-28.810405],[149.151035,-28.807744],[149.146036,-28.80939],[149.139757,-28.807197],[149.139175,-28.812137],[149.142466,-28.81548],[149.14239,-28.823873],[149.127867,-28.832281],[149.121205,-28.832766],[149.11879,-28.829457],[149.108745,-28.833448],[149.092499,-28.834273],[149.086989,-28.838376],[149.086065,-28.842577],[149.081108,-28.845866],[149.080157,-28.858186],[149.073934,-28.861529],[149.069922,-28.872098],[149.063957,-28.877815],[149.057388,-28.881111],[149.054828,-28.885574],[149.063475,-28.887528],[149.058088,-28.893417],[149.056087,-28.900459],[149.058652,-28.910358],[149.055182,-28.911819],[149.046904,-28.920679],[149.043389,-28.926466],[149.045403,-28.931806],[149.042373,-28.939312],[149.035062,-28.945749],[149.035682,-28.950154],[149.03127,-28.957064],[149.027847,-28.954529],[149.01672,-28.956773],[149.011119,-28.960323],[149.005775,-28.960245],[149.003563,-28.968429],[148.996803,-28.972844],[148.990305,-28.972101],[148.983658,-28.976616],[148.976618,-28.976309],[148.972485,-28.979861],[148.97142,-28.984725],[148.963818,-28.995784],[148.958086,-28.999051],[148.857363,-28.999061],[148.716016,-28.999052],[148.361055,-28.999043],[148.085826,-28.999055],[147.94549,-28.999055],[147.77231,-28.999056],[147.599628,-28.999057],[147.233259,-28.999059],[147.147011,-28.999058],[147.001174,-28.999059],[146.94501,-28.999132],[146.745786,-28.998946],[146.58314,-28.998873],[146.375389,-28.998781],[146.067784,-28.998645],[146.012352,-28.999091],[145.848645,-28.99908],[145.666844,-28.999081],[145.469885,-28.999065],[145.41313,-28.999089],[145.170465,-28.999086],[145.008074,-28.999091],[144.87418,-28.999091],[144.694392,-28.999078],[144.5784,-28.999083],[144.480356,-28.999095],[144.332114,-28.999093],[144.196177,-28.999115],[144.030288,-28.999173],[143.997837,-28.999079],[143.867903,-28.99908],[143.769722,-28.999082],[143.6044,-28.999058],[143.451901,-28.999069],[143.290795,-28.999075],[143.176149,-28.999029],[143.021519,-28.999087],[142.70748,-28.999091],[142.602579,-28.999027],[142.466571,-28.999093],[142.264797,-28.999074],[142.109107,-28.999037],[142.018876,-28.99904],[141.859439,-28.999099],[141.537076,-28.998996],[141.530877,-28.9991],[141.373948,-28.999067],[141.199998,-28.999029],[140.999265,-28.999101],[140.999596,-29.204811],[140.999762,-29.329607],[141.001817,-29.367872],[140.999862,-29.443032],[141.000018,-29.646656],[141.000081,-30.014325],[141.00033,-30.050624],[141.0004,-30.184098],[141.000455,-30.285945],[141.000568,-30.475266],[141.000699,-30.70755],[141.000659,-30.844149],[141.000634,-30.969827],[141.000323,-31.027965],[141.000611,-31.047029],[141.000594,-31.199968],[141.000764,-31.353757],[141.001027,-31.591729],[141.001129,-31.683869],[141.001289,-31.829147],[141.001316,-31.932267],[141.001155,-31.953733],[141.001137,-32.102228],[141.001119,-32.218295],[141.001076,-32.344868],[141.001004,-32.467467],[141.001055,-32.72402],[141.001197,-32.8404],[141.001451,-32.932675],[141.001875,-33.074924],[141.00215,-33.227123],[141.002258,-33.329008],[141.167885,-33.345854],[141.263992,-33.355755],[141.266626,-33.337241],[141.308721,-33.341403],[141.30584,-33.362454],[141.348003,-33.366658],[141.362415,-33.26469],[141.377234,-33.1596],[141.388322,-33.081312],[141.40258,-32.98766],[141.573204,-33.005572],[141.560773,-33.096293],[141.755369,-33.115945],[141.884476,-33.128715],[142.038355,-33.143941],[142.022933,-33.0848],[142.107802,-33.090131],[142.105679,-33.11242],[142.168599,-33.116529],[142.178229,-33.115346],[142.224487,-33.120035],[142.226627,-33.126217],[142.221461,-33.128867],[142.242827,-33.130873],[142.244604,-33.119457],[142.254121,-33.121325],[142.27428,-33.123423],[142.279734,-33.120261],[142.273788,-33.115048],[142.29338,-33.116597],[142.294958,-33.109389],[142.287566,-33.108652],[142.296702,-33.101595],[142.29491,-33.095964],[142.300501,-33.093801],[142.288328,-33.087881],[142.28965,-33.081676],[142.302121,-33.074312],[142.311348,-33.067128],[142.314277,-33.057633],[142.314154,-33.049337],[142.323993,-33.050171],[142.334034,-33.046291],[142.343633,-33.037787],[142.351729,-33.033155],[142.357629,-33.033758],[142.357481,-33.02736],[142.362969,-33.025362],[142.366126,-33.017522],[142.373471,-33.016021],[142.382492,-33.005539],[142.379777,-32.997171],[142.372555,-32.996433],[142.374359,-32.989311],[142.371464,-32.975807],[142.376475,-32.973676],[142.428011,-32.979027],[142.424469,-33.005226],[142.547987,-33.01714],[142.551917,-32.991617],[142.549908,-32.991416],[142.515536,-32.847454],[142.705129,-32.866688],[142.79212,-32.875413],[142.94435,-32.890533],[142.964638,-32.748537],[143.071628,-32.759322],[143.271212,-32.780229],[143.269614,-32.791387],[143.432435,-32.808446],[143.416969,-32.907493],[143.43243,-32.909315],[143.438317,-32.9112],[143.499566,-32.918349],[143.505852,-32.876004],[143.550719,-32.881162],[143.591987,-32.885141],[143.585153,-32.93103],[143.671807,-32.940764],[143.670598,-32.94527],[143.661538,-32.955298],[143.653413,-33.012413],[143.602799,-33.007104],[143.57281,-33.012429],[143.55246,-33.140481],[143.637288,-33.149916],[143.636107,-33.157788],[143.648475,-33.15901],[143.66485,-33.178855],[143.674028,-33.170711],[143.690486,-33.163458],[143.714801,-33.154611],[143.719453,-33.149103],[143.720951,-33.140453],[143.789876,-33.148866],[143.816663,-33.137446],[143.839023,-33.15459],[143.898192,-33.161392],[143.905907,-33.115708],[144.07974,-33.135369],[144.140087,-33.142435],[144.251426,-33.15507],[144.236255,-33.249829],[144.277778,-33.254216],[144.264268,-33.263015],[144.262641,-33.272906],[144.359521,-33.281918],[144.414163,-33.286491],[144.416202,-33.279072],[144.433489,-33.280482],[144.433578,-33.287676],[144.471702,-33.291203],[144.471793,-33.29897],[144.488676,-33.300463],[144.491092,-33.292975],[144.530284,-33.296625],[144.530799,-33.298321],[144.546947,-33.300011],[144.549233,-33.28552],[144.577529,-33.288666],[144.58018,-33.268377],[144.595668,-33.270038],[144.598011,-33.255087],[144.609422,-33.256341],[144.61222,-33.237804],[144.642648,-33.241122],[144.645681,-33.222352],[144.733424,-33.231398],[144.741889,-33.173591],[144.748739,-33.171396],[144.747612,-33.161452],[144.753004,-33.160074],[144.754523,-33.153222],[144.760138,-33.156815],[144.76036,-33.160688],[144.768233,-33.161598],[144.770434,-33.15777],[144.775774,-33.157994],[144.777974,-33.163461],[144.798235,-33.036219],[144.913078,-33.049131],[144.908865,-33.074448],[144.942311,-33.078304],[144.941139,-33.084777],[144.96278,-33.087289],[144.9635,-33.081991],[144.979402,-33.083791],[144.980927,-33.07304],[144.985912,-33.070528],[144.982305,-33.06332],[144.987542,-33.026363],[144.993555,-33.022522],[144.991731,-33.033662],[145.007975,-33.035543],[145.010266,-33.024449],[145.026982,-33.026341],[145.027698,-33.021923],[145.107556,-33.033712],[145.118833,-32.953708],[145.127254,-32.954686],[145.14842,-32.818818],[145.15955,-32.747169],[145.164993,-32.71483],[145.249374,-32.724393],[145.257279,-32.671254],[145.344278,-32.682486],[145.330563,-32.766674],[145.412631,-32.775949],[145.414944,-32.761412],[145.467462,-32.722507],[145.510436,-32.727862],[145.506254,-32.752996],[145.504348,-32.770092],[145.544859,-32.775372],[145.537932,-32.783255],[145.550822,-32.791615],[145.560599,-32.781409],[145.569099,-32.757875],[145.561076,-32.756899],[145.557476,-32.766127],[145.54889,-32.765196],[145.552592,-32.755852],[145.554424,-32.73598],[145.556637,-32.733284],[145.595723,-32.737769],[145.586515,-32.796236],[145.671923,-32.805722],[145.651787,-32.935351],[145.668529,-32.935871],[145.645258,-33.080312],[145.686333,-33.082059],[145.754709,-33.082677],[145.87087,-33.086311],[145.872639,-33.0748],[145.906825,-33.078623],[145.905331,-33.087748],[146.03166,-33.093579],[146.093631,-33.189083],[146.068914,-33.204006],[146.058892,-33.211808],[146.076584,-33.24436],[146.095088,-33.276178],[146.092151,-33.280842],[146.094338,-33.284152],[146.087068,-33.289565],[146.084524,-33.299924],[146.089188,-33.303343],[146.081561,-33.309145],[146.087751,-33.320942],[146.088888,-33.325816],[146.085309,-33.328161],[146.083297,-33.334511],[146.076061,-33.338914],[146.070979,-33.350078],[146.072643,-33.35554],[146.066897,-33.359114],[146.07093,-33.368768],[146.0671,-33.370964],[146.06118,-33.419428],[146.053962,-33.475767],[146.066884,-33.516494],[146.095141,-33.603131],[146.115796,-33.598607],[146.180657,-33.583236],[146.226613,-33.572876],[146.226415,-33.574139],[146.440808,-33.520858],[146.445623,-33.563875],[146.603523,-33.582402],[146.721899,-33.596839],[146.80888,-33.607151],[146.818558,-33.55169],[146.821456,-33.53759],[146.817579,-33.53726],[146.814289,-33.5301],[146.82041,-33.528173],[146.829805,-33.53798],[146.830767,-33.532427],[146.870796,-33.537719],[146.943339,-33.546703],[146.988475,-33.55196],[146.986431,-33.563834],[147.008123,-33.566178],[147.053281,-33.572049],[147.104374,-33.57748],[147.108457,-33.575447],[147.15895,-33.581356],[147.159861,-33.581855],[147.242778,-33.591816],[147.245877,-33.571913],[147.276131,-33.575188],[147.278115,-33.562807],[147.32036,-33.567801],[147.322408,-33.554812],[147.338935,-33.556749],[147.34275,-33.53519],[147.358351,-33.525343],[147.399993,-33.528822],[147.403505,-33.527012],[147.407473,-33.49615],[147.411192,-33.490716],[147.41551,-33.46526],[147.418409,-33.457333],[147.422876,-33.450853],[147.426412,-33.43462],[147.4804,-33.441743],[147.48393,-33.423307],[147.485964,-33.423228],[147.496005,-33.365781],[147.503282,-33.327624],[147.514722,-33.263086],[147.497357,-33.264877],[147.497778,-33.257901],[147.48979,-33.258981],[147.483481,-33.256127],[147.482804,-33.251193],[147.485534,-33.246619],[147.472329,-33.244823],[147.471268,-33.240472],[147.46457,-33.23587],[147.464821,-33.22742],[147.442535,-33.230847],[147.445284,-33.224],[147.433592,-33.223187],[147.427782,-33.227326],[147.421417,-33.228187],[147.410229,-33.225618],[147.403668,-33.22098],[147.399915,-33.222757],[147.385474,-33.218827],[147.376176,-33.219508],[147.36817,-33.217202],[147.363194,-33.224369],[147.356467,-33.224091],[147.354354,-33.218924],[147.346015,-33.214229],[147.329587,-33.214479],[147.325945,-33.20809],[147.31919,-33.205007],[147.308794,-33.207062],[147.308099,-33.202673],[147.312463,-33.200173],[147.31099,-33.194812],[147.302928,-33.195562],[147.29794,-33.19184],[147.306153,-33.180283],[147.299898,-33.178923],[147.296817,-33.171641],[147.308075,-33.104384],[147.317414,-33.117352],[147.327206,-33.111434],[147.342354,-33.114281],[147.34309,-33.124335],[147.351166,-33.124834],[147.353859,-33.120618],[147.362685,-33.123697],[147.369193,-33.131837],[147.372274,-33.129924],[147.382376,-33.132448],[147.381558,-33.137065],[147.388534,-33.139417],[147.405017,-33.038017],[147.405831,-33.037354],[147.443336,-33.041785],[147.443986,-33.03822],[147.457425,-33.039813],[147.456833,-33.043377],[147.469284,-33.044846],[147.470348,-33.038107],[147.554975,-33.048197],[147.559165,-33.022032],[147.54302,-33.020151],[147.548409,-32.988072],[147.550656,-32.988308],[147.556894,-32.948209],[147.57105,-32.949714],[147.57898,-32.893268],[147.578521,-32.89322],[147.587319,-32.835592],[147.59272,-32.836127],[147.604257,-32.762695],[147.599829,-32.762124],[147.602441,-32.744318],[147.598394,-32.738625],[147.568364,-32.735381],[147.577635,-32.675638],[147.553706,-32.672984],[147.557018,-32.652394],[147.559096,-32.647782],[147.55694,-32.629158],[147.564722,-32.61556],[147.574017,-32.614042],[147.577178,-32.60761],[147.581526,-32.604564],[147.552851,-32.601742],[147.550501,-32.595033],[147.556241,-32.55915],[147.560848,-32.559681],[147.561756,-32.553765],[147.545261,-32.551855],[147.551899,-32.508133],[147.561644,-32.456001],[147.589521,-32.438367],[147.611509,-32.441179],[147.613993,-32.42765],[147.612298,-32.423304],[147.696383,-32.369297],[147.70117,-32.37281],[147.708416,-32.387039],[147.715203,-32.389301],[147.719722,-32.396196],[147.727804,-32.397764],[147.733125,-32.402423],[147.741987,-32.402734],[147.745907,-32.408187],[147.756013,-32.406891],[147.762141,-32.407712],[147.769979,-32.420741],[147.78237,-32.421898],[147.795491,-32.421915],[147.801454,-32.418844],[147.809714,-32.418436],[147.814339,-32.420216],[147.823619,-32.420208],[147.826802,-32.424504],[147.843418,-32.429667],[147.850395,-32.434459],[147.868879,-32.435556],[147.873666,-32.438277],[147.884373,-32.440303],[147.895062,-32.434117],[147.905075,-32.431989],[147.906175,-32.436255],[147.903539,-32.440823],[147.905634,-32.446185],[147.899604,-32.451821],[147.905285,-32.460586],[147.913526,-32.466819],[147.924982,-32.470273],[147.930069,-32.476178],[147.930262,-32.480424],[147.935543,-32.486013],[147.936607,-32.491087],[147.941689,-32.491923],[147.949321,-32.496532],[147.956341,-32.494797],[147.958477,-32.498553],[147.965854,-32.499699],[147.966358,-32.506329],[147.963454,-32.517017],[147.969948,-32.524166],[147.976338,-32.525143],[147.98277,-32.52903],[147.988612,-32.537233],[147.996826,-32.543936],[148.003328,-32.554315],[148.003651,-32.564126],[148.01194,-32.564873],[148.013088,-32.567722],[148.031066,-32.568954],[148.034666,-32.576398],[148.041396,-32.576673],[148.046352,-32.581196],[148.058573,-32.587007],[148.063023,-32.594994],[148.067418,-32.598701],[148.072276,-32.598625],[148.075203,-32.602669],[148.08256,-32.600135],[148.091261,-32.604448],[148.092036,-32.614783],[148.097702,-32.620864],[148.102206,-32.632265],[148.105949,-32.636972],[148.104717,-32.642683],[148.107633,-32.648295],[148.1203,-32.658739],[148.120321,-32.669006],[148.129348,-32.675523],[148.128486,-32.682979],[148.214278,-32.682181],[148.248725,-32.68164],[148.24694,-32.689907],[148.26304,-32.692104],[148.265119,-32.678209],[148.325171,-32.676647],[148.347143,-32.675763],[148.347663,-32.672819],[148.342801,-32.664758],[148.346763,-32.660719],[148.344554,-32.653727],[148.348767,-32.645278],[148.349499,-32.636824],[148.355706,-32.633293],[148.356308,-32.629571],[148.361775,-32.621947],[148.369629,-32.628854],[148.375462,-32.630361],[148.378215,-32.62679],[148.391421,-32.621925],[148.401477,-32.62371],[148.435418,-32.620599],[148.459516,-32.60721],[148.467384,-32.621001],[148.475148,-32.627842],[148.501184,-32.614117],[148.605154,-32.652179],[148.614429,-32.653617],[148.623194,-32.647936],[148.628655,-32.652987],[148.632003,-32.649707],[148.629583,-32.644743],[148.635718,-32.64026],[148.637411,-32.633346],[148.646324,-32.639147],[148.66492,-32.639621],[148.664868,-32.633715],[148.669562,-32.624041],[148.678041,-32.619574],[148.686155,-32.612737],[148.697775,-32.615316],[148.7026,-32.612075],[148.699774,-32.607024],[148.693894,-32.604953],[148.690485,-32.600692],[148.692833,-32.597355],[148.708254,-32.58926],[148.709107,-32.583894],[148.700969,-32.582471],[148.700857,-32.576506],[148.70925,-32.574637],[148.719957,-32.575391],[148.723659,-32.568773],[148.717867,-32.56645],[148.714541,-32.561977],[148.714699,-32.552531],[148.706761,-32.554718],[148.701208,-32.554063],[148.701491,-32.548838],[148.70543,-32.544895],[148.712669,-32.531306],[148.708746,-32.523119],[148.699642,-32.523412],[148.699205,-32.516992],[148.702499,-32.509846],[148.700407,-32.496936],[148.714604,-32.491885],[148.719586,-32.495371],[148.724458,-32.493788],[148.7226,-32.483155],[148.72766,-32.472939],[148.73372,-32.469475],[148.731995,-32.465031],[148.725946,-32.462179],[148.72171,-32.451291],[148.716681,-32.446327],[148.717157,-32.436744],[148.711782,-32.434273],[148.703837,-32.434946],[148.704409,-32.420476],[148.698419,-32.408755],[148.700428,-32.405867],[148.710111,-32.407473],[148.716606,-32.415897],[148.72466,-32.416117],[148.724161,-32.421029],[148.734998,-32.423472],[148.740778,-32.418047],[148.754109,-32.419051],[148.757358,-32.395653],[148.764591,-32.39658],[148.765665,-32.390262],[148.760477,-32.386089],[148.768123,-32.343124],[148.770239,-32.343616],[148.790523,-32.359617],[148.799842,-32.363262],[148.805097,-32.367108],[148.820526,-32.352182],[148.841028,-32.331261],[148.850666,-32.332466],[148.852684,-32.319664],[148.851192,-32.31338],[148.883545,-32.312008],[148.8873,-32.290286],[148.89617,-32.291159],[148.927247,-32.271664],[148.934434,-32.236129],[148.939146,-32.210435],[148.935174,-32.209943],[148.938574,-32.189759],[148.944185,-32.174016],[148.950374,-32.165805],[148.959971,-32.161548],[148.964489,-32.167292],[148.968396,-32.167622],[148.981011,-32.157329],[148.98716,-32.15001],[148.988214,-32.142606],[148.990911,-32.138475],[148.996868,-32.142113],[149.00078,-32.139631],[149.004028,-32.122088],[149.008823,-32.118587],[149.008757,-32.112981],[149.012024,-32.106866],[149.025633,-32.10885],[149.032917,-32.099845],[149.03604,-32.099321],[149.045465,-32.103574],[149.055692,-32.099913],[149.059265,-32.096665],[149.056325,-32.088802],[149.059991,-32.087396],[149.071722,-32.096331],[149.070597,-32.101239],[149.078536,-32.102173],[149.081758,-32.105748],[149.093141,-32.108653],[149.095629,-32.114747],[149.100358,-32.115175],[149.115181,-32.107189],[149.121258,-32.106614],[149.123723,-32.101561],[149.1308,-32.112209],[149.138685,-32.117212],[149.153361,-32.118193],[149.154648,-32.121757],[149.162206,-32.124188],[149.171136,-32.124813],[149.173073,-32.120563],[149.166358,-32.11601],[149.166007,-32.108991],[149.177293,-32.105245],[149.180343,-32.100016],[149.185375,-32.104733],[149.193756,-32.104421],[149.197988,-32.1104],[149.195177,-32.114163],[149.20151,-32.11977],[149.196341,-32.125327],[149.201199,-32.132956],[149.198393,-32.142506],[149.204954,-32.148549],[149.211095,-32.149912],[149.212452,-32.154789],[149.209829,-32.161974],[149.215134,-32.173749],[149.220152,-32.180984],[149.218634,-32.184757],[149.205981,-32.1831],[149.198763,-32.186752],[149.199006,-32.194443],[149.196513,-32.202271],[149.192528,-32.201953],[149.190704,-32.212045],[149.203018,-32.213612],[149.198331,-32.236432],[149.196199,-32.236153],[149.192127,-32.258286],[149.194979,-32.258674],[149.189159,-32.290575],[149.227829,-32.295411],[149.238575,-32.299269],[149.253305,-32.295055],[149.264557,-32.293979],[149.273224,-32.294852],[149.280004,-32.288237],[149.284998,-32.288772],[149.29333,-32.302698],[149.305892,-32.304507],[149.307309,-32.300297],[149.312734,-32.299326],[149.315209,-32.292634],[149.321015,-32.286807],[149.329354,-32.289245],[149.335167,-32.284461],[149.327897,-32.274684],[149.325404,-32.266076],[149.326494,-32.260376],[149.339784,-32.256435],[149.345953,-32.24606],[149.346378,-32.238059],[149.356421,-32.234832],[149.361011,-32.220394],[149.366813,-32.216562],[149.373717,-32.215765],[149.375344,-32.20492],[149.373174,-32.203613],[149.373105,-32.189919],[149.384681,-32.193166],[149.388541,-32.191351],[149.38858,-32.183529],[149.39626,-32.18036],[149.396757,-32.176834],[149.407363,-32.178088],[149.413277,-32.175537],[149.417288,-32.153064],[149.411783,-32.138195],[149.412891,-32.135524],[149.427939,-32.137201],[149.428251,-32.124041],[149.412256,-32.10611],[149.415023,-32.095554],[149.427052,-32.097023],[149.432506,-32.095033],[149.447643,-32.096816],[149.446976,-32.100632],[149.470718,-32.103526],[149.472505,-32.093272],[149.480145,-32.094151],[149.478736,-32.101989],[149.479716,-32.108794],[149.494803,-32.102092],[149.500301,-32.073225],[149.510176,-32.07462],[149.520216,-32.085583],[149.532813,-32.089463],[149.552231,-32.088937],[149.561371,-32.084299],[149.573847,-32.086985],[149.574652,-32.095137],[149.577988,-32.099314],[149.577915,-32.106025],[149.581513,-32.110948],[149.592025,-32.116562],[149.593614,-32.121401],[149.602701,-32.126936],[149.609034,-32.122976],[149.616178,-32.122995],[149.618603,-32.117761],[149.627585,-32.115433],[149.636793,-32.115902],[149.638067,-32.112778],[149.654302,-32.115276],[149.659142,-32.119593],[149.665027,-32.118609],[149.671618,-32.121922],[149.679061,-32.114819],[149.692248,-32.116396],[149.692944,-32.112395],[149.750811,-32.119822],[149.753312,-32.106283],[149.751833,-32.099561],[149.758087,-32.092369],[149.762869,-32.089301],[149.768034,-32.091146],[149.777619,-32.091553],[149.778478,-32.07755],[149.782548,-32.07108],[149.788175,-32.066524],[149.792019,-32.066365],[149.795665,-32.05809]]]},"bbox":[140.999265,-33.607151,150.890605,-28.537157]}]}