{"type":"FeatureCollection","features":[
{"properties":{"electorateShortName":"paterson","electorateName":"Paterson","area":1036.73,"state":null},"type":"Feature","geometry":{"type":"Polygon","coordinates":[[[152.194486,-32.707671],[152.187855,-32.70488],[152.124656,-32.699981],[152.074763,-32.692632],[152.05231,-32.688083],[152.039421,-32.692282],[151.976222,-32.684583],[151.940611,-32.673964],[151.932013,-32.661416],[151.913385,-32.658548],[151.896241,-32.658999],[151.894875,-32.668889],[151.844219,-32.661604],[151.809842,-32.686222],[151.756003,-32.678348],[151.749351,-32.687152],[151.753831,-32.700754],[151.744122,-32.713501],[151.747545,-32.720581],[151.734006,-32.736067],[151.743356,-32.746645],[151.727015,-32.751268],[151.714642,-32.736929],[151.686176,-32.727182],[151.673875,-32.741315],[151.665226,-32.739649],[151.654059,-32.724982],[151.641298,-32.71886],[151.619945,-32.722822],[151.612901,-32.714914],[151.590326,-32.720842],[151.589985,-32.730164],[151.582331,-32.736703],[151.554002,-32.728486],[151.569049,-32.697386],[151.566236,-32.688561],[151.543176,-32.687608],[151.535393,-32.679101],[151.518456,-32.693278],[151.509915,-32.687487],[151.510743,-32.66365],[151.496875,-32.638999],[151.484052,-32.637074],[151.471345,-32.662503],[151.453371,-32.656502],[151.451577,-32.670754],[151.437698,-32.671561],[151.438599,-32.68217],[151.424995,-32.691366],[151.407184,-32.679147],[151.400589,-32.702881],[151.412011,-32.717728],[151.423423,-32.723477],[151.421343,-32.734594],[151.433194,-32.757466],[151.431497,-32.764322],[151.416367,-32.763207],[151.409319,-32.776356],[151.396164,-32.77718],[151.396647,-32.791596],[151.402718,-32.800822],[151.414368,-32.800218],[151.407551,-32.825686],[151.415862,-32.83194],[151.435573,-32.834713],[151.442616,-32.842799],[151.487259,-32.849374],[151.477827,-32.87227],[151.540262,-32.876688],[151.556535,-32.881649],[151.558239,-32.872786],[151.608578,-32.880151],[151.614151,-32.856826],[151.635341,-32.860248],[151.672974,-32.829504],[151.685972,-32.823141],[151.6951,-32.830312],[151.72725,-32.837075],[151.736322,-32.847836],[151.755311,-32.853511],[151.777455,-32.85653],[151.786362,-32.87521],[151.81011,-32.87822],[151.852437,-32.853585],[151.890933,-32.835842],[151.951335,-32.812927],[152.0073,-32.795742],[152.053106,-32.78531],[152.070929,-32.783452],[152.091037,-32.791284],[152.104135,-32.787695],[152.120644,-32.788958],[152.116187,-32.776736],[152.125107,-32.766969],[152.153836,-32.765534],[152.176033,-32.754788],[152.170981,-32.744437],[152.183126,-32.735844],[152.187884,-32.711732],[152.194486,-32.707671]]]},"bbox":[151.396164,-32.881649,152.194486,-32.637074]}]}