{"type":"FeatureCollection","features":[
{"properties":{"electorateShortName":"perth","electorateName":"Perth","area":79.92,"state":null},"type":"Feature","geometry":{"type":"Polygon","coordinates":[[[115.953364,-31.919948],[115.963064,-31.904327],[115.955944,-31.887658],[115.931832,-31.889001],[115.888222,-31.887581],[115.877537,-31.890496],[115.828304,-31.888892],[115.820655,-31.901762],[115.824917,-31.920735],[115.843989,-31.941421],[115.819685,-31.962606],[115.838086,-31.991159],[115.839354,-31.973109],[115.843248,-31.96489],[115.853216,-31.963464],[115.875517,-31.969503],[115.888287,-31.962772],[115.883047,-31.948088],[115.894734,-31.940679],[115.897878,-31.951591],[115.913123,-31.951321],[115.908454,-31.939952],[115.915346,-31.932542],[115.938077,-31.929154],[115.940185,-31.92099],[115.953364,-31.919948]]]},"bbox":[115.819685,-31.991159,115.963064,-31.887581]}]}