{"type":"FeatureCollection","features":[
{"properties":{"electorateShortName":"petrie","electorateName":"Petrie","area":148.82,"state":null},"type":"Feature","geometry":{"type":"Polygon","coordinates":[[[153.069523,-27.276801],[153.071824,-27.316929],[153.075354,-27.320609],[153.087776,-27.326976],[153.087822,-27.329247],[153.084035,-27.33127],[153.093608,-27.338916],[153.122436,-27.352404],[153.13580641513104,-27.35963205534337],[153.1396749729359,-27.345775835833834],[153.14142203973043,-27.345173579831513],[153.14569303973042,-27.343204579831514],[153.16045860777567,-27.334611990600493],[153.18385673670758,-27.309925354912014],[153.19421522953104,-27.288258803259776],[153.19901146071155,-27.271750085969455],[153.19902852238744,-27.271564012122607],[153.20375699098858,-27.260630217364167],[153.2074733179389,-27.242550574941955],[153.20848146193592,-27.198737427203938],[153.20569993667618,-27.188117350245502],[153.20344309388506,-27.174135721266612],[153.20162209388505,-27.16760272126661],[153.19506712474572,-27.150809967750636],[153.17270372037572,-27.122761836633057],[153.09943148930125,-27.093463217299778],[153.039471,-27.159209],[153.035202,-27.163609],[152.97767,-27.152091],[153.018296,-27.249001],[152.999425,-27.357035],[153.026437,-27.365258],[153.069523,-27.276801]]]},"bbox":[152.97767,-27.365258,153.20848146193592,-27.093463217299778]}]}