{"type":"FeatureCollection","features":[
{"properties":{"electorateShortName":"petrie","electorateName":"Petrie","area":148.82,"state":null},"type":"Feature","geometry":{"type":"Polygon","coordinates":[[[153.069523,-27.276801],[153.064066,-27.283548],[153.064951,-27.301376],[153.067479,-27.309745],[153.071824,-27.316929],[153.075354,-27.320609],[153.084291,-27.322623],[153.087776,-27.326976],[153.087822,-27.329247],[153.082873,-27.330636],[153.084035,-27.33127],[153.082557,-27.333458],[153.093608,-27.338916],[153.094306,-27.343033],[153.100543,-27.34296],[153.107804,-27.348014],[153.122436,-27.352404],[153.13580641513104,-27.35963205534337],[153.1396749729359,-27.345775835833834],[153.14142203973043,-27.345173579831513],[153.14569303973042,-27.343204579831514],[153.16045860777567,-27.334611990600493],[153.17333448553416,-27.323384062860235],[153.18385673670758,-27.309925354912014],[153.19164622953105,-27.29472080325978],[153.19421522953104,-27.288258803259776],[153.19901146071155,-27.271750085969455],[153.19902852238744,-27.271564012122607],[153.20375699098858,-27.260630217364167],[153.2074733179389,-27.242550574941955],[153.20743796578307,-27.229537610812812],[153.20938876880462,-27.217353056184827],[153.20848146193592,-27.198737427203938],[153.20569993667618,-27.188117350245502],[153.20344309388506,-27.174135721266612],[153.20162209388505,-27.16760272126661],[153.19506712474572,-27.150809967750636],[153.18529701106195,-27.13566041100226],[153.17270372037572,-27.122761836633057],[153.15779248336858,-27.112631723011642],[153.15529648336857,-27.11127972301164],[153.13786217873437,-27.104083762984036],[153.11931098439382,-27.100679353000345],[153.10498024786344,-27.10108727342361],[153.1008233649863,-27.094898302929877],[153.09943148930125,-27.093463217299778],[153.072155,-27.107072],[153.063807,-27.113975],[153.048431,-27.144569],[153.041492,-27.153787],[153.043863,-27.156223],[153.043379,-27.159107],[153.039471,-27.159209],[153.035202,-27.163609],[153.032993,-27.162233],[153.031236,-27.160532],[153.030614,-27.158517],[153.031676,-27.15662],[153.031579,-27.155618],[153.032675,-27.154094],[153.032094,-27.153008],[153.030412,-27.152693],[153.029753,-27.153376],[153.029546,-27.154995],[153.028818,-27.155582],[153.026624,-27.156151],[153.024183,-27.154426],[153.024124,-27.153279],[153.025325,-27.152798],[153.026368,-27.154829],[153.028847,-27.152947],[153.028739,-27.151852],[153.028001,-27.151432],[153.026344,-27.151594],[153.025242,-27.15237],[153.024251,-27.151327],[153.0236,-27.149419],[153.021195,-27.149384],[153.021907,-27.151363],[153.021326,-27.151835],[153.020114,-27.15048],[153.019152,-27.150364],[153.01735,-27.151031],[153.016187,-27.152334],[153.015719,-27.151106],[153.014533,-27.150021],[153.015546,-27.148546],[153.014776,-27.147899],[153.01316,-27.149267],[153.012008,-27.148503],[153.011037,-27.149586],[153.01108,-27.150608],[153.009511,-27.151717],[153.009143,-27.151051],[153.007421,-27.151456],[153.006936,-27.150612],[153.005401,-27.150284],[153.004485,-27.151259],[153.003627,-27.150817],[153.001138,-27.150828],[152.999379,-27.149984],[152.997748,-27.15007],[152.997192,-27.151124],[152.995874,-27.150718],[152.99629,-27.149835],[152.994622,-27.149703],[152.994253,-27.150948],[152.992961,-27.150398],[152.991447,-27.150284],[152.991016,-27.151255],[152.989844,-27.150901],[152.988364,-27.152628],[152.985269,-27.152228],[152.985116,-27.151359],[152.982799,-27.151629],[152.982178,-27.151389],[152.980173,-27.152464],[152.979015,-27.151436],[152.97767,-27.152091],[152.977559,-27.156163],[152.977908,-27.158661],[152.978741,-27.161834],[152.981702,-27.171843],[152.983655,-27.178697],[152.98423,-27.180327],[152.985927,-27.186162],[152.986964,-27.190862],[152.988648,-27.200611],[152.990035,-27.207132],[152.991771,-27.211564],[152.997223,-27.219571],[152.998444,-27.221709],[153.005601,-27.236419],[153.006896,-27.238206],[153.008284,-27.239596],[153.0137,-27.243687],[153.016074,-27.246006],[153.018296,-27.249001],[153.018887,-27.250654],[153.019097,-27.252576],[153.017865,-27.270478],[153.01778,-27.27351],[153.018187,-27.276317],[153.020141,-27.280777],[153.020569,-27.283513],[153.02059,-27.285565],[153.020249,-27.287844],[153.019237,-27.291221],[153.015803,-27.287501],[153.014596,-27.288503],[153.013923,-27.290707],[153.013496,-27.293545],[153.012388,-27.296162],[153.010918,-27.297233],[153.009583,-27.297115],[153.008609,-27.298376],[153.01059,-27.300181],[153.012644,-27.300723],[153.013976,-27.301842],[153.013811,-27.302314],[153.009672,-27.302016],[153.008416,-27.302547],[153.007163,-27.301165],[153.005438,-27.301693],[153.004842,-27.300708],[153.005967,-27.300123],[153.005456,-27.299246],[153.004063,-27.299362],[153.002977,-27.301345],[153.00119,-27.302179],[152.999435,-27.301714],[152.997483,-27.301935],[152.996983,-27.302554],[152.997277,-27.306088],[152.996691,-27.307927],[152.996709,-27.309206],[152.995853,-27.310594],[152.997622,-27.310994],[152.998594,-27.312504],[152.999854,-27.311628],[152.999371,-27.310157],[152.998396,-27.309143],[152.999137,-27.308264],[153.000719,-27.310898],[153.000415,-27.312065],[153.001563,-27.315264],[153.002537,-27.316819],[153.002489,-27.319556],[153.001111,-27.319758],[153.000883,-27.321019],[153.000222,-27.321554],[152.999947,-27.323049],[152.998911,-27.323692],[152.997396,-27.323889],[152.996508,-27.326478],[152.994741,-27.328581],[152.995051,-27.329862],[152.994547,-27.332781],[152.994092,-27.33396],[152.992812,-27.335481],[152.990925,-27.336134],[152.989038,-27.3361],[152.987972,-27.336516],[152.987227,-27.33754],[152.985835,-27.337961],[152.98491,-27.33965],[152.983133,-27.340067],[152.982797,-27.341098],[152.981309,-27.342427],[152.980962,-27.346103],[152.97963,-27.346054],[152.978925,-27.346746],[152.979151,-27.347755],[152.9804,-27.348591],[152.979032,-27.349325],[152.98074,-27.349829],[152.983594,-27.350089],[152.985568,-27.351273],[152.9871,-27.35183],[152.990465,-27.35243],[152.992752,-27.353533],[152.994263,-27.354889],[152.996665,-27.356264],[152.999425,-27.357035],[153.000811,-27.358731],[153.003926,-27.359996],[153.006559,-27.361668],[153.008877,-27.362769],[153.010823,-27.363232],[153.013301,-27.363502],[153.015258,-27.363976],[153.017223,-27.363871],[153.026437,-27.365258],[153.027858,-27.357873],[153.026474,-27.357667],[153.027227,-27.353505],[153.029973,-27.353148],[153.030892,-27.352574],[153.032125,-27.352602],[153.033364,-27.35327],[153.035258,-27.350724],[153.035359,-27.349541],[153.034626,-27.349229],[153.035501,-27.347957],[153.035283,-27.346783],[153.036532,-27.346484],[153.037995,-27.345345],[153.039225,-27.344878],[153.039333,-27.343882],[153.040194,-27.343401],[153.040426,-27.342409],[153.039759,-27.341686],[153.0395,-27.34011],[153.038857,-27.338967],[153.039982,-27.337136],[153.043023,-27.335112],[153.043147,-27.334072],[153.04517,-27.332847],[153.04653,-27.330501],[153.051177,-27.329583],[153.0515,-27.327341],[153.051442,-27.324293],[153.050111,-27.319804],[153.047578,-27.31383],[153.046474,-27.311857],[153.043898,-27.305516],[153.043889,-27.304498],[153.042399,-27.304068],[153.042235,-27.302875],[153.04304,-27.302462],[153.046207,-27.296882],[153.048175,-27.294691],[153.04819,-27.293676],[153.047286,-27.28966],[153.04754,-27.28426],[153.049898,-27.278044],[153.058885,-27.278048],[153.065458,-27.277274],[153.066609,-27.276941],[153.069523,-27.276801]]]},"bbox":[152.977559,-27.365258,153.20938876880462,-27.093463217299778]}]}