{"type":"FeatureCollection","features":[
{"properties":{"electorateShortName":"rankin","electorateName":"Rankin","area":131.09,"state":null},"type":"Feature","geometry":{"type":"Polygon","coordinates":[[[153.173841,-27.634252],[153.175745,-27.62347],[153.1816,-27.624202],[153.183562,-27.612825],[153.175762,-27.606707],[153.159854,-27.595912],[153.1562,-27.591814],[153.123314,-27.587311],[153.122004,-27.595445],[153.111147,-27.593945],[153.105836,-27.593184],[153.10107,-27.618091],[153.084259,-27.616206],[153.075245,-27.612411],[153.066301,-27.6111],[153.05113,-27.61124],[153.04321,-27.604419],[153.0398,-27.599055],[153.032257,-27.601772],[153.030844,-27.607107],[153.025278,-27.612874],[153.022545,-27.621594],[153.022414,-27.627516],[153.014894,-27.642195],[153.019437,-27.652654],[153.019347,-27.657394],[153.018628,-27.662697],[153.020652,-27.669803],[153.016596,-27.678932],[153.031305,-27.680476],[153.031658,-27.686601],[153.056749,-27.690283],[153.077668,-27.694063],[153.077164,-27.696877],[153.099301,-27.700167],[153.102832,-27.691321],[153.107597,-27.685545],[153.121548,-27.677134],[153.12207,-27.668633],[153.1383,-27.66538],[153.151931,-27.666917],[153.160896,-27.66675],[153.160776,-27.66047],[153.164117,-27.655212],[153.157239,-27.649427],[153.163441,-27.646371],[153.163214,-27.639792],[153.166011,-27.637692],[153.173077,-27.638683],[153.173841,-27.634252]]]},"bbox":[153.014894,-27.700167,153.183562,-27.587311]}]}