{"type":"FeatureCollection","features":[
{"properties":{"electorateShortName":"richmond","electorateName":"Richmond","area":2133.02,"state":null},"type":"Feature","geometry":{"type":"Polygon","coordinates":[[[153.1094,-28.35744],[153.111461,-28.359326],[153.112955,-28.361311],[153.112637,-28.364021],[153.113192,-28.366678],[153.112504,-28.368982],[153.112831,-28.370824],[153.112564,-28.372538],[153.110038,-28.373049],[153.106738,-28.37616],[153.10824,-28.37736],[153.109314,-28.377478],[153.110503,-28.3783],[153.110259,-28.379399],[153.111053,-28.381082],[153.11081,-28.383388],[153.110183,-28.384276],[153.109017,-28.384335],[153.108833,-28.385413],[153.107873,-28.38674],[153.107074,-28.386952],[153.10774,-28.388195],[153.110781,-28.388469],[153.111804,-28.390561],[153.11272,-28.390932],[153.113689,-28.392603],[153.115033,-28.394172],[153.11626,-28.394679],[153.118059,-28.396456],[153.118027,-28.39756],[153.115831,-28.399307],[153.112843,-28.399815],[153.112616,-28.401255],[153.114795,-28.402288],[153.117435,-28.40382],[153.121452,-28.404285],[153.123867,-28.40522],[153.125341,-28.405074],[153.1277,-28.405931],[153.128046,-28.406808],[153.126464,-28.408957],[153.124259,-28.410703],[153.122463,-28.41175],[153.122454,-28.413294],[153.120837,-28.415282],[153.121597,-28.416198],[153.123181,-28.416143],[153.125797,-28.418613],[153.127518,-28.419263],[153.127687,-28.420121],[153.127025,-28.421391],[153.127145,-28.422456],[153.126032,-28.424151],[153.124966,-28.426606],[153.124981,-28.428983],[153.12422,-28.429389],[153.124034,-28.430592],[153.122619,-28.431231],[153.120818,-28.432734],[153.120886,-28.433412],[153.124667,-28.434457],[153.126653,-28.435329],[153.127976,-28.433091],[153.129087,-28.433141],[153.13155,-28.432002],[153.135243,-28.433467],[153.136317,-28.433719],[153.138692,-28.435005],[153.139057,-28.43686],[153.140271,-28.437428],[153.142127,-28.436139],[153.14387,-28.438768],[153.143501,-28.44084],[153.142711,-28.441895],[153.142746,-28.443286],[153.145213,-28.44445],[153.144454,-28.447369],[153.143132,-28.448875],[153.141555,-28.449585],[153.140181,-28.449535],[153.139357,-28.450369],[153.137376,-28.453736],[153.136636,-28.456311],[153.135998,-28.457227],[153.134331,-28.458413],[153.134709,-28.458964],[153.136226,-28.458061],[153.137598,-28.457941],[153.139511,-28.458834],[153.14013,-28.460577],[153.14122,-28.46055],[153.143619,-28.46188],[153.143898,-28.462728],[153.142537,-28.465046],[153.141195,-28.466257],[153.142088,-28.46796],[153.14182,-28.469739],[153.141014,-28.470775],[153.14142,-28.471961],[153.142961,-28.47321],[153.14407,-28.475259],[153.146073,-28.475777],[153.146008,-28.476838],[153.147352,-28.480213],[153.149848,-28.482023],[153.151982,-28.483147],[153.153674,-28.484325],[153.153702,-28.486743],[153.154522,-28.491996],[153.154365,-28.493565],[153.152924,-28.496687],[153.152598,-28.499209],[153.15079,-28.499903],[153.150746,-28.500811],[153.149796,-28.502963],[153.150176,-28.505555],[153.150998,-28.506458],[153.150845,-28.507849],[153.151258,-28.509112],[153.153305,-28.509683],[153.153423,-28.511436],[153.153934,-28.513463],[153.155249,-28.515685],[153.156649,-28.516331],[153.15951,-28.518882],[153.159204,-28.519448],[153.160263,-28.524129],[153.16193,-28.52421],[153.164349,-28.523878],[153.164997,-28.524126],[153.168259,-28.523542],[153.16993,-28.52358],[153.171466,-28.521696],[153.17269,-28.521405],[153.17411,-28.5221],[153.175739,-28.522068],[153.178129,-28.522826],[153.178962,-28.522798],[153.181998,-28.521914],[153.184499,-28.522174],[153.186001,-28.521294],[153.18832,-28.522183],[153.190426,-28.522253],[153.193084,-28.523175],[153.194694,-28.525075],[153.195681,-28.525378],[153.197746,-28.526987],[153.201195,-28.526886],[153.201376,-28.525908],[153.205712,-28.52654],[153.20851,-28.525727],[153.211165,-28.524459],[153.212838,-28.524151],[153.215763,-28.522896],[153.217207,-28.523692],[153.218324,-28.523682],[153.219644,-28.522855],[153.221804,-28.520592],[153.223927,-28.519064],[153.226422,-28.517733],[153.228439,-28.517232],[153.231495,-28.517801],[153.236621,-28.517862],[153.239196,-28.518265],[153.241469,-28.517111],[153.243179,-28.516556],[153.247732,-28.515887],[153.251768,-28.520089],[153.253114,-28.522457],[153.253362,-28.524732],[153.253853,-28.526129],[153.254768,-28.527109],[153.257605,-28.526549],[153.261287,-28.524894],[153.261814,-28.523647],[153.263772,-28.523964],[153.265411,-28.523602],[153.268788,-28.522317],[153.273306,-28.522004],[153.275857,-28.520644],[153.277878,-28.518327],[153.280199,-28.51745],[153.281572,-28.516234],[153.282882,-28.516094],[153.283382,-28.516864],[153.282365,-28.520409],[153.28274,-28.522531],[153.284812,-28.523553],[153.285076,-28.524467],[153.28418,-28.526347],[153.283886,-28.527845],[153.283913,-28.529906],[153.284635,-28.531741],[153.287346,-28.534947],[153.289123,-28.53651],[153.289961,-28.536666],[153.291475,-28.537738],[153.291318,-28.541378],[153.296189,-28.540568],[153.299082,-28.540597],[153.301496,-28.539241],[153.302593,-28.540309],[153.305296,-28.541693],[153.307987,-28.541599],[153.310209,-28.542595],[153.312014,-28.542129],[153.314022,-28.540417],[153.315718,-28.540487],[153.317575,-28.541702],[153.31833,-28.54172],[153.320579,-28.540744],[153.323608,-28.541005],[153.32783,-28.542733],[153.328875,-28.541607],[153.33059,-28.546575],[153.331525,-28.54798],[153.336843,-28.549421],[153.337881,-28.550068],[153.339365,-28.554934],[153.340363,-28.55647],[153.341952,-28.557077],[153.345212,-28.557557],[153.346171,-28.558012],[153.346758,-28.559157],[153.348849,-28.562193],[153.349368,-28.564419],[153.350177,-28.566176],[153.351798,-28.567264],[153.353863,-28.56741],[153.358527,-28.566881],[153.359883,-28.566941],[153.361731,-28.570229],[153.363644,-28.573011],[153.364702,-28.573767],[153.367924,-28.574847],[153.371469,-28.577545],[153.372342,-28.578964],[153.375014,-28.580918],[153.379084,-28.582456],[153.379787,-28.586057],[153.378737,-28.588118],[153.379904,-28.589817],[153.37896,-28.594279],[153.37855,-28.595294],[153.375276,-28.599735],[153.374708,-28.602238],[153.375449,-28.603359],[153.375057,-28.606143],[153.374319,-28.609684],[153.373087,-28.613976],[153.394308,-28.616499],[153.407077,-28.61805],[153.409947,-28.619067],[153.411985,-28.61837],[153.412627,-28.618563],[153.413296,-28.622625],[153.412777,-28.623786],[153.413144,-28.624748],[153.416404,-28.625427],[153.416781,-28.626581],[153.415131,-28.627552],[153.414548,-28.630107],[153.412596,-28.633742],[153.412812,-28.635202],[153.413941,-28.635003],[153.415486,-28.636231],[153.415394,-28.637024],[153.41443,-28.63789],[153.414506,-28.640264],[153.412363,-28.640098],[153.41184,-28.641384],[153.413189,-28.641947],[153.416051,-28.641924],[153.418418,-28.642562],[153.418409,-28.643713],[153.41669,-28.643973],[153.415937,-28.644838],[153.415357,-28.647631],[153.41547,-28.64871],[153.417895,-28.649341],[153.419406,-28.648926],[153.421186,-28.649282],[153.420532,-28.650969],[153.420568,-28.652288],[153.421495,-28.654434],[153.422604,-28.654714],[153.424958,-28.654175],[153.425942,-28.654778],[153.426749,-28.65613],[153.425792,-28.657753],[153.424738,-28.658169],[153.424244,-28.659459],[153.42475,-28.660877],[153.426933,-28.660951],[153.428455,-28.659277],[153.429322,-28.658813],[153.430096,-28.659333],[153.430342,-28.661],[153.429991,-28.662805],[153.429031,-28.664732],[153.427573,-28.666432],[153.424365,-28.667217],[153.423438,-28.66687],[153.422354,-28.665493],[153.422053,-28.663453],[153.421234,-28.661843],[153.41933,-28.661752],[153.417876,-28.663639],[153.417558,-28.668345],[153.418806,-28.669322],[153.418843,-28.670409],[153.416824,-28.670542],[153.416037,-28.671397],[153.417001,-28.67217],[153.417839,-28.673527],[153.417804,-28.674247],[153.416213,-28.675792],[153.416241,-28.677126],[153.418182,-28.677922],[153.421346,-28.676688],[153.424286,-28.677807],[153.424849,-28.678939],[153.426622,-28.681017],[153.426241,-28.682962],[153.424764,-28.684963],[153.422439,-28.685824],[153.422235,-28.686625],[153.423412,-28.690389],[153.423906,-28.691034],[153.424239,-28.692997],[153.42249,-28.695065],[153.421244,-28.69585],[153.420036,-28.695673],[153.417673,-28.694262],[153.416047,-28.693881],[153.414157,-28.691722],[153.412483,-28.690164],[153.410008,-28.688544],[153.407747,-28.68615],[153.407385,-28.688723],[153.406905,-28.689664],[153.40749,-28.69167],[153.408099,-28.692283],[153.408046,-28.69353],[153.406471,-28.694181],[153.40605,-28.695972],[153.404006,-28.696128],[153.40383,-28.697851],[153.40235,-28.697077],[153.401155,-28.697227],[153.40065,-28.698624],[153.40179,-28.699283],[153.401754,-28.701055],[153.402251,-28.702264],[153.404401,-28.70417],[153.406064,-28.703824],[153.406954,-28.704875],[153.408099,-28.705437],[153.408018,-28.706908],[153.409153,-28.707793],[153.407149,-28.719933],[153.41215,-28.720592],[153.411505,-28.724502],[153.409487,-28.72554],[153.40682,-28.742889],[153.407669,-28.744179],[153.409549,-28.744435],[153.409378,-28.742702],[153.411505,-28.742087],[153.413967,-28.741856],[153.416338,-28.742234],[153.415911,-28.74299],[153.417009,-28.743983],[153.419738,-28.74355],[153.421854,-28.745157],[153.422106,-28.742678],[153.423772,-28.741272],[153.424167,-28.739857],[153.425489,-28.738553],[153.426461,-28.738388],[153.428834,-28.739079],[153.428132,-28.740793],[153.428306,-28.741487],[153.430607,-28.743263],[153.430404,-28.744764],[153.431814,-28.745969],[153.432903,-28.74606],[153.434183,-28.745354],[153.434729,-28.747289],[153.435966,-28.747477],[153.438191,-28.745957],[153.440427,-28.745661],[153.442096,-28.744977],[153.443046,-28.746569],[153.444636,-28.747451],[153.445115,-28.746241],[153.448133,-28.746851],[153.448804,-28.749674],[153.448126,-28.750595],[153.448942,-28.75138],[153.448002,-28.751914],[153.447375,-28.753221],[153.449122,-28.753716],[153.449965,-28.754911],[153.449623,-28.756174],[153.450042,-28.757075],[153.447798,-28.756764],[153.448115,-28.75788],[153.447683,-28.759424],[153.446321,-28.760559],[153.445418,-28.76074],[153.44493,-28.761641],[153.444017,-28.761637],[153.442291,-28.762701],[153.442518,-28.765878],[153.444603,-28.770002],[153.445628,-28.770501],[153.446571,-28.773228],[153.445427,-28.774509],[153.44375,-28.774966],[153.443937,-28.776178],[153.445485,-28.777019],[153.449171,-28.780657],[153.450663,-28.781638],[153.453966,-28.781664],[153.455217,-28.782354],[153.453139,-28.784294],[153.452462,-28.785927],[153.451035,-28.787704],[153.4502,-28.789236],[153.448111,-28.791336],[153.448202,-28.792901],[153.448994,-28.793843],[153.449067,-28.795403],[153.448426,-28.796294],[153.445634,-28.796245],[153.444901,-28.796568],[153.444773,-28.798262],[153.44512,-28.799322],[153.444905,-28.800914],[153.446092,-28.801828],[153.445377,-28.806945],[153.445499,-28.809762],[153.444234,-28.812119],[153.444153,-28.814412],[153.442378,-28.821064],[153.441382,-28.823097],[153.443399,-28.824375],[153.443094,-28.825236],[153.444739,-28.825704],[153.445763,-28.825599],[153.447385,-28.824604],[153.447343,-28.826124],[153.447738,-28.82717],[153.446916,-28.828664],[153.445727,-28.828238],[153.44435,-28.829405],[153.445085,-28.829767],[153.45253,-28.830749],[153.452624,-28.83177],[153.452131,-28.833496],[153.451238,-28.838635],[153.458084,-28.839573],[153.460472,-28.840093],[153.465035,-28.840742],[153.467031,-28.842446],[153.469565,-28.842991],[153.472667,-28.845779],[153.476029,-28.84608],[153.477016,-28.846656],[153.478138,-28.847961],[153.478482,-28.849249],[153.477393,-28.850698],[153.477461,-28.853121],[153.476276,-28.854066],[153.476547,-28.855464],[153.478457,-28.856939],[153.478549,-28.857612],[153.4815,-28.859498],[153.483991,-28.860243],[153.48338,-28.861739],[153.482168,-28.863032],[153.484419,-28.864456],[153.486858,-28.864848],[153.489359,-28.864547],[153.492489,-28.863507],[153.494448,-28.863343],[153.497279,-28.864258],[153.499699,-28.865705],[153.50192,-28.86565],[153.501547,-28.867774],[153.499533,-28.867113],[153.498716,-28.866526],[153.495095,-28.867168],[153.492728,-28.868556],[153.491704,-28.869839],[153.487932,-28.878097],[153.484963,-28.882824],[153.483558,-28.88597],[153.482855,-28.888026],[153.481217,-28.896214],[153.479857,-28.902606],[153.47842,-28.910964],[153.476196,-28.921004],[153.475801,-28.924591],[153.478917,-28.924761],[153.480172,-28.923583],[153.482026,-28.922369],[153.483345,-28.922015],[153.484006,-28.920681],[153.485072,-28.920903],[153.486427,-28.920097],[153.489465,-28.919872],[153.490445,-28.922542],[153.491145,-28.922726],[153.494665,-28.920215],[153.497254,-28.921028],[153.500495,-28.917229],[153.502355,-28.915871],[153.504793,-28.914454],[153.505882,-28.91412],[153.507797,-28.912851],[153.509337,-28.912711],[153.511891,-28.913135],[153.512397,-28.913597],[153.512217,-28.915993],[153.513785,-28.916215],[153.515526,-28.91571],[153.516496,-28.915889],[153.517195,-28.917358],[153.518517,-28.918317],[153.520441,-28.918271],[153.52241,-28.916959],[153.524506,-28.916794],[153.527295,-28.917138],[153.530272,-28.918064],[153.53301,-28.918326],[153.5363,-28.91762],[153.53809,-28.916827],[153.540003,-28.917235],[153.541158,-28.916969],[153.54363,-28.91706],[153.544475,-28.917804],[153.499213,-28.969924],[153.473336,-29.004791],[153.46787302348278,-29.014032200040766],[153.47705909244922,-29.014896052348544],[153.48456752656932,-29.014583444575337],[153.500343276207,-29.011774372886347],[153.50867771416188,-29.011002229411535],[153.51766116814173,-29.00847099279696],[153.52407666843047,-29.0083814349188],[153.52668460837455,-29.008187742993346],[153.52982147154404,-29.00833040925533],[153.53576509610986,-29.008297335242585],[153.5400293693463,-29.008051851648116],[153.54354704888885,-29.007637418981783],[153.5453663297021,-29.007799586177114],[153.5630178344778,-29.005873082483753],[153.57994757192677,-29.000518549148868],[153.59549656343637,-28.991944407771395],[153.60905957499835,-28.980484401022018],[153.6314459004681,-28.957417999201613],[153.6455704000688,-28.948436929925048],[153.65830903092464,-28.936271250455444],[153.66024642049408,-28.9343095254038],[153.67015112389404,-28.92029654228333],[153.67721614449047,-28.90465837329371],[153.6781273627661,-28.90082502011938],[153.67926365375624,-28.89863691142604],[153.6837442275355,-28.893124957009032],[153.69181157250438,-28.878101288187526],[153.69690031827204,-28.8618256208827],[153.69882777718192,-28.844882256935247],[153.69776629832512,-28.831031326170397],[153.69791155260242,-28.82941073958594],[153.6976529196676,-28.827138426186732],[153.69816881384898,-28.820243747023518],[153.69609990991324,-28.80295408777851],[153.69559899507985,-28.801405671838417],[153.6953835590282,-28.796257375287396],[153.69133113742208,-28.77935238921574],[153.6903731796806,-28.77725661309132],[153.70058699682772,-28.759960154521412],[153.7065517657563,-28.74253322683888],[153.70884373219894,-28.724256926156038],[153.70814454931977,-28.715564631347206],[153.70903586405873,-28.70885945587495],[153.70829465471925,-28.697424969239396],[153.710405362805,-28.695007145224565],[153.719140052008,-28.679861042090838],[153.72478140264957,-28.663311891099063],[153.72633140264955,-28.656728891099064],[153.72866297110215,-28.639496274872936],[153.72763693803398,-28.62213693935601],[153.727145938034,-28.61901093935601],[153.72246822392407,-28.601275330404466],[153.71429193131738,-28.58485640615876],[153.70295666185527,-28.570436125287802],[153.68893322502305,-28.55861343297221],[153.67280408311683,-28.549879383765475],[153.6552391587199,-28.544596745683464],[153.64893776911825,-28.544040860463163],[153.64796521996203,-28.540701760176482],[153.64827641040486,-28.5354565503877],[153.64632647588635,-28.519391938960577],[153.64229734661592,-28.50640545041339],[153.64196700917572,-28.49979747586768],[153.6433126969106,-28.475979753496002],[153.65534680087052,-28.416727283585463],[153.65746199022047,-28.40971964514683],[153.6582696984856,-28.408618755134665],[153.66585371608215,-28.39212054801635],[153.66997177977834,-28.37443581696333],[153.67045626498054,-28.356284413846428],[153.66768370298226,-28.340640938092296],[153.66817588823903,-28.334694599807666],[153.666337128781,-28.317691789819804],[153.66473396735506,-28.31247289276601],[153.67308923882757,-28.28201636945994],[153.67619338147702,-28.26250260372585],[153.67496443976623,-28.24278174023095],[153.66946164910365,-28.223804331302524],[153.66643588044,-28.21829473374929],[153.66843951953277,-28.210851052446806],[153.66959201094693,-28.1930820845686],[153.66722363815282,-28.175433989310907],[153.6614271081666,-28.158597579478773],[153.65242931896688,-28.14323189545776],[153.6512423189669,-28.141599895457762],[153.63940867978158,-28.12831855697785],[153.63404774238148,-28.124285244721126],[153.63037974878958,-28.117632513592564],[153.61926483744028,-28.10434632708651],[153.61820351306903,-28.103485653204775],[153.61714382330146,-28.102130136900527],[153.60337201233116,-28.090391404994122],[153.58753028599884,-28.081644959374064],[153.5702590814991,-28.07624439465357],[153.5522566258764,-28.07440804073218],[153.53425070863625,-28.07621013632157],[153.52972103667435,-28.077617071612156],[153.51896985729957,-28.073304508773216],[153.5028135578167,-28.068622193122582],[153.48606814374128,-28.06702807886243],[153.48083293493997,-28.067512472302933],[153.46828461733375,-28.067436295752024],[153.4502654809873,-28.07106099758732],[153.44662927631197,-28.072611617781806],[153.447581,-28.076061],[153.452174,-28.086693],[153.45439,-28.089031],[153.46003,-28.090866],[153.460305,-28.095753],[153.460987,-28.096292],[153.466763,-28.108398],[153.47553,-28.122612],[153.478464,-28.125954],[153.48326,-28.127787],[153.485443,-28.127407],[153.485086,-28.125971],[153.486982,-28.124607],[153.48632,-28.126571],[153.488613,-28.131105],[153.490756,-28.132232],[153.498658,-28.145515],[153.514318,-28.161019],[153.523041,-28.165993],[153.529502,-28.167231],[153.536968,-28.164631],[153.541022,-28.167158],[153.543606,-28.166862],[153.5447,-28.164489],[153.548107,-28.164074],[153.549894,-28.161231],[153.552171,-28.164408],[153.541487,-28.168967],[153.539412,-28.172165],[153.535642,-28.176005],[153.534594,-28.177639],[153.533867,-28.176857],[153.531149,-28.175745],[153.531167,-28.175249],[153.514147,-28.168407],[153.505188,-28.164759],[153.49552,-28.160907],[153.485949,-28.157028],[153.485037,-28.157734],[153.481498,-28.158373],[153.480566,-28.1575],[153.478729,-28.15759],[153.476931,-28.15702],[153.474974,-28.158138],[153.474629,-28.159599],[153.472471,-28.161953],[153.470781,-28.161769],[153.468504,-28.162512],[153.466665,-28.164603],[153.465032,-28.167595],[153.461703,-28.17125],[153.460939,-28.172488],[153.458678,-28.175157],[153.459246,-28.178111],[153.45775,-28.179337],[153.457134,-28.18054],[153.455244,-28.181272],[153.452895,-28.181092],[153.450629,-28.181801],[153.448719,-28.183433],[153.446127,-28.184292],[153.443372,-28.184337],[153.438914,-28.186198],[153.436847,-28.186652],[153.435117,-28.187837],[153.431911,-28.190695],[153.431159,-28.191044],[153.429215,-28.193347],[153.428865,-28.194275],[153.426871,-28.195035],[153.425472,-28.196249],[153.424947,-28.197475],[153.421973,-28.199364],[153.419196,-28.199681],[153.418561,-28.200317],[153.418611,-28.202232],[153.417671,-28.203704],[153.416685,-28.205956],[153.413933,-28.208334],[153.412739,-28.209006],[153.411697,-28.208948],[153.409805,-28.20988],[153.408485,-28.209886],[153.40661,-28.210415],[153.405213,-28.212265],[153.402776,-28.214137],[153.402218,-28.215271],[153.399024,-28.217899],[153.394932,-28.222519],[153.389655,-28.230025],[153.389671,-28.231344],[153.390422,-28.23223],[153.390123,-28.234026],[153.389527,-28.234935],[153.387614,-28.236264],[153.385011,-28.237194],[153.382862,-28.23721],[153.38059,-28.239217],[153.378468,-28.240432],[153.376187,-28.241097],[153.372359,-28.242801],[153.369669,-28.245229],[153.365695,-28.246532],[153.365374,-28.246901],[153.361237,-28.24835],[153.359567,-28.248583],[153.356812,-28.249619],[153.354096,-28.248587],[153.351608,-28.249],[153.348064,-28.248821],[153.346223,-28.248172],[153.343836,-28.249437],[153.342274,-28.249959],[153.340878,-28.249774],[153.33958,-28.250311],[153.337782,-28.249192],[153.33518,-28.248412],[153.334495,-28.247971],[153.334174,-28.246746],[153.332149,-28.246033],[153.331698,-28.245415],[153.331116,-28.241534],[153.331102,-28.238368],[153.330213,-28.237064],[153.327694,-28.237012],[153.324189,-28.236483],[153.321718,-28.238024],[153.320501,-28.237989],[153.316484,-28.238649],[153.314307,-28.237362],[153.313195,-28.2377],[153.311776,-28.237482],[153.310537,-28.238238],[153.307447,-28.238875],[153.304989,-28.239676],[153.303388,-28.239464],[153.300823,-28.238346],[153.299922,-28.237575],[153.298596,-28.235678],[153.296863,-28.234233],[153.295183,-28.233758],[153.291408,-28.233878],[153.287774,-28.235154],[153.285384,-28.235088],[153.282689,-28.234073],[153.280601,-28.233606],[153.278679,-28.233676],[153.277468,-28.23442],[153.27409,-28.238156],[153.270544,-28.23873],[153.269065,-28.23862],[153.265526,-28.241661],[153.264137,-28.243548],[153.259461,-28.244588],[153.254319,-28.245504],[153.251157,-28.246751],[153.250136,-28.246695],[153.24962,-28.247658],[153.246367,-28.246996],[153.243881,-28.247515],[153.243662,-28.248364],[153.242432,-28.248983],[153.239103,-28.251801],[153.23706,-28.254394],[153.235582,-28.256693],[153.235869,-28.257359],[153.234546,-28.262944],[153.232793,-28.265143],[153.229748,-28.264972],[153.229011,-28.264518],[153.226143,-28.263978],[153.225354,-28.264117],[153.221913,-28.263372],[153.219835,-28.263143],[153.217028,-28.262139],[153.213888,-28.259939],[153.211841,-28.257517],[153.210652,-28.256514],[153.207883,-28.253579],[153.205587,-28.253257],[153.20386,-28.25367],[153.202292,-28.255929],[153.199908,-28.256426],[153.198482,-28.256396],[153.19715,-28.255827],[153.194625,-28.253674],[153.192252,-28.251284],[153.191075,-28.249738],[153.188595,-28.248413],[153.186197,-28.246667],[153.184434,-28.246209],[153.178214,-28.247395],[153.176778,-28.248413],[153.175445,-28.250855],[153.175296,-28.251942],[153.175686,-28.253725],[153.173701,-28.25611],[153.171729,-28.260256],[153.171853,-28.262271],[153.172471,-28.264049],[153.173598,-28.265627],[153.174531,-28.268749],[153.17478,-28.27086],[153.174616,-28.272587],[153.174911,-28.274777],[153.174434,-28.275148],[153.171656,-28.27598],[153.16964,-28.275913],[153.167114,-28.277063],[153.163887,-28.278779],[153.161477,-28.279463],[153.161063,-28.2801],[153.162745,-28.282615],[153.165761,-28.284968],[153.16519,-28.287282],[153.165773,-28.289513],[153.168878,-28.2929],[153.168316,-28.294395],[153.165821,-28.296956],[153.164759,-28.297545],[153.163149,-28.297465],[153.160597,-28.296122],[153.15849,-28.296496],[153.1566,-28.295611],[153.154503,-28.295889],[153.153459,-28.300299],[153.152766,-28.301416],[153.151708,-28.302145],[153.149254,-28.302931],[153.147002,-28.304012],[153.145041,-28.304177],[153.143269,-28.30471],[153.142377,-28.306229],[153.143058,-28.307687],[153.14351,-28.311487],[153.143167,-28.312134],[153.141364,-28.312015],[153.139337,-28.311309],[153.138007,-28.311376],[153.13522,-28.31209],[153.134459,-28.315094],[153.133771,-28.316371],[153.132643,-28.317157],[153.12739,-28.317427],[153.125633,-28.317917],[153.124164,-28.319336],[153.123808,-28.320501],[153.124149,-28.322671],[153.126159,-28.3259],[153.12974,-28.329282],[153.12989,-28.330665],[153.12769,-28.333346],[153.12671,-28.335366],[153.1251,-28.337745],[153.124519,-28.339284],[153.123599,-28.340176],[153.121139,-28.34133],[153.118656,-28.341892],[153.116927,-28.343028],[153.115961,-28.345609],[153.114599,-28.348246],[153.114525,-28.349904],[153.114011,-28.351598],[153.112724,-28.35409],[153.110762,-28.356421],[153.1094,-28.35744]]]},"bbox":[153.106738,-29.014896052348544,153.72866297110215,-28.06702807886243]}]}