{"type":"FeatureCollection","features":[
{"properties":{"electorateShortName":"richmond","electorateName":"Richmond","area":2133.02,"state":null},"type":"Feature","geometry":{"type":"Polygon","coordinates":[[[153.1094,-28.35744],[153.112955,-28.361311],[153.112564,-28.372538],[153.106738,-28.37616],[153.110503,-28.3783],[153.11081,-28.383388],[153.10774,-28.388195],[153.110781,-28.388469],[153.115033,-28.394172],[153.118059,-28.396456],[153.112616,-28.401255],[153.117435,-28.40382],[153.1277,-28.405931],[153.126464,-28.408957],[153.122463,-28.41175],[153.120837,-28.415282],[153.127518,-28.419263],[153.127145,-28.422456],[153.124034,-28.430592],[153.120886,-28.433412],[153.126653,-28.435329],[153.13155,-28.432002],[153.142127,-28.436139],[153.14387,-28.438768],[153.142746,-28.443286],[153.145213,-28.44445],[153.143132,-28.448875],[153.140181,-28.449535],[153.135998,-28.457227],[153.139511,-28.458834],[153.143898,-28.462728],[153.141195,-28.466257],[153.141014,-28.470775],[153.146008,-28.476838],[153.147352,-28.480213],[153.153674,-28.484325],[153.154522,-28.491996],[153.152598,-28.499209],[153.149796,-28.502963],[153.151258,-28.509112],[153.153305,-28.509683],[153.155249,-28.515685],[153.15951,-28.518882],[153.160263,-28.524129],[153.16993,-28.52358],[153.17269,-28.521405],[153.178129,-28.522826],[153.186001,-28.521294],[153.193084,-28.523175],[153.197746,-28.526987],[153.201376,-28.525908],[153.205712,-28.52654],[153.215763,-28.522896],[153.219644,-28.522855],[153.226422,-28.517733],[153.239196,-28.518265],[153.247732,-28.515887],[153.251768,-28.520089],[153.254768,-28.527109],[153.268788,-28.522317],[153.273306,-28.522004],[153.281572,-28.516234],[153.283382,-28.516864],[153.28274,-28.522531],[153.284812,-28.523553],[153.283913,-28.529906],[153.289123,-28.53651],[153.291475,-28.537738],[153.291318,-28.541378],[153.299082,-28.540597],[153.301496,-28.539241],[153.305296,-28.541693],[153.310209,-28.542595],[153.314022,-28.540417],[153.317575,-28.541702],[153.323608,-28.541005],[153.32783,-28.542733],[153.331525,-28.54798],[153.337881,-28.550068],[153.340363,-28.55647],[153.346171,-28.558012],[153.351798,-28.567264],[153.359883,-28.566941],[153.363644,-28.573011],[153.367924,-28.574847],[153.375014,-28.580918],[153.379084,-28.582456],[153.379904,-28.589817],[153.37855,-28.595294],[153.375276,-28.599735],[153.375449,-28.603359],[153.373087,-28.613976],[153.412627,-28.618563],[153.413144,-28.624748],[153.416404,-28.625427],[153.412596,-28.633742],[153.415486,-28.636231],[153.414506,-28.640264],[153.415937,-28.644838],[153.41547,-28.64871],[153.421186,-28.649282],[153.421495,-28.654434],[153.426749,-28.65613],[153.424244,-28.659459],[153.429991,-28.662805],[153.427573,-28.666432],[153.424365,-28.667217],[153.421234,-28.661843],[153.417876,-28.663639],[153.416824,-28.670542],[153.418182,-28.677922],[153.421346,-28.676688],[153.424286,-28.677807],[153.426622,-28.681017],[153.424764,-28.684963],[153.422235,-28.686625],[153.424239,-28.692997],[153.420036,-28.695673],[153.416047,-28.693881],[153.407747,-28.68615],[153.406905,-28.689664],[153.408046,-28.69353],[153.40383,-28.697851],[153.402251,-28.702264],[153.408099,-28.705437],[153.409153,-28.707793],[153.407149,-28.719933],[153.41215,-28.720592],[153.409487,-28.72554],[153.40682,-28.742889],[153.413967,-28.741856],[153.417009,-28.743983],[153.422106,-28.742678],[153.426461,-28.738388],[153.431814,-28.745969],[153.435966,-28.747477],[153.442096,-28.744977],[153.443046,-28.746569],[153.448133,-28.746851],[153.449122,-28.753716],[153.447683,-28.759424],[153.442291,-28.762701],[153.442518,-28.765878],[153.446571,-28.773228],[153.443937,-28.776178],[153.450663,-28.781638],[153.453966,-28.781664],[153.4502,-28.789236],[153.448111,-28.791336],[153.448426,-28.796294],[153.444901,-28.796568],[153.446092,-28.801828],[153.445499,-28.809762],[153.441382,-28.823097],[153.447738,-28.82717],[153.445085,-28.829767],[153.45253,-28.830749],[153.451238,-28.838635],[153.465035,-28.840742],[153.472667,-28.845779],[153.478138,-28.847961],[153.476547,-28.855464],[153.478549,-28.857612],[153.483991,-28.860243],[153.482168,-28.863032],[153.486858,-28.864848],[153.494448,-28.863343],[153.495095,-28.867168],[153.491704,-28.869839],[153.482855,-28.888026],[153.479857,-28.902606],[153.475801,-28.924591],[153.478917,-28.924761],[153.484006,-28.920681],[153.489465,-28.919872],[153.491145,-28.922726],[153.494665,-28.920215],[153.497254,-28.921028],[153.500495,-28.917229],[153.507797,-28.912851],[153.512397,-28.913597],[153.518517,-28.918317],[153.52241,-28.916959],[153.53301,-28.918326],[153.53809,-28.916827],[153.544475,-28.917804],[153.499213,-28.969924],[153.473336,-29.004791],[153.46787302348278,-29.014032200040766],[153.47705909244922,-29.014896052348544],[153.48456752656932,-29.014583444575337],[153.500343276207,-29.011774372886347],[153.50867771416188,-29.011002229411535],[153.51766116814173,-29.00847099279696],[153.53576509610986,-29.008297335242585],[153.5453663297021,-29.007799586177114],[153.5630178344778,-29.005873082483753],[153.57994757192677,-29.000518549148868],[153.59549656343637,-28.991944407771395],[153.60905957499835,-28.980484401022018],[153.6314459004681,-28.957417999201613],[153.6455704000688,-28.948436929925048],[153.66024642049408,-28.9343095254038],[153.67015112389404,-28.92029654228333],[153.67721614449047,-28.90465837329371],[153.67926365375624,-28.89863691142604],[153.6837442275355,-28.893124957009032],[153.69181157250438,-28.878101288187526],[153.69690031827204,-28.8618256208827],[153.69882777718192,-28.844882256935247],[153.6976529196676,-28.827138426186732],[153.69816881384898,-28.820243747023518],[153.6953835590282,-28.796257375287396],[153.69133113742208,-28.77935238921574],[153.6903731796806,-28.77725661309132],[153.70058699682772,-28.759960154521412],[153.7065517657563,-28.74253322683888],[153.70884373219894,-28.724256926156038],[153.70814454931977,-28.715564631347206],[153.70903586405873,-28.70885945587495],[153.70829465471925,-28.697424969239396],[153.710405362805,-28.695007145224565],[153.719140052008,-28.679861042090838],[153.72478140264957,-28.663311891099063],[153.72633140264955,-28.656728891099064],[153.72866297110215,-28.639496274872936],[153.727145938034,-28.61901093935601],[153.72246822392407,-28.601275330404466],[153.71429193131738,-28.58485640615876],[153.70295666185527,-28.570436125287802],[153.68893322502305,-28.55861343297221],[153.67280408311683,-28.549879383765475],[153.6552391587199,-28.544596745683464],[153.64893776911825,-28.544040860463163],[153.64827641040486,-28.5354565503877],[153.64632647588635,-28.519391938960577],[153.64229734661592,-28.50640545041339],[153.64196700917572,-28.49979747586768],[153.6433126969106,-28.475979753496002],[153.65534680087052,-28.416727283585463],[153.6582696984856,-28.408618755134665],[153.66585371608215,-28.39212054801635],[153.66997177977834,-28.37443581696333],[153.67045626498054,-28.356284413846428],[153.66768370298226,-28.340640938092296],[153.66817588823903,-28.334694599807666],[153.666337128781,-28.317691789819804],[153.66473396735506,-28.31247289276601],[153.67308923882757,-28.28201636945994],[153.67619338147702,-28.26250260372585],[153.67496443976623,-28.24278174023095],[153.66946164910365,-28.223804331302524],[153.66643588044,-28.21829473374929],[153.66843951953277,-28.210851052446806],[153.66959201094693,-28.1930820845686],[153.66722363815282,-28.175433989310907],[153.6614271081666,-28.158597579478773],[153.65242931896688,-28.14323189545776],[153.63940867978158,-28.12831855697785],[153.63404774238148,-28.124285244721126],[153.63037974878958,-28.117632513592564],[153.61926483744028,-28.10434632708651],[153.61820351306903,-28.103485653204775],[153.61714382330146,-28.102130136900527],[153.60337201233116,-28.090391404994122],[153.58753028599884,-28.081644959374064],[153.5702590814991,-28.07624439465357],[153.5522566258764,-28.07440804073218],[153.53425070863625,-28.07621013632157],[153.52972103667435,-28.077617071612156],[153.51896985729957,-28.073304508773216],[153.5028135578167,-28.068622193122582],[153.48606814374128,-28.06702807886243],[153.48083293493997,-28.067512472302933],[153.46828461733375,-28.067436295752024],[153.4502654809873,-28.07106099758732],[153.44662927631197,-28.072611617781806],[153.447581,-28.076061],[153.452174,-28.086693],[153.45439,-28.089031],[153.46003,-28.090866],[153.460987,-28.096292],[153.466763,-28.108398],[153.47553,-28.122612],[153.478464,-28.125954],[153.48326,-28.127787],[153.48632,-28.126571],[153.488613,-28.131105],[153.490756,-28.132232],[153.498658,-28.145515],[153.514318,-28.161019],[153.523041,-28.165993],[153.529502,-28.167231],[153.536968,-28.164631],[153.541022,-28.167158],[153.5447,-28.164489],[153.552171,-28.164408],[153.541487,-28.168967],[153.539412,-28.172165],[153.533867,-28.176857],[153.531167,-28.175249],[153.485949,-28.157028],[153.481498,-28.158373],[153.476931,-28.15702],[153.472471,-28.161953],[153.468504,-28.162512],[153.458678,-28.175157],[153.459246,-28.178111],[153.457134,-28.18054],[153.450629,-28.181801],[153.448719,-28.183433],[153.443372,-28.184337],[153.436847,-28.186652],[153.431159,-28.191044],[153.428865,-28.194275],[153.421973,-28.199364],[153.419196,-28.199681],[153.416685,-28.205956],[153.413933,-28.208334],[153.40661,-28.210415],[153.394932,-28.222519],[153.389655,-28.230025],[153.389527,-28.234935],[153.382862,-28.23721],[153.378468,-28.240432],[153.372359,-28.242801],[153.369669,-28.245229],[153.356812,-28.249619],[153.354096,-28.248587],[153.346223,-28.248172],[153.33958,-28.250311],[153.334495,-28.247971],[153.331698,-28.245415],[153.330213,-28.237064],[153.324189,-28.236483],[153.321718,-28.238024],[153.316484,-28.238649],[153.314307,-28.237362],[153.304989,-28.239676],[153.300823,-28.238346],[153.296863,-28.234233],[153.291408,-28.233878],[153.287774,-28.235154],[153.280601,-28.233606],[153.277468,-28.23442],[153.27409,-28.238156],[153.269065,-28.23862],[153.264137,-28.243548],[153.254319,-28.245504],[153.24962,-28.247658],[153.243881,-28.247515],[153.239103,-28.251801],[153.235582,-28.256693],[153.234546,-28.262944],[153.232793,-28.265143],[153.219835,-28.263143],[153.213888,-28.259939],[153.207883,-28.253579],[153.20386,-28.25367],[153.202292,-28.255929],[153.19715,-28.255827],[153.191075,-28.249738],[153.184434,-28.246209],[153.178214,-28.247395],[153.175445,-28.250855],[153.175686,-28.253725],[153.171729,-28.260256],[153.174531,-28.268749],[153.174911,-28.274777],[153.16964,-28.275913],[153.161063,-28.2801],[153.165761,-28.284968],[153.165773,-28.289513],[153.168878,-28.2929],[153.165821,-28.296956],[153.154503,-28.295889],[153.151708,-28.302145],[153.143269,-28.30471],[153.14351,-28.311487],[153.13522,-28.31209],[153.132643,-28.317157],[153.12739,-28.317427],[153.124164,-28.319336],[153.124149,-28.322671],[153.12974,-28.329282],[153.123599,-28.340176],[153.116927,-28.343028],[153.112724,-28.35409],[153.1094,-28.35744]]]},"bbox":[153.106738,-29.014896052348544,153.72866297110215,-28.06702807886243]}]}