{"type":"FeatureCollection","features":[
{"properties":{"electorateShortName":"riverina","electorateName":"Riverina","area":48976.17,"state":null},"type":"Feature","geometry":{"type":"Polygon","coordinates":[[[149.119836,-33.887828],[149.118462,-33.872095],[149.135922,-33.863024],[149.144842,-33.855113],[149.15605,-33.852226],[149.177606,-33.858023],[149.174789,-33.844937],[149.181968,-33.831284],[149.180823,-33.806141],[149.186778,-33.797594],[149.207277,-33.800436],[149.219734,-33.791776],[149.235259,-33.759881],[149.241403,-33.760501],[149.257743,-33.740656],[149.236403,-33.738028],[149.225046,-33.726275],[149.214839,-33.732635],[149.17209,-33.72628],[149.169131,-33.721122],[149.156131,-33.73091],[149.149353,-33.730395],[149.133245,-33.74988],[149.130187,-33.764289],[149.108198,-33.761111],[149.106922,-33.768429],[149.091447,-33.765415],[149.088345,-33.781192],[149.091597,-33.793688],[149.067175,-33.790083],[149.064589,-33.812386],[149.041283,-33.809334],[149.026165,-33.803369],[149.018633,-33.79644],[149.007704,-33.794905],[149.009881,-33.784013],[148.988919,-33.781096],[148.981954,-33.772288],[148.984829,-33.758045],[148.974557,-33.756454],[148.978388,-33.737606],[148.993027,-33.726778],[148.99366,-33.720609],[148.981829,-33.714127],[148.962624,-33.707824],[148.9569,-33.688042],[148.945326,-33.687719],[148.937798,-33.682912],[148.929318,-33.688066],[148.91167,-33.683487],[148.907469,-33.673053],[148.913954,-33.629673],[148.913954,-33.617843],[148.91842,-33.614352],[148.922397,-33.599333],[148.910857,-33.594303],[148.910574,-33.585067],[148.899391,-33.579247],[148.881997,-33.582885],[148.84572,-33.5759],[148.844712,-33.568755],[148.82321,-33.56568],[148.818127,-33.557162],[148.80386,-33.550029],[148.787796,-33.529269],[148.775941,-33.525513],[148.768582,-33.529092],[148.754102,-33.529633],[148.738927,-33.53792],[148.73031,-33.555292],[148.72376,-33.55887],[148.712026,-33.573728],[148.695827,-33.577216],[148.682814,-33.586415],[148.676146,-33.580518],[148.652535,-33.577102],[148.658306,-33.566439],[148.648553,-33.562975],[148.635899,-33.567008],[148.623599,-33.581425],[148.621066,-33.591714],[148.602018,-33.59441],[148.594851,-33.591607],[148.557937,-33.602925],[148.54324,-33.599913],[148.535451,-33.584013],[148.524169,-33.577287],[148.51355,-33.581145],[148.502857,-33.579226],[148.483455,-33.581299],[148.468423,-33.602253],[148.446819,-33.613971],[148.442462,-33.60816],[148.417382,-33.607154],[148.414106,-33.596161],[148.402002,-33.586093],[148.388833,-33.57999],[148.390459,-33.567654],[148.409817,-33.570222],[148.422681,-33.568616],[148.421274,-33.55957],[148.396593,-33.55387],[148.390233,-33.540161],[148.400175,-33.535056],[148.392772,-33.518727],[148.37723,-33.51334],[148.357113,-33.510524],[148.351789,-33.49463],[148.328952,-33.490636],[148.32511,-33.497162],[148.314945,-33.499899],[148.308506,-33.494466],[148.290651,-33.491909],[148.293234,-33.478291],[148.307341,-33.465745],[148.316138,-33.46612],[148.313524,-33.453189],[148.329322,-33.455928],[148.33306,-33.444235],[148.346915,-33.450031],[148.359315,-33.449418],[148.365145,-33.435299],[148.344338,-33.429496],[148.345935,-33.420913],[148.367724,-33.420889],[148.367931,-33.410824],[148.388437,-33.412704],[148.396207,-33.401777],[148.408395,-33.401768],[148.403638,-33.392221],[148.418223,-33.385],[148.413,-33.37989],[148.41474,-33.370297],[148.40316,-33.368909],[148.385485,-33.351008],[148.403079,-33.328935],[148.415671,-33.32703],[148.412717,-33.313462],[148.402028,-33.2997],[148.397185,-33.269909],[148.401701,-33.259592],[148.428194,-33.239169],[148.432654,-33.225572],[148.42834,-33.202387],[148.44755,-33.202623],[148.46668,-33.208771],[148.475002,-33.198769],[148.495895,-33.190869],[148.493043,-33.179705],[148.505521,-33.165857],[148.505823,-33.150971],[148.502386,-33.140386],[148.486567,-33.123236],[148.490432,-33.107743],[148.497275,-33.096367],[148.502703,-33.079039],[148.505455,-33.062037],[148.503737,-33.046861],[148.495488,-33.039428],[148.493038,-33.03024],[148.481055,-33.016377],[148.464864,-33.014495],[148.44635,-32.992575],[148.437365,-32.976252],[148.430165,-32.969942],[148.418644,-32.973569],[148.399352,-32.959165],[148.389388,-32.974236],[148.372179,-32.971583],[148.376304,-32.961737],[148.378367,-32.942259],[148.381831,-32.93455],[148.372514,-32.929172],[148.381257,-32.914022],[148.382125,-32.889427],[148.384572,-32.874917],[148.383295,-32.851975],[148.378012,-32.850019],[148.378164,-32.833103],[148.367947,-32.825013],[148.359092,-32.823698],[148.34251,-32.81081],[148.329377,-32.810831],[148.328315,-32.798687],[148.33533,-32.781608],[148.331923,-32.746568],[148.335609,-32.73187],[148.33182,-32.728392],[148.329513,-32.701025],[148.33496,-32.679034],[148.347143,-32.675763],[148.265119,-32.678209],[148.26304,-32.692104],[148.24694,-32.689907],[148.248725,-32.68164],[148.128486,-32.682979],[148.129348,-32.675523],[148.120321,-32.669006],[148.1203,-32.658739],[148.107633,-32.648295],[148.105949,-32.636972],[148.092036,-32.614783],[148.091261,-32.604448],[148.08256,-32.600135],[148.075203,-32.602669],[148.063023,-32.594994],[148.058573,-32.587007],[148.034666,-32.576398],[148.031066,-32.568954],[148.013088,-32.567722],[148.003651,-32.564126],[148.003328,-32.554315],[147.996826,-32.543936],[147.98277,-32.52903],[147.969948,-32.524166],[147.963454,-32.517017],[147.965854,-32.499699],[147.949321,-32.496532],[147.936607,-32.491087],[147.924982,-32.470273],[147.913526,-32.466819],[147.899604,-32.451821],[147.905634,-32.446185],[147.905075,-32.431989],[147.884373,-32.440303],[147.868879,-32.435556],[147.850395,-32.434459],[147.826802,-32.424504],[147.823619,-32.420208],[147.801454,-32.418844],[147.795491,-32.421915],[147.769979,-32.420741],[147.762141,-32.407712],[147.745907,-32.408187],[147.719722,-32.396196],[147.708416,-32.387039],[147.696383,-32.369297],[147.612298,-32.423304],[147.611509,-32.441179],[147.589521,-32.438367],[147.561644,-32.456001],[147.551899,-32.508133],[147.545261,-32.551855],[147.556241,-32.55915],[147.550501,-32.595033],[147.552851,-32.601742],[147.581526,-32.604564],[147.574017,-32.614042],[147.564722,-32.61556],[147.55694,-32.629158],[147.559096,-32.647782],[147.553706,-32.672984],[147.577635,-32.675638],[147.568364,-32.735381],[147.598394,-32.738625],[147.602441,-32.744318],[147.599829,-32.762124],[147.604257,-32.762695],[147.59272,-32.836127],[147.587319,-32.835592],[147.578521,-32.89322],[147.57105,-32.949714],[147.556894,-32.948209],[147.550656,-32.988308],[147.54302,-33.020151],[147.559165,-33.022032],[147.554975,-33.048197],[147.470348,-33.038107],[147.443336,-33.041785],[147.405017,-33.038017],[147.388534,-33.139417],[147.382376,-33.132448],[147.372274,-33.129924],[147.353859,-33.120618],[147.34309,-33.124335],[147.342354,-33.114281],[147.327206,-33.111434],[147.317414,-33.117352],[147.308075,-33.104384],[147.296817,-33.171641],[147.306153,-33.180283],[147.29794,-33.19184],[147.325945,-33.20809],[147.329587,-33.214479],[147.346015,-33.214229],[147.363194,-33.224369],[147.36817,-33.217202],[147.385474,-33.218827],[147.421417,-33.228187],[147.433592,-33.223187],[147.442535,-33.230847],[147.464821,-33.22742],[147.46457,-33.23587],[147.472329,-33.244823],[147.485534,-33.246619],[147.483481,-33.256127],[147.497778,-33.257901],[147.497357,-33.264877],[147.514722,-33.263086],[147.496005,-33.365781],[147.485964,-33.423228],[147.4804,-33.441743],[147.426412,-33.43462],[147.422876,-33.450853],[147.41551,-33.46526],[147.411192,-33.490716],[147.407473,-33.49615],[147.403505,-33.527012],[147.399993,-33.528822],[147.358351,-33.525343],[147.34275,-33.53519],[147.338935,-33.556749],[147.322408,-33.554812],[147.32036,-33.567801],[147.278115,-33.562807],[147.276131,-33.575188],[147.245877,-33.571913],[147.242778,-33.591816],[147.108457,-33.575447],[147.104374,-33.57748],[147.053281,-33.572049],[146.986431,-33.563834],[146.988475,-33.55196],[146.870796,-33.537719],[146.830767,-33.532427],[146.821456,-33.53759],[146.80888,-33.607151],[146.603523,-33.582402],[146.445623,-33.563875],[146.440808,-33.520858],[146.226415,-33.574139],[146.180657,-33.583236],[146.095141,-33.603131],[146.074577,-33.731759],[146.0703,-33.753534],[146.09783,-33.756752],[146.317227,-33.780549],[146.353269,-33.78524],[146.437185,-33.794499],[146.417433,-33.910635],[146.492809,-33.919657],[146.4868,-33.955644],[146.471543,-34.056649],[146.458206,-34.13293],[146.635404,-34.151187],[146.623872,-34.224735],[146.626411,-34.225474],[146.729043,-34.236768],[146.718745,-34.298111],[146.823028,-34.310851],[146.802747,-34.426883],[146.799998,-34.426499],[146.791751,-34.472298],[146.795492,-34.470798],[146.834718,-34.475518],[146.835253,-34.472721],[146.911568,-34.482591],[146.902227,-34.534519],[146.898652,-34.548979],[146.888326,-34.605114],[146.876409,-34.66252],[146.843266,-34.83723],[146.846616,-34.842743],[146.839929,-34.857393],[146.835375,-34.860049],[146.831065,-34.880911],[146.84358,-34.899125],[146.813658,-34.913318],[146.784477,-34.924058],[146.779606,-34.947042],[146.793643,-34.958616],[146.795358,-34.967424],[146.804343,-34.969337],[146.807657,-34.986944],[146.7942,-35.058208],[146.784221,-35.070069],[146.778785,-35.098405],[146.770305,-35.097288],[146.771955,-35.087708],[146.761524,-35.076441],[146.688478,-35.067979],[146.688017,-35.070383],[146.662039,-35.089024],[146.634513,-35.096349],[146.625993,-35.10171],[146.615161,-35.114348],[146.599272,-35.113671],[146.592103,-35.117195],[146.572021,-35.116577],[146.563727,-35.119126],[146.535133,-35.138242],[146.451315,-35.191178],[146.389251,-35.231731],[146.386399,-35.247397],[146.413658,-35.250545],[146.403804,-35.304452],[146.392465,-35.302996],[146.388761,-35.322851],[146.372944,-35.321002],[146.369914,-35.337214],[146.364032,-35.337739],[146.354226,-35.387797],[146.364495,-35.389009],[146.374573,-35.404905],[146.405522,-35.444508],[146.428237,-35.471405],[146.470028,-35.476339],[146.491178,-35.480714],[146.540094,-35.487174],[146.554291,-35.494367],[146.669769,-35.520279],[146.667093,-35.537631],[146.662323,-35.547763],[146.672963,-35.555276],[146.699587,-35.55815],[146.701943,-35.561181],[146.777012,-35.571154],[146.796881,-35.574699],[146.798401,-35.566387],[146.871365,-35.57586],[146.872344,-35.57106],[146.888378,-35.573241],[146.890907,-35.560482],[146.900932,-35.560108],[146.910234,-35.554649],[146.911649,-35.547462],[146.922198,-35.547126],[146.953062,-35.528029],[146.970767,-35.51943],[146.980825,-35.521619],[146.991181,-35.51684],[146.993901,-35.489287],[147.016605,-35.493886],[147.032082,-35.485444],[147.071242,-35.460598],[147.073065,-35.452919],[147.087341,-35.450465],[147.10058,-35.454613],[147.121813,-35.456215],[147.124671,-35.462578],[147.138084,-35.467031],[147.157792,-35.46916],[147.16624,-35.456831],[147.174938,-35.457091],[147.184978,-35.448477],[147.194093,-35.454699],[147.195453,-35.46609],[147.226524,-35.473668],[147.238204,-35.47101],[147.246758,-35.488113],[147.263197,-35.488551],[147.279422,-35.493703],[147.283199,-35.500123],[147.303027,-35.495596],[147.341398,-35.509225],[147.363804,-35.513871],[147.383966,-35.529828],[147.387917,-35.53793],[147.382317,-35.550764],[147.385008,-35.559241],[147.395214,-35.554942],[147.4043,-35.544418],[147.419431,-35.533527],[147.438399,-35.537211],[147.444597,-35.530111],[147.456277,-35.530956],[147.480995,-35.54516],[147.488405,-35.5408],[147.501735,-35.522092],[147.498231,-35.513771],[147.518147,-35.496963],[147.51477,-35.488634],[147.525087,-35.483406],[147.535372,-35.491722],[147.553328,-35.498601],[147.556535,-35.505655],[147.581315,-35.515544],[147.588633,-35.524311],[147.600213,-35.528844],[147.607787,-35.539571],[147.63176,-35.547102],[147.645953,-35.538789],[147.666595,-35.545982],[147.681189,-35.556669],[147.685594,-35.534198],[147.738286,-35.541082],[147.736915,-35.531022],[147.755718,-35.533462],[147.754375,-35.544684],[147.779775,-35.547543],[147.79159,-35.55146],[147.812125,-35.549421],[147.845391,-35.554599],[147.847301,-35.544897],[147.862168,-35.546868],[147.863331,-35.54066],[147.892675,-35.544318],[147.890971,-35.553284],[147.929807,-35.558493],[147.931441,-35.550051],[147.92309,-35.542743],[147.907823,-35.538346],[147.90802,-35.526173],[147.925596,-35.528523],[147.927969,-35.516335],[147.90476,-35.51331],[147.907221,-35.490301],[147.883819,-35.488498],[147.885969,-35.464125],[147.873016,-35.457017],[147.875082,-35.446575],[147.889358,-35.444288],[147.893206,-35.424362],[147.908475,-35.421432],[147.897578,-35.412494],[147.894511,-35.394553],[147.899692,-35.380505],[147.890287,-35.377396],[147.884291,-35.357405],[147.865256,-35.355689],[147.85921,-35.339855],[147.845544,-35.329987],[147.850342,-35.322398],[147.843013,-35.316389],[147.845493,-35.29206],[147.85623,-35.279482],[147.872618,-35.281942],[147.884283,-35.277654],[147.879573,-35.268188],[147.883835,-35.259673],[147.89233,-35.256922],[147.894832,-35.233724],[147.900098,-35.230355],[147.927807,-35.233233],[147.934953,-35.225918],[147.958622,-35.229068],[147.961047,-35.217348],[147.974149,-35.213009],[147.97579,-35.203695],[147.964347,-35.193979],[147.964299,-35.187705],[148.013542,-35.195319],[148.018114,-35.192583],[148.059289,-35.20088],[148.064445,-35.198597],[148.087156,-35.19892],[148.119788,-35.202562],[148.122193,-35.189981],[148.155515,-35.197017],[148.160118,-35.192865],[148.183838,-35.189375],[148.198381,-35.17033],[148.206719,-35.170896],[148.221527,-35.166189],[148.222888,-35.159002],[148.213818,-35.152867],[148.20632,-35.1215],[148.200068,-35.110937],[148.215651,-35.110415],[148.251009,-35.117115],[148.261872,-35.11711],[148.292958,-35.122401],[148.314847,-35.129035],[148.333559,-35.138318],[148.347588,-35.13708],[148.38954,-35.141565],[148.394688,-35.150509],[148.413685,-35.153002],[148.418407,-35.163725],[148.427125,-35.163318],[148.456831,-35.154524],[148.455964,-35.146737],[148.462454,-35.11695],[148.46636,-35.117436],[148.471909,-35.088777],[148.469226,-35.080143],[148.524721,-35.087737],[148.529144,-35.101139],[148.525371,-35.124261],[148.54182,-35.135366],[148.548241,-35.132211],[148.54418,-35.120376],[148.550911,-35.107604],[148.567022,-35.094995],[148.564873,-35.088446],[148.569124,-35.069214],[148.56417,-35.066155],[148.566451,-35.052232],[148.575514,-35.041618],[148.576406,-35.024381],[148.572175,-35.01861],[148.583095,-35.002645],[148.572949,-35.001426],[148.553513,-34.988666],[148.545008,-34.99396],[148.534484,-34.993886],[148.530893,-34.987781],[148.532611,-34.973813],[148.542803,-34.954104],[148.535682,-34.934716],[148.537522,-34.925656],[148.530502,-34.90706],[148.522267,-34.90147],[148.530575,-34.877982],[148.539208,-34.873667],[148.545243,-34.855743],[148.558647,-34.859354],[148.56497,-34.827476],[148.561824,-34.825037],[148.563403,-34.805531],[148.574451,-34.798703],[148.57822,-34.778782],[148.571482,-34.7724],[148.571795,-34.761407],[148.577947,-34.73548],[148.571479,-34.723289],[148.574403,-34.708407],[148.572112,-34.702118],[148.586709,-34.627441],[148.595051,-34.618744],[148.626398,-34.622858],[148.629127,-34.610711],[148.659582,-34.61429],[148.660931,-34.602534],[148.670388,-34.589257],[148.659404,-34.587797],[148.661367,-34.577476],[148.647305,-34.562747],[148.651544,-34.557127],[148.653642,-34.542419],[148.643665,-34.549215],[148.630683,-34.547524],[148.632483,-34.537907],[148.622363,-34.526737],[148.62535,-34.500545],[148.612588,-34.498893],[148.621525,-34.488135],[148.611512,-34.484097],[148.614754,-34.466283],[148.580569,-34.462064],[148.577935,-34.445442],[148.580291,-34.43329],[148.567707,-34.431637],[148.563134,-34.426282],[148.562472,-34.412935],[148.553622,-34.411429],[148.562193,-34.392098],[148.571959,-34.387418],[148.575908,-34.376774],[148.587836,-34.374192],[148.609878,-34.356317],[148.609093,-34.347076],[148.616157,-34.342405],[148.622108,-34.314407],[148.614834,-34.313419],[148.608096,-34.30067],[148.621234,-34.279516],[148.638006,-34.281135],[148.635493,-34.2703],[148.645351,-34.251831],[148.640997,-34.246103],[148.648395,-34.234098],[148.646816,-34.219585],[148.639325,-34.209029],[148.639727,-34.191139],[148.637209,-34.182941],[148.621345,-34.180966],[148.623227,-34.170549],[148.643315,-34.173061],[148.64747,-34.152303],[148.636239,-34.146204],[148.642699,-34.114031],[148.645477,-34.10725],[148.677137,-34.094223],[148.686901,-34.08213],[148.709251,-34.082028],[148.718179,-34.074003],[148.730955,-34.078698],[148.73922,-34.06989],[148.741793,-34.058146],[148.748025,-34.051823],[148.758879,-34.04894],[148.763135,-34.038251],[148.751755,-34.024396],[148.743717,-34.020724],[148.746214,-34.008019],[148.755159,-34.001026],[148.765323,-34.000588],[148.767364,-33.981956],[148.77555,-33.984322],[148.803995,-33.983898],[148.807928,-33.963928],[148.821514,-33.965832],[148.828955,-33.959581],[148.831748,-33.945225],[148.848236,-33.952088],[148.869453,-33.94686],[148.879776,-33.948166],[148.887955,-33.95435],[148.889845,-33.963433],[148.907109,-33.975602],[148.913672,-33.970288],[148.927697,-33.981342],[148.938253,-33.98049],[148.94343,-33.969201],[148.966308,-33.970116],[148.969158,-33.958441],[148.980787,-33.94873],[148.977859,-33.942387],[148.982051,-33.924165],[149.003979,-33.926223],[149.011379,-33.932756],[149.025106,-33.93214],[149.02457,-33.91886],[149.033464,-33.911237],[149.050389,-33.913175],[149.054739,-33.902746],[149.067794,-33.891958],[149.069934,-33.900075],[149.082078,-33.91288],[149.096735,-33.907665],[149.104781,-33.894266],[149.116828,-33.894006],[149.119836,-33.887828]]]},"bbox":[146.0703,-35.57586,149.257743,-32.369297]}]}