{"type":"FeatureCollection","features":[
{"properties":{"electorateShortName":"riverina","electorateName":"Riverina","area":48976.17,"state":null},"type":"Feature","geometry":{"type":"Polygon","coordinates":[[[149.119836,-33.887828],[149.118462,-33.872095],[149.125151,-33.867224],[149.134715,-33.86885],[149.135922,-33.863024],[149.144842,-33.855113],[149.143929,-33.85178],[149.15605,-33.852226],[149.163397,-33.856208],[149.170921,-33.855668],[149.177606,-33.858023],[149.184303,-33.852829],[149.177416,-33.850802],[149.174789,-33.844937],[149.179906,-33.837468],[149.181968,-33.831284],[149.17825,-33.824581],[149.181934,-33.818416],[149.180823,-33.806141],[149.186778,-33.797594],[149.199797,-33.80092],[149.207277,-33.800436],[149.219734,-33.791776],[149.220791,-33.786577],[149.227076,-33.777963],[149.227615,-33.773281],[149.235259,-33.759881],[149.241403,-33.760501],[149.253008,-33.748681],[149.257743,-33.740656],[149.236403,-33.738028],[149.232545,-33.730152],[149.225046,-33.726275],[149.222151,-33.730318],[149.214839,-33.732635],[149.205446,-33.73056],[149.17209,-33.72628],[149.169131,-33.721122],[149.156131,-33.73091],[149.149353,-33.730395],[149.141085,-33.738504],[149.141039,-33.740727],[149.133245,-33.74988],[149.134144,-33.756484],[149.130187,-33.764289],[149.108198,-33.761111],[149.106922,-33.768429],[149.098837,-33.765477],[149.091447,-33.765415],[149.088345,-33.781192],[149.093958,-33.781996],[149.091597,-33.793688],[149.067175,-33.790083],[149.068106,-33.794445],[149.064589,-33.812386],[149.041283,-33.809334],[149.042028,-33.805596],[149.026165,-33.803369],[149.030733,-33.799021],[149.02901,-33.79317],[149.019588,-33.791832],[149.018633,-33.79644],[149.007704,-33.794905],[149.009881,-33.784013],[148.988919,-33.781096],[148.990494,-33.773598],[148.981954,-33.772288],[148.984829,-33.758045],[148.974557,-33.756454],[148.975605,-33.751722],[148.992928,-33.754018],[148.987471,-33.748846],[148.976017,-33.749861],[148.978388,-33.737606],[148.986587,-33.729662],[148.993027,-33.726778],[148.99366,-33.720609],[148.981829,-33.714127],[148.970416,-33.711266],[148.962624,-33.707824],[148.958613,-33.703439],[148.960936,-33.695623],[148.9569,-33.688042],[148.945326,-33.687719],[148.937798,-33.682912],[148.929318,-33.688066],[148.925273,-33.685667],[148.91167,-33.683487],[148.907469,-33.673053],[148.909275,-33.668849],[148.908326,-33.660824],[148.910603,-33.651796],[148.910238,-33.64392],[148.912288,-33.640595],[148.911358,-33.632708],[148.913954,-33.629673],[148.913954,-33.617843],[148.91842,-33.614352],[148.919061,-33.604331],[148.922397,-33.599333],[148.91798,-33.593924],[148.910857,-33.594303],[148.910574,-33.585067],[148.902978,-33.583965],[148.899391,-33.579247],[148.889386,-33.582534],[148.881997,-33.582885],[148.881091,-33.588556],[148.875735,-33.594034],[148.872065,-33.591297],[148.874002,-33.579046],[148.87201,-33.573131],[148.863184,-33.579819],[148.852659,-33.575977],[148.84572,-33.5759],[148.844712,-33.568755],[148.832511,-33.568293],[148.82756,-33.574129],[148.82321,-33.56568],[148.81594,-33.568335],[148.818127,-33.557162],[148.812383,-33.552539],[148.811454,-33.548128],[148.80386,-33.550029],[148.802057,-33.545587],[148.794079,-33.539028],[148.793381,-33.533671],[148.787796,-33.529269],[148.775941,-33.525513],[148.768582,-33.529092],[148.761418,-33.52753],[148.754102,-33.529633],[148.745204,-33.536755],[148.738927,-33.53792],[148.73031,-33.555292],[148.72376,-33.55887],[148.721212,-33.565366],[148.717853,-33.565822],[148.712026,-33.573728],[148.701975,-33.579158],[148.695827,-33.577216],[148.691248,-33.581999],[148.686089,-33.582104],[148.682814,-33.586415],[148.677238,-33.58563],[148.676146,-33.580518],[148.652535,-33.577102],[148.658306,-33.566439],[148.654742,-33.562731],[148.648553,-33.562975],[148.645311,-33.567075],[148.635899,-33.567008],[148.629347,-33.57168],[148.629554,-33.574863],[148.623599,-33.581425],[148.625431,-33.584941],[148.621066,-33.591714],[148.602018,-33.59441],[148.594851,-33.591607],[148.585722,-33.594832],[148.582421,-33.593648],[148.569568,-33.598218],[148.56307,-33.596179],[148.557937,-33.602925],[148.551799,-33.603514],[148.54324,-33.599913],[148.542002,-33.593942],[148.534736,-33.588299],[148.535451,-33.584013],[148.524169,-33.577287],[148.520661,-33.57304],[148.514625,-33.575086],[148.51355,-33.581145],[148.502857,-33.579226],[148.493466,-33.58219],[148.483455,-33.581299],[148.481223,-33.589844],[148.476064,-33.593477],[148.479417,-33.600132],[148.468423,-33.602253],[148.446819,-33.613971],[148.442462,-33.60816],[148.43585,-33.607194],[148.417382,-33.607154],[148.413811,-33.60338],[148.414106,-33.596161],[148.402002,-33.586093],[148.395545,-33.584388],[148.388833,-33.57999],[148.387872,-33.573132],[148.390459,-33.567654],[148.397255,-33.569588],[148.401362,-33.567563],[148.409817,-33.570222],[148.415161,-33.567108],[148.418308,-33.573161],[148.422681,-33.568616],[148.421274,-33.55957],[148.41558,-33.556066],[148.410564,-33.558502],[148.403737,-33.557585],[148.396593,-33.55387],[148.39125,-33.546972],[148.390233,-33.540161],[148.400175,-33.535056],[148.395599,-33.527162],[148.392772,-33.518727],[148.384773,-33.518738],[148.37723,-33.51334],[148.370213,-33.511865],[148.367207,-33.513853],[148.357113,-33.510524],[148.356411,-33.502323],[148.351789,-33.49463],[148.342868,-33.497074],[148.34086,-33.492502],[148.328952,-33.490636],[148.322571,-33.493051],[148.32511,-33.497162],[148.314945,-33.499899],[148.30838,-33.49914],[148.308506,-33.494466],[148.297935,-33.494271],[148.290651,-33.491909],[148.29026,-33.485888],[148.293234,-33.478291],[148.300064,-33.473681],[148.307341,-33.465745],[148.316138,-33.46612],[148.315217,-33.459651],[148.308663,-33.458684],[148.313524,-33.453189],[148.319063,-33.452723],[148.329322,-33.455928],[148.33306,-33.444235],[148.346915,-33.450031],[148.352123,-33.443805],[148.359315,-33.449418],[148.365145,-33.435299],[148.35481,-33.433927],[148.355366,-33.430941],[148.344338,-33.429496],[148.345935,-33.420913],[148.360801,-33.422226],[148.367724,-33.420889],[148.367931,-33.410824],[148.388437,-33.412704],[148.390759,-33.405906],[148.396207,-33.401777],[148.404482,-33.405398],[148.408395,-33.401768],[148.403638,-33.392221],[148.410606,-33.390246],[148.418223,-33.385],[148.413,-33.37989],[148.41474,-33.370297],[148.40316,-33.368909],[148.402224,-33.365113],[148.396541,-33.363171],[148.393629,-33.358266],[148.386193,-33.356489],[148.385485,-33.351008],[148.39194,-33.347301],[148.392928,-33.343237],[148.403079,-33.328935],[148.409818,-33.326498],[148.415671,-33.32703],[148.412717,-33.313462],[148.405274,-33.305801],[148.402028,-33.2997],[148.400981,-33.28751],[148.399063,-33.284574],[148.397185,-33.269909],[148.401671,-33.266776],[148.401701,-33.259592],[148.414688,-33.250728],[148.422762,-33.242617],[148.428194,-33.239169],[148.431711,-33.232299],[148.432654,-33.225572],[148.429009,-33.220244],[148.431691,-33.212422],[148.42834,-33.202387],[148.431934,-33.200082],[148.442501,-33.204476],[148.44755,-33.202623],[148.458002,-33.204896],[148.46668,-33.208771],[148.475002,-33.198769],[148.489988,-33.194898],[148.495895,-33.190869],[148.4927,-33.185358],[148.493043,-33.179705],[148.505521,-33.165857],[148.502941,-33.157372],[148.505823,-33.150971],[148.502386,-33.140386],[148.504332,-33.134199],[148.497976,-33.134124],[148.49205,-33.129862],[148.491298,-33.125007],[148.486567,-33.123236],[148.490432,-33.107743],[148.499758,-33.097941],[148.497275,-33.096367],[148.499598,-33.082631],[148.502703,-33.079039],[148.505455,-33.062037],[148.503823,-33.060008],[148.503737,-33.046861],[148.495488,-33.039428],[148.493038,-33.03024],[148.487583,-33.025463],[148.486498,-33.02081],[148.481055,-33.016377],[148.472815,-33.01718],[148.464864,-33.014495],[148.454646,-33.000726],[148.455275,-32.993992],[148.44635,-32.992575],[148.439192,-32.983498],[148.437365,-32.976252],[148.430165,-32.969942],[148.418644,-32.973569],[148.41419,-32.968974],[148.406958,-32.966374],[148.399352,-32.959165],[148.394266,-32.96881],[148.389388,-32.974236],[148.384234,-32.972157],[148.372179,-32.971583],[148.376304,-32.961737],[148.378367,-32.942259],[148.381831,-32.93455],[148.372514,-32.929172],[148.378697,-32.921153],[148.381257,-32.914022],[148.382125,-32.889427],[148.380598,-32.878381],[148.384572,-32.874917],[148.385126,-32.862382],[148.383295,-32.851975],[148.378012,-32.850019],[148.375775,-32.845424],[148.378587,-32.841924],[148.378164,-32.833103],[148.373404,-32.829708],[148.368289,-32.831541],[148.367947,-32.825013],[148.359092,-32.823698],[148.347443,-32.81636],[148.34251,-32.81081],[148.329377,-32.810831],[148.328315,-32.798687],[148.331807,-32.795715],[148.331597,-32.784338],[148.33533,-32.781608],[148.334944,-32.768913],[148.332528,-32.758459],[148.331923,-32.746568],[148.335609,-32.73187],[148.33182,-32.728392],[148.32974,-32.715975],[148.331908,-32.709749],[148.329513,-32.701025],[148.333072,-32.68885],[148.332035,-32.685435],[148.33496,-32.679034],[148.341368,-32.678677],[148.347143,-32.675763],[148.325171,-32.676647],[148.265119,-32.678209],[148.26304,-32.692104],[148.24694,-32.689907],[148.248725,-32.68164],[148.214278,-32.682181],[148.128486,-32.682979],[148.129348,-32.675523],[148.120321,-32.669006],[148.1203,-32.658739],[148.107633,-32.648295],[148.104717,-32.642683],[148.105949,-32.636972],[148.102206,-32.632265],[148.097702,-32.620864],[148.092036,-32.614783],[148.091261,-32.604448],[148.08256,-32.600135],[148.075203,-32.602669],[148.072276,-32.598625],[148.067418,-32.598701],[148.063023,-32.594994],[148.058573,-32.587007],[148.046352,-32.581196],[148.041396,-32.576673],[148.034666,-32.576398],[148.031066,-32.568954],[148.013088,-32.567722],[148.01194,-32.564873],[148.003651,-32.564126],[148.003328,-32.554315],[147.996826,-32.543936],[147.988612,-32.537233],[147.98277,-32.52903],[147.976338,-32.525143],[147.969948,-32.524166],[147.963454,-32.517017],[147.966358,-32.506329],[147.965854,-32.499699],[147.958477,-32.498553],[147.956341,-32.494797],[147.949321,-32.496532],[147.941689,-32.491923],[147.936607,-32.491087],[147.935543,-32.486013],[147.930262,-32.480424],[147.930069,-32.476178],[147.924982,-32.470273],[147.913526,-32.466819],[147.905285,-32.460586],[147.899604,-32.451821],[147.905634,-32.446185],[147.903539,-32.440823],[147.906175,-32.436255],[147.905075,-32.431989],[147.895062,-32.434117],[147.884373,-32.440303],[147.873666,-32.438277],[147.868879,-32.435556],[147.850395,-32.434459],[147.843418,-32.429667],[147.826802,-32.424504],[147.823619,-32.420208],[147.814339,-32.420216],[147.809714,-32.418436],[147.801454,-32.418844],[147.795491,-32.421915],[147.78237,-32.421898],[147.769979,-32.420741],[147.762141,-32.407712],[147.756013,-32.406891],[147.745907,-32.408187],[147.741987,-32.402734],[147.733125,-32.402423],[147.727804,-32.397764],[147.719722,-32.396196],[147.715203,-32.389301],[147.708416,-32.387039],[147.70117,-32.37281],[147.696383,-32.369297],[147.612298,-32.423304],[147.613993,-32.42765],[147.611509,-32.441179],[147.589521,-32.438367],[147.561644,-32.456001],[147.551899,-32.508133],[147.545261,-32.551855],[147.561756,-32.553765],[147.560848,-32.559681],[147.556241,-32.55915],[147.550501,-32.595033],[147.552851,-32.601742],[147.581526,-32.604564],[147.577178,-32.60761],[147.574017,-32.614042],[147.564722,-32.61556],[147.55694,-32.629158],[147.559096,-32.647782],[147.557018,-32.652394],[147.553706,-32.672984],[147.577635,-32.675638],[147.568364,-32.735381],[147.598394,-32.738625],[147.602441,-32.744318],[147.599829,-32.762124],[147.604257,-32.762695],[147.59272,-32.836127],[147.587319,-32.835592],[147.578521,-32.89322],[147.57898,-32.893268],[147.57105,-32.949714],[147.556894,-32.948209],[147.550656,-32.988308],[147.548409,-32.988072],[147.54302,-33.020151],[147.559165,-33.022032],[147.554975,-33.048197],[147.470348,-33.038107],[147.469284,-33.044846],[147.456833,-33.043377],[147.457425,-33.039813],[147.443986,-33.03822],[147.443336,-33.041785],[147.405831,-33.037354],[147.405017,-33.038017],[147.388534,-33.139417],[147.381558,-33.137065],[147.382376,-33.132448],[147.372274,-33.129924],[147.369193,-33.131837],[147.362685,-33.123697],[147.353859,-33.120618],[147.351166,-33.124834],[147.34309,-33.124335],[147.342354,-33.114281],[147.327206,-33.111434],[147.317414,-33.117352],[147.308075,-33.104384],[147.296817,-33.171641],[147.299898,-33.178923],[147.306153,-33.180283],[147.29794,-33.19184],[147.302928,-33.195562],[147.31099,-33.194812],[147.312463,-33.200173],[147.308099,-33.202673],[147.308794,-33.207062],[147.31919,-33.205007],[147.325945,-33.20809],[147.329587,-33.214479],[147.346015,-33.214229],[147.354354,-33.218924],[147.356467,-33.224091],[147.363194,-33.224369],[147.36817,-33.217202],[147.376176,-33.219508],[147.385474,-33.218827],[147.399915,-33.222757],[147.403668,-33.22098],[147.410229,-33.225618],[147.421417,-33.228187],[147.427782,-33.227326],[147.433592,-33.223187],[147.445284,-33.224],[147.442535,-33.230847],[147.464821,-33.22742],[147.46457,-33.23587],[147.471268,-33.240472],[147.472329,-33.244823],[147.485534,-33.246619],[147.482804,-33.251193],[147.483481,-33.256127],[147.48979,-33.258981],[147.497778,-33.257901],[147.497357,-33.264877],[147.514722,-33.263086],[147.503282,-33.327624],[147.496005,-33.365781],[147.485964,-33.423228],[147.48393,-33.423307],[147.4804,-33.441743],[147.426412,-33.43462],[147.422876,-33.450853],[147.418409,-33.457333],[147.41551,-33.46526],[147.411192,-33.490716],[147.407473,-33.49615],[147.403505,-33.527012],[147.399993,-33.528822],[147.358351,-33.525343],[147.34275,-33.53519],[147.338935,-33.556749],[147.322408,-33.554812],[147.32036,-33.567801],[147.278115,-33.562807],[147.276131,-33.575188],[147.245877,-33.571913],[147.242778,-33.591816],[147.159861,-33.581855],[147.15895,-33.581356],[147.108457,-33.575447],[147.104374,-33.57748],[147.053281,-33.572049],[147.008123,-33.566178],[146.986431,-33.563834],[146.988475,-33.55196],[146.943339,-33.546703],[146.870796,-33.537719],[146.830767,-33.532427],[146.829805,-33.53798],[146.82041,-33.528173],[146.814289,-33.5301],[146.817579,-33.53726],[146.821456,-33.53759],[146.818558,-33.55169],[146.80888,-33.607151],[146.721899,-33.596839],[146.603523,-33.582402],[146.445623,-33.563875],[146.440808,-33.520858],[146.226415,-33.574139],[146.226613,-33.572876],[146.180657,-33.583236],[146.115796,-33.598607],[146.095141,-33.603131],[146.074577,-33.731759],[146.0703,-33.753534],[146.09783,-33.756752],[146.187217,-33.766455],[146.317227,-33.780549],[146.353269,-33.78524],[146.437185,-33.794499],[146.425307,-33.865684],[146.417433,-33.910635],[146.492809,-33.919657],[146.4868,-33.955644],[146.471543,-34.056649],[146.458206,-34.13293],[146.570387,-34.144385],[146.586487,-34.146321],[146.591522,-34.14012],[146.598472,-34.140859],[146.597436,-34.147188],[146.635404,-34.151187],[146.623872,-34.224735],[146.626411,-34.225474],[146.729043,-34.236768],[146.718745,-34.298111],[146.823028,-34.310851],[146.802747,-34.426883],[146.799998,-34.426499],[146.791751,-34.472298],[146.795492,-34.470798],[146.834718,-34.475518],[146.835253,-34.472721],[146.911568,-34.482591],[146.902227,-34.534519],[146.898652,-34.548979],[146.888326,-34.605114],[146.877378,-34.66019],[146.876409,-34.66252],[146.868826,-34.702119],[146.843266,-34.83723],[146.846616,-34.842743],[146.839929,-34.857393],[146.835375,-34.860049],[146.832805,-34.872931],[146.829472,-34.877017],[146.831065,-34.880911],[146.840776,-34.880359],[146.841931,-34.885202],[146.8358,-34.888441],[146.84358,-34.899125],[146.842359,-34.902664],[146.831858,-34.905052],[146.813658,-34.913318],[146.784477,-34.924058],[146.782602,-34.934724],[146.779076,-34.939641],[146.779606,-34.947042],[146.793643,-34.958616],[146.795358,-34.967424],[146.804343,-34.969337],[146.807696,-34.975709],[146.807657,-34.986944],[146.7942,-35.058208],[146.791455,-35.056466],[146.788852,-35.070642],[146.784221,-35.070069],[146.778785,-35.098405],[146.770305,-35.097288],[146.771955,-35.087708],[146.761524,-35.076441],[146.688478,-35.067979],[146.688017,-35.070383],[146.662039,-35.089024],[146.652643,-35.090287],[146.634513,-35.096349],[146.625993,-35.10171],[146.615161,-35.114348],[146.608826,-35.112636],[146.599272,-35.113671],[146.592103,-35.117195],[146.572021,-35.116577],[146.563727,-35.119126],[146.535133,-35.138242],[146.501247,-35.15918],[146.451315,-35.191178],[146.389251,-35.231731],[146.386399,-35.247397],[146.413658,-35.250545],[146.403804,-35.304452],[146.392465,-35.302996],[146.388761,-35.322851],[146.372944,-35.321002],[146.369914,-35.337214],[146.364032,-35.337739],[146.354226,-35.387797],[146.364495,-35.389009],[146.368741,-35.397535],[146.374573,-35.404905],[146.380793,-35.405695],[146.37969,-35.411522],[146.390598,-35.425608],[146.391512,-35.430422],[146.399603,-35.435003],[146.405522,-35.444508],[146.428237,-35.471405],[146.470028,-35.476339],[146.469615,-35.47844],[146.491178,-35.480714],[146.522169,-35.48527],[146.540094,-35.487174],[146.544563,-35.490167],[146.554844,-35.491567],[146.554291,-35.494367],[146.606145,-35.505817],[146.669769,-35.520279],[146.667093,-35.537631],[146.664286,-35.537325],[146.662323,-35.547763],[146.674166,-35.549163],[146.672963,-35.555276],[146.699587,-35.55815],[146.701943,-35.561181],[146.777012,-35.571154],[146.778933,-35.572631],[146.796881,-35.574699],[146.798401,-35.566387],[146.871365,-35.57586],[146.872344,-35.57106],[146.888378,-35.573241],[146.890907,-35.560482],[146.900932,-35.560108],[146.910234,-35.554649],[146.911649,-35.547462],[146.922198,-35.547126],[146.953062,-35.528029],[146.955467,-35.523077],[146.962147,-35.523882],[146.970767,-35.51943],[146.980825,-35.521619],[146.981895,-35.515643],[146.991181,-35.51684],[146.990605,-35.50713],[146.993901,-35.489287],[147.003809,-35.492125],[147.016605,-35.493886],[147.032082,-35.485444],[147.040171,-35.484205],[147.043481,-35.477944],[147.06386,-35.466393],[147.071242,-35.460598],[147.073065,-35.452919],[147.087341,-35.450465],[147.10058,-35.454613],[147.105258,-35.452748],[147.11023,-35.455957],[147.121813,-35.456215],[147.124671,-35.462578],[147.133695,-35.468283],[147.138084,-35.467031],[147.157792,-35.46916],[147.16624,-35.456831],[147.174938,-35.457091],[147.184978,-35.448477],[147.194093,-35.454699],[147.192314,-35.462098],[147.195453,-35.46609],[147.208459,-35.470732],[147.223089,-35.471487],[147.226524,-35.473668],[147.238204,-35.47101],[147.246758,-35.488113],[147.251471,-35.491092],[147.263197,-35.488551],[147.279422,-35.493703],[147.283199,-35.500123],[147.290892,-35.499578],[147.29683,-35.496272],[147.303027,-35.495596],[147.309672,-35.499058],[147.329491,-35.504863],[147.332623,-35.509005],[147.341398,-35.509225],[147.35389,-35.512073],[147.360796,-35.515383],[147.363804,-35.513871],[147.371443,-35.518845],[147.383966,-35.529828],[147.387917,-35.53793],[147.382317,-35.550764],[147.386125,-35.554221],[147.385008,-35.559241],[147.391507,-35.563624],[147.3958,-35.559379],[147.395214,-35.554942],[147.401386,-35.550571],[147.4043,-35.544418],[147.411996,-35.540549],[147.419431,-35.533527],[147.430127,-35.537086],[147.438399,-35.537211],[147.444597,-35.530111],[147.456277,-35.530956],[147.457858,-35.533741],[147.467446,-35.539235],[147.480995,-35.54516],[147.48825,-35.545658],[147.488405,-35.5408],[147.495272,-35.529997],[147.500446,-35.528482],[147.501735,-35.522092],[147.498231,-35.513771],[147.500164,-35.508757],[147.506154,-35.506373],[147.518147,-35.496963],[147.519427,-35.49383],[147.51477,-35.488634],[147.520441,-35.482888],[147.525087,-35.483406],[147.529065,-35.488179],[147.535372,-35.491722],[147.553328,-35.498601],[147.556535,-35.505655],[147.568964,-35.511967],[147.569191,-35.515842],[147.581315,-35.515544],[147.588633,-35.524311],[147.600213,-35.528844],[147.607787,-35.539571],[147.63176,-35.547102],[147.636515,-35.546071],[147.645953,-35.538789],[147.655698,-35.54048],[147.660621,-35.544565],[147.666595,-35.545982],[147.681189,-35.556669],[147.685594,-35.534198],[147.738286,-35.541082],[147.74135,-35.537572],[147.736915,-35.531022],[147.755718,-35.533462],[147.754375,-35.544684],[147.779775,-35.547543],[147.779377,-35.549633],[147.79159,-35.55146],[147.795449,-35.550368],[147.806792,-35.5522],[147.812125,-35.549421],[147.845391,-35.554599],[147.847301,-35.544897],[147.862168,-35.546868],[147.863331,-35.54066],[147.892675,-35.544318],[147.890971,-35.553284],[147.929807,-35.558493],[147.931441,-35.550051],[147.921997,-35.548651],[147.92309,-35.542743],[147.915206,-35.541696],[147.907823,-35.538346],[147.90802,-35.526173],[147.925596,-35.528523],[147.927969,-35.516335],[147.90476,-35.51331],[147.904607,-35.504927],[147.907221,-35.490301],[147.883819,-35.488498],[147.885704,-35.478956],[147.883059,-35.478586],[147.885969,-35.464125],[147.880477,-35.463362],[147.881495,-35.45815],[147.873016,-35.457017],[147.875082,-35.446575],[147.872786,-35.442108],[147.889358,-35.444288],[147.893206,-35.424362],[147.907646,-35.426184],[147.908475,-35.421432],[147.897578,-35.412494],[147.894121,-35.402333],[147.894511,-35.394553],[147.898038,-35.388726],[147.899692,-35.380505],[147.890287,-35.377396],[147.884291,-35.357405],[147.873032,-35.357646],[147.865256,-35.355689],[147.85921,-35.339855],[147.854248,-35.339895],[147.852819,-35.33377],[147.845544,-35.329987],[147.850342,-35.322398],[147.843013,-35.316389],[147.842718,-35.308724],[147.845398,-35.303293],[147.845493,-35.29206],[147.851702,-35.286523],[147.85623,-35.279482],[147.872618,-35.281942],[147.873505,-35.278344],[147.884283,-35.277654],[147.884005,-35.273064],[147.879573,-35.268188],[147.883835,-35.259673],[147.89233,-35.256922],[147.894242,-35.24775],[147.900244,-35.242242],[147.894696,-35.240456],[147.894832,-35.233724],[147.900098,-35.230355],[147.927807,-35.233233],[147.934059,-35.231141],[147.934953,-35.225918],[147.958622,-35.229068],[147.961047,-35.217348],[147.965512,-35.217892],[147.966543,-35.21203],[147.974149,-35.213009],[147.977778,-35.208951],[147.97579,-35.203695],[147.964347,-35.193979],[147.964299,-35.187705],[147.993766,-35.191464],[148.013542,-35.195319],[148.018114,-35.192583],[148.037271,-35.19582],[148.044768,-35.198253],[148.059289,-35.20088],[148.064445,-35.198597],[148.077424,-35.200369],[148.082578,-35.194722],[148.087156,-35.19892],[148.107883,-35.202076],[148.119788,-35.202562],[148.122193,-35.189981],[148.136027,-35.194083],[148.155515,-35.197017],[148.160118,-35.192865],[148.172596,-35.192776],[148.183838,-35.189375],[148.190791,-35.177653],[148.196515,-35.17493],[148.198381,-35.17033],[148.206719,-35.170896],[148.221527,-35.166189],[148.222888,-35.159002],[148.219099,-35.158359],[148.213818,-35.152867],[148.216763,-35.148182],[148.211787,-35.143706],[148.211061,-35.136386],[148.20632,-35.1215],[148.201915,-35.118078],[148.200068,-35.110937],[148.215124,-35.112979],[148.215651,-35.110415],[148.251009,-35.117115],[148.25673,-35.119843],[148.261872,-35.11711],[148.292958,-35.122401],[148.300623,-35.125538],[148.314847,-35.129035],[148.31417,-35.132346],[148.322875,-35.133555],[148.330293,-35.132407],[148.333559,-35.138318],[148.347045,-35.139882],[148.347588,-35.13708],[148.38954,-35.141565],[148.39682,-35.13989],[148.394688,-35.150509],[148.413685,-35.153002],[148.411903,-35.156039],[148.418407,-35.163725],[148.427125,-35.163318],[148.456831,-35.154524],[148.455964,-35.146737],[148.462454,-35.11695],[148.46636,-35.117436],[148.471909,-35.088777],[148.46771,-35.088228],[148.469226,-35.080143],[148.480835,-35.082713],[148.497034,-35.083812],[148.524721,-35.087737],[148.524181,-35.100056],[148.529144,-35.101139],[148.525371,-35.124261],[148.54182,-35.135366],[148.548241,-35.132211],[148.54418,-35.120376],[148.545031,-35.115869],[148.550911,-35.107604],[148.555861,-35.105191],[148.560789,-35.098036],[148.567022,-35.094995],[148.564873,-35.088446],[148.56877,-35.078351],[148.569124,-35.069214],[148.56417,-35.066155],[148.566451,-35.052232],[148.571878,-35.049578],[148.575514,-35.041618],[148.573671,-35.033718],[148.576406,-35.024381],[148.572175,-35.01861],[148.583095,-35.002645],[148.572949,-35.001426],[148.564288,-35.005027],[148.559179,-35.001097],[148.563438,-34.994706],[148.56143,-34.989296],[148.553513,-34.988666],[148.545008,-34.99396],[148.534484,-34.993886],[148.530893,-34.987781],[148.532611,-34.973813],[148.538615,-34.964571],[148.542803,-34.954104],[148.542062,-34.946351],[148.535682,-34.934716],[148.537522,-34.925656],[148.546262,-34.918671],[148.549902,-34.91144],[148.544437,-34.90778],[148.541254,-34.913799],[148.534635,-34.915545],[148.530502,-34.90706],[148.522267,-34.90147],[148.52465,-34.88965],[148.528189,-34.890115],[148.530575,-34.877982],[148.527873,-34.872238],[148.539208,-34.873667],[148.540893,-34.861633],[148.545243,-34.855743],[148.554713,-34.856975],[148.558647,-34.859354],[148.56497,-34.827476],[148.561824,-34.825037],[148.561613,-34.815359],[148.563403,-34.805531],[148.56837,-34.806591],[148.581301,-34.805379],[148.574451,-34.798703],[148.57822,-34.778782],[148.575926,-34.773025],[148.571482,-34.7724],[148.571795,-34.761407],[148.577947,-34.73548],[148.577377,-34.725282],[148.571479,-34.723289],[148.574403,-34.708407],[148.56327,-34.706901],[148.564417,-34.701078],[148.572112,-34.702118],[148.586709,-34.627441],[148.59334,-34.627429],[148.595051,-34.618744],[148.626398,-34.622858],[148.629127,-34.610711],[148.659582,-34.61429],[148.660931,-34.602534],[148.666701,-34.597522],[148.670388,-34.589257],[148.659404,-34.587797],[148.661367,-34.577476],[148.653393,-34.57663],[148.654338,-34.571706],[148.647305,-34.562747],[148.651544,-34.557127],[148.653642,-34.542419],[148.654308,-34.539066],[148.645796,-34.537961],[148.643665,-34.549215],[148.630683,-34.547524],[148.632483,-34.537907],[148.625773,-34.53707],[148.628393,-34.530615],[148.622363,-34.526737],[148.622292,-34.51628],[148.62535,-34.500545],[148.612588,-34.498893],[148.621525,-34.488135],[148.60954,-34.487082],[148.611512,-34.484097],[148.614754,-34.466283],[148.600505,-34.465634],[148.580569,-34.462064],[148.581678,-34.456342],[148.577935,-34.445442],[148.580291,-34.43329],[148.567707,-34.431637],[148.568604,-34.427014],[148.563134,-34.426282],[148.564342,-34.418828],[148.562472,-34.412935],[148.553622,-34.411429],[148.556689,-34.399686],[148.561102,-34.398173],[148.562193,-34.392098],[148.568246,-34.391194],[148.571959,-34.387418],[148.575908,-34.376774],[148.579944,-34.373337],[148.587836,-34.374192],[148.600886,-34.36192],[148.602896,-34.357133],[148.609878,-34.356317],[148.609093,-34.347076],[148.616157,-34.342405],[148.61662,-34.333202],[148.619653,-34.331736],[148.622108,-34.314407],[148.614834,-34.313419],[148.612971,-34.30723],[148.608096,-34.30067],[148.614328,-34.289907],[148.619166,-34.290268],[148.621234,-34.279516],[148.638006,-34.281135],[148.634378,-34.276297],[148.635493,-34.2703],[148.645351,-34.251831],[148.640997,-34.246103],[148.648395,-34.234098],[148.645927,-34.226313],[148.646816,-34.219585],[148.639325,-34.209029],[148.637667,-34.201843],[148.639727,-34.191139],[148.635776,-34.190572],[148.637209,-34.182941],[148.621345,-34.180966],[148.623227,-34.170549],[148.643315,-34.173061],[148.64747,-34.152303],[148.636239,-34.146204],[148.642699,-34.114031],[148.645477,-34.10725],[148.652185,-34.104421],[148.662874,-34.104871],[148.661493,-34.099385],[148.677137,-34.094223],[148.676053,-34.090549],[148.686901,-34.08213],[148.691121,-34.082889],[148.702353,-34.080325],[148.709251,-34.082028],[148.718179,-34.074003],[148.723502,-34.077804],[148.730955,-34.078698],[148.732223,-34.070052],[148.73922,-34.06989],[148.741793,-34.058146],[148.747691,-34.058888],[148.748025,-34.051823],[148.758879,-34.04894],[148.759101,-34.043659],[148.763135,-34.038251],[148.757375,-34.034334],[148.751755,-34.024396],[148.743717,-34.020724],[148.746214,-34.008019],[148.753714,-34.008953],[148.755159,-34.001026],[148.765323,-34.000588],[148.761864,-33.994885],[148.76584,-33.992361],[148.767364,-33.981956],[148.77555,-33.984322],[148.785451,-33.982508],[148.791016,-33.984653],[148.803995,-33.983898],[148.807928,-33.963928],[148.821514,-33.965832],[148.824669,-33.958953],[148.828955,-33.959581],[148.831748,-33.945225],[148.848236,-33.952088],[148.851838,-33.95199],[148.869453,-33.94686],[148.879776,-33.948166],[148.884682,-33.94635],[148.886336,-33.939666],[148.890011,-33.938856],[148.892003,-33.945534],[148.887955,-33.95435],[148.889845,-33.963433],[148.899202,-33.968546],[148.907109,-33.975602],[148.913672,-33.970288],[148.920737,-33.97309],[148.927697,-33.981342],[148.938253,-33.98049],[148.941381,-33.976314],[148.939588,-33.9727],[148.94343,-33.969201],[148.956707,-33.971213],[148.966308,-33.970116],[148.969158,-33.958441],[148.973888,-33.952623],[148.980787,-33.94873],[148.977859,-33.942387],[148.979466,-33.925907],[148.982051,-33.924165],[149.003979,-33.926223],[149.011379,-33.932756],[149.020328,-33.934068],[149.025106,-33.93214],[149.02457,-33.91886],[149.033464,-33.911237],[149.04192,-33.910595],[149.050389,-33.913175],[149.055196,-33.90792],[149.054739,-33.902746],[149.067794,-33.891958],[149.074218,-33.894732],[149.069934,-33.900075],[149.076164,-33.903401],[149.082078,-33.91288],[149.092719,-33.910798],[149.096735,-33.907665],[149.097699,-33.900384],[149.104465,-33.900067],[149.104781,-33.894266],[149.116828,-33.894006],[149.119836,-33.887828]]]},"bbox":[146.0703,-35.57586,149.257743,-32.369297]}]}