{"type":"FeatureCollection","features":[
{"properties":{"electorateShortName":"robertson","electorateName":"Robertson","area":893.72,"state":null},"type":"Feature","geometry":{"type":"Polygon","coordinates":[[[151.335198,-33.582209],[151.326445,-33.588515],[151.326997,-33.599985],[151.33358,-33.616319],[151.343021,-33.624508],[151.34014,-33.633376],[151.331914,-33.636464],[151.323662,-33.65308],[151.323549,-33.657545],[151.326096,-33.662427],[151.319113,-33.667793],[151.31843806133855,-33.670265436427165],[151.32315137569628,-33.67139912749674],[151.34143253784106,-33.67199279886098],[151.35945619561207,-33.668878140676746],[151.3764779200196,-33.662183797299996],[151.3917946648082,-33.65218626439772],[151.40477380429255,-33.639298468880376],[151.41748297095455,-33.61756711749504],[151.42026450041848,-33.61740090785588],[151.43957783912325,-33.61177027890689],[151.46672031455105,-33.59840127014504],[151.48131878161422,-33.586068383340056],[151.51880762164112,-33.541089162815915],[151.5331249805535,-33.51187528501679],[151.53664128398967,-33.48318542450082],[151.5368633263755,-33.48273557252156],[151.54145584430685,-33.4653837125047],[151.542363675091,-33.443801585899884],[151.5357878919052,-33.40341921875969],[151.52945364364132,-33.387828583610684],[151.52032774281764,-33.37368968197111],[151.50177690858033,-33.35588827583829],[151.499447,-33.364883],[151.489404,-33.371634],[151.483409,-33.384339],[151.485003,-33.398629],[151.4764,-33.40752],[151.468196,-33.410269],[151.449605,-33.429352],[151.438677,-33.422679],[151.414406,-33.427199],[151.39507,-33.427578],[151.390708,-33.422519],[151.363073,-33.414984],[151.34508,-33.412419],[151.348346,-33.404232],[151.343542,-33.395501],[151.354362,-33.383311],[151.371765,-33.38088],[151.376638,-33.371292],[151.329939,-33.364503],[151.325034,-33.366797],[151.302593,-33.36238],[151.295728,-33.351467],[151.302527,-33.328444],[151.296322,-33.322193],[151.279948,-33.319933],[151.281261,-33.313005],[151.263872,-33.310595],[151.266561,-33.296632],[151.250464,-33.294355],[151.251492,-33.289008],[151.236333,-33.285381],[151.239042,-33.271337],[151.226105,-33.264112],[151.228891,-33.249994],[151.216733,-33.248361],[151.216675,-33.233363],[151.22353,-33.219062],[151.213221,-33.217578],[151.204118,-33.211376],[151.199234,-33.199734],[151.203362,-33.186523],[151.20922,-33.17913],[151.20214,-33.16857],[151.208787,-33.152269],[151.202626,-33.13886],[151.162,-33.123812],[151.151993,-33.114222],[151.135527,-33.110401],[151.125676,-33.115286],[151.116986,-33.124815],[151.107692,-33.127955],[151.099671,-33.144458],[151.10582,-33.151514],[151.100964,-33.162629],[151.101018,-33.177084],[151.096711,-33.193462],[151.098677,-33.22073],[151.106299,-33.22835],[151.100336,-33.241632],[151.098213,-33.257092],[151.089995,-33.268492],[151.095188,-33.303085],[151.093515,-33.312192],[151.086536,-33.319888],[151.090244,-33.324986],[151.081096,-33.334326],[151.069965,-33.332963],[151.064369,-33.341887],[151.051469,-33.34089],[151.031244,-33.350785],[151.018358,-33.3536],[151.012378,-33.349201],[150.999641,-33.351156],[150.992446,-33.364117],[150.984146,-33.371598],[150.988457,-33.379232],[150.993367,-33.397455],[151.0026,-33.401579],[151.01766,-33.400094],[151.032748,-33.406351],[151.03233,-33.427343],[151.045882,-33.431075],[151.05257,-33.44112],[151.062181,-33.442013],[151.063987,-33.454504],[151.071362,-33.461391],[151.08229,-33.451135],[151.086202,-33.469627],[151.093559,-33.48074],[151.103296,-33.482514],[151.114089,-33.467592],[151.124807,-33.464472],[151.138876,-33.472571],[151.145295,-33.472193],[151.156365,-33.461077],[151.161672,-33.468899],[151.151061,-33.482338],[151.150473,-33.490606],[151.157741,-33.496559],[151.158792,-33.517262],[151.16873,-33.521295],[151.17654,-33.506317],[151.186379,-33.510212],[151.190837,-33.531666],[151.194585,-33.538259],[151.207769,-33.540864],[151.2305,-33.535448],[151.24238,-33.535399],[151.24875,-33.541251],[151.239819,-33.560895],[151.251151,-33.577001],[151.260413,-33.579351],[151.284798,-33.572214],[151.302304,-33.573509],[151.310802,-33.579452],[151.328127,-33.578163],[151.335198,-33.582209]]]},"bbox":[150.984146,-33.67199279886098,151.542363675091,-33.110401]}]}