{"type":"FeatureCollection","features":[
{"properties":{"electorateShortName":"ryan","electorateName":"Ryan","area":367.81,"state":null},"type":"Feature","geometry":{"type":"Polygon","coordinates":[[[153.021748,-27.500406],[153.016333,-27.492451],[153.01146,-27.490849],[152.998404,-27.490956],[152.995396,-27.488393],[153.003037,-27.476914],[153.003899,-27.47611],[152.999418,-27.473075],[152.997212,-27.466273],[152.988786,-27.464996],[152.988582,-27.459617],[152.977411,-27.450313],[152.975299,-27.442044],[152.976162,-27.436897],[152.987742,-27.438726],[152.992406,-27.412586],[152.980335,-27.407742],[152.976999,-27.400782],[152.965853,-27.396862],[152.959202,-27.400138],[152.95258,-27.405869],[152.944568,-27.406007],[152.928228,-27.39441],[152.916946,-27.394183],[152.91504,-27.40572],[152.899311,-27.403572],[152.897229,-27.41728],[152.872683,-27.413756],[152.864795,-27.417856],[152.861148,-27.422375],[152.853026,-27.4206],[152.849314,-27.421948],[152.84277,-27.41766],[152.836792,-27.418856],[152.831157,-27.41695],[152.820849,-27.410698],[152.814155,-27.402116],[152.802716,-27.399937],[152.798652,-27.405106],[152.775615,-27.401686],[152.775638,-27.389108],[152.76958,-27.378863],[152.762318,-27.371757],[152.761515,-27.361831],[152.762898,-27.354608],[152.771761,-27.35005],[152.771881,-27.343188],[152.76759,-27.334987],[152.764492,-27.335507],[152.759483,-27.33027],[152.754672,-27.33314],[152.748845,-27.332301],[152.750516,-27.320409],[152.748503,-27.318755],[152.739167,-27.323338],[152.7249,-27.322219],[152.719551,-27.323462],[152.717298,-27.330624],[152.710194,-27.332553],[152.695663,-27.342857],[152.690832,-27.343576],[152.684185,-27.348788],[152.679693,-27.372265],[152.686401,-27.373217],[152.690506,-27.370119],[152.692252,-27.360015],[152.699521,-27.360994],[152.700336,-27.356146],[152.706927,-27.356992],[152.707818,-27.351805],[152.723898,-27.353974],[152.72201,-27.365085],[152.733235,-27.366633],[152.732179,-27.372667],[152.736847,-27.373346],[152.732946,-27.39599],[152.737241,-27.392933],[152.743365,-27.394722],[152.740376,-27.400201],[152.741365,-27.406172],[152.747224,-27.407082],[152.745824,-27.415228],[152.747525,-27.423266],[152.744195,-27.427849],[152.74272,-27.436379],[152.746039,-27.43686],[152.747202,-27.443026],[152.744119,-27.460133],[152.738264,-27.459326],[152.737839,-27.464647],[152.742635,-27.479825],[152.739728,-27.482626],[152.744286,-27.491962],[152.748793,-27.495279],[152.756765,-27.494319],[152.767394,-27.488307],[152.777441,-27.489091],[152.780348,-27.492206],[152.791098,-27.49141],[152.79526,-27.497085],[152.799222,-27.497421],[152.801724,-27.492222],[152.80679,-27.492879],[152.809419,-27.478471],[152.828778,-27.49113],[152.837836,-27.492503],[152.842765,-27.496515],[152.844804,-27.506726],[152.841179,-27.515698],[152.849311,-27.525852],[152.845988,-27.528148],[152.852671,-27.542705],[152.84952,-27.554765],[152.848981,-27.564656],[152.855651,-27.582519],[152.856385,-27.59605],[152.860812,-27.597965],[152.863525,-27.595638],[152.869916,-27.580984],[152.876541,-27.579937],[152.890042,-27.59139],[152.895538,-27.601032],[152.904181,-27.602056],[152.906079,-27.598463],[152.902468,-27.591637],[152.897036,-27.586677],[152.893905,-27.577899],[152.901512,-27.567762],[152.894941,-27.560522],[152.906295,-27.556041],[152.903022,-27.545792],[152.905506,-27.543846],[152.925528,-27.541274],[152.92727,-27.530238],[152.929869,-27.528065],[152.938631,-27.526793],[152.94987,-27.528116],[152.959982,-27.535029],[152.965154,-27.543654],[152.973568,-27.543756],[152.971029,-27.535376],[152.971872,-27.526033],[152.9676,-27.518238],[152.966998,-27.512579],[152.970488,-27.505798],[152.974399,-27.505852],[152.984626,-27.513219],[152.991004,-27.519947],[152.999908,-27.523097],[153.010136,-27.521014],[153.008632,-27.516636],[153.000209,-27.515836],[153.001051,-27.507774],[153.006406,-27.504944],[153.018499,-27.503502],[153.021748,-27.500406]]]},"bbox":[152.679693,-27.602056,153.021748,-27.318755]}]}