{"type":"FeatureCollection","features":[
{"properties":{"electorateShortName":"ryan","electorateName":"Ryan","area":367.81,"state":null},"type":"Feature","geometry":{"type":"Polygon","coordinates":[[[153.021748,-27.500406],[153.003037,-27.476914],[153.003899,-27.47611],[152.977411,-27.450313],[152.992406,-27.412586],[152.976999,-27.400782],[152.928228,-27.39441],[152.897229,-27.41728],[152.836792,-27.418856],[152.775615,-27.401686],[152.76759,-27.334987],[152.748503,-27.318755],[152.707818,-27.351805],[152.747224,-27.407082],[152.748793,-27.495279],[152.842765,-27.496515],[152.860812,-27.597965],[152.905506,-27.543846],[152.965154,-27.543654],[153.021748,-27.500406]]]},"bbox":[152.707818,-27.597965,153.021748,-27.318755]}]}