{"type":"FeatureCollection","features":[
{"properties":{"electorateShortName":"shortland","electorateName":"Shortland","area":199.14,"state":null},"type":"Feature","geometry":{"type":"Polygon","coordinates":[[[151.565085,-33.247326],[151.629258,-33.187147],[151.657554,-33.073647],[151.730916,-33.005938],[151.737915,-32.962947],[151.662412,-32.929851],[151.614129,-32.955406],[151.633277,-33.041009],[151.613877,-33.090566],[151.532684,-33.140792],[151.51218,-33.194307],[151.527986,-33.244476],[151.565085,-33.247326]]]},"bbox":[151.51218,-33.247326,151.737915,-32.929851]}]}