{"type":"FeatureCollection","features":[
{"properties":{"electorateShortName":"shortland","electorateName":"Shortland","area":199.14,"state":null},"type":"Feature","geometry":{"type":"Polygon","coordinates":[[[151.538012,-33.245949],[151.549461,-33.240454],[151.562581,-33.246046],[151.565085,-33.247326],[151.56492794080245,-33.248051150763295],[151.563449,-33.2548795],[151.5850955696133,-33.259567894504194],[151.59336789551287,-33.25626379940548],[151.6151959871187,-33.25394178692937],[151.63448729706857,-33.25953245860969],[151.6689802003121,-33.2756734848074],[151.69900904555993,-33.249446530223736],[151.8126963931804,-33.043514153225935],[151.81110070357053,-33.00913240832146],[151.80290179298478,-33.00352139460203],[151.78187212875036,-32.99219099204255],[151.76206126198102,-32.98529410859485],[151.76025190050495,-32.984962020843916],[151.76018379743718,-32.984931064274214],[151.7366636789194,-32.96883538721742],[151.737739,-32.968131],[151.737915,-32.962947],[151.737847,-32.962953],[151.737723,-32.962949],[151.737626,-32.962957],[151.737531,-32.962974],[151.737427,-32.962974],[151.737339,-32.962951],[151.737213,-32.962925],[151.737106,-32.962898],[151.736958,-32.962866],[151.736828,-32.962832],[151.736755,-32.962819],[151.736655,-32.962796],[151.736571,-32.962789],[151.73648,-32.962793],[151.73637,-32.962805],[151.736209,-32.962815],[151.736024,-32.96283],[151.735901,-32.962832],[151.735775,-32.962829],[151.735651,-32.962792],[151.735533,-32.962747],[151.735425,-32.962717],[151.735332,-32.96267],[151.735302,-32.962641],[151.735316,-32.962622],[151.735343,-32.962609],[151.735427,-32.9626],[151.735527,-32.962606],[151.735605,-32.962606],[151.735671,-32.962586],[151.735767,-32.962565],[151.73581,-32.962543],[151.735815,-32.962526],[151.735788,-32.9625],[151.735731,-32.962474],[151.735629,-32.962438],[151.735563,-32.962403],[151.735506,-32.962385],[151.735443,-32.962344],[151.735382,-32.962303],[151.735307,-32.962262],[151.735228,-32.962217],[151.735184,-32.962082],[151.735105,-32.962028],[151.73502,-32.961982],[151.734893,-32.961937],[151.734741,-32.961895],[151.734608,-32.961833],[151.734489,-32.961769],[151.734349,-32.961695],[151.734195,-32.961606],[151.734075,-32.961534],[151.733943,-32.961463],[151.733853,-32.961404],[151.733771,-32.961352],[151.733694,-32.961307],[151.733627,-32.961274],[151.733555,-32.96125],[151.733345,-32.961201],[151.733227,-32.961168],[151.733091,-32.961134],[151.732899,-32.961103],[151.732731,-32.961049],[151.732525,-32.960964],[151.732256,-32.960885],[151.732003,-32.960815],[151.731898,-32.960799],[151.731784,-32.960784],[151.731659,-32.960763],[151.731559,-32.960743],[151.731341,-32.960704],[151.731247,-32.960692],[151.731153,-32.960676],[151.730857,-32.960621],[151.730778,-32.960598],[151.730702,-32.960569],[151.730617,-32.960532],[151.730509,-32.960487],[151.730444,-32.960454],[151.730354,-32.960412],[151.730276,-32.960385],[151.730208,-32.960351],[151.729994,-32.960246],[151.729831,-32.960176],[151.729738,-32.960129],[151.729608,-32.960059],[151.729519,-32.960021],[151.729407,-32.959967],[151.729292,-32.959915],[151.729155,-32.959859],[151.729095,-32.959829],[151.729035,-32.959791],[151.728974,-32.95975],[151.728901,-32.959707],[151.728835,-32.959675],[151.728759,-32.959631],[151.728675,-32.959583],[151.728642,-32.959567],[151.728616,-32.959552],[151.728524,-32.959523],[151.728456,-32.959504],[151.728385,-32.959476],[151.728288,-32.95945],[151.728196,-32.959423],[151.728116,-32.959393],[151.729059,-32.955082],[151.727279,-32.954821],[151.722836,-32.95417],[151.72251,-32.954122],[151.72248,-32.954117],[151.722455,-32.954114],[151.720757,-32.953871],[151.717963,-32.953459],[151.717374,-32.953352],[151.717139,-32.953293],[151.716818,-32.953269],[151.716618,-32.953256],[151.715544,-32.953096],[151.713869,-32.952846],[151.713753,-32.952811],[151.713573,-32.952802],[151.712508,-32.952644],[151.712206,-32.952585],[151.711865,-32.952539],[151.711657,-32.952509],[151.711353,-32.952462],[151.711144,-32.952431],[151.711,-32.952408],[151.710962,-32.952403],[151.710783,-32.952375],[151.710615,-32.95235],[151.7102,-32.952286],[151.709583,-32.952194],[151.70914,-32.952125],[151.707978,-32.951941],[151.707898,-32.951929],[151.707699,-32.951901],[151.707418,-32.951864],[151.70724,-32.951839],[151.707213,-32.951836],[151.706868,-32.951789],[151.7067,-32.951767],[151.706514,-32.951741],[151.706225,-32.951704],[151.706137,-32.951683],[151.705175,-32.951539],[151.705017,-32.951491],[151.704911,-32.951499],[151.704605,-32.951452],[151.703488,-32.951277],[151.70327,-32.951244],[151.70306,-32.951211],[151.703093,-32.951124],[151.701928,-32.950784],[151.701671,-32.95072],[151.701388,-32.950994],[151.701257,-32.951122],[151.701228,-32.951145],[151.701096,-32.951267],[151.700923,-32.951395],[151.700702,-32.951502],[151.70046,-32.95156],[151.700202,-32.951577],[151.699948,-32.95154],[151.699717,-32.95146],[151.699526,-32.95137],[151.699413,-32.951305],[151.699543,-32.951169],[151.699661,-32.951021],[151.699783,-32.950879],[151.699835,-32.950824],[151.699927,-32.950734],[151.699808,-32.950716],[151.699432,-32.950657],[151.699116,-32.950609],[151.69876,-32.950553],[151.697294,-32.95031],[151.697227,-32.950301],[151.696872,-32.950243],[151.696358,-32.950157],[151.695002,-32.949944],[151.694563,-32.949902],[151.694279,-32.949859],[151.693637,-32.949759],[151.693309,-32.949709],[151.692803,-32.94963],[151.692163,-32.949532],[151.6916,-32.949444],[151.689939,-32.949183],[151.689031,-32.949043],[151.688603,-32.948977],[151.688497,-32.948949],[151.68838,-32.948943],[151.687992,-32.948882],[151.685997,-32.94857],[151.685996,-32.948689],[151.685558,-32.948618],[151.684621,-32.948468],[151.684953,-32.94768],[151.685656,-32.946034],[151.68583,-32.945628],[151.686112,-32.945084],[151.686744,-32.943971],[151.686445,-32.943785],[151.686224,-32.943584],[151.685976,-32.94337],[151.685213,-32.942663],[151.685483,-32.941362],[151.685519,-32.94091],[151.685658,-32.940245],[151.685922,-32.93909],[151.68601,-32.9387],[151.686077,-32.938408],[151.686236,-32.937708],[151.685906,-32.937877],[151.685389,-32.938094],[151.684951,-32.938301],[151.684785,-32.938327],[151.684668,-32.938336],[151.684451,-32.938291],[151.684245,-32.938278],[151.682566,-32.937793],[151.682463,-32.93777],[151.682382,-32.937719],[151.68182,-32.937416],[151.681517,-32.937261],[151.681483,-32.937246],[151.681438,-32.937233],[151.681267,-32.937185],[151.681042,-32.937144],[151.680934,-32.937113],[151.680727,-32.937051],[151.679992,-32.936814],[151.679479,-32.936649],[151.678737,-32.936509],[151.678279,-32.936443],[151.67787,-32.936406],[151.677018,-32.936421],[151.676587,-32.93642],[151.676473,-32.936404],[151.674955,-32.936171],[151.674462,-32.936093],[151.674283,-32.936068],[151.673691,-32.935946],[151.673433,-32.935907],[151.673193,-32.935905],[151.673003,-32.935928],[151.672802,-32.935978],[151.672459,-32.936105],[151.672345,-32.936162],[151.672246,-32.936215],[151.671937,-32.935887],[151.671722,-32.935682],[151.671517,-32.935466],[151.671396,-32.935354],[151.670586,-32.933931],[151.670254,-32.933319],[151.66981,-32.932485],[151.66929,-32.931423],[151.668945,-32.930731],[151.668522,-32.930162],[151.668331,-32.930005],[151.667967,-32.929783],[151.667485,-32.929496],[151.66736,-32.929439],[151.667164,-32.929382],[151.666919,-32.929408],[151.66645,-32.92951],[151.666415,-32.929515],[151.665638,-32.929623],[151.665188,-32.929651],[151.664611,-32.929705],[151.663618,-32.929938],[151.663576,-32.929935],[151.662412,-32.929851],[151.662472,-32.929961],[151.662471,-32.92996],[151.660794,-32.930652],[151.660663,-32.930689],[151.65982,-32.930603],[151.659774,-32.930599],[151.659346,-32.930567],[151.659165,-32.930689],[151.659046,-32.930877],[151.658992,-32.930991],[151.658004,-32.932542],[151.657817,-32.932733],[151.656952,-32.933239],[151.656761,-32.93335],[151.655583,-32.933828],[151.655643,-32.933872],[151.655768,-32.933975],[151.655909,-32.934129],[151.65606,-32.934313],[151.656509,-32.934882],[151.656947,-32.935437],[151.657082,-32.935642],[151.657212,-32.935943],[151.657289,-32.936173],[151.656804,-32.936328],[151.655567,-32.936958],[151.655405,-32.93704],[151.65432,-32.937593],[151.654074,-32.937708],[151.654027,-32.937721],[151.653815,-32.937782],[151.65332,-32.937979],[151.65104,-32.938052],[151.648116,-32.937694],[151.64445,-32.937355],[151.643148,-32.937235],[151.642487,-32.937174],[151.642484,-32.937195],[151.63755,-32.936799],[151.63644,-32.936719],[151.635865,-32.936698],[151.634961,-32.936764],[151.634089,-32.936929],[151.632971,-32.937274],[151.632449,-32.937531],[151.631903,-32.9378],[151.63122,-32.938237],[151.630805,-32.938539],[151.629237,-32.93968],[151.628202,-32.940433],[151.628123,-32.940561],[151.627436,-32.941077],[151.626389,-32.941676],[151.625465,-32.942111],[151.624487,-32.942426],[151.621704,-32.943023],[151.621115,-32.945212],[151.619092,-32.948125],[151.617549,-32.949751],[151.616506,-32.950851],[151.616246,-32.951305],[151.614625,-32.95414],[151.614272,-32.95505],[151.614129,-32.955406],[151.614183,-32.956055],[151.614341,-32.956536],[151.614498,-32.957415],[151.614556,-32.958154],[151.614619,-32.958787],[151.614617,-32.959196],[151.614619,-32.959326],[151.61462,-32.960171],[151.614567,-32.960509],[151.614506,-32.960886],[151.614435,-32.961356],[151.614406,-32.961819],[151.614349,-32.962102],[151.614228,-32.962276],[151.614092,-32.962449],[151.614,-32.962703],[151.615194,-32.966738],[151.619691,-32.969298],[151.623513,-32.972504],[151.62589,-32.975118],[151.630547,-32.979726],[151.630643,-32.981747],[151.629294,-32.984279],[151.624284,-32.991715],[151.623898,-32.995869],[151.626211,-33.000932],[151.628266,-33.00341],[151.62711,-33.006103],[151.621457,-33.009874],[151.618502,-33.013429],[151.618888,-33.019786],[151.622999,-33.029697],[151.633277,-33.041009],[151.633148,-33.045749],[151.63212,-33.051244],[151.625954,-33.059216],[151.621714,-33.065788],[151.622357,-33.074191],[151.6221,-33.081948],[151.613877,-33.090566],[151.60861,-33.090782],[151.601801,-33.088735],[151.597819,-33.084426],[151.589725,-33.081409],[151.581631,-33.083671],[151.575208,-33.090243],[151.573409,-33.096599],[151.572381,-33.10511],[151.575336,-33.114483],[151.574822,-33.118792],[151.572767,-33.122132],[151.565572,-33.124933],[151.555294,-33.126872],[151.55144,-33.128636],[151.544567,-33.131917],[151.532684,-33.140792],[151.531013,-33.144073],[151.531399,-33.146977],[151.53217,-33.150205],[151.53172,-33.152464],[151.530435,-33.154347],[151.527946,-33.155796],[151.527448,-33.156307],[151.526736,-33.156758],[151.526615,-33.157093],[151.526221,-33.157532],[151.526405,-33.15782],[151.526547,-33.158124],[151.526658,-33.158577],[151.526752,-33.159],[151.526917,-33.159569],[151.52704,-33.160007],[151.527205,-33.160475],[151.527358,-33.160928],[151.527593,-33.161561],[151.527899,-33.162138],[151.528088,-33.162447],[151.528348,-33.162736],[151.528607,-33.163015],[151.528865,-33.163435],[151.529118,-33.163962],[151.529224,-33.164375],[151.529271,-33.164614],[151.5293,-33.165072],[151.529323,-33.165589],[151.529364,-33.16591],[151.529416,-33.166214],[151.529451,-33.166632],[151.529445,-33.167148],[151.52935,-33.167156],[151.52936,-33.167346],[151.529366,-33.167419],[151.529382,-33.167562],[151.529402,-33.167706],[151.529413,-33.167777],[151.529437,-33.167918],[151.529478,-33.168128],[151.529506,-33.16828],[151.529536,-33.168433],[151.529565,-33.168577],[151.52961,-33.168783],[151.529636,-33.168913],[151.529649,-33.168974],[151.529671,-33.169096],[151.52968,-33.169158],[151.529698,-33.169299],[151.529706,-33.16944],[151.5297,-33.169509],[151.529674,-33.169606],[151.529638,-33.169701],[151.529607,-33.169796],[151.52958,-33.169892],[151.529504,-33.170082],[151.52945,-33.17018],[151.52932,-33.170313],[151.529292,-33.170355],[151.529247,-33.170508],[151.529218,-33.170559],[151.529162,-33.170621],[151.529073,-33.170679],[151.528972,-33.170718],[151.52886,-33.170758],[151.528668,-33.170835],[151.528532,-33.170866],[151.528318,-33.170922],[151.528213,-33.170972],[151.528131,-33.171057],[151.527992,-33.171289],[151.527875,-33.171529],[151.527703,-33.171855],[151.527579,-33.172063],[151.527483,-33.172207],[151.527316,-33.172399],[151.527186,-33.172522],[151.526868,-33.172806],[151.526755,-33.17292],[151.526611,-33.173108],[151.526492,-33.17331],[151.526376,-33.17356],[151.526256,-33.173991],[151.526168,-33.174493],[151.526168,-33.174708],[151.526215,-33.17515],[151.52622,-33.17547],[151.526454,-33.176606],[151.526558,-33.177036],[151.526609,-33.177408],[151.526768,-33.177828],[151.527061,-33.178391],[151.527294,-33.178803],[151.527572,-33.179187],[151.527703,-33.179434],[151.527734,-33.179604],[151.527719,-33.179787],[151.527655,-33.179966],[151.527571,-33.180086],[151.527414,-33.180196],[151.527129,-33.180324],[151.526339,-33.180501],[151.526072,-33.180554],[151.525662,-33.180686],[151.525565,-33.18073],[151.525129,-33.181063],[151.524748,-33.181386],[151.524515,-33.181568],[151.524154,-33.181771],[151.523932,-33.181852],[151.52366,-33.181908],[151.523387,-33.181916],[151.523022,-33.181866],[151.522651,-33.181745],[151.522296,-33.181619],[151.521607,-33.181489],[151.5213,-33.181503],[151.521162,-33.181575],[151.521066,-33.181673],[151.521018,-33.181781],[151.521018,-33.181853],[151.5211,-33.182222],[151.521121,-33.182381],[151.521079,-33.182493],[151.521011,-33.182615],[151.520909,-33.182712],[151.520808,-33.182767],[151.520629,-33.182809],[151.520226,-33.182805],[151.519999,-33.182773],[151.519818,-33.182754],[151.519617,-33.182711],[151.519421,-33.182663],[151.519254,-33.182605],[151.518982,-33.182508],[151.518798,-33.182467],[151.518519,-33.182457],[151.518424,-33.182468],[151.518343,-33.18249],[151.518001,-33.182671],[151.51778,-33.182781],[151.517549,-33.182912],[151.517205,-33.183075],[151.516739,-33.183385],[151.516112,-33.1838],[151.515875,-33.18392],[151.515752,-33.183941],[151.515595,-33.183944],[151.51551,-33.18395],[151.515435,-33.18431],[151.515365,-33.184629],[151.514505,-33.188875],[151.514118,-33.189305],[151.512953,-33.190564],[151.512201,-33.19425],[151.51218,-33.194307],[151.512062,-33.194308],[151.51245,-33.194388],[151.515188,-33.194386],[151.518171,-33.194798],[151.519071,-33.195038],[151.520639,-33.196413],[151.521117,-33.197168],[151.521737,-33.19811],[151.5227,-33.199574],[151.522714,-33.199582],[151.522631,-33.199676],[151.522387,-33.200005],[151.52235,-33.20006],[151.521999,-33.200589],[151.521906,-33.200736],[151.521864,-33.200807],[151.521702,-33.201092],[151.521597,-33.201259],[151.521438,-33.201509],[151.521219,-33.201855],[151.521102,-33.202057],[151.521022,-33.202195],[151.520781,-33.202598],[151.520671,-33.202776],[151.520545,-33.202968],[151.520403,-33.203175],[151.520255,-33.203379],[151.520224,-33.203425],[151.519805,-33.203875],[151.519696,-33.203968],[151.519181,-33.204402],[151.51909,-33.204457],[151.517715,-33.20529],[151.517429,-33.205442],[151.516842,-33.205681],[151.516452,-33.205812],[151.516413,-33.205822],[151.516367,-33.205833],[151.516472,-33.206416],[151.51658,-33.206939],[151.516646,-33.207306],[151.516679,-33.207673],[151.51668,-33.207936],[151.51664,-33.208357],[151.516615,-33.208514],[151.516594,-33.208617],[151.51656,-33.208755],[151.516498,-33.208975],[151.51639,-33.209281],[151.516259,-33.209575],[151.5162,-33.209686],[151.516099,-33.209863],[151.51595,-33.210089],[151.515748,-33.210364],[151.5154,-33.210807],[151.514998,-33.211339],[151.514821,-33.211567],[151.514558,-33.211862],[151.514299,-33.212092],[151.5137,-33.212564],[151.513419,-33.212776],[151.512905,-33.213167],[151.512191,-33.213716],[151.511876,-33.213955],[151.511593,-33.214168],[151.510949,-33.214667],[151.510213,-33.21521],[151.509908,-33.215435],[151.509801,-33.215508],[151.509137,-33.215996],[151.508896,-33.216175],[151.508586,-33.216443],[151.508482,-33.216548],[151.508238,-33.216823],[151.508076,-33.217053],[151.50786,-33.217439],[151.507704,-33.217744],[151.507566,-33.218025],[151.507886,-33.218112],[151.508518,-33.218227],[151.508933,-33.218308],[151.509383,-33.218475],[151.509745,-33.218635],[151.510382,-33.219008],[151.511117,-33.219477],[151.511903,-33.219953],[151.512377,-33.220222],[151.51269,-33.220404],[151.512943,-33.220566],[151.513066,-33.220652],[151.513245,-33.220786],[151.520805,-33.233144],[151.527986,-33.244476],[151.538012,-33.245949]]]},"bbox":[151.507566,-33.2756734848074,151.8126963931804,-32.929382]}]}