{"type":"FeatureCollection","features":[
{"properties":{"electorateShortName":"solomon","electorateName":"Solomon","area":190.74,"state":null},"type":"Feature","geometry":{"type":"Polygon","coordinates":[[[130.955869,-12.534051],[130.96695,-12.53465],[130.976844,-12.541256],[130.982029,-12.532219],[130.981308,-12.521742],[130.992512,-12.514959],[130.999199,-12.502248],[131.000654,-12.488903],[130.989055,-12.479981],[130.973124,-12.460946],[130.950977,-12.443369],[130.923422,-12.433098],[130.923421,-12.409646],[130.938213,-12.409601],[130.938488,-12.365505],[130.936876,-12.342998],[130.924077,-12.34277],[130.909407,-12.3379],[130.896927,-12.33006],[130.870537,-12.35541],[130.861147,-12.37578],[130.852934,-12.373968],[130.841139,-12.380913],[130.848725,-12.390553],[130.845843,-12.402603],[130.837721,-12.411611],[130.828218,-12.41163],[130.83556,-12.427287],[130.827876,-12.449318],[130.832728,-12.45982],[130.844301,-12.473711],[130.851921,-12.470534],[130.849204,-12.44535],[130.881898,-12.46453],[130.891918,-12.472761],[130.893088,-12.481901],[130.902178,-12.487761],[130.908838,-12.480861],[130.925858,-12.482971],[130.940858,-12.504291],[130.941928,-12.521801],[130.955869,-12.534051]]]},"bbox":[130.827876,-12.541256,131.000654,-12.33006]}]}