{"type":"FeatureCollection","features":[
{"properties":{"electorateShortName":"solomon","electorateName":"Solomon","area":190.74,"state":null},"type":"Feature","geometry":{"type":"Polygon","coordinates":[[[130.936876,-12.342998],[130.946027,-12.34205],[130.947647,-12.34409],[130.944547,-12.34951],[130.945367,-12.35663],[130.947257,-12.35718],[130.946727,-12.34894],[130.950097,-12.34604],[130.954197,-12.34678],[130.966027,-12.34348],[130.975797,-12.34392],[130.979237,-12.34154],[130.982797,-12.34187],[130.991317,-12.34738],[130.989707,-12.34886],[131.004777,-12.35221],[131.008917,-12.35638],[131.020427,-12.3602],[131.024557,-12.35861],[131.02785270036696,-12.358924882676368],[131.0269190529349,-12.349907793315543],[131.02687438191404,-12.342458321522747],[131.02486655312515,-12.324086031283517],[131.02279751086618,-12.317727024198263],[131.017117,-12.324399],[131.012977,-12.323279],[131.012507,-12.316539],[131.014447,-12.312309],[131.014887,-12.304739],[131.0160414873043,-12.3010887963159],[131.0099604989623,-12.290475090603882],[130.99769085347336,-12.276653794548311],[130.98285667996197,-12.265630196165102],[130.9660835271467,-12.25786915437189],[130.94807870940824,-12.253697947917626],[130.9443326523976,-12.253615742543476],[130.92902799950883,-12.245979527650388],[130.91202192716878,-12.241334901105889],[130.8944366959203,-12.240094460010566],[130.87694701212138,-12.242305797340697],[130.8602239161861,-12.247884068982767],[130.84301961622634,-12.25729572121893],[130.83014619405864,-12.268167512458744],[130.82509217749976,-12.274391873915963],[130.81885526037445,-12.27964547341087],[130.80646526037447,-12.292205473410869],[130.80124018914927,-12.299018500698585],[130.79853137963303,-12.300183777593409],[130.78380164125912,-12.310383655946492],[130.77138420663022,-12.323299151609374],[130.7649263379172,-12.333456021205835],[130.75690451251393,-12.339521769833512],[130.75484451251393,-12.341451769833512],[130.7427883750975,-12.355317191673208],[130.73379938394731,-12.371342122571637],[130.72825219174962,-12.388858658499688],[130.72637800025137,-12.407136726735274],[130.72825492398925,-12.42541451460687],[130.72915257782708,-12.428247591702204],[130.736958,-12.429041],[130.742018,-12.426781],[130.749838,-12.427111],[130.752948,-12.428801],[130.759168,-12.436581],[130.765148,-12.437371],[130.767338,-12.443129],[130.766428,-12.453301],[130.759548,-12.464041],[130.759898,-12.470251],[130.758409,-12.471611],[130.757389,-12.482231],[130.749699,-12.491621],[130.744319,-12.505641],[130.74245123982126,-12.507870510135653],[130.74423378312346,-12.510187213211578],[130.751889,-12.493431],[130.763369,-12.480981],[130.769929,-12.481651],[130.774168,-12.477351],[130.777048,-12.479041],[130.776718,-12.486271],[130.771439,-12.493851],[130.772019,-12.500521],[130.778479,-12.509551],[130.776529,-12.513731],[130.777229,-12.520391],[130.769419,-12.527071],[130.772529,-12.531922],[130.7706592360983,-12.536342267087957],[130.78985016707418,-12.547022492009969],[130.799919,-12.539342],[130.810159,-12.539891],[130.812129,-12.550062],[130.809379,-12.555712],[130.816059,-12.558182],[130.830089,-12.557372],[130.836059,-12.554312],[130.841469,-12.555322],[130.8423497289051,-12.563494344956622],[130.84936032006178,-12.563229212789384],[130.86226810946977,-12.57019642938016],[130.86600154455027,-12.57741926290357],[130.8767743583823,-12.591014128124584],[130.8899550414063,-12.602289919593831],[130.900539,-12.607532],[130.916579,-12.606242],[130.920609,-12.607822],[130.932929,-12.611102],[130.93697949946946,-12.621962616849444],[130.94620913268128,-12.625618699725816],[130.945029,-12.622002],[130.947089,-12.617702],[130.952629,-12.624582],[130.95327492826732,-12.627666864311122],[130.9570453396414,-12.628759794746829],[130.956169,-12.619542],[130.953189,-12.617802],[130.948099,-12.608442],[130.945449,-12.606522],[130.937799,-12.598022],[130.936959,-12.594022],[130.932969,-12.588272],[130.923079,-12.579912],[130.917319,-12.578792],[130.907459,-12.572842],[130.902929,-12.572722],[130.902599,-12.578932],[130.890859,-12.574662],[130.884649,-12.574792],[130.877819,-12.552431],[130.887709,-12.555911],[130.893359,-12.560531],[130.894279,-12.558501],[130.888629,-12.553431],[130.879529,-12.547911],[130.873858,-12.528031],[130.867528,-12.525451],[130.862118,-12.526251],[130.861168,-12.509751],[130.859208,-12.506591],[130.862878,-12.502861],[130.869788,-12.505781],[130.871748,-12.510191],[130.871528,-12.515161],[130.879588,-12.521131],[130.884878,-12.520781],[130.903608,-12.513291],[130.904658,-12.516451],[130.89667051581392,-12.528220637294078],[130.901338,-12.525051],[130.905348,-12.516901],[130.907068,-12.516451],[130.910088,-12.531131],[130.911358,-12.530561],[130.910408,-12.517461],[130.916028,-12.512361],[130.922618,-12.509251],[130.927768,-12.514371],[130.930538,-12.520241],[130.930898,-12.526461],[130.927358,-12.536631],[130.931488,-12.535271],[130.934839,-12.540631],[130.935868,-12.536281],[130.934248,-12.532211],[130.943689,-12.537501],[130.947029,-12.541681],[130.946009,-12.548231],[130.947279,-12.549021],[130.949449,-12.539641],[130.953479,-12.542111],[130.956388,-12.537401],[130.955869,-12.534051],[130.960254,-12.533265],[130.96695,-12.53465],[130.976844,-12.541256],[130.982029,-12.532219],[130.98277,-12.528583],[130.981308,-12.521742],[130.992512,-12.514959],[130.996298,-12.510224],[130.999199,-12.502248],[130.999028,-12.496082],[131.000654,-12.488903],[130.997557,-12.484438],[130.989055,-12.479981],[130.976591,-12.466425],[130.973124,-12.460946],[130.950977,-12.443369],[130.923422,-12.433098],[130.923421,-12.409646],[130.938213,-12.409601],[130.938193,-12.380321],[130.938488,-12.365505],[130.937011,-12.365511],[130.936876,-12.342998]],[[130.866989,-12.545111],[130.871709,-12.547361],[130.872519,-12.552661],[130.868389,-12.558322],[130.863219,-12.560362],[130.862859,-12.553132],[130.865729,-12.550081],[130.864119,-12.546131],[130.866989,-12.545111]]]},"bbox":[130.72637800025137,-12.628759794746829,131.02785270036696,-12.240094460010566]}]}