{"type":"FeatureCollection","features":[
{"properties":{"electorateShortName":"solomon","electorateName":"Solomon","area":190.74,"state":null},"type":"Feature","geometry":{"type":"MultiPolygon","coordinates":[[[[130.955869,-12.534051],[130.960254,-12.533265],[130.963448,-12.533732],[130.96695,-12.53465],[130.970112,-12.536581],[130.974,-12.53935],[130.976929,-12.541313],[130.976844,-12.541256],[130.978304,-12.538786],[130.979613,-12.536592],[130.980585,-12.534937],[130.981222,-12.533968],[130.981681,-12.53306],[130.982029,-12.532219],[130.982401,-12.531031],[130.982606,-12.530078],[130.982671,-12.5295],[130.98277,-12.528583],[130.98275,-12.527334],[130.982661,-12.526544],[130.982561,-12.526027],[130.982348,-12.525101],[130.981991,-12.524066],[130.9816,-12.523211],[130.981142,-12.522447],[130.980702,-12.521715],[130.980456,-12.521263],[130.980672,-12.521539],[130.980792,-12.521685],[130.981061,-12.521618],[130.981168,-12.521712],[130.981308,-12.521742],[130.981445,-12.521699],[130.98175,-12.521507],[130.982541,-12.521053],[130.983077,-12.520772],[130.983349,-12.520629],[130.984173,-12.520237],[130.98503,-12.519829],[130.985869,-12.519385],[130.986688,-12.518908],[130.987485,-12.518397],[130.988261,-12.517853],[130.989012,-12.517279],[130.99015,-12.51637],[130.990489,-12.516156],[130.992512,-12.514959],[130.993167,-12.514407],[130.993317,-12.514258],[130.993427,-12.51415],[130.993812,-12.513777],[130.9944,-12.513128],[130.994947,-12.512442],[130.995439,-12.511746],[130.995792,-12.511165],[130.996151,-12.510498],[130.996298,-12.510224],[130.996878,-12.508849],[130.997955,-12.506231],[130.998437,-12.505058],[130.998652,-12.504438],[130.998709,-12.504269],[130.998953,-12.503461],[130.999064,-12.502921],[130.999192,-12.502283],[130.999199,-12.502248],[130.998847,-12.502165],[130.998745,-12.501971],[130.998841,-12.501907],[130.998889,-12.501804],[130.9989,-12.501738],[130.998983,-12.500914],[130.999012,-12.500085],[130.999014,-12.499766],[130.999028,-12.496115],[130.999028,-12.496082],[130.999078,-12.495484],[130.999168,-12.494843],[130.999296,-12.494208],[130.999578,-12.492991],[130.999623,-12.492821],[130.999619,-12.492813],[130.999929,-12.491479],[130.999954,-12.491484],[131.000063,-12.491496],[131.00018,-12.491467],[131.000299,-12.491365],[131.0004,-12.491122],[131.00057,-12.490356],[131.000654,-12.489784],[131.000678,-12.489332],[131.000654,-12.488903],[131.000603,-12.488627],[131.00056,-12.488465],[131.000497,-12.488238],[131.000455,-12.488017],[131.000409,-12.487787],[131.000345,-12.487546],[131.000278,-12.487312],[131.000077,-12.486905],[130.999866,-12.486526],[130.99977,-12.486382],[130.9997,-12.486279],[130.999591,-12.48611],[130.999379,-12.485874],[130.999207,-12.485682],[130.99885,-12.485337],[130.998475,-12.485041],[130.998003,-12.484727],[130.997525,-12.484501],[130.997557,-12.484438],[130.996125,-12.483769],[130.99469,-12.483098],[130.994332,-12.482923],[130.993675,-12.4826],[130.991833,-12.48177],[130.9913,-12.481503],[130.990983,-12.481321],[130.990082,-12.480805],[130.989055,-12.479981],[130.988493,-12.479342],[130.985418,-12.475866],[130.985249,-12.476057],[130.982845,-12.473358],[130.982107,-12.472578],[130.978385,-12.468455],[130.977507,-12.468204],[130.977341,-12.468022],[130.977992,-12.468021],[130.978371,-12.468013],[130.978193,-12.467916],[130.978017,-12.467817],[130.9779,-12.467749],[130.977784,-12.46768],[130.977555,-12.467537],[130.976591,-12.466425],[130.975785,-12.463743],[130.973124,-12.460946],[130.972135,-12.460142],[130.970332,-12.458677],[130.969319,-12.457849],[130.968017,-12.456794],[130.967583,-12.456441],[130.964438,-12.453883],[130.960948,-12.451122],[130.958191,-12.448942],[130.955335,-12.446688],[130.954612,-12.446315],[130.953353,-12.445364],[130.953261,-12.445294],[130.953171,-12.445219],[130.952771,-12.444873],[130.950977,-12.443369],[130.945577,-12.441349],[130.941588,-12.439868],[130.938412,-12.438733],[130.93482,-12.437348],[130.930933,-12.435907],[130.926693,-12.434323],[130.923422,-12.433098],[130.92341,-12.431555],[130.923403,-12.430583],[130.923399,-12.430535],[130.923336,-12.421346],[130.923361,-12.42053],[130.923362,-12.420479],[130.923362,-12.420443],[130.923333,-12.416927],[130.92331,-12.414948],[130.923284,-12.41158],[130.923285,-12.411403],[130.923267,-12.41127],[130.923243,-12.411137],[130.923212,-12.411005],[130.923176,-12.410875],[130.923133,-12.410747],[130.923084,-12.410621],[130.92303,-12.410497],[130.922969,-12.410376],[130.922904,-12.410258],[130.922832,-12.410143],[130.922756,-12.410032],[130.922673,-12.409924],[130.923421,-12.409646],[130.923583,-12.409643],[130.930327,-12.409624],[130.938213,-12.409601],[130.938188,-12.402331],[130.938148,-12.395056],[130.938148,-12.394872],[130.938221,-12.394871],[130.938216,-12.393564],[130.938193,-12.380321],[130.938563,-12.380321],[130.938488,-12.365505],[130.937011,-12.365511],[130.936873,-12.343895],[130.936876,-12.342998],[130.923387,-12.34481],[130.921437,-12.34425],[130.924077,-12.34277],[130.909407,-12.3379],[130.896927,-12.33006],[130.894397,-12.33119],[130.888207,-12.34047],[130.882927,-12.34285],[130.870537,-12.35541],[130.863777,-12.36695],[130.861147,-12.37578],[130.852934,-12.373968],[130.851171,-12.375875],[130.8478,-12.376108],[130.845705,-12.379237],[130.842149,-12.378908],[130.841139,-12.380913],[130.843471,-12.386968],[130.848725,-12.390553],[130.845843,-12.402603],[130.842127,-12.40664],[130.843158,-12.40776],[130.839708,-12.40788],[130.837721,-12.411611],[130.832468,-12.40778],[130.823148,-12.40463],[130.818438,-12.4052],[130.816378,-12.40713],[130.819608,-12.41458],[130.828218,-12.41163],[130.83556,-12.427287],[130.831639,-12.438948],[130.832057,-12.443012],[130.827876,-12.449318],[130.823089,-12.447197],[130.821843,-12.450382],[130.819203,-12.450307],[130.818656,-12.451716],[130.820396,-12.450867],[130.820451,-12.452236],[130.815991,-12.452637],[130.815117,-12.454157],[130.818198,-12.455546],[130.817524,-12.458326],[130.821196,-12.461922],[130.823484,-12.462014],[130.820818,-12.461497],[130.821844,-12.459905],[130.826177,-12.46035],[130.826531,-12.461555],[130.832728,-12.45982],[130.839638,-12.467258],[130.841567,-12.467395],[130.841171,-12.473103],[130.844301,-12.473711],[130.851921,-12.470534],[130.851315,-12.459222],[130.849225,-12.459043],[130.850184,-12.452938],[130.852739,-12.448424],[130.849204,-12.44535],[130.850049,-12.438844],[130.854045,-12.441688],[130.859838,-12.4431],[130.864608,-12.44286],[130.867018,-12.4406],[130.867018,-12.44263],[130.863928,-12.44558],[130.857488,-12.44604],[130.856348,-12.45101],[130.881898,-12.46453],[130.885918,-12.46203],[130.885338,-12.45887],[130.882448,-12.45108],[130.878308,-12.45052],[130.883818,-12.44758],[130.885998,-12.44305],[130.88652,-12.446482],[130.884508,-12.4483],[130.884398,-12.4513],[130.888208,-12.45604],[130.886828,-12.45751],[130.890748,-12.46519],[130.907078,-12.46482],[130.910638,-12.46267],[130.910118,-12.46018],[130.916948,-12.45768],[130.916978,-12.45923],[130.914538,-12.45916],[130.907888,-12.46651],[130.898918,-12.46732],[130.891918,-12.472761],[130.893088,-12.481901],[130.896658,-12.486981],[130.899418,-12.488221],[130.902178,-12.487761],[130.905048,-12.484591],[130.905348,-12.480701],[130.908838,-12.480861],[130.913208,-12.484241],[130.916088,-12.482651],[130.925858,-12.482971],[130.933438,-12.476521],[130.936418,-12.47143],[130.940328,-12.47357],[130.946728,-12.47105],[130.942628,-12.4748],[130.937568,-12.47549],[130.931148,-12.483531],[130.930698,-12.488051],[130.940858,-12.504291],[130.944298,-12.502591],[130.947278,-12.496491],[130.947168,-12.500671],[130.943268,-12.505191],[130.941928,-12.521801],[130.943088,-12.524851],[130.945108,-12.524021],[130.945848,-12.528231],[130.955148,-12.529401],[130.955869,-12.534051]]],[[[130.943438,-12.527901],[130.941938,-12.526891],[130.941598,-12.528581],[130.943438,-12.527901]]]]},"bbox":[130.815117,-12.541313,131.000678,-12.33006]}]}