{"type":"FeatureCollection","features":[
{"properties":{"electorateShortName":"solomon","electorateName":"Solomon","area":190.74,"state":null},"type":"Feature","geometry":{"type":"Polygon","coordinates":[[[130.955869,-12.534051],[130.960254,-12.533265],[130.96695,-12.53465],[130.976844,-12.541256],[130.982029,-12.532219],[130.98277,-12.528583],[130.982348,-12.525101],[130.981308,-12.521742],[130.986688,-12.518908],[130.992512,-12.514959],[130.9944,-12.513128],[130.996298,-12.510224],[130.998437,-12.505058],[130.999199,-12.502248],[130.999028,-12.496082],[131.000654,-12.488903],[130.999591,-12.48611],[130.997557,-12.484438],[130.991833,-12.48177],[130.989055,-12.479981],[130.985249,-12.476057],[130.976591,-12.466425],[130.975785,-12.463743],[130.973124,-12.460946],[130.964438,-12.453883],[130.950977,-12.443369],[130.923422,-12.433098],[130.923285,-12.411403],[130.923421,-12.409646],[130.938213,-12.409601],[130.938193,-12.380321],[130.938563,-12.380321],[130.938488,-12.365505],[130.937011,-12.365511],[130.936876,-12.342998],[130.923387,-12.34481],[130.924077,-12.34277],[130.909407,-12.3379],[130.896927,-12.33006],[130.894397,-12.33119],[130.888207,-12.34047],[130.882927,-12.34285],[130.870537,-12.35541],[130.863777,-12.36695],[130.861147,-12.37578],[130.852934,-12.373968],[130.851171,-12.375875],[130.8478,-12.376108],[130.845705,-12.379237],[130.842149,-12.378908],[130.841139,-12.380913],[130.843471,-12.386968],[130.848725,-12.390553],[130.845843,-12.402603],[130.842127,-12.40664],[130.839708,-12.40788],[130.837721,-12.411611],[130.832468,-12.40778],[130.823148,-12.40463],[130.818438,-12.4052],[130.816378,-12.40713],[130.819608,-12.41458],[130.828218,-12.41163],[130.83556,-12.427287],[130.831639,-12.438948],[130.832057,-12.443012],[130.827876,-12.449318],[130.823089,-12.447197],[130.821843,-12.450382],[130.820451,-12.452236],[130.815991,-12.452637],[130.815117,-12.454157],[130.818198,-12.455546],[130.817524,-12.458326],[130.820818,-12.461497],[130.821844,-12.459905],[130.826177,-12.46035],[130.826531,-12.461555],[130.832728,-12.45982],[130.839638,-12.467258],[130.841567,-12.467395],[130.841171,-12.473103],[130.844301,-12.473711],[130.851921,-12.470534],[130.851315,-12.459222],[130.849225,-12.459043],[130.850184,-12.452938],[130.852739,-12.448424],[130.849204,-12.44535],[130.850049,-12.438844],[130.854045,-12.441688],[130.859838,-12.4431],[130.867018,-12.44263],[130.863928,-12.44558],[130.857488,-12.44604],[130.856348,-12.45101],[130.881898,-12.46453],[130.885918,-12.46203],[130.885338,-12.45887],[130.882448,-12.45108],[130.878308,-12.45052],[130.883818,-12.44758],[130.885998,-12.44305],[130.88652,-12.446482],[130.884508,-12.4483],[130.884398,-12.4513],[130.888208,-12.45604],[130.886828,-12.45751],[130.890748,-12.46519],[130.907078,-12.46482],[130.910638,-12.46267],[130.910118,-12.46018],[130.916948,-12.45768],[130.916978,-12.45923],[130.914538,-12.45916],[130.907888,-12.46651],[130.898918,-12.46732],[130.891918,-12.472761],[130.893088,-12.481901],[130.896658,-12.486981],[130.899418,-12.488221],[130.902178,-12.487761],[130.905048,-12.484591],[130.905348,-12.480701],[130.908838,-12.480861],[130.913208,-12.484241],[130.916088,-12.482651],[130.925858,-12.482971],[130.933438,-12.476521],[130.936418,-12.47143],[130.940328,-12.47357],[130.946728,-12.47105],[130.942628,-12.4748],[130.937568,-12.47549],[130.931148,-12.483531],[130.930698,-12.488051],[130.940858,-12.504291],[130.944298,-12.502591],[130.947278,-12.496491],[130.947168,-12.500671],[130.943268,-12.505191],[130.941928,-12.521801],[130.943088,-12.524851],[130.945108,-12.524021],[130.945848,-12.528231],[130.955148,-12.529401],[130.955869,-12.534051]]]},"bbox":[130.815117,-12.541256,131.000654,-12.33006]}]}