{"type":"FeatureCollection","features":[
{"properties":{"electorateShortName":"spence","electorateName":"Spence","area":534.1,"state":null},"type":"Feature","geometry":{"type":"Polygon","coordinates":[[[138.78019,-34.767026],[138.781558,-34.767648],[138.784667,-34.768293],[138.787461,-34.767852],[138.791652,-34.769185],[138.793297,-34.770663],[138.795804,-34.771098],[138.799363,-34.77051],[138.801883,-34.771326],[138.805752,-34.774103],[138.810323,-34.775393],[138.811172,-34.774883],[138.812784,-34.775264],[138.813864,-34.774914],[138.81156,-34.772616],[138.811735,-34.77059],[138.813581,-34.76501],[138.814577,-34.763399],[138.81381,-34.760551],[138.813778,-34.759445],[138.814823,-34.756259],[138.814875,-34.755399],[138.813344,-34.753481],[138.812674,-34.749847],[138.812869,-34.747462],[138.811869,-34.744612],[138.811628,-34.742121],[138.812414,-34.740248],[138.811986,-34.738485],[138.815938,-34.735785],[138.816915,-34.733507],[138.817276,-34.731825],[138.818863,-34.7307],[138.819551,-34.728794],[138.822639,-34.728314],[138.824931,-34.727412],[138.826329,-34.725541],[138.826591,-34.723607],[138.827957,-34.721072],[138.828067,-34.717044],[138.830191,-34.716164],[138.832281,-34.716918],[138.833565,-34.716121],[138.832696,-34.712674],[138.833137,-34.711229],[138.83464,-34.709155],[138.835862,-34.704693],[138.838713,-34.701224],[138.839953,-34.700378],[138.841335,-34.692938],[138.843026,-34.688084],[138.842988,-34.686548],[138.843385,-34.68518],[138.844335,-34.684624],[138.846939,-34.682323],[138.848044,-34.681008],[138.847549,-34.680538],[138.846432,-34.681368],[138.845,-34.681322],[138.841901,-34.679947],[138.841092,-34.679338],[138.842194,-34.67804],[138.841336,-34.67659],[138.841314,-34.675662],[138.842023,-34.674111],[138.840926,-34.673242],[138.839024,-34.672826],[138.837584,-34.673625],[138.836713,-34.673433],[138.835131,-34.671836],[138.831466,-34.671237],[138.832413,-34.669895],[138.831011,-34.669022],[138.828957,-34.668342],[138.827844,-34.668494],[138.827361,-34.669803],[138.828046,-34.670568],[138.826851,-34.671249],[138.825968,-34.670961],[138.822787,-34.668288],[138.820877,-34.668232],[138.819571,-34.669392],[138.817497,-34.668859],[138.814606,-34.6677],[138.811183,-34.668509],[138.80895,-34.668031],[138.8082,-34.666035],[138.80464,-34.66385],[138.802662,-34.663633],[138.801359,-34.664082],[138.799103,-34.665488],[138.79791,-34.665214],[138.797812,-34.663986],[138.795153,-34.663847],[138.795395,-34.662121],[138.794932,-34.661905],[138.792698,-34.662643],[138.790523,-34.662321],[138.790293,-34.661118],[138.792874,-34.656395],[138.7912,-34.656149],[138.788184,-34.657554],[138.786576,-34.656894],[138.786635,-34.655159],[138.789213,-34.654201],[138.795767,-34.653842],[138.807883,-34.649689],[138.809727,-34.649441],[138.811801,-34.64717],[138.812612,-34.645478],[138.813601,-34.644824],[138.814794,-34.642997],[138.814654,-34.642148],[138.812805,-34.640443],[138.816113,-34.639045],[138.800976,-34.609536],[138.801669,-34.609618],[138.800443,-34.601906],[138.805873,-34.602254],[138.809512,-34.601565],[138.815425,-34.600873],[138.817219,-34.598789],[138.818461,-34.598075],[138.8188,-34.596921],[138.818568,-34.595339],[138.824788,-34.590962],[138.82532,-34.587566],[138.824411,-34.58233],[138.821489,-34.581615],[138.823426,-34.577172],[138.823308,-34.577038],[138.82127,-34.564057],[138.82052,-34.563513],[138.821255,-34.562037],[138.81929,-34.56071],[138.818255,-34.561136],[138.816428,-34.562518],[138.813283,-34.562627],[138.813665,-34.56093],[138.813208,-34.559754],[138.813816,-34.558571],[138.813338,-34.557831],[138.810119,-34.558867],[138.808365,-34.55784],[138.808125,-34.559029],[138.807304,-34.560388],[138.805699,-34.560911],[138.802189,-34.561],[138.800957,-34.559766],[138.800588,-34.55879],[138.80323,-34.557919],[138.804317,-34.557866],[138.805669,-34.556747],[138.805897,-34.554883],[138.804228,-34.551324],[138.803067,-34.55074],[138.800728,-34.551208],[138.798345,-34.550978],[138.796425,-34.552104],[138.794416,-34.551139],[138.793161,-34.552199],[138.794101,-34.55377],[138.796296,-34.554429],[138.795373,-34.555608],[138.794121,-34.555574],[138.793025,-34.556864],[138.79157,-34.557235],[138.789471,-34.556162],[138.788176,-34.556799],[138.788671,-34.557731],[138.788775,-34.559703],[138.789536,-34.560386],[138.791356,-34.561074],[138.790599,-34.562489],[138.78987,-34.562893],[138.7862,-34.562464],[138.782079,-34.561308],[138.781158,-34.560706],[138.77821,-34.560256],[138.775264,-34.560113],[138.77279,-34.56093],[138.771739,-34.562789],[138.770003,-34.56375],[138.770071,-34.565006],[138.768843,-34.565888],[138.770362,-34.567026],[138.769221,-34.569128],[138.767902,-34.568672],[138.766433,-34.56872],[138.765252,-34.56994],[138.763352,-34.568974],[138.76167,-34.56962],[138.762945,-34.571471],[138.761748,-34.571745],[138.749733,-34.569137],[138.749202,-34.569139],[138.758125,-34.56222],[138.753245,-34.5579],[138.752726,-34.558663],[138.747465,-34.558248],[138.723546,-34.555939],[138.721897,-34.566806],[138.703304,-34.564963],[138.708893,-34.577006],[138.715442,-34.590974],[138.715503,-34.591793],[138.706003,-34.594654],[138.695786,-34.593168],[138.682444,-34.586545],[138.686235,-34.595716],[138.684394,-34.610522],[138.683961,-34.611922],[138.680329,-34.615706],[138.679453,-34.615623],[138.679281,-34.61348],[138.677597,-34.614043],[138.677132,-34.615161],[138.675643,-34.614075],[138.674437,-34.615303],[138.67258,-34.615493],[138.671098,-34.616023],[138.670449,-34.614377],[138.668846,-34.613049],[138.667979,-34.613326],[138.666775,-34.61456],[138.667121,-34.615355],[138.66838,-34.615847],[138.669413,-34.617868],[138.66831,-34.618033],[138.667557,-34.619229],[138.667509,-34.620241],[138.664185,-34.619352],[138.662154,-34.620153],[138.662219,-34.621504],[138.661254,-34.623608],[138.660086,-34.623734],[138.659024,-34.622366],[138.657534,-34.621703],[138.655287,-34.621959],[138.656085,-34.623209],[138.65474,-34.623193],[138.650477,-34.624167],[138.651599,-34.62482],[138.651827,-34.62575],[138.650178,-34.625559],[138.650499,-34.626549],[138.652079,-34.627371],[138.650119,-34.627821],[138.648599,-34.629245],[138.647152,-34.628676],[138.646046,-34.62899],[138.646425,-34.630455],[138.644146,-34.631277],[138.64257,-34.631551],[138.641151,-34.6308],[138.639972,-34.631592],[138.63903,-34.630629],[138.638333,-34.631901],[138.636319,-34.630741],[138.634741,-34.629361],[138.633533,-34.630734],[138.632048,-34.631118],[138.63142,-34.629816],[138.629466,-34.627653],[138.627464,-34.627565],[138.625591,-34.625643],[138.624981,-34.626185],[138.625998,-34.627273],[138.624905,-34.627622],[138.623957,-34.630142],[138.622075,-34.630735],[138.619863,-34.632054],[138.618681,-34.631951],[138.61733,-34.633737],[138.616157,-34.632976],[138.614555,-34.633053],[138.613069,-34.633726],[138.612243,-34.633565],[138.609783,-34.635297],[138.609056,-34.633919],[138.606619,-34.634384],[138.605844,-34.633387],[138.603373,-34.633751],[138.601431,-34.633629],[138.601152,-34.632704],[138.600017,-34.632533],[138.596836,-34.633874],[138.596944,-34.63549],[138.595695,-34.635497],[138.594417,-34.634488],[138.592501,-34.635917],[138.591606,-34.638248],[138.590733,-34.638861],[138.587759,-34.637919],[138.586984,-34.638358],[138.582977,-34.638583],[138.581172,-34.638851],[138.579517,-34.637794],[138.577863,-34.638624],[138.576605,-34.637594],[138.576362,-34.636221],[138.575744,-34.635789],[138.574109,-34.636182],[138.571573,-34.635819],[138.568965,-34.635154],[138.568437,-34.636336],[138.56737,-34.635665],[138.565104,-34.636439],[138.563332,-34.635453],[138.562028,-34.635925],[138.562222,-34.637204],[138.559859,-34.637843],[138.559556,-34.639135],[138.556784,-34.638076],[138.554899,-34.636749],[138.553258,-34.638175],[138.551665,-34.637726],[138.551834,-34.636432],[138.550559,-34.63564],[138.549216,-34.635373],[138.548216,-34.636377],[138.546565,-34.636863],[138.546727,-34.638422],[138.545121,-34.63839],[138.544456,-34.639588],[138.540452,-34.639806],[138.539376,-34.637869],[138.5397,-34.636891],[138.539106,-34.635433],[138.537963,-34.635323],[138.537276,-34.635985],[138.536958,-34.63727],[138.535635,-34.637102],[138.533808,-34.639933],[138.53326,-34.640211],[138.531703,-34.639442],[138.530525,-34.640117],[138.529467,-34.641426],[138.526352,-34.639883],[138.526744,-34.638463],[138.525738,-34.637236],[138.523908,-34.637305],[138.522392,-34.637723],[138.521004,-34.636897],[138.520137,-34.637098],[138.518812,-34.639645],[138.516964,-34.638709],[138.514861,-34.639999],[138.513639,-34.641514],[138.511854,-34.6409],[138.510923,-34.641079],[138.509669,-34.642716],[138.508826,-34.642481],[138.506994,-34.643715],[138.50688,-34.644558],[138.505233,-34.644734],[138.503398,-34.646501],[138.501757,-34.646457],[138.50031,-34.64713],[138.497778,-34.647026],[138.495455,-34.647396],[138.494544,-34.646764],[138.492126,-34.647372],[138.49235,-34.651274],[138.491718,-34.652106],[138.489971,-34.653338],[138.489872,-34.654879],[138.490545,-34.656035],[138.489905,-34.657235],[138.488692,-34.658461],[138.473918,-34.663836],[138.473879,-34.664586],[138.472767,-34.665509],[138.471817,-34.667437],[138.468564,-34.668987],[138.467249,-34.67016],[138.466744,-34.672003],[138.464429,-34.673358],[138.460915,-34.673394],[138.459181,-34.674399],[138.457714,-34.674668],[138.456268,-34.675616],[138.453568,-34.676305],[138.451464,-34.676114],[138.449221,-34.674772],[138.447071,-34.674013],[138.445661,-34.672734],[138.444849,-34.670598],[138.441877,-34.670119],[138.439824,-34.669496],[138.438722,-34.669717],[138.435645,-34.672759],[138.433536,-34.669469],[138.430417,-34.668006],[138.429835,-34.664253],[138.431874,-34.66289],[138.436243,-34.653886],[138.439711,-34.653553],[138.442785,-34.655395],[138.445781,-34.653393],[138.434762,-34.634136],[138.434644,-34.631231],[138.432957,-34.631105],[138.426467,-34.621629],[138.422155,-34.62005],[138.417935,-34.622098],[138.413243,-34.620852],[138.415877,-34.619971],[138.412935,-34.615311],[138.416988,-34.614387],[138.411779,-34.61324],[138.414224,-34.611499],[138.407795,-34.601436],[138.408432,-34.60026],[138.402367,-34.59767],[138.398692,-34.598486],[138.393946,-34.596917],[138.39006349947377,-34.594278311759076],[138.38115508836478,-34.60053571145474],[138.37615233930538,-34.604955566711965],[138.3733604607753,-34.607675118860236],[138.36957508518108,-34.6116462651911],[138.35908619285843,-34.62544357916219],[138.35143642940926,-34.64099555183915],[138.34690948086657,-34.65772544938411],[138.34567322589504,-34.6750128554538],[138.34777351013042,-34.69221667889813],[138.3531324460267,-34.70869892816917],[138.36155130126028,-34.72384837078364],[138.37271786857679,-34.73710320044453],[138.38621804377487,-34.74797187122774],[138.3901092033958,-34.750528989086824],[138.3927522903859,-34.75338751660921],[138.40463156049486,-34.76576768352871],[138.418644378892,-34.77566851742515],[138.4232643310898,-34.777754875376026],[138.43270185637678,-34.787970602514626],[138.4450998971165,-34.79742531778467],[138.4500748081115,-34.800003028539955],[138.4572341934415,-34.809345884376434],[138.46123773961435,-34.8128928205218],[138.4646976110708,-34.82024370186846],[138.4716546110708,-34.83200770186846],[138.4781820831219,-34.840786951753586],[138.488512,-34.819798],[138.490256,-34.810966],[138.488394,-34.797054],[138.481691,-34.795753],[138.485446,-34.790504],[138.477997,-34.78294],[138.487623,-34.77059],[138.496325,-34.764612],[138.507004,-34.763389],[138.51369,-34.766567],[138.515749,-34.771573],[138.510594,-34.790777],[138.510296,-34.801181],[138.509427,-34.800304],[138.512092,-34.807273],[138.511546,-34.818085],[138.506326,-34.82632],[138.505872,-34.838453],[138.503274,-34.840852],[138.497192,-34.84217],[138.496816,-34.840448],[138.495542,-34.842118],[138.497114,-34.850552],[138.498947,-34.850612],[138.498257,-34.843806],[138.506739,-34.841257],[138.50724,-34.8406],[138.50835,-34.836794],[138.511836,-34.837205],[138.508541,-34.835876],[138.509121,-34.831164],[138.512298,-34.832031],[138.509575,-34.828072],[138.51636,-34.816505],[138.51616,-34.810835],[138.533039,-34.815146],[138.530822,-34.822573],[138.533564,-34.819865],[138.533579,-34.815136],[138.541959,-34.816942],[138.540331,-34.815441],[138.540695,-34.813132],[138.545732,-34.81061],[138.558473,-34.825161],[138.561471,-34.826549],[138.566193,-34.825394],[138.560364,-34.824763],[138.546705,-34.809977],[138.552264,-34.801627],[138.555935,-34.801134],[138.550354,-34.793663],[138.551525,-34.789481],[138.549122,-34.786195],[138.550536,-34.786046],[138.556637,-34.786147],[138.572278,-34.786165],[138.575302,-34.788011],[138.576748,-34.786917],[138.577788,-34.7867],[138.578945,-34.785354],[138.580522,-34.784299],[138.585224,-34.78211],[138.589212,-34.781366],[138.590591,-34.781342],[138.591898,-34.780598],[138.592468,-34.779667],[138.591826,-34.778707],[138.592132,-34.777692],[138.591586,-34.776544],[138.591994,-34.773673],[138.593697,-34.772525],[138.593799,-34.771022],[138.596544,-34.769509],[138.598278,-34.769228],[138.599287,-34.769473],[138.600566,-34.769048],[138.602058,-34.769205],[138.604319,-34.768465],[138.60665,-34.768339],[138.607409,-34.767724],[138.625644,-34.778803],[138.636656,-34.785448],[138.647038,-34.791796],[138.649653,-34.788915],[138.651053,-34.787045],[138.655656,-34.781751],[138.669499,-34.766266],[138.676105,-34.758684],[138.678718,-34.754288],[138.680108,-34.754265],[138.680179,-34.755628],[138.681631,-34.755655],[138.685513,-34.75472],[138.687493,-34.754638],[138.690821,-34.755127],[138.691791,-34.754424],[138.694389,-34.754864],[138.695714,-34.753988],[138.698583,-34.754517],[138.699737,-34.755025],[138.700445,-34.756139],[138.701353,-34.755861],[138.702052,-34.75454],[138.703418,-34.753342],[138.704714,-34.752697],[138.705383,-34.752998],[138.707186,-34.755322],[138.70779,-34.755613],[138.708946,-34.75369],[138.709747,-34.75357],[138.711715,-34.755509],[138.713373,-34.755964],[138.715076,-34.755996],[138.717834,-34.755434],[138.720128,-34.755396],[138.722526,-34.751688],[138.722786,-34.749857],[138.722175,-34.74799],[138.722305,-34.746266],[138.724087,-34.744326],[138.726912,-34.742278],[138.72865,-34.740625],[138.730819,-34.736815],[138.732099,-34.736051],[138.734953,-34.735968],[138.736359,-34.735677],[138.737272,-34.736279],[138.738188,-34.73809],[138.737232,-34.740334],[138.739087,-34.742236],[138.741431,-34.74179],[138.74183,-34.742155],[138.744132,-34.741443],[138.746578,-34.743011],[138.750085,-34.743496],[138.75031,-34.745416],[138.751297,-34.745328],[138.751805,-34.749088],[138.756171,-34.748707],[138.755644,-34.744861],[138.76119,-34.744473],[138.762324,-34.743145],[138.764249,-34.742964],[138.765976,-34.743471],[138.766663,-34.742758],[138.766186,-34.741823],[138.767744,-34.738527],[138.768524,-34.737855],[138.769855,-34.73536],[138.771396,-34.734253],[138.775767,-34.734847],[138.775259,-34.736312],[138.773145,-34.737798],[138.771688,-34.739498],[138.770294,-34.743092],[138.770697,-34.744765],[138.77136,-34.745874],[138.768474,-34.753476],[138.769023,-34.756775],[138.77129,-34.759226],[138.77435,-34.760616],[138.775674,-34.762105],[138.777999,-34.764088],[138.778753,-34.76445],[138.78019,-34.767026]],[[138.537055,-34.812005],[138.524303,-34.810078],[138.531174,-34.803385],[138.537721,-34.801407],[138.540294,-34.805248],[138.544082,-34.80611],[138.540391,-34.81075],[138.537055,-34.812005]],[[138.529523,-34.774156],[138.541282,-34.787312],[138.546309,-34.799042],[138.545146,-34.802006],[138.537991,-34.800077],[138.529285,-34.801922],[138.523699,-34.809017],[138.518591,-34.805594],[138.516103,-34.796182],[138.522502,-34.769668],[138.518938,-34.763234],[138.513522,-34.759487],[138.514615,-34.756904],[138.518133,-34.756868],[138.52175,-34.760124],[138.529523,-34.774156]],[[138.511818,-34.755477],[138.515763,-34.755783],[138.509408,-34.75751],[138.511818,-34.755477]]]},"bbox":[138.34567322589504,-34.850612,138.848044,-34.55074]}]}