{"type":"FeatureCollection","features":[
{"properties":{"electorateShortName":"spence","electorateName":"Spence","area":534.1,"state":null},"type":"Feature","geometry":{"type":"Polygon","coordinates":[[[138.78019,-34.767026],[138.847549,-34.680538],[138.800976,-34.609536],[138.82127,-34.564057],[138.747465,-34.558248],[138.715442,-34.590974],[138.638333,-34.631901],[138.520137,-34.637098],[138.435645,-34.672759],[138.526442,-34.738397],[138.549122,-34.786195],[138.607409,-34.767724],[138.647038,-34.791796],[138.680179,-34.755628],[138.755644,-34.744861],[138.78019,-34.767026]]]},"bbox":[138.435645,-34.791796,138.847549,-34.558248]}]}