{"type":"FeatureCollection","features":[
{"properties":{"electorateShortName":"spence","electorateName":"Spence","area":534.1,"state":null},"type":"Feature","geometry":{"type":"Polygon","coordinates":[[[138.78019,-34.767026],[138.799363,-34.77051],[138.810323,-34.775393],[138.814577,-34.763399],[138.811628,-34.742121],[138.819551,-34.728794],[138.839953,-34.700378],[138.843385,-34.68518],[138.847549,-34.680538],[138.836713,-34.673433],[138.790293,-34.661118],[138.795767,-34.653842],[138.809727,-34.649441],[138.816113,-34.639045],[138.800976,-34.609536],[138.800443,-34.601906],[138.815425,-34.600873],[138.824788,-34.590962],[138.82127,-34.564057],[138.804228,-34.551324],[138.793161,-34.552199],[138.781158,-34.560706],[138.77279,-34.56093],[138.761748,-34.571745],[138.758125,-34.56222],[138.747465,-34.558248],[138.723546,-34.555939],[138.721897,-34.566806],[138.703304,-34.564963],[138.715442,-34.590974],[138.706003,-34.594654],[138.686235,-34.595716],[138.684394,-34.610522],[138.650477,-34.624167],[138.638333,-34.631901],[138.623957,-34.630142],[138.609056,-34.633919],[138.594417,-34.634488],[138.590733,-34.638861],[138.568965,-34.635154],[138.559556,-34.639135],[138.549216,-34.635373],[138.529467,-34.641426],[138.520137,-34.637098],[138.503398,-34.646501],[138.492126,-34.647372],[138.488692,-34.658461],[138.473918,-34.663836],[138.464429,-34.673358],[138.451464,-34.676114],[138.444849,-34.670598],[138.435645,-34.672759],[138.430417,-34.668006],[138.436243,-34.653886],[138.445781,-34.653393],[138.426467,-34.621629],[138.417935,-34.622098],[138.407795,-34.601436],[138.39006349947377,-34.594278311759076],[138.36957508518108,-34.6116462651911],[138.35908619285843,-34.62544357916219],[138.35143642940926,-34.64099555183915],[138.34690948086657,-34.65772544938411],[138.34567322589504,-34.6750128554538],[138.34777351013042,-34.69221667889813],[138.3531324460267,-34.70869892816917],[138.36155130126028,-34.72384837078364],[138.37271786857679,-34.73710320044453],[138.38621804377487,-34.74797187122774],[138.3901092033958,-34.750528989086824],[138.3927522903859,-34.75338751660921],[138.40463156049486,-34.76576768352871],[138.4232643310898,-34.777754875376026],[138.43270185637678,-34.787970602514626],[138.4500748081115,-34.800003028539955],[138.4572341934415,-34.809345884376434],[138.46123773961435,-34.8128928205218],[138.4646976110708,-34.82024370186846],[138.4716546110708,-34.83200770186846],[138.4781820831219,-34.840786951753586],[138.488512,-34.819798],[138.490256,-34.810966],[138.485446,-34.790504],[138.477997,-34.78294],[138.487623,-34.77059],[138.496325,-34.764612],[138.507004,-34.763389],[138.515749,-34.771573],[138.510594,-34.790777],[138.512092,-34.807273],[138.51616,-34.810835],[138.540331,-34.815441],[138.545732,-34.81061],[138.558473,-34.825161],[138.566193,-34.825394],[138.560364,-34.824763],[138.546705,-34.809977],[138.552264,-34.801627],[138.549122,-34.786195],[138.575302,-34.788011],[138.592468,-34.779667],[138.596544,-34.769509],[138.607409,-34.767724],[138.647038,-34.791796],[138.676105,-34.758684],[138.680179,-34.755628],[138.705383,-34.752998],[138.720128,-34.755396],[138.722305,-34.746266],[138.730819,-34.736815],[138.755644,-34.744861],[138.77136,-34.745874],[138.769023,-34.756775],[138.78019,-34.767026]],[[138.529523,-34.774156],[138.541282,-34.787312],[138.546309,-34.799042],[138.518591,-34.805594],[138.516103,-34.796182],[138.522502,-34.769668],[138.529523,-34.774156]]]},"bbox":[138.34567322589504,-34.840786951753586,138.847549,-34.551324]}]}