{"type":"FeatureCollection","features":[
{"properties":{"electorateShortName":"sturt","electorateName":"Sturt","area":97.79,"state":null},"type":"Feature","geometry":{"type":"MultiPolygon","coordinates":[[[[138.675338,-34.974486],[138.706968,-34.881873],[138.747028,-34.840674],[138.63534,-34.846848],[138.612826,-34.909505],[138.626439,-34.964559],[138.675338,-34.974486]]],[[[138.560364,-34.824763],[138.558473,-34.825161],[138.566193,-34.825394],[138.560364,-34.824763]]]]},"bbox":[138.558473,-34.974486,138.747028,-34.824763]}]}