{"type":"FeatureCollection","features":[
{"properties":{"electorateShortName":"sydney","electorateName":"Sydney","area":40.64,"state":null},"type":"Feature","geometry":{"type":"MultiPolygon","coordinates":[[[[151.179039,-33.920542],[151.215031,-33.900896],[151.22665,-33.854461],[151.195942,-33.849776],[151.179039,-33.920542]]],[[[158.94976394558378,-31.496391718459954],[158.95818029116379,-31.56310283993674],[159.01845624423785,-31.670339775313174],[159.0744588798525,-31.687729220007785],[159.12639185431473,-31.670888670030337],[159.19134432027892,-31.590733558002533],[159.19373558904016,-31.508268453340733],[159.12036609546084,-31.41905763760008],[159.0367773433553,-31.410591340507224],[158.9659373584346,-31.45818620194647],[158.94976394558378,-31.496391718459954]]],[[[151.24988,-34.001238],[151.28728504618047,-33.976948641541256],[151.29589087036567,-33.96224910739588],[151.30157301861627,-33.94619140814423],[151.30412796023032,-33.929350719697894],[151.30403992054005,-33.9270932357397],[151.31761455557833,-33.89487739631135],[151.3202868042313,-33.84891983030638],[151.31592874660578,-33.82979604923934],[151.31591974660577,-33.829770049239336],[151.30922165549023,-33.814924846909456],[151.30598638233494,-33.81039749917874],[151.301061,-33.818464],[151.290672,-33.828322],[151.280955,-33.832769],[151.282829,-33.862556],[151.282691,-33.877446],[151.281274,-33.891017],[151.270355,-33.906403],[151.266539,-33.913935],[151.261402,-33.914886],[151.257682,-33.922042],[151.25946,-33.937314],[151.258558,-33.945658],[151.256967,-33.951596],[151.256485,-33.964933],[151.251886,-33.964671],[151.251185,-33.978936],[151.24988,-34.001238]]]]},"bbox":[151.179039,-34.001238,159.19373558904016,-31.410591340507224]}]}