{"type":"FeatureCollection","features":[
{"properties":{"electorateShortName":"tangney","electorateName":"Tangney","area":101.97,"state":null},"type":"Feature","geometry":{"type":"MultiPolygon","coordinates":[[[[115.916173,-32.115337],[115.927638,-32.105376],[115.928156,-32.104756],[115.930735,-32.100217],[115.944312,-32.088706],[115.951618,-32.082767],[115.949082,-32.08016],[115.942763,-32.074634],[115.941724,-32.07354],[115.940138,-32.070522],[115.93818,-32.06222],[115.936994,-32.060465],[115.932686,-32.056687],[115.931624,-32.05489],[115.931036,-32.05132],[115.933967,-32.04089],[115.9358,-32.034098],[115.936278,-32.033364],[115.941156,-32.02962],[115.939733,-32.027531],[115.938283,-32.026958],[115.937576,-32.025888],[115.935634,-32.025474],[115.932597,-32.022515],[115.930786,-32.020988],[115.928965,-32.020144],[115.927997,-32.019172],[115.922924,-32.012924],[115.917454,-32.012254],[115.899067,-32.013453],[115.899617,-32.016712],[115.897582,-32.018437],[115.895289,-32.019804],[115.894083,-32.019362],[115.891606,-32.019528],[115.889422,-32.02008],[115.887858,-32.021324],[115.885413,-32.022208],[115.882708,-32.022761],[115.880133,-32.023755],[115.878732,-32.025744],[115.877526,-32.028176],[115.874951,-32.031602],[115.873387,-32.031602],[115.872246,-32.030966],[115.868889,-32.029903],[115.866412,-32.030013],[115.864913,-32.031395],[115.864587,-32.033052],[115.863805,-32.034489],[115.861458,-32.035429],[115.85872,-32.035208],[115.856569,-32.03366],[115.855461,-32.031809],[115.855591,-32.028879],[115.856765,-32.02606],[115.856765,-32.024789],[115.856243,-32.023352],[115.854614,-32.021196],[115.853832,-32.018046],[115.853832,-32.013845],[115.853192,-32.01095],[115.850259,-32.004453],[115.849836,-32.001586],[115.848484,-31.99786],[115.845865,-31.99528],[115.84316,-31.99356],[115.838086,-31.991159],[115.836184,-31.99354],[115.831474,-31.99546],[115.82758,-31.997764],[115.82296,-32.001451],[115.82133,-32.003448],[115.820696,-32.005599],[115.820334,-32.010514],[115.819156,-32.013049],[115.817888,-32.014201],[115.815986,-32.014355],[115.81336,-32.014048],[115.809012,-32.012127],[115.806114,-32.011897],[115.803035,-32.011436],[115.801314,-32.010898],[115.795064,-32.009439],[115.788181,-32.007671],[115.786641,-32.007172],[115.783652,-32.006673],[115.781071,-32.006865],[115.780347,-32.007211],[115.779848,-32.008823],[115.780165,-32.011319],[115.780845,-32.012625],[115.782701,-32.01443],[115.783426,-32.016542],[115.782566,-32.018692],[115.780211,-32.021032],[115.777358,-32.024372],[115.776384,-32.026253],[115.775886,-32.026464],[115.77621,-32.026327],[115.776047,-32.038323],[115.785927,-32.035919],[115.793608,-32.034151],[115.79374,-32.049192],[115.793574,-32.050528],[115.793621,-32.056642],[115.803205,-32.056437],[115.803172,-32.062413],[115.803274,-32.06582],[115.808372,-32.06699],[115.811115,-32.068092],[115.814157,-32.068662],[115.823941,-32.068538],[115.824114,-32.073882],[115.826287,-32.074095],[115.827833,-32.074584],[115.830006,-32.075974],[115.83334,-32.078928],[115.835131,-32.079685],[115.841282,-32.079693],[115.843137,-32.079539],[115.847597,-32.07877],[115.849211,-32.078664],[115.849027,-32.080839],[115.849094,-32.086753],[115.852374,-32.086925],[115.858263,-32.087593],[115.860026,-32.087586],[115.861851,-32.087188],[115.866836,-32.084885],[115.866846,-32.085478],[115.87056,-32.084375],[115.873416,-32.083249],[115.875618,-32.082134],[115.876213,-32.082379],[115.880139,-32.0795],[115.880172,-32.079105],[115.884363,-32.075088],[115.892017,-32.081769],[115.892108,-32.082241],[115.891012,-32.085565],[115.889682,-32.086993],[115.890686,-32.088228],[115.890624,-32.092087],[115.896141,-32.09654],[115.900055,-32.102187],[115.914245,-32.114054],[115.915903,-32.114519],[115.916173,-32.115337]]],[[[115.754246,-31.973838],[115.75498507453919,-31.92083142474129],[115.74226381923303,-31.92566153504363],[115.74153981923304,-31.92600753504363],[115.7277237300481,-31.934198730760034],[115.7155836595772,-31.944715322251206],[115.70550626158241,-31.957222362559975],[115.69781249497875,-31.971321510161115],[115.69749549497874,-31.972050510161115],[115.69188292765925,-31.9897715207638],[115.69170092765926,-31.9906545207638],[115.69097805405475,-31.997742500700998],[115.68864878090751,-32.004335565690056],[115.6860822340575,-32.02052399810247],[115.6862909678892,-32.028826],[115.686162,-32.028826],[115.686162,-32.0295463880496],[115.68615573201743,-32.029872584309125],[115.68612158885284,-32.031661267387456],[115.68605320634059,-32.03726606916652],[115.68767128452048,-32.05534454262929],[115.6928838472249,-32.072730702923984],[115.70147888512675,-32.08871740687465],[115.71310681428703,-32.10265443106146],[115.71989129894762,-32.10806776054643],[115.72045604447815,-32.10905277449805],[115.73246178283641,-32.12266888964306],[115.73639742842452,-32.125636774424535],[115.7386710008298,-32.128481411556194],[115.74477743662918,-32.13367502632588],[115.749868,-32.132801],[115.755948,-32.129549],[115.761982,-32.117234],[115.762165,-32.106388],[115.756912,-32.102611],[115.755312,-32.097876],[115.758589,-32.095537],[115.750337,-32.082988],[115.75073,-32.071679],[115.745755,-32.069676],[115.742605,-32.064925],[115.738303,-32.062867],[115.741386,-32.05942],[115.740672,-32.056798],[115.73228,-32.056106],[115.73184,-32.053535],[115.724328,-32.05389],[115.727255,-32.052886],[115.735008,-32.041053],[115.741786,-32.03951],[115.749752,-32.026033],[115.750871,-32.021603],[115.751592,-32.001348],[115.749997,-31.996945],[115.754246,-31.973838]]],[[[115.747773,-32.134755],[115.74690913510581,-32.1354880676902],[115.75179470220904,-32.13964331541559],[115.76077915049552,-32.14470514516094],[115.766082,-32.143592],[115.765381,-32.139611],[115.761562,-32.13847],[115.760719,-32.13751],[115.7554,-32.135494],[115.747773,-32.134755]]]]},"bbox":[115.68605320634059,-32.14470514516094,115.951618,-31.92083142474129]}]}