{"type":"FeatureCollection","features":[
{"properties":{"electorateShortName":"wannon","electorateName":"Wannon","area":33595.18,"state":null},"type":"Feature","geometry":{"type":"Polygon","coordinates":[[[144.229339,-38.398384],[144.234254,-38.372947],[144.204071,-38.380812],[144.20545,-38.369923],[144.196061,-38.359567],[144.203102,-38.34093],[144.158815,-38.336133],[144.1409,-38.322179],[144.128053,-38.330855],[144.10874,-38.324617],[144.103559,-38.329866],[144.080998,-38.335077],[144.082648,-38.325416],[144.058572,-38.3189],[144.012777,-38.31374],[144.016147,-38.295393],[144.025606,-38.293709],[144.027384,-38.281066],[144.04095,-38.272479],[144.046101,-38.258943],[144.05239,-38.225474],[144.049767,-38.214733],[144.055041,-38.186261],[144.062407,-38.172399],[144.003127,-38.165543],[144.00246,-38.169183],[143.918941,-38.159291],[143.904075,-38.152816],[143.900686,-38.138542],[143.809865,-38.127699],[143.82186,-38.104345],[143.824563,-38.080964],[143.818592,-38.08015],[143.823154,-38.055792],[143.829715,-38.022363],[143.768139,-38.019762],[143.735576,-38.027397],[143.707874,-38.026988],[143.672409,-38.0294],[143.629335,-38.023424],[143.633774,-38.012491],[143.655009,-38.011984],[143.648335,-37.98852],[143.634522,-37.985483],[143.624415,-37.978191],[143.619277,-37.96602],[143.608235,-37.958617],[143.59345,-37.954669],[143.47941,-37.94085],[143.480826,-37.930871],[143.44652,-37.9005],[143.443836,-37.887424],[143.452406,-37.873273],[143.440553,-37.859431],[143.444485,-37.851044],[143.447797,-37.8214],[143.440629,-37.806321],[143.440712,-37.784849],[143.465148,-37.654997],[143.477448,-37.651733],[143.494826,-37.660879],[143.529611,-37.66567],[143.536538,-37.648312],[143.586636,-37.653724],[143.595303,-37.644308],[143.641965,-37.650303],[143.651641,-37.647053],[143.652629,-37.624188],[143.668559,-37.538443],[143.648813,-37.536221],[143.625409,-37.529479],[143.606051,-37.534925],[143.600794,-37.520378],[143.613246,-37.500982],[143.624668,-37.437169],[143.665129,-37.236655],[143.6364,-37.230834],[143.640639,-37.208311],[143.582284,-37.201733],[143.585412,-37.184553],[143.489971,-37.172003],[143.484067,-37.169724],[143.474748,-37.212646],[143.472369,-37.241127],[143.467656,-37.251447],[143.474276,-37.264827],[143.46687,-37.269288],[143.446169,-37.260325],[143.439571,-37.251042],[143.405776,-37.233753],[143.390832,-37.230053],[143.338415,-37.22268],[143.336272,-37.20632],[143.317588,-37.203791],[143.293612,-37.210623],[143.282552,-37.19533],[143.270918,-37.197545],[143.263783,-37.18183],[143.242238,-37.173775],[143.224695,-37.153609],[143.202279,-37.161336],[143.191238,-37.181645],[143.180461,-37.188585],[143.168796,-37.183391],[143.164704,-37.17569],[143.152078,-37.171846],[143.131118,-37.174201],[143.113193,-37.157514],[143.090714,-37.155061],[143.083715,-37.148659],[143.066938,-37.147368],[143.062125,-37.171493],[143.052885,-37.170364],[143.04891,-37.18975],[142.993522,-37.183072],[142.994529,-37.177348],[142.972607,-37.174792],[142.961282,-37.167038],[142.953974,-37.207778],[142.883426,-37.199679],[142.876713,-37.195358],[142.837885,-37.191641],[142.831343,-37.177051],[142.823901,-37.171673],[142.783655,-37.168887],[142.781762,-37.157675],[142.768449,-37.154416],[142.768739,-37.142847],[142.740445,-37.148339],[142.735007,-37.14278],[142.717046,-37.142892],[142.717082,-37.1573],[142.542773,-37.157418],[142.562429,-37.178305],[142.577476,-37.197397],[142.58769,-37.214712],[142.595244,-37.217598],[142.600265,-37.234914],[142.593041,-37.240563],[142.597063,-37.261976],[142.581471,-37.270009],[142.592197,-37.290376],[142.516351,-37.293227],[142.501402,-37.292561],[142.465624,-37.281597],[142.455128,-37.265443],[142.42309,-37.260097],[142.40346,-37.237386],[142.39202,-37.231785],[142.369067,-37.228907],[142.334417,-37.205431],[142.27531,-37.169814],[142.259151,-37.157219],[142.239742,-37.147674],[142.232841,-37.123395],[142.222474,-37.120575],[142.215704,-37.111402],[142.211893,-37.090826],[142.201962,-37.095027],[142.191416,-37.108553],[142.181347,-37.110772],[142.164157,-37.105892],[142.141762,-37.11173],[142.133372,-37.109454],[142.114488,-37.112054],[142.108018,-37.12976],[142.108037,-37.164385],[142.092393,-37.170648],[142.084632,-37.20485],[142.088345,-37.20964],[142.079378,-37.223647],[142.06542,-37.218641],[142.052501,-37.222827],[142.002821,-37.224473],[141.989246,-37.212419],[141.937174,-37.206681],[141.938195,-37.200072],[141.921277,-37.198303],[141.911704,-37.189839],[141.930043,-37.179574],[141.934475,-37.166712],[141.924143,-37.15209],[141.928324,-37.145314],[141.923352,-37.121251],[141.909267,-37.113895],[141.903525,-37.124091],[141.909758,-37.132963],[141.8858,-37.138351],[141.88185,-37.145686],[141.837649,-37.153983],[141.842292,-37.166335],[141.832755,-37.172044],[141.809513,-37.177243],[141.786464,-37.16879],[141.763031,-37.174735],[141.746584,-37.173698],[141.731242,-37.180489],[141.707912,-37.184733],[141.692299,-37.164901],[141.671628,-37.161072],[141.668383,-37.155188],[141.634103,-37.164188],[141.612439,-37.165885],[141.599007,-37.161094],[141.576178,-37.188122],[141.542607,-37.202165],[141.528901,-37.204263],[141.491325,-37.220707],[141.492217,-37.250949],[141.510873,-37.260671],[141.523351,-37.274879],[141.524765,-37.289987],[141.531444,-37.297643],[141.431506,-37.297536],[141.43153,-37.372302],[141.221004,-37.348705],[141.220881,-37.364574],[141.248472,-37.369243],[141.274354,-37.385772],[141.279118,-37.393094],[141.268635,-37.422038],[141.261036,-37.429675],[141.168237,-37.41988],[141.0976,-37.449839],[141.095296,-37.445612],[141.046408,-37.40186],[141.023785,-37.39137],[141.00363,-37.377604],[140.99225,-37.374153],[140.973283,-37.358326],[140.973872,-37.462093],[140.972393,-37.643462],[140.972925,-37.654266],[140.971091,-37.791453],[140.968887,-37.875991],[140.96811,-37.939664],[140.965735,-38.055989],[140.990804,-38.059799],[141.028512,-38.071588],[141.086916,-38.096975],[141.150129,-38.126841],[141.184425,-38.144919],[141.227776,-38.170649],[141.26201,-38.19454],[141.29528,-38.220641],[141.35761,-38.274759],[141.379581,-38.300769],[141.392104,-38.319729],[141.397693,-38.338554],[141.39014,-38.346881],[141.371639,-38.357118],[141.364091,-38.377011],[141.374319,-38.386757],[141.389162,-38.387271],[141.401186,-38.39501],[141.413232,-38.396287],[141.407068,-38.369077],[141.418813,-38.363405],[141.447329,-38.359666],[141.46102,-38.362096],[141.499203,-38.378465],[141.519235,-38.390029],[141.528466,-38.404854],[141.521222,-38.411026],[141.526249,-38.423141],[141.542787,-38.432968],[141.555861,-38.42627],[141.557894,-38.405684],[141.565683,-38.403573],[141.569806,-38.392991],[141.579269,-38.38784],[141.614846,-38.39302],[141.617244,-38.40025],[141.63523,-38.392164],[141.650257,-38.393048],[141.634154,-38.375386],[141.621082,-38.354187],[141.623594,-38.341701],[141.607931,-38.342272],[141.60981,-38.332772],[141.59922,-38.321074],[141.611232,-38.304841],[141.637442,-38.292845],[141.663604,-38.275561],[141.704748,-38.258015],[141.742014,-38.253109],[141.769645,-38.253559],[141.804004,-38.258812],[141.845274,-38.261408],[141.903504,-38.269872],[141.929505,-38.278215],[141.97036,-38.29455],[142.00267,-38.310335],[142.073813,-38.355897],[142.136453,-38.380713],[142.147231,-38.389581],[142.162947,-38.391949],[142.180334,-38.390286],[142.197634,-38.395125],[142.206277,-38.392625],[142.233573,-38.392431],[142.244905,-38.396468],[142.244323,-38.378032],[142.261528,-38.364586],[142.309371,-38.356322],[142.316959,-38.359978],[142.343942,-38.351327],[142.372518,-38.349483],[142.420745,-38.370795],[142.453288,-38.391484],[142.472772,-38.401661],[142.478862,-38.395027],[142.492181,-38.393871],[142.509026,-38.403355],[142.527525,-38.406023],[142.563319,-38.422004],[142.603201,-38.448286],[142.615115,-38.452688],[142.662901,-38.48374],[142.690181,-38.499983],[142.690559,-38.50341],[142.720624,-38.520696],[142.776154,-38.561504],[142.79147,-38.571292],[142.807602,-38.571536],[142.82519,-38.58473],[142.8399,-38.587402],[142.871848,-38.604997],[142.888778,-38.610824],[142.90065,-38.610166],[142.910988,-38.618392],[142.921447,-38.617274],[142.929846,-38.624073],[142.947884,-38.619768],[142.974874,-38.625363],[142.987085,-38.621868],[143.01345,-38.624138],[143.036665,-38.631748],[143.038226,-38.63681],[143.069975,-38.646625],[143.094625,-38.65837],[143.112149,-38.669307],[143.163109,-38.71053],[143.185605,-38.733816],[143.215322,-38.758393],[143.233065,-38.766477],[143.257632,-38.770702],[143.267548,-38.763007],[143.296397,-38.755329],[143.303419,-38.75008],[143.326224,-38.757042],[143.356471,-38.753943],[143.37305,-38.759713],[143.396236,-38.771898],[143.408288,-38.782763],[143.429177,-38.783691],[143.433444,-38.789215],[143.464115,-38.80886],[143.492038,-38.83625],[143.492826,-38.843893],[143.51134,-38.857693],[143.543612,-38.853436],[143.554703,-38.855492],[143.579608,-38.835984],[143.585652,-38.821825],[143.616031,-38.795509],[143.645004,-38.791716],[143.661742,-38.782651],[143.671376,-38.756825],[143.671353,-38.748526],[143.685371,-38.73536],[143.728555,-38.717798],[143.749989,-38.713156],[143.756722,-38.706707],[143.768629,-38.706482],[143.810282,-38.69305],[143.840412,-38.690993],[143.842062,-38.679079],[143.866226,-38.671668],[143.86487,-38.66148],[143.873173,-38.652196],[143.894276,-38.641497],[143.891448,-38.635151],[143.908154,-38.625866],[143.921579,-38.60147],[143.923066,-38.593108],[143.948661,-38.576691],[143.960157,-38.575683],[143.971968,-38.566854],[143.986836,-38.548451],[143.977136,-38.542552],[143.979728,-38.532276],[144.01231,-38.497273],[144.03327,-38.485029],[144.036497,-38.475775],[144.066507,-38.468769],[144.104758,-38.469255],[144.117618,-38.457955],[144.119998,-38.449005],[144.132302,-38.4353],[144.147794,-38.430383],[144.184016,-38.428699],[144.180115,-38.419565],[144.200022,-38.406675],[144.229339,-38.398384]]]},"bbox":[140.965735,-38.857693,144.234254,-37.090826]}]}