{"type":"FeatureCollection","features":[
{"properties":{"electorateShortName":"warringah","electorateName":"Warringah","area":52.24,"state":null},"type":"Feature","geometry":{"type":"Polygon","coordinates":[[[151.290672,-33.828322],[151.280955,-33.832769],[151.287848,-33.850202],[151.286273,-33.852492],[151.286331,-33.857691],[151.282829,-33.862556],[151.28462,-33.873529],[151.282691,-33.877446],[151.286014,-33.886101],[151.285919,-33.891886],[151.283835,-33.893925],[151.281274,-33.891017],[151.274849,-33.893336],[151.276311,-33.898964],[151.272591,-33.899507],[151.268554,-33.903922],[151.270355,-33.906403],[151.271398,-33.914235],[151.266539,-33.913935],[151.268249,-33.915175],[151.266978,-33.916334],[151.261402,-33.914886],[151.262888,-33.917735],[151.257682,-33.922042],[151.261377,-33.927516],[151.259779,-33.929651],[151.261772,-33.935191],[151.25946,-33.937314],[151.265693,-33.941447],[151.261745,-33.945022],[151.258558,-33.945658],[151.2582523218866,-33.946798865265464],[151.27231781728764,-33.94462457355239],[151.28762917083318,-33.939317181876376],[151.3017405717338,-33.931350104719655],[151.31419452148418,-33.92098163861258],[151.3233577889999,-33.911836224930354],[151.32835047267005,-33.91005530225344],[151.33920747267004,-33.90505030225344],[151.35511672776147,-33.895624367766786],[151.36876370323563,-33.8831458783182],[151.3795722732566,-33.868141630499245],[151.3870861391778,-33.8512450492643],[151.38792710256416,-33.84734932904932],[151.39218193210138,-33.83850468046274],[151.39659770020737,-33.82112411356871],[151.39747991702387,-33.80321308883497],[151.39479355711504,-33.785482702940584],[151.391926154766,-33.77762624229919],[151.39219913197186,-33.76052519922553],[151.39152213197187,-33.752591199225535],[151.3876328207775,-33.73302233644869],[151.379527692599,-33.71479120842118],[151.37739669259898,-33.71114920842118],[151.36798289516983,-33.697951468402046],[151.35635424934085,-33.68665657929971],[151.34288803995602,-33.677630997409686],[151.32802117057065,-33.67116755263712],[151.32752917057067,-33.67100455263712],[151.31879460807517,-33.668959333828575],[151.318151,-33.671317],[151.320384,-33.674968],[151.316188,-33.67593],[151.315972,-33.678002],[151.317521,-33.678694],[151.313098,-33.680309],[151.308813,-33.689414],[151.308949,-33.692078],[151.315268,-33.696384],[151.310706,-33.697815],[151.308767,-33.700713],[151.310237,-33.703814],[151.306235,-33.705297],[151.300203,-33.718072],[151.299895,-33.72561],[151.302516,-33.732569],[151.305268,-33.734037],[151.30748,-33.738554],[151.312757,-33.738467],[151.317705,-33.74201],[151.307883,-33.744221],[151.30129,-33.748421],[151.297485,-33.753217],[151.299717,-33.756601],[151.299225,-33.756438],[151.284494,-33.754431],[151.284278,-33.754324],[151.28048,-33.758586],[151.278527,-33.75818],[151.275406,-33.755642],[151.274556,-33.755306],[151.266866,-33.754371],[151.26567,-33.754433],[151.263439,-33.755157],[151.260987,-33.754676],[151.258469,-33.7533],[151.247201,-33.751709],[151.245268,-33.751763],[151.241856,-33.753043],[151.239887,-33.753112],[151.228765,-33.751378],[151.227126,-33.751393],[151.225933,-33.751954],[151.224591,-33.753299],[151.221316,-33.755477],[151.220714,-33.756157],[151.218316,-33.760127],[151.216724,-33.760791],[151.2127,-33.759915],[151.209219,-33.76019],[151.20764,-33.761429],[151.204514,-33.765689],[151.204326,-33.766824],[151.205516,-33.768926],[151.205658,-33.769778],[151.205076,-33.771506],[151.203599,-33.773133],[151.207752,-33.775879],[151.209503,-33.777335],[151.211254,-33.777754],[151.212466,-33.778566],[151.213544,-33.780609],[151.213645,-33.782764],[151.215059,-33.783156],[151.216877,-33.782988],[151.219268,-33.784108],[151.220615,-33.784192],[151.222669,-33.785059],[151.22469,-33.784919],[151.227552,-33.784388],[151.230941,-33.784287],[151.232697,-33.785387],[151.233783,-33.786812],[151.234942,-33.788918],[151.234749,-33.790242],[151.23388,-33.791927],[151.232938,-33.792589],[151.232766,-33.794651],[151.234281,-33.798376],[151.234281,-33.799425],[151.233397,-33.801261],[151.233018,-33.804093],[151.234723,-33.805772],[151.235228,-33.806873],[151.234849,-33.808185],[151.233208,-33.811542],[151.234281,-33.813483],[151.234028,-33.814165],[151.229988,-33.815647],[151.232907,-33.818332],[151.232318,-33.820718],[151.230912,-33.827778],[151.228381,-33.829039],[151.227065,-33.830033],[151.223432,-33.831431],[151.222415,-33.831482],[151.218536,-33.830024],[151.21681,-33.830093],[151.215976,-33.831322],[151.216343,-33.833215],[151.213501,-33.837705],[151.215501,-33.839763],[151.215807,-33.840689],[151.217078,-33.841797],[151.22028,-33.84388],[151.22163,-33.846475],[151.22665,-33.854461],[151.250617,-33.85728],[151.261395,-33.846523],[151.268491,-33.838962],[151.275665,-33.82916],[151.281141,-33.823585],[151.284843,-33.824675],[151.290672,-33.828322]]]},"bbox":[151.203599,-33.946798865265464,151.39747991702387,-33.668959333828575]}]}