{"type":"FeatureCollection","features":[
{"properties":{"electorateShortName":"werriwa","electorateName":"Werriwa","area":171.49,"state":null},"type":"Feature","geometry":{"type":"Polygon","coordinates":[[[150.918927,-33.939096],[150.904291,-33.938185],[150.906407,-33.92742],[150.904129,-33.915252],[150.900437,-33.910452],[150.894981,-33.898969],[150.888631,-33.89274],[150.881878,-33.888583],[150.865039,-33.883457],[150.853868,-33.88378],[150.842448,-33.876249],[150.839057,-33.874691],[150.82858,-33.875595],[150.821465,-33.880394],[150.814714,-33.879476],[150.795419,-33.880866],[150.781309,-33.877573],[150.767908,-33.875728],[150.720944,-33.869447],[150.721313,-33.88256],[150.723427,-33.884988],[150.716249,-33.890416],[150.71223,-33.905218],[150.704974,-33.904262],[150.704789,-33.913048],[150.713746,-33.918749],[150.726542,-33.929623],[150.731798,-33.939931],[150.75281,-33.941543],[150.757676,-33.943814],[150.813046,-33.951229],[150.822564,-33.951998],[150.821735,-33.956644],[150.815164,-33.967775],[150.820756,-33.975729],[150.827023,-33.973301],[150.834255,-33.979675],[150.844457,-33.984459],[150.844836,-33.99334],[150.838883,-34.003277],[150.85222,-33.996489],[150.859521,-33.989182],[150.866303,-33.986674],[150.87453,-33.994835],[150.888573,-34.005463],[150.892281,-34.00558],[150.89274,-34.018835],[150.896934,-34.020821],[150.905813,-34.018428],[150.901501,-34.007225],[150.910927,-34.001743],[150.90782,-33.990355],[150.911225,-33.978407],[150.913392,-33.963395],[150.912247,-33.953938],[150.918707,-33.944131],[150.918927,-33.939096]]]},"bbox":[150.704789,-34.020821,150.918927,-33.869447]}]}