{"type":"FeatureCollection","features":[
{"properties":{"electorateShortName":"werriwa","electorateName":"Werriwa","area":171.49,"state":null},"type":"Feature","geometry":{"type":"Polygon","coordinates":[[[150.918927,-33.939096],[150.913406,-33.938065],[150.910119,-33.937635],[150.907567,-33.937755],[150.905636,-33.938254],[150.904291,-33.938185],[150.904386,-33.936876],[150.905479,-33.932696],[150.906407,-33.92742],[150.90002,-33.92656],[150.899796,-33.925283],[150.901259,-33.921874],[150.902744,-33.921117],[150.905114,-33.921293],[150.905566,-33.919344],[150.904637,-33.918558],[150.905303,-33.917965],[150.904469,-33.916753],[150.904129,-33.915252],[150.904589,-33.914508],[150.906953,-33.915112],[150.90768,-33.91413],[150.904323,-33.912097],[150.900437,-33.910452],[150.89943,-33.909317],[150.898629,-33.907709],[150.897619,-33.904412],[150.894981,-33.898969],[150.892586,-33.896044],[150.888631,-33.89274],[150.881878,-33.888583],[150.880215,-33.888082],[150.877341,-33.887872],[150.875316,-33.887385],[150.870291,-33.88556],[150.865039,-33.883457],[150.862579,-33.88328],[150.853868,-33.88378],[150.852172,-33.883401],[150.850533,-33.882323],[150.847534,-33.879506],[150.844454,-33.877939],[150.842448,-33.876249],[150.840485,-33.874939],[150.839057,-33.874691],[150.833761,-33.87573],[150.830281,-33.875382],[150.82858,-33.875595],[150.821465,-33.880394],[150.819423,-33.880703],[150.816518,-33.879603],[150.814714,-33.879476],[150.80815,-33.88062],[150.802258,-33.880825],[150.795419,-33.880866],[150.793432,-33.880703],[150.790185,-33.880098],[150.786015,-33.87967],[150.781309,-33.877573],[150.774359,-33.876678],[150.767908,-33.875728],[150.763497,-33.875081],[150.750989,-33.873427],[150.739152,-33.871802],[150.727772,-33.870387],[150.720944,-33.869447],[150.720443,-33.871464],[150.721551,-33.875357],[150.720612,-33.878026],[150.721815,-33.879354],[150.721388,-33.880572],[150.721788,-33.881343],[150.721313,-33.88256],[150.722827,-33.884703],[150.723427,-33.884988],[150.722904,-33.887135],[150.720781,-33.887412],[150.719176,-33.88876],[150.716249,-33.890416],[150.716398,-33.892801],[150.715718,-33.894551],[150.715087,-33.89792],[150.713543,-33.898289],[150.71223,-33.905218],[150.704974,-33.904262],[150.705172,-33.907488],[150.704678,-33.911886],[150.704789,-33.913048],[150.706131,-33.914655],[150.708313,-33.915918],[150.71158,-33.91726],[150.713746,-33.918749],[150.717315,-33.922383],[150.720472,-33.924721],[150.723737,-33.926695],[150.725702,-33.928428],[150.726542,-33.929623],[150.729289,-33.934886],[150.731798,-33.939931],[150.732297,-33.940071],[150.739936,-33.940554],[150.744762,-33.940747],[150.751806,-33.941345],[150.75281,-33.941543],[150.757676,-33.943814],[150.758915,-33.944075],[150.771217,-33.945901],[150.779819,-33.94674],[150.813046,-33.951229],[150.822564,-33.951998],[150.821735,-33.956644],[150.815164,-33.967775],[150.817561,-33.971326],[150.820756,-33.975729],[150.821891,-33.97596],[150.827023,-33.973301],[150.828386,-33.973509],[150.829393,-33.974181],[150.831245,-33.97696],[150.834255,-33.979675],[150.837385,-33.980573],[150.839628,-33.982331],[150.841243,-33.983256],[150.843198,-33.983606],[150.844457,-33.984459],[150.844316,-33.98887],[150.844987,-33.991435],[150.844836,-33.99334],[150.843629,-33.995037],[150.842506,-33.997299],[150.838883,-34.003277],[150.837982,-34.005382],[150.838675,-34.006435],[150.840912,-34.003671],[150.844018,-34.001113],[150.850264,-33.997865],[150.85222,-33.996489],[150.857833,-33.990768],[150.859521,-33.989182],[150.861055,-33.988219],[150.863278,-33.987292],[150.866303,-33.986674],[150.867583,-33.988867],[150.871017,-33.991755],[150.870949,-33.992041],[150.87453,-33.994835],[150.875224,-33.994725],[150.877611,-33.996646],[150.880308,-33.997651],[150.880962,-33.998325],[150.881315,-33.999875],[150.885714,-34.003005],[150.885915,-34.002497],[150.888573,-34.005463],[150.889236,-34.004615],[150.891485,-34.004277],[150.892281,-34.00558],[150.89243,-34.00916],[150.892171,-34.011412],[150.893475,-34.013376],[150.893076,-34.014902],[150.89274,-34.018835],[150.893379,-34.019781],[150.894613,-34.019666],[150.896934,-34.020821],[150.899774,-34.020711],[150.905813,-34.018428],[150.906939,-34.017457],[150.906676,-34.01675],[150.904343,-34.015866],[150.903223,-34.014466],[150.902595,-34.012096],[150.902115,-34.011389],[150.901525,-34.008735],[150.901501,-34.007225],[150.902122,-34.006115],[150.904901,-34.004121],[150.90808,-34.002694],[150.910927,-34.001743],[150.91255,-34.000286],[150.912379,-33.999414],[150.910398,-33.998856],[150.908956,-33.997838],[150.908557,-33.996647],[150.908475,-33.993452],[150.90782,-33.990355],[150.90862,-33.988766],[150.909059,-33.986903],[150.909252,-33.984096],[150.909976,-33.981101],[150.911225,-33.978407],[150.91197,-33.971326],[150.913392,-33.963395],[150.912476,-33.959674],[150.912241,-33.957598],[150.912247,-33.953938],[150.913012,-33.952292],[150.91359,-33.949984],[150.915837,-33.947071],[150.91762,-33.945733],[150.918707,-33.944131],[150.918511,-33.940632],[150.918927,-33.939096]]]},"bbox":[150.704678,-34.020821,150.918927,-33.869447]}]}