{"type":"FeatureCollection","features":[
{"properties":{"electorateShortName":"wright","electorateName":"Wright","area":7577.19,"state":null},"type":"Feature","geometry":{"type":"Polygon","coordinates":[[[153.296863,-28.234233],[153.294263,-28.230486],[153.296474,-28.219145],[153.301409,-28.222594],[153.311844,-28.211353],[153.317285,-28.207015],[153.313149,-28.204046],[153.31954,-28.197365],[153.319658,-28.187666],[153.326534,-28.185578],[153.337392,-28.173312],[153.340592,-28.173369],[153.348018,-28.168213],[153.348522,-28.160563],[153.358489,-28.157291],[153.361995,-28.139638],[153.365224,-28.132919],[153.360592,-28.125727],[153.363684,-28.113269],[153.370122,-28.106398],[153.367083,-28.098251],[153.368958,-28.09674],[153.363423,-28.086206],[153.353015,-28.087664],[153.348923,-28.086145],[153.339545,-28.088116],[153.33826,-28.084667],[153.34409,-28.080921],[153.350612,-28.080139],[153.354112,-28.070074],[153.355743,-28.059406],[153.355703,-28.0495],[153.353421,-28.042577],[153.351808,-28.031335],[153.343628,-28.028421],[153.338298,-28.022589],[153.32395,-28.022228],[153.324398,-28.013614],[153.307263,-28.010939],[153.304534,-28.013101],[153.286114,-28.010255],[153.294176,-28.003216],[153.316512,-27.990357],[153.317486,-27.98446],[153.322889,-27.982192],[153.328884,-27.98298],[153.332663,-27.986056],[153.344076,-27.976893],[153.336045,-27.975723],[153.336927,-27.970413],[153.32178,-27.96819],[153.324225,-27.955069],[153.317956,-27.956341],[153.299254,-27.953572],[153.299535,-27.944033],[153.304698,-27.940473],[153.3033,-27.926583],[153.306797,-27.924342],[153.307078,-27.91605],[153.29307,-27.914009],[153.300634,-27.903096],[153.296566,-27.90058],[153.292111,-27.903996],[153.28193,-27.902356],[153.277274,-27.908879],[153.280841,-27.913792],[153.277576,-27.916731],[153.271529,-27.915871],[153.267452,-27.919252],[153.259234,-27.91685],[153.254121,-27.912301],[153.254669,-27.90647],[153.248297,-27.901492],[153.248903,-27.897308],[153.235448,-27.898952],[153.221605,-27.899398],[153.215463,-27.90276],[153.212092,-27.900125],[153.180683,-27.895079],[153.183339,-27.891358],[153.186268,-27.88124],[153.185418,-27.873759],[153.18894,-27.855104],[153.181072,-27.85393],[153.182017,-27.848552],[153.180507,-27.840872],[153.175692,-27.839428],[153.172902,-27.834416],[153.18334,-27.820024],[153.177823,-27.814306],[153.17617,-27.808376],[153.16004,-27.804818],[153.162772,-27.787672],[153.155836,-27.786599],[153.158555,-27.769347],[153.147348,-27.767204],[153.138958,-27.763562],[153.140559,-27.755163],[153.138328,-27.752629],[153.12314,-27.749219],[153.119685,-27.74414],[153.101439,-27.757582],[153.103159,-27.767034],[153.096661,-27.771343],[153.092268,-27.765598],[153.08568,-27.770095],[153.075651,-27.766723],[153.064425,-27.758644],[153.064601,-27.750703],[153.057844,-27.752946],[153.051795,-27.768137],[153.047373,-27.772466],[153.040995,-27.769369],[153.035463,-27.761783],[153.03168,-27.768082],[153.032504,-27.772503],[153.02955,-27.778236],[153.023369,-27.780611],[153.023199,-27.787354],[153.018153,-27.788382],[153.0126,-27.777425],[153.019512,-27.761992],[153.025355,-27.752565],[153.026194,-27.741368],[153.030239,-27.725726],[153.018448,-27.723412],[153.012582,-27.724302],[152.987116,-27.720468],[153.002367,-27.707205],[153.006149,-27.686779],[153.016596,-27.678932],[153.020652,-27.669803],[153.018628,-27.662697],[153.019347,-27.657394],[153.012039,-27.657144],[152.996904,-27.654202],[152.978702,-27.646276],[152.973383,-27.63903],[152.965768,-27.635282],[152.955578,-27.634579],[152.940787,-27.628672],[152.938592,-27.640178],[152.935829,-27.645403],[152.924719,-27.657731],[152.931556,-27.666146],[152.927755,-27.685268],[152.923663,-27.707283],[152.917237,-27.707332],[152.890651,-27.70359],[152.882789,-27.747358],[152.87465,-27.746286],[152.873325,-27.753449],[152.857944,-27.751123],[152.856789,-27.757269],[152.843445,-27.7553],[152.835997,-27.755743],[152.834579,-27.747577],[152.829258,-27.746787],[152.828243,-27.752728],[152.822257,-27.756387],[152.811391,-27.754908],[152.808032,-27.758656],[152.8033,-27.785586],[152.809519,-27.786521],[152.80601,-27.793692],[152.791428,-27.794437],[152.784855,-27.78883],[152.76072,-27.785307],[152.762702,-27.772943],[152.757806,-27.767276],[152.707541,-27.758344],[152.704356,-27.749604],[152.686602,-27.746898],[152.684323,-27.752489],[152.663456,-27.749382],[152.663415,-27.742497],[152.655368,-27.741368],[152.655971,-27.738306],[152.639126,-27.736556],[152.638217,-27.741605],[152.607643,-27.737099],[152.60463,-27.731341],[152.605764,-27.724987],[152.598213,-27.726267],[152.579835,-27.723599],[152.580652,-27.719137],[152.562006,-27.716476],[152.561781,-27.721026],[152.542127,-27.718277],[152.529456,-27.71763],[152.524962,-27.721075],[152.522957,-27.726932],[152.523708,-27.736325],[152.519325,-27.761172],[152.499101,-27.758285],[152.494397,-27.783406],[152.481892,-27.781657],[152.481219,-27.785133],[152.467405,-27.783134],[152.467165,-27.789237],[152.463855,-27.793778],[152.462254,-27.802491],[152.451178,-27.802002],[152.440491,-27.859868],[152.430816,-27.860174],[152.426885,-27.862257],[152.420019,-27.861369],[152.41928,-27.865469],[152.40235,-27.863703],[152.401444,-27.85318],[152.39843,-27.840056],[152.394865,-27.830887],[152.400717,-27.82475],[152.398663,-27.818621],[152.391951,-27.817693],[152.393345,-27.809738],[152.384992,-27.808556],[152.385769,-27.803015],[152.407052,-27.805512],[152.40876,-27.796118],[152.402588,-27.795283],[152.402662,-27.789459],[152.395398,-27.781918],[152.389505,-27.76956],[152.39187,-27.75685],[152.397298,-27.751143],[152.405126,-27.749117],[152.410129,-27.720802],[152.406774,-27.720307],[152.409063,-27.70776],[152.413497,-27.700939],[152.390646,-27.697768],[152.391562,-27.690828],[152.395452,-27.686865],[152.411168,-27.68141],[152.416192,-27.675141],[152.422643,-27.663671],[152.412555,-27.661435],[152.422454,-27.654351],[152.430301,-27.656735],[152.431093,-27.65163],[152.438849,-27.650097],[152.447793,-27.655937],[152.450279,-27.653147],[152.457828,-27.662455],[152.459338,-27.653839],[152.462743,-27.654303],[152.465328,-27.647353],[152.46365,-27.643415],[152.46905,-27.638382],[152.472568,-27.626867],[152.480447,-27.617032],[152.481813,-27.61237],[152.487524,-27.606811],[152.487956,-27.603311],[152.504438,-27.595918],[152.497013,-27.582952],[152.50309,-27.580251],[152.507792,-27.581107],[152.512467,-27.574398],[152.514941,-27.559658],[152.518658,-27.55202],[152.502196,-27.55069],[152.492425,-27.551174],[152.499344,-27.511697],[152.474862,-27.508147],[152.477546,-27.496266],[152.472112,-27.486869],[152.480304,-27.482996],[152.472109,-27.472978],[152.457613,-27.464453],[152.44454,-27.463543],[152.445377,-27.459098],[152.435751,-27.457892],[152.436826,-27.450997],[152.435551,-27.441566],[152.431687,-27.439803],[152.408819,-27.436735],[152.413348,-27.43476],[152.414132,-27.430202],[152.399496,-27.428407],[152.401603,-27.414978],[152.390696,-27.412183],[152.379434,-27.40443],[152.373374,-27.40198],[152.36468,-27.402177],[152.343855,-27.399339],[152.342604,-27.402308],[152.315421,-27.39879],[152.310346,-27.429318],[152.304029,-27.425634],[152.294252,-27.427353],[152.291301,-27.400216],[152.283088,-27.401516],[152.278751,-27.409448],[152.270286,-27.414052],[152.262864,-27.416149],[152.258174,-27.409055],[152.260969,-27.392627],[152.227584,-27.388151],[152.223816,-27.390134],[152.208739,-27.390122],[152.201796,-27.386466],[152.191723,-27.386849],[152.197391,-27.399978],[152.196014,-27.406138],[152.179524,-27.407605],[152.177275,-27.420898],[152.164533,-27.425698],[152.160711,-27.444473],[152.155728,-27.445896],[152.156303,-27.438489],[152.147967,-27.437285],[152.141098,-27.441445],[152.140729,-27.43049],[152.13611,-27.429809],[152.136975,-27.423638],[152.117929,-27.420963],[152.11874,-27.416387],[152.107461,-27.414813],[152.099625,-27.411863],[152.100664,-27.405902],[152.093335,-27.404847],[152.093985,-27.401106],[152.083755,-27.399808],[152.083408,-27.404658],[152.070838,-27.402759],[152.058741,-27.402088],[152.060387,-27.392978],[152.053805,-27.392031],[152.05213,-27.399836],[152.056657,-27.402324],[152.054796,-27.412586],[152.038499,-27.409741],[152.029058,-27.416256],[152.027535,-27.42704],[152.018325,-27.423614],[152.015997,-27.431494],[152.023519,-27.432436],[152.020873,-27.439156],[152.019457,-27.44871],[152.006251,-27.44693],[152.003934,-27.462002],[151.991597,-27.460284],[151.966858,-27.473577],[151.963701,-27.480417],[151.965845,-27.487734],[151.966099,-27.497211],[151.967905,-27.503047],[151.966314,-27.508198],[151.955189,-27.514264],[151.958792,-27.522389],[151.964745,-27.524524],[151.970055,-27.51802],[151.985954,-27.521429],[151.990335,-27.524325],[151.998367,-27.525833],[151.991329,-27.530712],[151.988238,-27.535978],[151.994675,-27.541002],[151.993477,-27.548668],[152.004706,-27.548544],[152.000524,-27.55692],[151.996195,-27.580749],[152.003692,-27.577182],[152.016756,-27.579718],[152.011997,-27.583909],[151.997215,-27.585977],[151.99489,-27.599562],[151.990855,-27.599036],[151.989393,-27.608061],[151.982656,-27.610237],[151.974244,-27.609262],[151.973513,-27.615225],[151.97883,-27.615894],[151.978014,-27.621227],[151.967261,-27.619695],[151.966738,-27.62263],[151.95569,-27.618601],[151.948144,-27.617572],[151.94694,-27.62407],[151.942624,-27.623457],[151.942079,-27.632077],[151.948908,-27.636259],[151.95081,-27.641985],[151.956116,-27.649607],[151.961981,-27.649861],[151.971927,-27.644311],[151.976363,-27.647043],[151.985241,-27.64869],[151.983145,-27.654415],[151.989223,-27.661018],[151.992224,-27.673452],[151.986933,-27.677154],[151.987395,-27.682563],[151.999002,-27.683953],[151.997659,-27.691628],[152.003211,-27.692413],[152.001501,-27.702563],[152.009696,-27.70458],[152.010483,-27.699779],[152.034048,-27.702933],[152.031828,-27.716262],[152.048812,-27.718189],[152.060601,-27.722567],[152.07399,-27.731172],[152.07497,-27.737745],[152.078049,-27.741815],[152.076789,-27.748779],[152.084346,-27.749842],[152.086637,-27.757258],[152.093444,-27.761118],[152.096454,-27.744469],[152.104764,-27.745642],[152.101253,-27.765203],[152.106926,-27.768082],[152.131541,-27.771666],[152.130316,-27.778441],[152.139359,-27.779706],[152.136052,-27.787851],[152.1415,-27.789133],[152.147384,-27.799067],[152.14738,-27.807467],[152.140029,-27.807292],[152.137935,-27.813955],[152.139585,-27.821262],[152.144478,-27.824627],[152.145834,-27.830488],[152.151635,-27.834216],[152.150758,-27.849393],[152.147211,-27.859692],[152.148272,-27.862854],[152.152404,-27.872686],[152.151221,-27.876634],[152.160761,-27.878772],[152.164064,-27.88316],[152.168574,-27.882231],[152.171109,-27.887217],[152.175895,-27.887407],[152.175651,-27.904488],[152.178708,-27.909194],[152.184809,-27.912513],[152.188454,-27.924176],[152.199066,-27.929341],[152.203453,-27.927042],[152.210196,-27.931862],[152.209105,-27.937754],[152.216011,-27.938764],[152.2149,-27.945139],[152.235031,-27.951952],[152.254436,-27.956114],[152.256571,-27.960783],[152.270221,-27.968547],[152.276931,-27.969723],[152.28603,-27.962908],[152.293576,-27.961037],[152.293521,-27.955983],[152.298687,-27.956378],[152.308386,-27.962841],[152.316313,-27.965551],[152.321938,-27.964625],[152.327654,-27.96661],[152.343058,-27.961016],[152.347352,-27.965377],[152.357008,-27.962269],[152.365903,-27.964222],[152.382276,-27.965632],[152.38776,-27.971873],[152.382812,-27.978804],[152.383625,-27.983728],[152.378003,-27.990558],[152.377993,-27.99926],[152.374893,-28.012336],[152.382843,-28.024454],[152.390311,-28.030865],[152.388469,-28.03629],[152.394293,-28.043771],[152.395034,-28.04899],[152.389954,-28.059093],[152.402357,-28.065336],[152.41631,-28.069754],[152.414721,-28.078669],[152.418451,-28.088486],[152.409408,-28.095775],[152.408544,-28.100114],[152.411901,-28.107601],[152.411431,-28.112637],[152.419,-28.118702],[152.421529,-28.124445],[152.426143,-28.1291],[152.434044,-28.131009],[152.432048,-28.142626],[152.434886,-28.147509],[152.435536,-28.156308],[152.446688,-28.166427],[152.442049,-28.176017],[152.4473,-28.18664],[152.455831,-28.195629],[152.470858,-28.194963],[152.473234,-28.20436],[152.465601,-28.216753],[152.458243,-28.220999],[152.458952,-28.226581],[152.469918,-28.228872],[152.482353,-28.229506],[152.482928,-28.234833],[152.492287,-28.243468],[152.486992,-28.247982],[152.487617,-28.253908],[152.501845,-28.252527],[152.507785,-28.249433],[152.515661,-28.25182],[152.521834,-28.260815],[152.529165,-28.261835],[152.536753,-28.265694],[152.532881,-28.272672],[152.533192,-28.279307],[152.529467,-28.285205],[152.528792,-28.299431],[152.525036,-28.303964],[152.53294,-28.31002],[152.541246,-28.313053],[152.544186,-28.318984],[152.54806,-28.320979],[152.55527,-28.319129],[152.556514,-28.323388],[152.568635,-28.323575],[152.572048,-28.325692],[152.578709,-28.33877],[152.582922,-28.334765],[152.585055,-28.329201],[152.592648,-28.323609],[152.597846,-28.314779],[152.601701,-28.306722],[152.598005,-28.291087],[152.600303,-28.283836],[152.613585,-28.271322],[152.616031,-28.272333],[152.617664,-28.283183],[152.620784,-28.284094],[152.6237,-28.290308],[152.6228,-28.29404],[152.627857,-28.303031],[152.634355,-28.306184],[152.638288,-28.310997],[152.650516,-28.312833],[152.656128,-28.309697],[152.667228,-28.311752],[152.673369,-28.317837],[152.673641,-28.325981],[152.679339,-28.330416],[152.686418,-28.329075],[152.688551,-28.334678],[152.692385,-28.336667],[152.698895,-28.335358],[152.708468,-28.343866],[152.712849,-28.341484],[152.720215,-28.34512],[152.72288,-28.344096],[152.729746,-28.351758],[152.736809,-28.354795],[152.740742,-28.359934],[152.747747,-28.361147],[152.751062,-28.363914],[152.758139,-28.362872],[152.762235,-28.35738],[152.760694,-28.352027],[152.775822,-28.34657],[152.782472,-28.347456],[152.793786,-28.354014],[152.803636,-28.353735],[152.808546,-28.350216],[152.808904,-28.342765],[152.818441,-28.335629],[152.823263,-28.335392],[152.824504,-28.328424],[152.831926,-28.319961],[152.83864,-28.322021],[152.847576,-28.31579],[152.848701,-28.312335],[152.858413,-28.311206],[152.865537,-28.313051],[152.882129,-28.312092],[152.893614,-28.318052],[152.898906,-28.324718],[152.909212,-28.32667],[152.914829,-28.330026],[152.923737,-28.331808],[152.933471,-28.338183],[152.941574,-28.334512],[152.973663,-28.332068],[152.983261,-28.337892],[152.98917,-28.336675],[152.996234,-28.339964],[153.003161,-28.33966],[153.010397,-28.341612],[153.018254,-28.33903],[153.029918,-28.340017],[153.039112,-28.342938],[153.04606,-28.339455],[153.049015,-28.342055],[153.065283,-28.344234],[153.074254,-28.352029],[153.080842,-28.354211],[153.091264,-28.353991],[153.100722,-28.357661],[153.1094,-28.35744],[153.112724,-28.35409],[153.116927,-28.343028],[153.123599,-28.340176],[153.12974,-28.329282],[153.124149,-28.322671],[153.124164,-28.319336],[153.132643,-28.317157],[153.13522,-28.31209],[153.14351,-28.311487],[153.143269,-28.30471],[153.151708,-28.302145],[153.154503,-28.295889],[153.165821,-28.296956],[153.168878,-28.2929],[153.165761,-28.284968],[153.161063,-28.2801],[153.174911,-28.274777],[153.171729,-28.260256],[153.178214,-28.247395],[153.184434,-28.246209],[153.191075,-28.249738],[153.19715,-28.255827],[153.207883,-28.253579],[153.213888,-28.259939],[153.219835,-28.263143],[153.232793,-28.265143],[153.235582,-28.256693],[153.243881,-28.247515],[153.24962,-28.247658],[153.264137,-28.243548],[153.269065,-28.23862],[153.27409,-28.238156],[153.280601,-28.233606],[153.287774,-28.235154],[153.296863,-28.234233]]]},"bbox":[151.942079,-28.363914,153.370122,-27.386466]}]}