{"type":"FeatureCollection","features":[
{"properties":{"electorateShortName":"aston","electorateName":"Aston","area":113.78,"state":"VIC"},"type":"Feature","geometry":{"type":"Polygon","coordinates":[[[145.29336,-37.963976],[145.302495,-37.92262],[145.29272,-37.907225],[145.296978,-37.901218],[145.320568,-37.899203],[145.303548,-37.885459],[145.308496,-37.871066],[145.303827,-37.863449],[145.327001,-37.866088],[145.33662,-37.856186],[145.332829,-37.847435],[145.317973,-37.843919],[145.293521,-37.834061],[145.280743,-37.833181],[145.23186,-37.840065],[145.21454,-37.839429],[145.209542,-37.851429],[145.19571,-37.865174],[145.191381,-37.87733],[145.200424,-37.893002],[145.206496,-37.931251],[145.219188,-37.940148],[145.279621,-37.947596],[145.29336,-37.963976]]]},"bbox":[145.191381,-37.963976,145.33662,-37.833181]}]}