{"type":"FeatureCollection","features":[
{"properties":{"electorateShortName":"ballarat","electorateName":"Ballarat","area":4322.38,"state":"VIC"},"type":"Feature","geometry":{"type":"Polygon","coordinates":[[[144.556225,-37.5589],[144.459283,-37.546397],[144.472419,-37.431558],[144.450203,-37.45065],[144.379278,-37.438789],[144.381967,-37.393327],[144.419031,-37.360507],[144.394957,-37.332105],[144.3104,-37.292786],[144.362987,-37.1794],[144.292162,-37.16357],[144.284252,-37.208014],[144.185148,-37.195358],[144.190446,-37.166139],[144.074341,-37.14766],[144.060778,-37.236051],[144.002785,-37.255481],[143.94897,-37.197995],[143.875002,-37.186402],[143.860272,-37.234298],[143.665129,-37.236655],[143.613246,-37.500982],[143.756956,-37.594469],[143.83196,-37.61873],[143.834628,-37.665216],[143.890057,-37.717462],[143.892573,-37.787295],[143.918605,-37.809731],[143.939214,-37.823657],[144.049687,-37.826215],[144.060212,-37.795771],[144.222446,-37.810201],[144.296016,-37.819565],[144.416318,-37.809953],[144.444053,-37.864132],[144.477678,-37.781013],[144.490583,-37.705698],[144.519055,-37.706734],[144.52329,-37.603215],[144.556225,-37.5589]]]},"bbox":[143.613246,-37.864132,144.556225,-37.14766]}]}