{"type":"FeatureCollection","features":[
{"properties":{"electorateShortName":"bean","electorateName":"Bean","area":1913.969737,"state":"ACT"},"type":"Feature","geometry":{"type":"MultiPolygon","coordinates":[[[[148.961731,-35.218467],[148.810041,-35.307412],[148.808702,-35.382373],[148.762675,-35.495505],[148.768473,-35.603186],[148.788417,-35.69774],[148.834726,-35.740511],[148.889403,-35.722723],[148.912654,-35.85546],[148.958406,-35.891788],[149.048811,-35.92041],[149.101088,-35.805063],[149.109483,-35.69664],[149.078148,-35.586417],[149.140486,-35.588292],[149.147175,-35.414151],[149.206345,-35.345905],[149.069556,-35.34837],[149.033922,-35.265958],[148.979653,-35.25937],[148.961731,-35.218467]]],[[[167.82914756990164,-29.03761620986369],[167.85698028875942,-29.15094162022373],[167.93247987763982,-29.221112516789887],[167.99912819946843,-29.20884773723631],[168.0439068720894,-29.16360639736982],[168.08435949541587,-29.05796224602058],[168.08666362691164,-29.013321594575746],[168.04872476902204,-28.953015319262146],[167.9190038618016,-28.905293081763933],[167.8535358886041,-28.93418929071207],[167.82914756990164,-29.03761620986369]]]]},"bbox":[148.762675,-35.92041,168.08666362691164,-28.905293081763933]}]}