{"type":"FeatureCollection","features":[
{"properties":{"electorateShortName":"bean","electorateName":"Bean","area":1913.969737,"state":"ACT"},"type":"Feature","geometry":{"type":"MultiPolygon","coordinates":[[[[149.206345,-35.345905],[149.203401,-35.343707],[149.191732,-35.344058],[149.176195,-35.337632],[149.15875,-35.341648],[149.147553,-35.34524],[149.137208,-35.344117],[149.124797,-35.347758],[149.114291,-35.345143],[149.100461,-35.350697],[149.098612,-35.343853],[149.088741,-35.336927],[149.082634,-35.339486],[149.084113,-35.34887],[149.069556,-35.34837],[149.063437,-35.331451],[149.063934,-35.321315],[149.062358,-35.306344],[149.072333,-35.293584],[149.083611,-35.285805],[149.086357,-35.280492],[149.076306,-35.276682],[149.068163,-35.275677],[149.051275,-35.269336],[149.039087,-35.269816],[149.033922,-35.265958],[149.023894,-35.276838],[149.018413,-35.279818],[149.016765,-35.271791],[149.007625,-35.272079],[149.002417,-35.261831],[148.987715,-35.262346],[148.979653,-35.25937],[148.962525,-35.243979],[148.976254,-35.238837],[148.968677,-35.231135],[148.961731,-35.218467],[148.810041,-35.307412],[148.800865,-35.321723],[148.801531,-35.329267],[148.793247,-35.339156],[148.79859,-35.348352],[148.796395,-35.358616],[148.805565,-35.365361],[148.804108,-35.376121],[148.808702,-35.382373],[148.803648,-35.388739],[148.795719,-35.39292],[148.796119,-35.406549],[148.785764,-35.408748],[148.788884,-35.417792],[148.788868,-35.426382],[148.780917,-35.433227],[148.774822,-35.44174],[148.773002,-35.449316],[148.77594,-35.454683],[148.771723,-35.463436],[148.767058,-35.465405],[148.766886,-35.471056],[148.77063,-35.475563],[148.774462,-35.484882],[148.765183,-35.490825],[148.762675,-35.495505],[148.765516,-35.504936],[148.768588,-35.507999],[148.768105,-35.524448],[148.772364,-35.529329],[148.769231,-35.544096],[148.778231,-35.558852],[148.778514,-35.563669],[148.773018,-35.567911],[148.782467,-35.581287],[148.788758,-35.588179],[148.783191,-35.595258],[148.77436,-35.597897],[148.768473,-35.603186],[148.780439,-35.617586],[148.779467,-35.622625],[148.783462,-35.628342],[148.78043,-35.63286],[148.770818,-35.639938],[148.773636,-35.655457],[148.783304,-35.656231],[148.790554,-35.659235],[148.798519,-35.666869],[148.796589,-35.682524],[148.791407,-35.689557],[148.788417,-35.69774],[148.796565,-35.709449],[148.814138,-35.719859],[148.818749,-35.718718],[148.827871,-35.726148],[148.834726,-35.740511],[148.847093,-35.750469],[148.854026,-35.751082],[148.854938,-35.759197],[148.862456,-35.75755],[148.860737,-35.752874],[148.867477,-35.738702],[148.86407,-35.733869],[148.871608,-35.725564],[148.877693,-35.714936],[148.883614,-35.717122],[148.889403,-35.722723],[148.892479,-35.730487],[148.888368,-35.733671],[148.894087,-35.751288],[148.898777,-35.751215],[148.903348,-35.757798],[148.902312,-35.763202],[148.895221,-35.770611],[148.894956,-35.784627],[148.897776,-35.79465],[148.886623,-35.810063],[148.892426,-35.816626],[148.896577,-35.817924],[148.897596,-35.82472],[148.907065,-35.829563],[148.903249,-35.834182],[148.903936,-35.842505],[148.907788,-35.850765],[148.912654,-35.85546],[148.920059,-35.85729],[148.919783,-35.86079],[148.932237,-35.870567],[148.932719,-35.87365],[148.940614,-35.875839],[148.944562,-35.881391],[148.958406,-35.891788],[148.959133,-35.895456],[148.977311,-35.892423],[148.98951,-35.895988],[148.997983,-35.896887],[148.997398,-35.900995],[149.00882,-35.901306],[149.012198,-35.899697],[149.022681,-35.906086],[149.027606,-35.912892],[149.0337,-35.911196],[149.041232,-35.914611],[149.048811,-35.92041],[149.054498,-35.91453],[149.057133,-35.907397],[149.051698,-35.903534],[149.061738,-35.891448],[149.061711,-35.879879],[149.086574,-35.848248],[149.095682,-35.845716],[149.091978,-35.835416],[149.094725,-35.828766],[149.093517,-35.824221],[149.095931,-35.817612],[149.100583,-35.814811],[149.101088,-35.805063],[149.097099,-35.799674],[149.100232,-35.789757],[149.093498,-35.787226],[149.093144,-35.783159],[149.097391,-35.777414],[149.09165,-35.773939],[149.090716,-35.7656],[149.096438,-35.75278],[149.096198,-35.743805],[149.100699,-35.736392],[149.099056,-35.729323],[149.104194,-35.72427],[149.099371,-35.716218],[149.101939,-35.708017],[149.107524,-35.702358],[149.109483,-35.69664],[149.095037,-35.676784],[149.09729,-35.67359],[149.095693,-35.667164],[149.097495,-35.647313],[149.095717,-35.640344],[149.087612,-35.639697],[149.087607,-35.627558],[149.08419,-35.621677],[149.084525,-35.614644],[149.079234,-35.607749],[149.078148,-35.586417],[149.084614,-35.580814],[149.108345,-35.58398],[149.12552,-35.587203],[149.130268,-35.590785],[149.14251,-35.59257],[149.140486,-35.588292],[149.131546,-35.556102],[149.132384,-35.549458],[149.150195,-35.510604],[149.151279,-35.506926],[149.150948,-35.48986],[149.144637,-35.475775],[149.139986,-35.470084],[149.135821,-35.453436],[149.142171,-35.451395],[149.143794,-35.447029],[149.151478,-35.443994],[149.154867,-35.437382],[149.152273,-35.433434],[149.140435,-35.433999],[149.138667,-35.428319],[149.144486,-35.423693],[149.147175,-35.414151],[149.156562,-35.408065],[149.182191,-35.380848],[149.187118,-35.374614],[149.204403,-35.347787],[149.206345,-35.345905]]],[[[167.998035,-29.028973],[167.983574,-29.022908],[167.970925,-29.021446],[167.96609,-29.018054],[167.963538,-29.011177],[167.957325,-29.007057],[167.942405,-29.002631],[167.931272,-29.001874],[167.921454,-28.997542],[167.918881,-29.001287],[167.920495,-29.016332],[167.91913,-29.023966],[167.92157,-29.0301],[167.918729,-29.034149],[167.919545,-29.041256],[167.925116,-29.051363],[167.933154,-29.05393],[167.936713,-29.063232],[167.941956,-29.061683],[167.947805,-29.056371],[167.959402,-29.058808],[167.962459,-29.062884],[167.967753,-29.061647],[167.969446,-29.056956],[167.983315,-29.057334],[167.987431,-29.054334],[167.983187,-29.04919],[167.994762,-29.046094],[167.99412,-29.031261],[167.998035,-29.028973]]],[[[167.965969,-29.116859],[167.960509,-29.114878],[167.953959,-29.116393],[167.946644,-29.113804],[167.941812,-29.120882],[167.947141,-29.129423],[167.954868,-29.120883],[167.96072,-29.124037],[167.965969,-29.116859]]]]},"bbox":[148.762675,-35.92041,167.998035,-28.997542]}]}