{"type":"FeatureCollection","features":[
{"properties":{"electorateShortName":"bendigo","electorateName":"Bendigo","area":5496.5,"state":"VIC"},"type":"Feature","geometry":{"type":"Polygon","coordinates":[[[144.703932,-37.212984],[144.728304,-37.065894],[144.714611,-36.997883],[144.796573,-36.965539],[144.844182,-36.872213],[144.798547,-36.832621],[144.794685,-36.750723],[144.666159,-36.762612],[144.666165,-36.725853],[144.519165,-36.72529],[144.537795,-36.655182],[144.626439,-36.52491],[144.611792,-36.49749],[144.671931,-36.443104],[144.668178,-36.406593],[144.369399,-36.407849],[144.344316,-36.385219],[144.344104,-36.48726],[144.209671,-36.487542],[144.170608,-36.524435],[144.125626,-36.662021],[144.068462,-36.662011],[144.071279,-36.766439],[144.025899,-36.897897],[143.891801,-36.881611],[143.846647,-36.927861],[143.89967,-37.021318],[143.973445,-37.029378],[144.012588,-37.066759],[143.9635,-37.107788],[143.94897,-37.197995],[144.002785,-37.255481],[144.060778,-37.236051],[144.074341,-37.14766],[144.190446,-37.166139],[144.185148,-37.195358],[144.284252,-37.208014],[144.292162,-37.16357],[144.362987,-37.1794],[144.3104,-37.292786],[144.394957,-37.332105],[144.379278,-37.438789],[144.472419,-37.431558],[144.561633,-37.385539],[144.638935,-37.311301],[144.617372,-37.240913],[144.703932,-37.212984]]]},"bbox":[143.846647,-37.438789,144.844182,-36.385219]}]}