{"type":"FeatureCollection","features":[
{"properties":{"electorateShortName":"blair","electorateName":"Blair","area":6472.04186,"state":"QLD"},"type":"Feature","geometry":{"type":"Polygon","coordinates":[[[152.927745,-27.685328],[152.91509,-27.685682],[152.90495,-27.674568],[152.892916,-27.667715],[152.876065,-27.666763],[152.866864,-27.677787],[152.871629,-27.646639],[152.856419,-27.644506],[152.854983,-27.636885],[152.860382,-27.607079],[152.860306,-27.598022],[152.849693,-27.565837],[152.852999,-27.541706],[152.841179,-27.515698],[152.844804,-27.506726],[152.842256,-27.495533],[152.828979,-27.490793],[152.813051,-27.477849],[152.80679,-27.492879],[152.79526,-27.497085],[152.791098,-27.49141],[152.780348,-27.492206],[152.767394,-27.488307],[152.748793,-27.495279],[152.737839,-27.464647],[152.744119,-27.460133],[152.747202,-27.443026],[152.74272,-27.436379],[152.747525,-27.423266],[152.747224,-27.407082],[152.74361,-27.394694],[152.737133,-27.392764],[152.736847,-27.373346],[152.733235,-27.366633],[152.72201,-27.365085],[152.723898,-27.353974],[152.707818,-27.351805],[152.690506,-27.370119],[152.679693,-27.372265],[152.684185,-27.348788],[152.710194,-27.332553],[152.719551,-27.323462],[152.739167,-27.323338],[152.748503,-27.318755],[152.755955,-27.309791],[152.752239,-27.295442],[152.735071,-27.296989],[152.707174,-27.292227],[152.704612,-27.276974],[152.683571,-27.271608],[152.681754,-27.254029],[152.700217,-27.230227],[152.704162,-27.208798],[152.703542,-27.199205],[152.71227,-27.18874],[152.733396,-27.170662],[152.729063,-27.163772],[152.739334,-27.150934],[152.730528,-27.125867],[152.733514,-27.107431],[152.707961,-27.096277],[152.676139,-27.089025],[152.686287,-27.083222],[152.681869,-27.057197],[152.702502,-27.030798],[152.700802,-27.018279],[152.692763,-27.012456],[152.683276,-26.992162],[152.686968,-26.981351],[152.667724,-26.959074],[152.65177,-26.953824],[152.663073,-26.948173],[152.670042,-26.937133],[152.669575,-26.928163],[152.682187,-26.915165],[152.666678,-26.906261],[152.667396,-26.896242],[152.688433,-26.8969],[152.686637,-26.877573],[152.670009,-26.854815],[152.667209,-26.836027],[152.678469,-26.830364],[152.671966,-26.818928],[152.679024,-26.816434],[152.679196,-26.799965],[152.668978,-26.789814],[152.667303,-26.773009],[152.653191,-26.768669],[152.645682,-26.773659],[152.639082,-26.761777],[152.63249,-26.764392],[152.617242,-26.759476],[152.602456,-26.75788],[152.600099,-26.751798],[152.583307,-26.740432],[152.58682,-26.733463],[152.579365,-26.7162],[152.565078,-26.707218],[152.552933,-26.706037],[152.551472,-26.697519],[152.55744,-26.69189],[152.555738,-26.6805],[152.583203,-26.645384],[152.587784,-26.613991],[152.581473,-26.599678],[152.574012,-26.595474],[152.575195,-26.584007],[152.560405,-26.581838],[152.553989,-26.572576],[152.51149,-26.567389],[152.519817,-26.588308],[152.456971,-26.580891],[152.458536,-26.570989],[152.449059,-26.569788],[152.450857,-26.55842],[152.440343,-26.557075],[152.4431,-26.544445],[152.436135,-26.537588],[152.435708,-26.523785],[152.444132,-26.505895],[152.444737,-26.487111],[152.438608,-26.486246],[152.442847,-26.460453],[152.424636,-26.464515],[152.412067,-26.46449],[152.402705,-26.474046],[152.390065,-26.476111],[152.376622,-26.472418],[152.370763,-26.462442],[152.340519,-26.469829],[152.330231,-26.476067],[152.319366,-26.478005],[152.296741,-26.46474],[152.283717,-26.452212],[152.27318,-26.454072],[152.271306,-26.464931],[152.258847,-26.470152],[152.253135,-26.484574],[152.233257,-26.491897],[152.23124,-26.507415],[152.2063,-26.508644],[152.195163,-26.495239],[152.182078,-26.484073],[152.167652,-26.475419],[152.149888,-26.482675],[152.135867,-26.480062],[152.136728,-26.493722],[152.125717,-26.50656],[152.126421,-26.531617],[152.135963,-26.566372],[152.130947,-26.574919],[152.137204,-26.582683],[152.137788,-26.596578],[152.130321,-26.600406],[152.13585,-26.614219],[152.12831,-26.62712],[152.126748,-26.637973],[152.098647,-26.653751],[152.081061,-26.657986],[152.073393,-26.66841],[152.076002,-26.685856],[152.082892,-26.689309],[152.088977,-26.699799],[152.112249,-26.706196],[152.134298,-26.730599],[152.152989,-26.727605],[152.150971,-26.740517],[152.163898,-26.742123],[152.155643,-26.754269],[152.155782,-26.76882],[152.168249,-26.772971],[152.176618,-26.779782],[152.170741,-26.796468],[152.176386,-26.809059],[152.174117,-26.821439],[152.190081,-26.823612],[152.187702,-26.837936],[152.181029,-26.846573],[152.184226,-26.871014],[152.172641,-26.875258],[152.170568,-26.867411],[152.146979,-26.879117],[152.138715,-26.894653],[152.14987,-26.904617],[152.143715,-26.911229],[152.143012,-26.924869],[152.128066,-26.944418],[152.125438,-26.954225],[152.138717,-26.96477],[152.150392,-26.966065],[152.168667,-26.977794],[152.182664,-26.97723],[152.188751,-26.993928],[152.186586,-27.006662],[152.198108,-27.008236],[152.220958,-27.022207],[152.219005,-27.026119],[152.199179,-27.027755],[152.194896,-27.056745],[152.227387,-27.060991],[152.214332,-27.069944],[152.214305,-27.075087],[152.191318,-27.072344],[152.185236,-27.061433],[152.181248,-27.08612],[152.174357,-27.097601],[152.141842,-27.126549],[152.134036,-27.141624],[152.188492,-27.169149],[152.185497,-27.176236],[152.169476,-27.187161],[152.161754,-27.189325],[152.158854,-27.206431],[152.174034,-27.211087],[152.179789,-27.205384],[152.215077,-27.208955],[152.220465,-27.201307],[152.236149,-27.203708],[152.232916,-27.222364],[152.218414,-27.232553],[152.201326,-27.240251],[152.190906,-27.242078],[152.182029,-27.252194],[152.158259,-27.259283],[152.151987,-27.269404],[152.162347,-27.282286],[152.170448,-27.286666],[152.182785,-27.273575],[152.194461,-27.275415],[152.199343,-27.28847],[152.206186,-27.292046],[152.192367,-27.311241],[152.1901,-27.320353],[152.201485,-27.322022],[152.195973,-27.340833],[152.19148,-27.365797],[152.201494,-27.359692],[152.198344,-27.377657],[152.191723,-27.386849],[152.208739,-27.390122],[152.227584,-27.388151],[152.260969,-27.392627],[152.258174,-27.409055],[152.262864,-27.416149],[152.278751,-27.409448],[152.283088,-27.401516],[152.291301,-27.400216],[152.294252,-27.427353],[152.310355,-27.4293],[152.315421,-27.39879],[152.342604,-27.402308],[152.343855,-27.399339],[152.373374,-27.40198],[152.390696,-27.412183],[152.401603,-27.414978],[152.399496,-27.428407],[152.435551,-27.441566],[152.435751,-27.457892],[152.44454,-27.463543],[152.457613,-27.464453],[152.472109,-27.472978],[152.480304,-27.482996],[152.472112,-27.486869],[152.477546,-27.496266],[152.474862,-27.508147],[152.499344,-27.511697],[152.492425,-27.551174],[152.518658,-27.55202],[152.512467,-27.574398],[152.507792,-27.581107],[152.497013,-27.582952],[152.504438,-27.595918],[152.487956,-27.603311],[152.472369,-27.626758],[152.465415,-27.647256],[152.454721,-27.66096],[152.448002,-27.654929],[152.430862,-27.651199],[152.421459,-27.654289],[152.422631,-27.663687],[152.411128,-27.681393],[152.396486,-27.68639],[152.390738,-27.697781],[152.413491,-27.70095],[152.409057,-27.707771],[152.410124,-27.720814],[152.40512,-27.749128],[152.39187,-27.75685],[152.389499,-27.769572],[152.395397,-27.781917],[152.40876,-27.796118],[152.407051,-27.805512],[152.393344,-27.809737],[152.391951,-27.817693],[152.400711,-27.824761],[152.394859,-27.830898],[152.401438,-27.853191],[152.40235,-27.863703],[152.440491,-27.859868],[152.451324,-27.802114],[152.462144,-27.803649],[152.467491,-27.783239],[152.481302,-27.785237],[152.494497,-27.783426],[152.499085,-27.758374],[152.519312,-27.761203],[152.523713,-27.736351],[152.522957,-27.726932],[152.52928,-27.717604],[152.598213,-27.726267],[152.607643,-27.737099],[152.638217,-27.741605],[152.639126,-27.736556],[152.655971,-27.738306],[152.663456,-27.749382],[152.684323,-27.752489],[152.68639,-27.746861],[152.704356,-27.749604],[152.707541,-27.758344],[152.757806,-27.767276],[152.762682,-27.772949],[152.760611,-27.785257],[152.784822,-27.788828],[152.79089,-27.793757],[152.80601,-27.793692],[152.8033,-27.785586],[152.808032,-27.758656],[152.835997,-27.755743],[152.856789,-27.757269],[152.857944,-27.751123],[152.873325,-27.753449],[152.882789,-27.747358],[152.890651,-27.70359],[152.922871,-27.708124],[152.927745,-27.685328]]]},"bbox":[152.073393,-27.863703,152.927745,-26.452212]}]}