{"type":"FeatureCollection","features":[
{"properties":{"electorateShortName":"bonner","electorateName":"Bonner","area":371.337195,"state":"QLD"},"type":"Feature","geometry":{"type":"Polygon","coordinates":[[[153.453271,-27.388101],[153.429513,-27.364644],[153.437221,-27.34178],[153.436867,-27.329219],[153.43445,-27.317881],[153.42342,-27.301981],[153.417941,-27.276896],[153.416614,-27.256256],[153.418166,-27.216567],[153.427924,-27.154869],[153.451298,-27.072266],[153.461551,-27.044186],[153.464048,-27.038705],[153.466309,-27.039038],[153.466129,-27.036198],[153.46768,-27.034651],[153.46821,-27.027783],[153.459137,-27.02727],[153.45929,-27.025566],[153.454743,-27.023715],[153.454737,-27.021965],[153.449296,-27.027039],[153.436797,-27.031987],[153.403674,-27.033263],[153.361762,-27.060281],[153.166192,-27.365349],[153.160637,-27.381531],[153.154117,-27.390805],[153.153136,-27.397989],[153.14948,-27.403618],[153.148538,-27.406628],[153.144016,-27.415491],[153.140625,-27.419421],[153.135068,-27.423184],[153.122633,-27.429539],[153.117358,-27.433636],[153.113685,-27.437984],[153.108127,-27.442165],[153.099932,-27.445258],[153.101732,-27.446872],[153.106651,-27.455804],[153.104202,-27.456554],[153.102331,-27.455963],[153.098552,-27.456893],[153.096558,-27.467335],[153.09537,-27.475425],[153.096065,-27.477167],[153.095588,-27.481659],[153.098015,-27.48456],[153.101867,-27.491458],[153.100708,-27.499012],[153.094751,-27.53073],[153.093945,-27.531787],[153.088238,-27.524668],[153.083738,-27.521747],[153.071656,-27.529366],[153.065051,-27.522179],[153.06343,-27.520937],[153.055774,-27.525627],[153.056874,-27.528799],[153.058732,-27.537705],[153.060743,-27.542815],[153.074079,-27.55861],[153.078403,-27.562525],[153.08997,-27.569979],[153.098291,-27.574891],[153.100411,-27.577268],[153.111147,-27.593945],[153.122004,-27.595445],[153.123314,-27.587311],[153.140206,-27.58972],[153.142671,-27.591231],[153.147369,-27.590548],[153.149264,-27.591193],[153.1562,-27.591814],[153.159854,-27.595912],[153.163978,-27.597765],[153.16674,-27.600676],[153.171384,-27.603368],[153.173197,-27.606113],[153.175711,-27.606616],[153.178775,-27.604981],[153.176063,-27.601664],[153.171549,-27.599449],[153.174165,-27.595496],[153.171846,-27.591092],[153.174555,-27.589474],[153.175079,-27.588122],[153.177625,-27.586712],[153.177074,-27.584009],[153.179038,-27.581489],[153.177632,-27.578562],[153.182553,-27.57366],[153.179788,-27.570174],[153.180526,-27.56704],[153.181959,-27.564403],[153.181914,-27.562327],[153.186783,-27.560479],[153.191323,-27.560891],[153.191616,-27.558465],[153.189957,-27.556389],[153.189677,-27.553127],[153.188718,-27.551722],[153.182918,-27.550309],[153.183336,-27.544731],[153.180339,-27.541217],[153.178934,-27.542613],[153.175022,-27.542549],[153.171818,-27.536719],[153.172345,-27.535069],[153.178785,-27.531114],[153.181635,-27.528342],[153.18465,-27.529055],[153.185898,-27.52761],[153.184178,-27.522121],[153.188827,-27.517948],[153.193855,-27.518133],[153.193463,-27.515241],[153.19562,-27.514984],[153.196853,-27.516626],[153.201296,-27.514038],[153.201655,-27.512635],[153.198884,-27.511906],[153.197236,-27.50976],[153.195285,-27.509721],[153.193695,-27.508051],[153.190186,-27.508208],[153.19047,-27.506022],[153.187651,-27.503456],[153.184486,-27.502503],[153.186236,-27.499834],[153.185741,-27.498467],[153.187862,-27.494943],[153.191791,-27.492306],[153.18745,-27.490901],[153.186627,-27.486759],[153.188111,-27.484049],[153.196521,-27.481567],[153.197578,-27.480136],[153.197125,-27.474135],[153.197919,-27.471206],[153.201,-27.468066],[153.216586,-27.468238],[153.21773,-27.448402],[153.252947,-27.439288],[153.347567,-27.414748],[153.41917,-27.396128],[153.444361,-27.389399],[153.449728,-27.389953],[153.453271,-27.388101]]]},"bbox":[153.055774,-27.606616,153.46821,-27.021965]}]}