{"type":"FeatureCollection","features":[
{"properties":{"electorateShortName":"boothby","electorateName":"Boothby","area":115.62,"state":"SA"},"type":"Feature","geometry":{"type":"Polygon","coordinates":[[[138.586311,-35.037955],[138.648654,-35.015738],[138.675338,-34.974486],[138.626439,-34.964559],[138.554992,-34.967237],[138.508578,-34.964393],[138.498198,-34.938993],[138.4819803588078,-34.87875594234744],[138.46962543368903,-34.88325917488501],[138.45455916031403,-34.89240713361652],[138.42368681053227,-34.934501764649895],[138.4187080411236,-34.9692293717344],[138.41973648309445,-34.98263422336798],[138.4192780288162,-34.98739837266335],[138.42000091782026,-35.00083707282295],[138.4221870540429,-35.01770022592073],[138.41963568545205,-35.024364120814546],[138.41515762425473,-35.04033515402293],[138.41368654337543,-35.05685674156398],[138.43449991952323,-35.11472109852079],[138.44602199288732,-35.12659813606894],[138.44739199288733,-35.12777213606894],[138.46975,-35.140369],[138.493568,-35.084609],[138.503686,-35.056544],[138.586311,-35.037955]]]},"bbox":[138.41368654337543,-35.140369,138.675338,-34.87875594234744]}]}