{"type":"FeatureCollection","features":[
{"properties":{"electorateShortName":"braddon","electorateName":"Braddon","area":21369.238842,"state":"TAS"},"type":"Feature","geometry":{"type":"MultiPolygon","coordinates":[[[[146.703586,-41.33269],[146.706567,-41.320062],[146.700694,-41.316447],[146.705178,-41.297782],[146.708894,-41.302783],[146.712318,-41.301709],[146.714968,-41.302371],[146.714316,-41.305445],[146.71844,-41.305944],[146.719814,-41.299682],[146.727461,-41.300616],[146.728315,-41.296748],[146.733231,-41.297285],[146.736684,-41.295977],[146.749477,-41.29752],[146.751637,-41.287515],[146.761795,-41.288744],[146.76206,-41.287177],[146.73442,-41.23854],[146.695626,-41.17027],[146.699257,-41.157781],[146.695565,-41.13299],[146.664641,-41.11102],[146.658419,-41.110296],[146.661412,-41.096121],[146.652826,-41.092496],[146.651895,-41.094549],[146.647095,-41.093819],[146.646576,-41.095615],[146.642277,-41.096686],[146.647955,-41.110144],[146.642598,-41.114581],[146.636857,-41.115118],[146.635042,-41.117001],[146.635978,-41.1213],[146.633798,-41.125396],[146.616347,-41.135819],[146.601179,-41.14279],[146.585213,-41.14719],[146.57199,-41.148803],[146.565381,-41.147913],[146.563752,-41.149484],[146.564958,-41.15096],[146.562047,-41.154341],[146.561569,-41.157934],[146.566707,-41.163766],[146.574986,-41.161109],[146.578425,-41.157329],[146.579209,-41.155145],[146.589311,-41.158771],[146.595414,-41.156004],[146.599576,-41.157312],[146.601556,-41.154079],[146.601657,-41.151886],[146.607719,-41.155235],[146.604134,-41.15558],[146.601621,-41.159306],[146.595729,-41.16195],[146.595022,-41.164375],[146.595303,-41.167972],[146.591149,-41.166358],[146.591107,-41.164981],[146.584768,-41.167896],[146.582073,-41.174828],[146.582938,-41.181006],[146.578354,-41.184684],[146.58289,-41.188662],[146.583255,-41.190846],[146.581853,-41.194494],[146.578055,-41.197681],[146.581569,-41.19762],[146.587055,-41.200864],[146.590526,-41.208356],[146.588828,-41.21029],[146.587867,-41.214271],[146.592831,-41.213111],[146.596763,-41.217175],[146.598936,-41.213473],[146.604638,-41.209087],[146.606553,-41.209091],[146.609228,-41.21204],[146.603282,-41.21238],[146.600374,-41.21564],[146.603207,-41.221797],[146.599365,-41.225783],[146.601125,-41.226922],[146.599973,-41.228848],[146.603594,-41.228937],[146.603142,-41.23059],[146.599562,-41.233032],[146.598769,-41.235078],[146.600625,-41.240754],[146.595039,-41.250654],[146.604219,-41.25398],[146.598895,-41.254841],[146.593914,-41.251432],[146.596286,-41.247973],[146.595121,-41.244858],[146.597192,-41.239598],[146.593201,-41.225942],[146.595469,-41.224331],[146.596177,-41.219731],[146.590593,-41.216415],[146.586218,-41.216474],[146.585543,-41.214214],[146.587454,-41.208831],[146.585031,-41.20509],[146.583077,-41.205938],[146.582832,-41.209415],[146.58489,-41.213949],[146.583226,-41.217244],[146.584369,-41.219381],[146.583418,-41.222754],[146.577594,-41.226249],[146.573322,-41.231425],[146.568773,-41.233048],[146.569874,-41.234184],[146.576152,-41.233855],[146.57584,-41.239761],[146.570773,-41.244451],[146.565982,-41.244247],[146.568936,-41.240691],[146.571744,-41.242465],[146.572988,-41.239339],[146.561097,-41.238444],[146.564211,-41.237121],[146.564666,-41.228168],[146.567611,-41.226336],[146.570533,-41.227453],[146.575442,-41.222329],[146.575723,-41.220171],[146.57051,-41.216334],[146.568035,-41.211302],[146.567846,-41.203634],[146.562407,-41.197311],[146.564867,-41.19444],[146.563538,-41.192743],[146.572984,-41.189146],[146.569206,-41.184996],[146.568919,-41.177839],[146.553638,-41.171486],[146.547639,-41.169971],[146.547982,-41.168461],[146.558527,-41.172486],[146.561994,-41.167384],[146.554396,-41.160764],[146.54608,-41.158954],[146.541777,-41.155056],[146.541975,-41.151719],[146.544827,-41.150635],[146.545663,-41.147903],[146.542043,-41.142449],[146.54381,-41.136583],[146.543366,-41.131141],[146.545716,-41.129549],[146.54378,-41.126535],[146.5375,-41.125259],[146.531894,-41.118429],[146.527306,-41.121996],[146.529647,-41.12664],[146.527544,-41.130501],[146.519351,-41.136185],[146.493271,-41.149395],[146.465277,-41.159568],[146.454127,-41.161057],[146.450346,-41.15943],[146.426954,-41.163193],[146.424382,-41.162339],[146.412352,-41.168747],[146.395613,-41.172722],[146.391576,-41.172903],[146.38349,-41.16912],[146.368877,-41.172243],[146.368922,-41.17397],[146.366346,-41.174374],[146.365113,-41.177668],[146.369695,-41.193808],[146.362334,-41.200687],[146.366085,-41.203738],[146.37099,-41.204153],[146.381086,-41.219102],[146.38571,-41.22329],[146.400335,-41.228252],[146.401722,-41.230722],[146.400488,-41.233444],[146.395813,-41.23174],[146.397788,-41.229262],[146.397043,-41.227907],[146.391798,-41.227809],[146.389181,-41.229807],[146.38635,-41.22836],[146.384725,-41.228853],[146.38141,-41.231938],[146.374908,-41.228185],[146.370231,-41.224105],[146.372892,-41.22271],[146.371122,-41.217406],[146.369771,-41.220335],[146.36526,-41.218316],[146.365224,-41.21567],[146.367069,-41.21309],[146.364183,-41.208433],[146.359065,-41.209432],[146.351518,-41.211783],[146.350022,-41.209205],[146.353743,-41.207427],[146.35619,-41.203896],[146.354796,-41.200543],[146.359431,-41.201148],[146.36683,-41.192633],[146.366304,-41.189821],[146.363386,-41.187624],[146.363631,-41.179515],[146.362145,-41.175757],[146.366804,-41.165248],[146.359045,-41.16446],[146.356027,-41.161821],[146.358061,-41.159683],[146.35686,-41.158478],[146.353478,-41.158392],[146.351228,-41.162018],[146.344781,-41.160767],[146.340848,-41.162526],[146.33651,-41.16028],[146.331541,-41.163776],[146.332397,-41.165381],[146.331082,-41.168236],[146.326095,-41.169839],[146.322345,-41.173697],[146.32092,-41.172507],[146.329653,-41.167173],[146.330823,-41.163656],[146.3296,-41.161493],[146.333682,-41.160476],[146.331938,-41.157658],[146.323329,-41.154069],[146.316408,-41.156607],[146.31357,-41.1552],[146.310722,-41.157774],[146.303294,-41.159703],[146.28731,-41.160682],[146.274944,-41.158577],[146.269136,-41.154657],[146.255419,-41.15182],[146.251244,-41.156828],[146.252981,-41.163923],[146.251823,-41.167695],[146.253157,-41.173358],[146.24954,-41.181734],[146.249684,-41.175817],[146.246863,-41.176033],[146.246097,-41.178388],[146.2436,-41.177217],[146.248113,-41.170256],[146.247071,-41.168717],[146.250851,-41.163746],[146.250487,-41.159061],[146.248447,-41.157119],[146.22727,-41.160026],[146.216661,-41.154249],[146.2058,-41.155046],[146.202779,-41.1515],[146.200455,-41.150924],[146.185787,-41.152979],[146.169161,-41.150208],[146.17009,-41.154501],[146.168523,-41.15747],[146.158335,-41.15907],[146.157739,-41.161294],[146.153897,-41.162905],[146.148677,-41.166125],[146.145661,-41.165374],[146.143335,-41.166833],[146.1423,-41.164423],[146.144626,-41.161491],[146.13553,-41.163194],[146.13197,-41.159008],[146.129428,-41.158995],[146.125367,-41.164903],[146.123954,-41.159238],[146.129402,-41.154918],[146.136338,-41.15627],[146.136082,-41.15846],[146.144636,-41.15765],[146.14759,-41.161147],[146.150106,-41.160545],[146.152241,-41.162297],[146.155202,-41.157653],[146.153264,-41.1559],[146.154381,-41.154331],[146.160605,-41.153649],[146.163189,-41.15675],[146.167658,-41.156277],[146.165437,-41.14797],[146.167434,-41.146616],[146.163222,-41.144805],[146.161034,-41.141182],[146.148224,-41.141133],[146.142817,-41.139957],[146.137799,-41.13674],[146.128806,-41.135313],[146.125295,-41.132335],[146.127831,-41.125185],[146.119775,-41.121737],[146.119656,-41.118948],[146.115514,-41.12094],[146.104368,-41.121118],[146.102091,-41.120334],[146.1012,-41.117887],[146.077354,-41.115568],[146.071792,-41.112443],[146.069069,-41.109198],[146.070067,-41.108026],[146.064062,-41.104691],[146.064334,-41.102699],[146.055246,-41.101167],[146.051123,-41.102616],[146.046556,-41.101926],[146.042709,-41.09719],[146.032689,-41.096489],[146.028614,-41.094328],[146.028905,-41.092438],[146.021056,-41.092219],[146.018222,-41.089994],[146.012446,-41.088811],[146.004495,-41.081701],[146.003523,-41.078915],[145.985844,-41.074108],[145.987077,-41.077279],[145.981789,-41.07919],[145.976424,-41.078849],[145.976059,-41.077213],[145.984127,-41.077253],[145.984517,-41.074802],[145.975343,-41.071243],[145.971582,-41.067923],[145.966704,-41.067706],[145.964876,-41.065313],[145.958099,-41.063036],[145.954861,-41.063151],[145.953442,-41.065113],[145.943989,-41.065319],[145.93931,-41.067246],[145.9249,-41.066182],[145.924947,-41.06769],[145.912594,-41.060563],[145.915186,-41.057311],[145.9128,-41.053926],[145.912816,-41.051111],[145.914726,-41.049879],[145.904187,-41.048721],[145.899106,-41.043754],[145.894351,-41.046123],[145.892443,-41.044755],[145.884718,-41.044681],[145.882909,-41.0423],[145.879279,-41.042656],[145.877089,-41.036858],[145.870367,-41.04008],[145.852593,-41.040607],[145.841021,-41.038702],[145.838866,-41.038859],[145.827539,-41.036082],[145.825227,-41.033904],[145.818685,-41.033613],[145.807102,-41.029549],[145.806563,-41.026623],[145.800869,-41.026184],[145.79026,-41.017589],[145.785116,-41.01577],[145.785895,-41.012293],[145.781573,-41.011087],[145.780793,-41.006402],[145.773725,-41.002731],[145.768533,-40.996881],[145.761161,-40.996993],[145.757617,-40.993643],[145.743729,-40.990413],[145.738687,-40.987414],[145.731045,-40.987782],[145.723623,-40.980685],[145.720477,-40.980415],[145.71625,-40.981635],[145.715013,-40.98082],[145.720964,-40.978545],[145.73026,-40.983405],[145.732096,-40.986423],[145.741271,-40.985375],[145.730817,-40.980069],[145.729477,-40.974981],[145.724572,-40.968982],[145.726367,-40.96193],[145.733111,-40.95628],[145.732576,-40.947983],[145.72934,-40.944952],[145.722543,-40.94347],[145.714359,-40.946311],[145.709843,-40.943189],[145.701568,-40.941192],[145.694996,-40.940157],[145.690075,-40.941203],[145.680104,-40.938121],[145.676564,-40.939989],[145.662499,-40.938319],[145.660591,-40.939856],[145.653703,-40.940308],[145.63592,-40.933088],[145.626219,-40.933669],[145.6218,-40.932104],[145.618051,-40.928169],[145.613379,-40.925028],[145.609844,-40.927069],[145.607132,-40.926055],[145.602448,-40.926089],[145.595208,-40.923991],[145.593388,-40.9211],[145.587696,-40.918419],[145.589028,-40.916111],[145.584382,-40.915533],[145.583882,-40.913801],[145.560472,-40.916817],[145.546148,-40.909124],[145.544994,-40.906399],[145.548397,-40.903393],[145.539795,-40.900878],[145.535147,-40.894572],[145.537742,-40.891482],[145.531458,-40.893099],[145.522323,-40.887648],[145.519284,-40.882815],[145.519566,-40.880146],[145.518461,-40.878668],[145.522728,-40.876993],[145.518557,-40.872776],[145.51678,-40.87196],[145.513028,-40.866325],[145.510119,-40.864714],[145.510599,-40.861538],[145.513296,-40.861143],[145.511741,-40.856704],[145.510336,-40.854986],[145.511598,-40.853572],[145.502628,-40.851704],[145.50048,-40.855306],[145.502186,-40.856751],[145.499722,-40.859292],[145.495722,-40.859848],[145.488768,-40.86646],[145.482789,-40.867069],[145.481613,-40.868816],[145.453733,-40.871212],[145.44725,-40.874037],[145.448492,-40.875793],[145.446341,-40.878011],[145.447686,-40.880567],[145.445995,-40.882016],[145.449482,-40.884601],[145.448017,-40.887259],[145.442221,-40.889143],[145.437923,-40.888657],[145.446687,-40.886104],[145.445142,-40.881926],[145.446419,-40.880901],[145.445913,-40.877506],[145.44339,-40.876945],[145.443019,-40.874669],[145.446049,-40.87123],[145.427828,-40.867513],[145.420077,-40.864212],[145.41956,-40.861697],[145.413389,-40.861036],[145.409158,-40.856125],[145.404113,-40.856577],[145.403784,-40.854994],[145.398997,-40.85625],[145.398279,-40.857523],[145.389539,-40.853565],[145.389098,-40.851096],[145.384837,-40.850844],[145.382688,-40.849649],[145.374554,-40.851507],[145.37252,-40.849777],[145.367106,-40.85208],[145.343865,-40.851039],[145.328005,-40.844791],[145.315594,-40.837688],[145.313686,-40.840258],[145.315426,-40.845616],[145.311861,-40.845937],[145.313065,-40.843134],[145.30944,-40.843072],[145.311182,-40.846159],[145.307902,-40.846422],[145.308201,-40.840888],[145.313059,-40.836992],[145.312878,-40.835213],[145.297795,-40.81687],[145.28607,-40.797547],[145.281097,-40.793844],[145.280007,-40.794391],[145.287534,-40.802727],[145.293602,-40.826931],[145.292485,-40.825296],[145.288063,-40.824452],[145.284453,-40.82686],[145.284895,-40.830867],[145.280752,-40.829918],[145.279132,-40.827748],[145.280705,-40.823689],[145.284774,-40.820553],[145.282581,-40.817664],[145.275205,-40.816731],[145.273118,-40.813374],[145.269072,-40.811055],[145.266253,-40.800325],[145.267269,-40.796205],[145.271209,-40.801069],[145.273282,-40.789446],[145.288926,-40.766309],[145.293785,-40.763798],[145.296453,-40.764345],[145.296932,-40.767244],[145.301673,-40.768756],[145.305448,-40.767381],[145.308672,-40.764172],[145.305633,-40.760673],[145.297489,-40.758596],[145.294779,-40.754827],[145.293982,-40.750822],[145.296495,-40.749887],[145.299444,-40.7437],[145.296713,-40.742619],[145.295972,-40.73866],[145.292097,-40.737597],[145.291494,-40.735853],[145.281504,-40.738545],[145.275913,-40.735562],[145.269001,-40.727983],[145.268752,-40.72102],[145.264908,-40.719322],[145.260449,-40.712348],[145.252619,-40.715537],[145.253722,-40.717977],[145.251254,-40.722279],[145.253542,-40.725834],[145.250876,-40.729975],[145.25752,-40.732496],[145.261054,-40.740944],[145.260921,-40.745489],[145.268471,-40.746962],[145.269441,-40.758245],[145.263926,-40.775863],[145.26431,-40.784563],[145.266378,-40.786148],[145.26687,-40.789373],[145.259203,-40.799753],[145.258989,-40.80576],[145.254165,-40.806562],[145.241386,-40.8137],[145.225086,-40.81291],[145.21851,-40.809976],[145.241827,-40.801644],[145.252832,-40.791231],[145.248004,-40.790641],[145.217146,-40.801094],[145.187798,-40.804082],[145.15226,-40.802895],[145.139223,-40.800767],[145.119669,-40.794954],[145.110431,-40.794288],[145.109464,-40.796165],[145.112783,-40.801398],[145.119078,-40.799682],[145.13384,-40.802853],[145.138477,-40.804996],[145.140959,-40.811134],[145.142352,-40.808867],[145.145421,-40.808349],[145.152434,-40.809978],[145.160672,-40.814963],[145.16559,-40.82078],[145.164501,-40.822885],[145.16108,-40.821933],[145.154826,-40.819271],[145.153423,-40.820014],[145.148497,-40.817884],[145.139631,-40.820557],[145.131606,-40.819294],[145.13318,-40.825362],[145.126077,-40.833225],[145.123445,-40.834845],[145.12231,-40.838659],[145.119694,-40.841042],[145.113287,-40.840751],[145.109432,-40.843298],[145.103769,-40.843034],[145.105658,-40.841426],[145.109062,-40.842923],[145.110216,-40.840688],[145.113735,-40.839744],[145.117858,-40.841023],[145.121671,-40.83861],[145.118606,-40.828989],[145.11152,-40.831661],[145.113572,-40.828219],[145.110503,-40.827337],[145.113787,-40.824517],[145.114779,-40.821925],[145.10853,-40.81441],[145.103701,-40.810997],[145.096736,-40.814464],[145.096686,-40.818204],[145.101629,-40.820882],[145.09985,-40.826691],[145.093654,-40.821598],[145.091496,-40.825155],[145.088534,-40.823321],[145.089813,-40.820634],[145.090832,-40.815701],[145.087734,-40.815589],[145.090359,-40.813041],[145.085325,-40.81252],[145.077273,-40.808352],[145.075515,-40.808604],[145.074679,-40.811566],[145.076012,-40.813372],[145.074681,-40.815441],[145.071206,-40.815643],[145.070136,-40.809455],[145.067996,-40.806266],[145.063644,-40.807555],[145.064885,-40.803355],[145.06234,-40.802167],[145.062499,-40.799605],[145.058526,-40.792898],[145.050427,-40.789796],[145.052841,-40.788427],[145.052654,-40.786872],[145.038842,-40.780598],[145.036385,-40.7828],[145.036091,-40.787361],[145.03041,-40.785457],[145.026678,-40.790306],[145.024643,-40.791433],[145.022622,-40.788223],[145.01876,-40.789466],[145.017544,-40.787875],[145.022004,-40.784201],[145.023561,-40.778019],[145.018296,-40.7801],[145.015635,-40.779288],[145.020855,-40.775575],[145.024186,-40.770578],[145.016847,-40.772371],[145.014476,-40.776129],[145.007589,-40.778464],[145.007961,-40.773084],[145.016244,-40.76657],[145.010179,-40.766719],[145.007081,-40.768516],[145.004995,-40.768149],[145.005091,-40.771901],[145.000608,-40.77509],[145.000969,-40.769204],[144.996811,-40.766143],[145.000175,-40.765056],[145.001751,-40.762191],[144.996906,-40.760339],[144.995262,-40.755355],[144.991219,-40.751239],[144.986121,-40.749919],[144.983531,-40.745335],[144.981058,-40.745339],[144.979604,-40.743453],[144.9775,-40.743067],[144.973968,-40.746693],[144.971996,-40.746399],[144.970283,-40.750247],[144.967383,-40.751841],[144.951762,-40.754943],[144.947048,-40.754055],[144.946523,-40.756824],[144.937351,-40.755435],[144.930951,-40.758956],[144.92797,-40.758715],[144.927973,-40.760683],[144.922959,-40.765379],[144.920088,-40.764455],[144.920366,-40.760509],[144.918841,-40.75908],[144.91822,-40.755488],[144.907807,-40.750791],[144.881322,-40.749565],[144.870818,-40.747191],[144.868316,-40.744641],[144.861473,-40.744537],[144.857258,-40.740436],[144.848902,-40.738766],[144.84024,-40.743479],[144.836212,-40.74648],[144.841833,-40.735334],[144.838887,-40.7214],[144.836544,-40.718704],[144.832949,-40.717588],[144.82146,-40.719702],[144.812316,-40.723984],[144.811347,-40.726735],[144.807396,-40.724064],[144.808575,-40.718959],[144.804672,-40.713687],[144.785517,-40.708478],[144.781118,-40.70968],[144.778436,-40.713336],[144.779798,-40.729181],[144.774809,-40.737145],[144.768489,-40.739472],[144.766016,-40.743627],[144.765436,-40.738459],[144.768691,-40.738329],[144.768415,-40.733015],[144.770497,-40.729005],[144.766199,-40.719655],[144.771719,-40.709213],[144.771754,-40.705922],[144.767846,-40.699703],[144.764366,-40.6979],[144.758096,-40.699507],[144.752826,-40.696208],[144.745377,-40.694228],[144.74349,-40.697525],[144.736348,-40.690121],[144.734675,-40.685024],[144.738129,-40.682246],[144.740369,-40.683506],[144.738922,-40.684994],[144.742077,-40.68723],[144.748795,-40.689532],[144.740568,-40.672344],[144.741626,-40.670968],[144.732658,-40.662789],[144.728141,-40.656078],[144.727109,-40.648806],[144.72844,-40.646083],[144.726375,-40.641488],[144.721801,-40.643426],[144.714373,-40.656262],[144.708495,-40.658757],[144.702799,-40.657302],[144.702536,-40.660528],[144.692601,-40.663244],[144.69317,-40.665013],[144.690069,-40.667311],[144.691604,-40.66918],[144.686168,-40.672078],[144.684745,-40.674735],[144.687838,-40.675227],[144.684805,-40.678803],[144.688024,-40.679796],[144.687839,-40.682061],[144.690644,-40.684795],[144.695052,-40.684887],[144.697721,-40.689591],[144.695199,-40.692949],[144.696006,-40.695429],[144.688887,-40.697393],[144.690055,-40.699458],[144.689305,-40.704131],[144.683813,-40.704897],[144.687785,-40.710178],[144.679489,-40.710703],[144.680593,-40.712645],[144.678362,-40.716944],[144.682471,-40.71923],[144.682858,-40.722114],[144.681115,-40.72382],[144.686309,-40.726079],[144.685105,-40.727486],[144.68602,-40.731189],[144.684225,-40.735262],[144.685916,-40.736693],[144.68453,-40.741482],[144.686606,-40.747722],[144.692045,-40.752237],[144.691266,-40.755082],[144.700149,-40.750307],[144.70489,-40.751481],[144.708624,-40.754869],[144.7102,-40.761442],[144.70957,-40.771647],[144.706405,-40.777466],[144.69744,-40.783046],[144.701293,-40.787389],[144.703726,-40.787863],[144.702499,-40.790187],[144.704441,-40.791137],[144.706018,-40.795857],[144.702197,-40.797479],[144.699729,-40.80151],[144.702858,-40.804573],[144.698397,-40.805997],[144.698845,-40.808546],[144.697187,-40.809128],[144.697747,-40.811681],[144.7,-40.811451],[144.702878,-40.813932],[144.703355,-40.819426],[144.70123,-40.820609],[144.700941,-40.825052],[144.707093,-40.82996],[144.706618,-40.831501],[144.710021,-40.831972],[144.713019,-40.835521],[144.713186,-40.853305],[144.711558,-40.858335],[144.708847,-40.8607],[144.705235,-40.861831],[144.700968,-40.860421],[144.698764,-40.862325],[144.706441,-40.86709],[144.70563,-40.871943],[144.698604,-40.888437],[144.685823,-40.905603],[144.676979,-40.909784],[144.669728,-40.906583],[144.658253,-40.904221],[144.65191,-40.899795],[144.651515,-40.904595],[144.656477,-40.907386],[144.655803,-40.913869],[144.65165,-40.914532],[144.648855,-40.920077],[144.642285,-40.920279],[144.63977,-40.918501],[144.637526,-40.920917],[144.633048,-40.920452],[144.631971,-40.92384],[144.628318,-40.925063],[144.629959,-40.926622],[144.626746,-40.928796],[144.629886,-40.92961],[144.629488,-40.931156],[144.625957,-40.933321],[144.618358,-40.933251],[144.612162,-40.938028],[144.613876,-40.941128],[144.612267,-40.942337],[144.612249,-40.944652],[144.622349,-40.944876],[144.623973,-40.947403],[144.621933,-40.950289],[144.627118,-40.950526],[144.630083,-40.95675],[144.632611,-40.958869],[144.634359,-40.967445],[144.628946,-40.980313],[144.633075,-40.984256],[144.631786,-40.989706],[144.63284,-40.993842],[144.630562,-41.000596],[144.626235,-41.002154],[144.625825,-41.004986],[144.620392,-41.006313],[144.616623,-41.009142],[144.609054,-41.006391],[144.60734,-41.008782],[144.612469,-41.012364],[144.615344,-41.013554],[144.613349,-41.014934],[144.616893,-41.016431],[144.616136,-41.017768],[144.618488,-41.022064],[144.624075,-41.02403],[144.629026,-41.028568],[144.629239,-41.030701],[144.633273,-41.034222],[144.631795,-41.038473],[144.639771,-41.041886],[144.638908,-41.045345],[144.652283,-41.046852],[144.655719,-41.051189],[144.659819,-41.053282],[144.67062,-41.047918],[144.677462,-41.05022],[144.680014,-41.049585],[144.681617,-41.044648],[144.678709,-41.040169],[144.682465,-41.037435],[144.686237,-41.038423],[144.695616,-41.047835],[144.700897,-41.045965],[144.705623,-41.049303],[144.711377,-41.048493],[144.715403,-41.050409],[144.72055,-41.048417],[144.723902,-41.054042],[144.727648,-41.054422],[144.730174,-41.052003],[144.737711,-41.054995],[144.745688,-41.055616],[144.753182,-41.061203],[144.760913,-41.063702],[144.764797,-41.06861],[144.770054,-41.068542],[144.770289,-41.070379],[144.766781,-41.072275],[144.772339,-41.074535],[144.774173,-41.069648],[144.779449,-41.070828],[144.782362,-41.065525],[144.789446,-41.069162],[144.791172,-41.06869],[144.79006,-41.061665],[144.794906,-41.058801],[144.792646,-41.055243],[144.793867,-41.053979],[144.797748,-41.055585],[144.80062,-41.061869],[144.8011,-41.06402],[144.798225,-41.066166],[144.796334,-41.072089],[144.795461,-41.080066],[144.794853,-41.08019],[144.797541,-41.066715],[144.800768,-41.063774],[144.798133,-41.056828],[144.795406,-41.054299],[144.793197,-41.055407],[144.795075,-41.0592],[144.790564,-41.061433],[144.791585,-41.068865],[144.789514,-41.069573],[144.782358,-41.065807],[144.77982,-41.071303],[144.77452,-41.070334],[144.773433,-41.074432],[144.771171,-41.075769],[144.77139,-41.078045],[144.776245,-41.080441],[144.778982,-41.078215],[144.780141,-41.078561],[144.776656,-41.080753],[144.771723,-41.078854],[144.771287,-41.074417],[144.765961,-41.07284],[144.769528,-41.06867],[144.764817,-41.069174],[144.759897,-41.063864],[144.753241,-41.061829],[144.746155,-41.056409],[144.737416,-41.055544],[144.729837,-41.052635],[144.728334,-41.055013],[144.724546,-41.054873],[144.719242,-41.049217],[144.714947,-41.050979],[144.711128,-41.04915],[144.706248,-41.050146],[144.700896,-41.046896],[144.695268,-41.048486],[144.68396,-41.038485],[144.681142,-41.038507],[144.679963,-41.040666],[144.682767,-41.045133],[144.68122,-41.050207],[144.676837,-41.051356],[144.670905,-41.049153],[144.663108,-41.05415],[144.661481,-41.057147],[144.659335,-41.057368],[144.673047,-41.080362],[144.677442,-41.097726],[144.676432,-41.101965],[144.677772,-41.103451],[144.67526,-41.106569],[144.673182,-41.117218],[144.670143,-41.117203],[144.67002,-41.118831],[144.664577,-41.12056],[144.667889,-41.121925],[144.666736,-41.124387],[144.671514,-41.12832],[144.67156,-41.132118],[144.669716,-41.133182],[144.671378,-41.138701],[144.68048,-41.139307],[144.678596,-41.140706],[144.679877,-41.144032],[144.677907,-41.155677],[144.674951,-41.156447],[144.676124,-41.158508],[144.673137,-41.162217],[144.677951,-41.167492],[144.676002,-41.169983],[144.681966,-41.173789],[144.680332,-41.179443],[144.682131,-41.182824],[144.686385,-41.183082],[144.692801,-41.18899],[144.690314,-41.18851],[144.690061,-41.193467],[144.690949,-41.197327],[144.694852,-41.199994],[144.694643,-41.205889],[144.689999,-41.210865],[144.690916,-41.217902],[144.686749,-41.21997],[144.685899,-41.223231],[144.685952,-41.229651],[144.689255,-41.229746],[144.690707,-41.231651],[144.683535,-41.234722],[144.687778,-41.239243],[144.685957,-41.24069],[144.68674,-41.243227],[144.68912,-41.24535],[144.69241,-41.245021],[144.694121,-41.248426],[144.696993,-41.249665],[144.697101,-41.252884],[144.698669,-41.254117],[144.705924,-41.254754],[144.709197,-41.261306],[144.710261,-41.272435],[144.71355,-41.273816],[144.715031,-41.278004],[144.711768,-41.280092],[144.711362,-41.282118],[144.714053,-41.282658],[144.715145,-41.285719],[144.717119,-41.284454],[144.721183,-41.286894],[144.719197,-41.288314],[144.720439,-41.294931],[144.719074,-41.297246],[144.719749,-41.301484],[144.725235,-41.301566],[144.725496,-41.304657],[144.733867,-41.306412],[144.734292,-41.308561],[144.742004,-41.311686],[144.739147,-41.312593],[144.73747,-41.31671],[144.734202,-41.318282],[144.739913,-41.322054],[144.738072,-41.325578],[144.742407,-41.327296],[144.741874,-41.32971],[144.754365,-41.335677],[144.759486,-41.341194],[144.769216,-41.348739],[144.765334,-41.347301],[144.773686,-41.359147],[144.77782,-41.369763],[144.780954,-41.379654],[144.781861,-41.397029],[144.776325,-41.407145],[144.767938,-41.412887],[144.758817,-41.413645],[144.756426,-41.409802],[144.752519,-41.416845],[144.74593,-41.419423],[144.745887,-41.421491],[144.754318,-41.425749],[144.758601,-41.425766],[144.759868,-41.428883],[144.764762,-41.429971],[144.763913,-41.433848],[144.773736,-41.436123],[144.78528,-41.445714],[144.788984,-41.452982],[144.792035,-41.45509],[144.794272,-41.459542],[144.792487,-41.463133],[144.794708,-41.462989],[144.799104,-41.46971],[144.799968,-41.469598],[144.808555,-41.478737],[144.812015,-41.479326],[144.812321,-41.48263],[144.811374,-41.484711],[144.81488,-41.492531],[144.822401,-41.496364],[144.820203,-41.499378],[144.821311,-41.500773],[144.825818,-41.501998],[144.83192,-41.507923],[144.832007,-41.50862],[144.8377,-41.513999],[144.850467,-41.534216],[144.859645,-41.544826],[144.859562,-41.546648],[144.876028,-41.568814],[144.884687,-41.583784],[144.885424,-41.587876],[144.889072,-41.589755],[144.889071,-41.594703],[144.891372,-41.59587],[144.89207,-41.602181],[144.893771,-41.60226],[144.895906,-41.607665],[144.897526,-41.608332],[144.898266,-41.6134],[144.901809,-41.61641],[144.900647,-41.620534],[144.903251,-41.621687],[144.904815,-41.624247],[144.903326,-41.62758],[144.904463,-41.631871],[144.903055,-41.633777],[144.897118,-41.639508],[144.900312,-41.640812],[144.902127,-41.63946],[144.906663,-41.642018],[144.904393,-41.647745],[144.905135,-41.650139],[144.908687,-41.651009],[144.908057,-41.656259],[144.913022,-41.658517],[144.915681,-41.664055],[144.919206,-41.665546],[144.920879,-41.66759],[144.923496,-41.663745],[144.927516,-41.662293],[144.934965,-41.65359],[144.95467,-41.646773],[144.961526,-41.638003],[144.971091,-41.632997],[144.974744,-41.628734],[144.983456,-41.62635],[144.9931,-41.626324],[144.998508,-41.619405],[145.004696,-41.616497],[145.027346,-41.617673],[145.034052,-41.616718],[145.050605,-41.623643],[145.052767,-41.629216],[145.056342,-41.62673],[145.060724,-41.626979],[145.068345,-41.636495],[145.067524,-41.636919],[145.062677,-41.644821],[145.065615,-41.649032],[145.077813,-41.651607],[145.082199,-41.656176],[145.091417,-41.653397],[145.097691,-41.652562],[145.10381,-41.654629],[145.103775,-41.655895],[145.094685,-41.653287],[145.081232,-41.657116],[145.076657,-41.652367],[145.066696,-41.651233],[145.062093,-41.647983],[145.061373,-41.643398],[145.065983,-41.636421],[145.059011,-41.627477],[145.054049,-41.630509],[145.051069,-41.630062],[145.049925,-41.6251],[145.034723,-41.618396],[145.005252,-41.617822],[144.998774,-41.621343],[144.993942,-41.627277],[144.976099,-41.630086],[144.963997,-41.638378],[144.955508,-41.649319],[144.937868,-41.656549],[144.93047,-41.66185],[144.929747,-41.664142],[144.924912,-41.665608],[144.926382,-41.67287],[144.926202,-41.677086],[144.922061,-41.680458],[144.912793,-41.683635],[144.913324,-41.685521],[144.911097,-41.686697],[144.912744,-41.691764],[144.915888,-41.697057],[144.915651,-41.701087],[144.918813,-41.704065],[144.919043,-41.707424],[144.91711,-41.709128],[144.919395,-41.710531],[144.921855,-41.716106],[144.928762,-41.719419],[144.934046,-41.724538],[144.938055,-41.724409],[144.944325,-41.717748],[144.954941,-41.716772],[144.962298,-41.720608],[144.974237,-41.732267],[144.978577,-41.738103],[144.990653,-41.747996],[144.996194,-41.756865],[144.994606,-41.759115],[144.994948,-41.762164],[145.003879,-41.766504],[145.004506,-41.768898],[145.008095,-41.772766],[145.006446,-41.774354],[145.006747,-41.776188],[145.004806,-41.778826],[145.006683,-41.779398],[145.007801,-41.784597],[145.012878,-41.787463],[145.010635,-41.790175],[145.015506,-41.791454],[145.014601,-41.794862],[145.015698,-41.796212],[145.018962,-41.795253],[145.021133,-41.796675],[145.020176,-41.798866],[145.02365,-41.804546],[145.032888,-41.806018],[145.031641,-41.80996],[145.026801,-41.809801],[145.028205,-41.812958],[145.035753,-41.814966],[145.0393,-41.812874],[145.045217,-41.820616],[145.056788,-41.824076],[145.056154,-41.825661],[145.061898,-41.833466],[145.068595,-41.83618],[145.06756,-41.840878],[145.069127,-41.842206],[145.068563,-41.844865],[145.07146,-41.854712],[145.079808,-41.85984],[145.081591,-41.862949],[145.084483,-41.863404],[145.087098,-41.867369],[145.095037,-41.872179],[145.101312,-41.873538],[145.104916,-41.878204],[145.107319,-41.877917],[145.108608,-41.880653],[145.114085,-41.883351],[145.112215,-41.885598],[145.117818,-41.886685],[145.121364,-41.890369],[145.121577,-41.896907],[145.123817,-41.897918],[145.124435,-41.900499],[145.13718,-41.907117],[145.14091,-41.911006],[145.15193,-41.913818],[145.156669,-41.923172],[145.173969,-41.928457],[145.173928,-41.931645],[145.178808,-41.933297],[145.180687,-41.935975],[145.180254,-41.938911],[145.187506,-41.941154],[145.190559,-41.946133],[145.214724,-41.984537],[145.235237,-42.02333],[145.251857,-42.060057],[145.252988,-42.058798],[145.25124,-42.052632],[145.246543,-42.042222],[145.244843,-42.031128],[145.245641,-42.027693],[145.248984,-42.021193],[145.253247,-42.019488],[145.24588,-42.031124],[145.247927,-42.038428],[145.246811,-42.040487],[145.253475,-42.057731],[145.252,-42.062569],[145.259847,-42.087319],[145.263729,-42.112306],[145.264108,-42.144824],[145.25957,-42.168154],[145.256775,-42.178151],[145.249852,-42.190408],[145.241282,-42.199986],[145.224495,-42.213816],[145.223136,-42.218705],[145.22792,-42.221463],[145.249216,-42.220926],[145.256892,-42.225305],[145.259384,-42.228956],[145.268076,-42.232105],[145.280442,-42.23194],[145.289682,-42.227293],[145.289635,-42.224042],[145.285872,-42.217202],[145.288028,-42.21243],[145.287713,-42.208566],[145.289836,-42.206427],[145.287918,-42.201418],[145.290158,-42.196647],[145.283538,-42.198016],[145.287615,-42.20014],[145.289163,-42.206712],[145.285037,-42.210097],[145.274596,-42.208772],[145.268149,-42.202388],[145.276739,-42.194429],[145.277139,-42.191637],[145.281817,-42.186678],[145.286918,-42.183313],[145.291595,-42.183193],[145.293762,-42.179167],[145.302319,-42.17906],[145.303153,-42.181959],[145.309542,-42.17647],[145.311897,-42.175791],[145.318164,-42.176185],[145.318421,-42.17284],[145.311765,-42.160365],[145.313543,-42.158825],[145.311409,-42.154198],[145.307835,-42.152513],[145.30357,-42.15281],[145.307823,-42.148906],[145.314018,-42.154312],[145.319867,-42.153794],[145.32306,-42.156568],[145.333926,-42.15176],[145.334336,-42.155455],[145.325976,-42.160731],[145.329374,-42.167078],[145.329134,-42.173299],[145.333177,-42.173702],[145.336301,-42.167103],[145.3469,-42.168585],[145.351992,-42.173401],[145.35732,-42.174761],[145.359658,-42.177352],[145.360161,-42.188541],[145.356296,-42.19124],[145.371681,-42.193945],[145.377563,-42.196574],[145.386773,-42.19639],[145.384573,-42.197856],[145.37544,-42.197145],[145.368123,-42.194084],[145.35974,-42.195723],[145.355898,-42.194254],[145.346048,-42.20647],[145.350403,-42.20893],[145.350671,-42.210554],[145.357244,-42.207198],[145.355849,-42.203711],[145.35739,-42.202003],[145.365465,-42.204765],[145.369169,-42.204786],[145.371956,-42.205794],[145.363995,-42.209866],[145.369245,-42.214741],[145.371811,-42.224361],[145.371084,-42.227413],[145.36429,-42.230434],[145.360909,-42.233798],[145.360632,-42.235355],[145.366869,-42.242065],[145.366423,-42.247211],[145.36396,-42.249895],[145.364827,-42.251677],[145.371598,-42.250155],[145.377435,-42.251744],[145.385977,-42.262515],[145.389458,-42.263331],[145.399698,-42.277471],[145.413759,-42.287484],[145.42299,-42.289975],[145.426352,-42.293553],[145.427818,-42.301502],[145.430375,-42.305396],[145.429854,-42.309711],[145.432466,-42.314304],[145.453877,-42.319336],[145.463377,-42.32346],[145.46756,-42.346129],[145.478337,-42.348707],[145.481085,-42.364613],[145.486397,-42.363212],[145.488177,-42.359192],[145.492642,-42.355928],[145.484933,-42.356658],[145.489854,-42.352491],[145.48615,-42.350426],[145.483351,-42.35107],[145.480031,-42.348919],[145.48054,-42.347241],[145.484014,-42.347006],[145.485102,-42.343958],[145.487559,-42.341546],[145.493516,-42.343457],[145.497868,-42.342384],[145.494766,-42.339042],[145.491408,-42.33685],[145.490711,-42.335429],[145.496399,-42.334343],[145.49303,-42.331149],[145.492724,-42.327272],[145.494187,-42.325148],[145.497321,-42.324973],[145.496773,-42.328213],[145.500591,-42.330877],[145.49946,-42.332343],[145.51198,-42.334799],[145.517507,-42.339768],[145.517522,-42.340924],[145.513126,-42.341549],[145.516236,-42.344082],[145.518349,-42.349893],[145.526736,-42.360539],[145.525833,-42.364621],[145.519607,-42.368087],[145.51519,-42.366781],[145.509644,-42.367435],[145.502588,-42.364012],[145.503028,-42.366717],[145.511825,-42.37202],[145.512366,-42.374196],[145.518063,-42.373049],[145.522791,-42.374972],[145.530178,-42.372616],[145.532711,-42.36313],[145.541254,-42.359195],[145.541852,-42.356207],[145.544184,-42.354597],[145.543745,-42.352124],[145.547296,-42.352641],[145.549569,-42.355322],[145.557614,-42.357028],[145.553211,-42.359039],[145.556659,-42.360955],[145.555765,-42.364042],[145.547363,-42.369816],[145.543795,-42.370107],[145.543189,-42.375001],[145.545438,-42.378347],[145.542711,-42.38314],[145.549886,-42.38796],[145.545719,-42.391028],[145.536235,-42.387129],[145.533899,-42.392427],[145.535411,-42.395894],[145.533534,-42.396961],[145.536691,-42.399666],[145.534827,-42.40548],[145.528777,-42.41305],[145.51958,-42.418992],[145.520417,-42.420912],[145.524841,-42.421685],[145.525506,-42.423619],[145.522475,-42.427367],[145.51568,-42.43087],[145.513056,-42.434502],[145.523383,-42.441034],[145.525479,-42.444157],[145.534238,-42.447447],[145.539109,-42.441734],[145.544429,-42.438614],[145.556193,-42.435993],[145.578925,-42.443998],[145.574988,-42.44418],[145.581413,-42.448115],[145.593582,-42.450668],[145.596457,-42.449837],[145.598209,-42.446353],[145.601407,-42.445564],[145.608294,-42.450703],[145.616414,-42.445469],[145.609252,-42.436456],[145.612914,-42.434366],[145.615648,-42.43522],[145.621212,-42.442394],[145.625766,-42.44448],[145.634966,-42.440019],[145.638499,-42.436541],[145.645783,-42.434272],[145.658533,-42.436853],[145.66423,-42.440806],[145.673267,-42.44273],[145.67696,-42.464823],[145.674375,-42.471952],[145.675382,-42.474792],[145.673479,-42.482851],[145.674204,-42.49211],[145.67875,-42.502002],[145.67822,-42.506398],[145.674157,-42.509575],[145.675699,-42.518039],[145.667096,-42.527739],[145.672775,-42.531537],[145.674067,-42.534117],[145.673265,-42.536525],[145.667354,-42.538005],[145.67193,-42.542849],[145.673855,-42.547978],[145.671843,-42.560717],[145.674638,-42.563171],[145.679235,-42.563467],[145.683417,-42.569301],[145.69061,-42.568392],[145.701175,-42.571647],[145.707227,-42.576837],[145.710992,-42.585097],[145.718659,-42.589459],[145.722234,-42.589088],[145.72929,-42.582031],[145.729697,-42.582795],[145.722184,-42.590039],[145.718173,-42.590035],[145.709458,-42.584485],[145.706923,-42.577386],[145.698605,-42.570882],[145.689699,-42.569778],[145.683637,-42.571045],[145.679648,-42.565804],[145.670983,-42.562363],[145.670291,-42.553709],[145.672251,-42.547747],[145.666151,-42.538227],[145.667395,-42.535817],[145.672542,-42.534346],[145.665285,-42.527497],[145.673942,-42.517432],[145.672208,-42.508595],[145.677123,-42.504088],[145.675636,-42.49696],[145.672278,-42.492156],[145.672494,-42.470051],[145.674814,-42.4651],[145.671367,-42.44776],[145.671991,-42.444866],[145.67102,-42.443486],[145.662846,-42.442437],[145.658144,-42.438261],[145.648221,-42.435776],[145.641737,-42.43707],[145.626303,-42.445889],[145.619939,-42.443292],[145.614073,-42.436538],[145.61149,-42.435811],[145.618204,-42.445481],[145.613669,-42.450771],[145.60815,-42.453045],[145.604321,-42.451163],[145.603573,-42.448116],[145.601515,-42.447094],[145.59727,-42.450975],[145.592239,-42.451972],[145.57944,-42.449908],[145.570284,-42.444809],[145.55474,-42.44041],[145.544191,-42.442176],[145.536673,-42.448621],[145.531057,-42.449533],[145.524184,-42.446277],[145.515629,-42.439346],[145.509014,-42.436192],[145.504825,-42.435973],[145.502251,-42.431882],[145.495216,-42.429633],[145.493746,-42.423585],[145.491948,-42.422257],[145.486287,-42.422586],[145.478228,-42.42892],[145.458028,-42.434789],[145.453232,-42.43916],[145.452346,-42.441562],[145.454175,-42.442607],[145.456809,-42.440486],[145.460803,-42.440453],[145.461176,-42.438061],[145.473877,-42.440561],[145.464043,-42.442595],[145.466348,-42.443658],[145.470956,-42.450429],[145.472447,-42.463935],[145.475514,-42.466053],[145.475323,-42.47113],[145.473209,-42.473547],[145.478538,-42.473821],[145.480201,-42.475379],[145.477284,-42.47872],[145.478709,-42.480243],[145.476737,-42.486008],[145.478362,-42.488998],[145.474939,-42.492002],[145.472726,-42.497765],[145.474457,-42.499114],[145.472315,-42.500994],[145.477974,-42.506061],[145.475873,-42.51309],[145.480411,-42.517675],[145.481796,-42.525698],[145.473909,-42.525843],[145.471202,-42.521521],[145.467638,-42.521017],[145.466096,-42.519052],[145.467018,-42.516304],[145.465571,-42.507753],[145.461906,-42.500602],[145.462269,-42.494575],[145.465378,-42.491979],[145.464409,-42.491149],[145.465878,-42.48697],[145.462398,-42.48133],[145.463704,-42.477833],[145.460206,-42.468237],[145.459104,-42.462765],[145.457859,-42.460569],[145.459181,-42.458265],[145.44664,-42.437442],[145.446507,-42.429065],[145.448402,-42.424928],[145.447626,-42.419922],[145.448372,-42.41746],[145.450838,-42.416694],[145.45175,-42.413649],[145.450556,-42.409891],[145.453279,-42.404432],[145.448124,-42.404087],[145.442448,-42.401174],[145.439221,-42.397065],[145.439737,-42.393124],[145.436476,-42.388879],[145.435423,-42.386385],[145.432034,-42.386113],[145.430727,-42.381948],[145.428516,-42.383348],[145.427345,-42.381188],[145.424888,-42.381184],[145.42405,-42.377062],[145.420352,-42.377977],[145.41895,-42.374237],[145.41568,-42.373481],[145.415589,-42.371743],[145.412657,-42.371697],[145.411967,-42.369922],[145.404919,-42.373432],[145.393513,-42.374271],[145.390273,-42.371874],[145.389551,-42.367752],[145.386267,-42.367715],[145.383829,-42.365161],[145.381076,-42.36478],[145.378787,-42.360799],[145.373363,-42.360414],[145.37291,-42.355839],[145.370093,-42.353476],[145.366204,-42.355727],[145.364228,-42.354889],[145.363907,-42.352145],[145.359967,-42.34877],[145.355052,-42.348225],[145.355724,-42.346894],[145.35349,-42.343875],[145.351893,-42.344275],[145.349226,-42.341646],[145.347124,-42.342786],[145.344284,-42.341551],[145.340304,-42.337055],[145.341213,-42.343338],[145.337962,-42.34441],[145.337118,-42.339483],[145.331752,-42.3387],[145.330972,-42.330395],[145.32037,-42.327629],[145.316252,-42.3251],[145.315997,-42.323192],[145.310036,-42.320457],[145.311588,-42.298902],[145.317507,-42.285349],[145.315277,-42.285921],[145.316012,-42.287934],[145.306703,-42.295413],[145.299572,-42.296653],[145.292655,-42.295823],[145.290196,-42.290804],[145.291911,-42.287711],[145.289586,-42.282895],[145.279138,-42.281619],[145.271484,-42.28458],[145.270565,-42.289415],[145.266261,-42.290977],[145.253472,-42.288472],[145.250207,-42.282058],[145.254653,-42.278504],[145.256062,-42.267325],[145.246868,-42.264233],[145.237054,-42.263355],[145.234495,-42.257256],[145.235712,-42.252348],[145.232538,-42.247891],[145.235782,-42.244082],[145.233516,-42.242544],[145.225764,-42.243813],[145.221007,-42.242017],[145.220275,-42.234685],[145.222106,-42.231895],[145.223925,-42.231864],[145.224859,-42.22842],[145.221067,-42.226707],[145.220678,-42.222919],[145.214453,-42.218816],[145.214981,-42.212144],[145.209097,-42.210126],[145.208754,-42.207399],[145.199764,-42.207912],[145.198369,-42.205287],[145.199911,-42.202276],[145.197955,-42.197699],[145.185955,-42.194501],[145.17711,-42.193085],[145.175215,-42.19479],[145.17579,-42.196932],[145.170958,-42.197582],[145.167082,-42.197411],[145.170679,-42.200651],[145.17197,-42.204489],[145.176409,-42.206447],[145.173487,-42.208252],[145.173943,-42.209927],[145.178495,-42.207605],[145.181772,-42.209123],[145.18653,-42.207233],[145.19011,-42.208012],[145.18786,-42.210956],[145.191162,-42.210886],[145.191682,-42.213333],[145.190366,-42.215789],[145.1882,-42.215546],[145.186136,-42.221687],[145.192021,-42.224983],[145.19362,-42.228312],[145.189931,-42.233633],[145.19069,-42.239873],[145.189167,-42.242615],[145.194999,-42.245039],[145.19474,-42.247004],[145.19918,-42.247669],[145.199428,-42.249914],[145.20588,-42.254422],[145.205729,-42.261677],[145.209087,-42.263153],[145.208119,-42.266484],[145.213726,-42.277729],[145.213966,-42.28236],[145.211097,-42.287297],[145.211091,-42.295251],[145.213811,-42.298368],[145.209373,-42.304067],[145.201078,-42.307609],[145.19828,-42.309464],[145.198538,-42.311206],[145.194008,-42.312137],[145.196386,-42.313656],[145.19554,-42.318614],[145.197297,-42.319848],[145.196325,-42.322185],[145.197151,-42.327216],[145.200185,-42.331737],[145.20423,-42.333266],[145.205033,-42.336148],[145.211169,-42.339212],[145.209883,-42.34133],[145.212216,-42.34235],[145.211933,-42.346069],[145.214891,-42.348901],[145.217492,-42.349508],[145.223181,-42.355295],[145.220795,-42.361988],[145.217837,-42.361238],[145.217945,-42.363877],[145.215295,-42.365895],[145.21786,-42.368017],[145.225786,-42.36656],[145.228496,-42.370632],[145.229093,-42.375804],[145.225052,-42.381527],[145.224319,-42.386391],[145.228184,-42.386636],[145.23552,-42.394714],[145.237452,-42.395332],[145.234337,-42.399212],[145.235868,-42.404423],[145.238439,-42.406685],[145.238428,-42.411237],[145.241007,-42.412962],[145.237807,-42.414755],[145.236946,-42.416718],[145.241334,-42.421642],[145.24012,-42.425486],[145.243768,-42.425932],[145.245576,-42.429976],[145.242953,-42.431387],[145.24514,-42.43288],[145.243297,-42.434629],[145.250875,-42.437902],[145.252516,-42.439901],[145.250179,-42.441471],[145.25389,-42.443508],[145.254074,-42.447797],[145.251912,-42.451988],[145.247451,-42.45318],[145.244949,-42.464616],[145.242897,-42.466456],[145.239289,-42.466002],[145.236012,-42.472303],[145.240048,-42.475397],[145.242089,-42.481969],[145.247422,-42.481888],[145.243962,-42.484235],[145.244484,-42.486698],[145.252036,-42.486163],[145.255029,-42.488749],[145.253327,-42.495157],[145.257305,-42.496314],[145.257318,-42.499838],[145.259439,-42.500368],[145.261198,-42.503988],[145.25902,-42.506309],[145.259967,-42.511118],[145.258172,-42.51753],[145.254683,-42.51793],[145.252826,-42.522088],[145.258044,-42.522313],[145.260958,-42.525838],[145.267469,-42.528593],[145.266753,-42.535222],[145.271127,-42.538424],[145.271056,-42.54383],[145.274171,-42.545857],[145.27627,-42.551948],[145.279767,-42.551216],[145.280694,-42.55291],[145.279149,-42.555202],[145.275023,-42.555288],[145.280056,-42.557959],[145.277206,-42.561702],[145.277743,-42.563207],[145.281911,-42.564664],[145.284901,-42.563577],[145.288134,-42.569457],[145.291733,-42.567383],[145.295016,-42.567493],[145.304412,-42.571212],[145.300603,-42.573151],[145.299221,-42.577243],[145.301901,-42.579974],[145.301616,-42.586646],[145.299345,-42.592442],[145.295363,-42.595223],[145.298628,-42.595719],[145.301714,-42.599051],[145.299047,-42.601147],[145.297308,-42.600297],[145.293759,-42.601659],[145.293967,-42.604578],[145.285856,-42.610054],[145.28497,-42.61198],[145.28083,-42.614927],[145.274989,-42.614179],[145.273183,-42.612428],[145.269322,-42.614425],[145.266442,-42.612037],[145.262981,-42.61275],[145.264143,-42.61591],[145.262096,-42.61903],[145.266058,-42.622962],[145.270686,-42.623986],[145.268918,-42.6259],[145.269963,-42.629315],[145.274129,-42.631177],[145.27934,-42.62727],[145.285383,-42.632372],[145.286381,-42.631692],[145.284987,-42.628494],[145.288098,-42.629043],[145.288241,-42.623922],[145.290029,-42.622514],[145.301821,-42.619467],[145.31181,-42.620658],[145.312212,-42.622347],[145.319175,-42.627021],[145.323421,-42.627626],[145.324166,-42.629934],[145.329944,-42.628674],[145.33578,-42.632571],[145.335916,-42.63698],[145.331365,-42.637156],[145.330728,-42.643293],[145.327771,-42.646095],[145.330967,-42.646163],[145.332711,-42.648142],[145.333637,-42.657772],[145.338303,-42.651025],[145.339849,-42.651539],[145.340861,-42.655009],[145.346262,-42.650946],[145.36621,-42.656512],[145.367516,-42.659801],[145.365429,-42.663614],[145.366669,-42.667548],[145.365272,-42.670005],[145.367238,-42.681399],[145.366012,-42.682594],[145.366942,-42.685923],[145.365324,-42.687453],[145.369171,-42.693483],[145.372313,-42.692982],[145.374018,-42.694586],[145.372589,-42.698303],[145.374713,-42.699023],[145.377144,-42.703926],[145.376066,-42.708863],[145.377914,-42.710081],[145.377875,-42.715369],[145.381829,-42.722813],[145.38338,-42.722648],[145.383267,-42.728225],[145.386785,-42.728125],[145.388738,-42.724612],[145.392741,-42.724385],[145.391751,-42.731968],[145.392685,-42.734723],[145.396699,-42.736405],[145.394203,-42.737506],[145.391101,-42.737503],[145.388789,-42.735584],[145.387538,-42.738466],[145.391332,-42.743028],[145.387501,-42.743502],[145.38059,-42.748167],[145.381145,-42.750887],[145.379282,-42.753619],[145.381716,-42.757302],[145.382719,-42.764406],[145.384447,-42.766033],[145.382637,-42.768704],[145.385495,-42.772172],[145.388535,-42.770045],[145.394831,-42.776204],[145.398676,-42.777023],[145.406751,-42.776181],[145.407902,-42.777114],[145.406985,-42.780844],[145.407195,-42.784572],[145.411553,-42.786364],[145.410419,-42.791439],[145.41314,-42.792907],[145.413368,-42.796354],[145.418968,-42.802107],[145.417483,-42.803526],[145.418313,-42.80838],[145.422181,-42.813724],[145.419727,-42.814809],[145.42384,-42.827561],[145.42288,-42.829531],[145.420851,-42.837089],[145.422033,-42.838591],[145.425624,-42.838116],[145.424601,-42.841757],[145.429043,-42.845881],[145.429298,-42.849942],[145.436868,-42.854475],[145.434411,-42.857792],[145.43898,-42.865299],[145.43737,-42.867211],[145.439037,-42.868717],[145.435783,-42.871304],[145.436027,-42.873448],[145.437759,-42.875595],[145.441626,-42.876127],[145.443851,-42.883217],[145.449064,-42.887041],[145.45068,-42.88969],[145.449812,-42.890704],[145.454225,-42.892393],[145.454034,-42.900467],[145.457276,-42.901087],[145.458743,-42.905374],[145.464796,-42.904862],[145.468213,-42.90639],[145.470861,-42.90531],[145.473028,-42.907011],[145.476049,-42.914216],[145.482739,-42.915923],[145.48424,-42.917279],[145.481955,-42.919287],[145.484626,-42.926241],[145.481562,-42.931079],[145.484373,-42.931627],[145.490462,-42.929234],[145.488973,-42.932055],[145.494788,-42.940434],[145.493295,-42.940444],[145.492952,-42.946921],[145.494861,-42.946627],[145.495885,-42.954925],[145.492197,-42.955964],[145.493777,-42.959124],[145.496579,-42.957993],[145.495812,-42.963074],[145.497297,-42.965702],[145.494647,-42.969159],[145.49658,-42.970535],[145.496019,-42.972623],[145.493596,-42.973962],[145.503499,-42.976446],[145.499933,-42.9801],[145.501233,-42.980644],[145.498795,-42.984493],[145.500397,-42.985863],[145.496031,-42.987916],[145.494879,-42.991523],[145.512706,-42.981429],[145.532349,-42.983369],[145.5337,-42.98152],[145.538326,-42.980802],[145.540387,-42.977625],[145.544306,-42.978472],[145.550087,-42.975439],[145.554558,-42.977159],[145.554036,-42.973401],[145.557198,-42.974325],[145.561365,-42.9711],[145.564346,-42.972456],[145.577077,-42.971065],[145.579454,-42.973689],[145.590765,-42.975066],[145.592584,-42.979965],[145.60144,-42.986814],[145.599302,-42.987536],[145.599921,-42.990497],[145.606026,-42.989572],[145.607522,-42.99068],[145.605007,-42.996664],[145.606073,-42.999442],[145.604943,-43.001185],[145.608503,-43.001625],[145.611117,-43.006537],[145.609928,-43.009179],[145.616836,-43.01254],[145.616993,-43.014253],[145.624365,-43.016667],[145.630479,-43.019279],[145.639083,-43.026523],[145.639177,-43.031126],[145.64289,-43.037545],[145.640986,-43.041503],[145.64656,-43.042019],[145.645867,-43.045631],[145.647633,-43.048506],[145.651932,-43.049548],[145.65703,-43.044421],[145.660026,-43.043816],[145.674432,-43.052719],[145.68096,-43.05121],[145.684483,-43.053538],[145.686897,-43.05841],[145.68453,-43.068549],[145.68862,-43.069127],[145.685836,-43.071257],[145.683639,-43.070034],[145.683181,-43.067336],[145.680848,-43.066733],[145.674848,-43.070464],[145.674913,-43.075427],[145.676321,-43.076758],[145.672512,-43.077956],[145.669752,-43.081184],[145.676833,-43.091171],[145.673956,-43.094659],[145.665188,-43.09326],[145.664951,-43.096247],[145.667753,-43.095685],[145.668115,-43.098265],[145.671547,-43.099763],[145.671499,-43.102005],[145.673661,-43.102598],[145.676962,-43.101123],[145.683356,-43.100387],[145.68453,-43.104101],[145.688058,-43.106906],[145.686785,-43.108377],[145.690476,-43.112823],[145.693489,-43.115604],[145.696429,-43.1167],[145.70107,-43.120427],[145.705179,-43.115538],[145.708473,-43.118483],[145.711657,-43.112045],[145.715424,-43.111763],[145.720792,-43.109572],[145.72733,-43.111888],[145.73111,-43.113927],[145.732781,-43.119853],[145.730727,-43.119353],[145.728686,-43.12169],[145.724969,-43.122477],[145.724134,-43.124791],[145.726501,-43.125096],[145.725201,-43.129089],[145.725995,-43.132258],[145.721452,-43.134351],[145.726439,-43.136928],[145.727193,-43.139736],[145.733547,-43.137475],[145.734357,-43.141131],[145.737572,-43.140887],[145.737306,-43.143045],[145.741034,-43.143528],[145.741218,-43.148356],[145.743822,-43.148547],[145.74364,-43.151976],[145.746023,-43.152722],[145.74457,-43.154633],[145.74686,-43.158098],[145.749747,-43.157698],[145.753079,-43.162606],[145.757941,-43.164892],[145.759252,-43.169381],[145.755503,-43.169827],[145.754764,-43.172304],[145.757986,-43.17478],[145.760041,-43.180223],[145.760869,-43.184366],[145.758436,-43.184168],[145.757406,-43.187642],[145.761563,-43.193252],[145.763812,-43.192195],[145.767578,-43.193398],[145.768731,-43.185621],[145.772087,-43.188899],[145.775702,-43.189667],[145.778016,-43.187189],[145.78295,-43.186611],[145.790486,-43.189455],[145.795265,-43.192405],[145.792669,-43.196088],[145.788723,-43.19777],[145.789868,-43.200831],[145.796435,-43.200513],[145.799047,-43.204097],[145.79766,-43.205784],[145.802761,-43.20681],[145.804714,-43.208901],[145.803556,-43.215174],[145.801422,-43.217916],[145.796684,-43.219055],[145.802277,-43.227056],[145.804555,-43.226413],[145.808787,-43.229177],[145.811115,-43.23482],[145.80836,-43.236529],[145.804119,-43.235503],[145.80804,-43.242216],[145.80249,-43.243176],[145.808494,-43.246715],[145.806481,-43.248873],[145.813955,-43.2484],[145.820562,-43.250098],[145.816317,-43.251747],[145.818374,-43.254299],[145.818721,-43.258186],[145.814817,-43.266055],[145.818005,-43.271785],[145.815667,-43.278516],[145.820922,-43.282439],[145.822766,-43.280481],[145.828771,-43.281549],[145.827834,-43.284164],[145.828622,-43.286807],[145.831674,-43.288565],[145.835227,-43.288408],[145.839212,-43.294696],[145.841458,-43.294233],[145.846194,-43.291321],[145.847774,-43.293586],[145.850504,-43.292605],[145.850053,-43.296903],[145.851936,-43.297316],[145.853364,-43.300159],[145.849374,-43.305729],[145.843549,-43.304268],[145.842359,-43.306627],[145.845613,-43.310446],[145.838609,-43.310912],[145.838767,-43.312989],[145.843346,-43.313196],[145.8472,-43.314064],[145.84626,-43.310833],[145.850545,-43.306778],[145.854671,-43.309287],[145.854853,-43.311994],[145.860012,-43.318133],[145.863505,-43.319117],[145.870537,-43.322614],[145.873255,-43.319841],[145.872336,-43.317668],[145.875596,-43.31478],[145.874266,-43.313465],[145.878681,-43.3108],[145.890443,-43.311761],[145.893339,-43.314631],[145.895998,-43.311072],[145.894271,-43.304638],[145.899177,-43.3003],[145.908689,-43.298635],[145.917192,-43.302548],[145.91824,-43.301448],[145.922787,-43.303134],[145.923937,-43.300723],[145.926633,-43.300487],[145.920475,-43.295251],[145.920103,-43.285689],[145.922273,-43.283972],[145.92068,-43.280419],[145.92379,-43.277986],[145.922555,-43.276473],[145.926482,-43.272459],[145.923948,-43.267433],[145.901083,-43.26546],[145.903683,-43.267354],[145.904522,-43.271855],[145.899114,-43.275631],[145.897572,-43.281734],[145.891772,-43.284316],[145.888962,-43.282827],[145.887092,-43.2864],[145.880696,-43.289684],[145.871825,-43.286053],[145.869327,-43.281245],[145.864872,-43.277756],[145.864555,-43.271932],[145.869541,-43.271345],[145.87567,-43.273186],[145.876671,-43.271074],[145.875173,-43.269073],[145.869671,-43.265414],[145.871797,-43.258673],[145.875924,-43.260353],[145.880723,-43.259302],[145.883844,-43.26163],[145.885089,-43.260915],[145.888181,-43.262611],[145.897146,-43.264139],[145.90749,-43.248351],[145.911375,-43.247433],[145.914994,-43.249656],[145.917441,-43.247833],[145.92673,-43.24774],[145.928463,-43.24519],[145.926765,-43.242248],[145.928477,-43.238041],[145.922585,-43.227882],[145.924841,-43.224941],[145.920825,-43.222923],[145.919613,-43.215582],[145.91644,-43.215399],[145.913645,-43.208484],[145.916801,-43.20475],[145.920675,-43.204904],[145.913812,-43.201156],[145.910036,-43.194087],[145.911404,-43.189796],[145.913901,-43.191945],[145.918861,-43.188462],[145.924971,-43.190212],[145.927102,-43.189413],[145.92572,-43.183331],[145.928375,-43.177928],[145.921679,-43.174531],[145.919467,-43.171557],[145.920472,-43.161382],[145.926238,-43.156664],[145.933458,-43.155957],[145.93519,-43.151876],[145.940454,-43.150439],[145.942318,-43.149862],[145.944527,-43.146853],[145.945505,-43.143615],[145.952475,-43.139867],[145.95639,-43.138684],[145.955797,-43.135133],[145.958077,-43.133033],[145.959117,-43.129663],[145.963046,-43.127448],[145.964507,-43.130083],[145.966528,-43.131295],[145.974346,-43.130303],[145.977546,-43.131223],[145.977986,-43.134153],[145.980546,-43.135473],[145.982676,-43.133993],[145.979595,-43.128207],[145.982585,-43.125362],[145.985445,-43.119252],[145.983915,-43.116212],[145.986105,-43.114622],[145.987375,-43.112112],[145.986925,-43.110052],[145.989045,-43.106482],[145.992355,-43.104702],[145.992701,-43.100646],[145.989748,-43.098976],[145.9886,-43.095997],[145.990265,-43.093262],[145.98856,-43.091251],[145.984585,-43.090832],[145.984445,-43.088602],[145.979982,-43.090356],[145.979475,-43.085492],[145.977155,-43.084222],[145.977005,-43.082452],[145.973915,-43.077692],[145.975775,-43.075272],[145.982004,-43.072402],[145.980156,-43.069026],[145.980005,-43.065343],[145.978476,-43.062303],[145.974613,-43.060139],[145.97571,-43.058657],[145.974884,-43.055709],[145.976534,-43.054257],[145.975258,-43.04819],[145.976609,-43.045504],[145.979278,-43.043833],[145.979141,-43.040544],[145.978141,-43.039171],[145.974812,-43.036237],[145.975785,-43.031552],[145.978136,-43.030131],[145.979878,-43.026822],[145.978269,-43.023389],[145.978159,-43.017499],[145.980587,-43.016333],[145.984205,-43.012091],[145.986157,-43.011699],[145.988436,-43.009364],[145.991437,-43.004516],[145.989976,-43.001936],[145.990928,-42.999881],[145.989863,-42.996503],[145.993015,-42.99217],[145.992105,-42.988963],[145.992794,-42.986137],[145.992486,-42.981966],[145.995033,-42.980361],[145.992963,-42.978703],[145.988974,-42.978725],[145.984267,-42.972235],[145.980669,-42.968912],[145.977021,-42.96246],[145.972848,-42.960254],[145.972841,-42.958288],[145.970506,-42.957284],[145.969483,-42.954991],[145.96641,-42.954059],[145.961426,-42.950561],[145.959832,-42.948063],[145.956652,-42.946973],[145.957009,-42.945421],[145.95419,-42.943609],[145.954651,-42.942463],[145.951378,-42.938445],[145.948813,-42.937081],[145.944998,-42.932874],[145.94052,-42.930574],[145.939392,-42.927447],[145.940811,-42.925027],[145.939764,-42.922399],[145.936833,-42.920361],[145.93481,-42.917641],[145.935446,-42.911745],[145.933796,-42.907494],[145.935737,-42.903805],[145.939426,-42.903732],[145.944369,-42.907233],[145.94692,-42.905946],[145.949251,-42.906292],[145.947531,-42.902228],[145.854263,-42.742966],[145.851991,-42.741661],[145.849554,-42.733218],[145.846718,-42.729142],[145.842663,-42.72503],[145.837638,-42.721978],[145.832634,-42.717249],[145.841327,-42.716321],[145.844064,-42.719136],[145.849332,-42.716434],[145.851658,-42.71671],[145.855712,-42.715529],[145.858025,-42.713874],[145.861051,-42.713747],[145.862924,-42.715215],[145.866705,-42.714778],[145.86813,-42.717213],[145.871603,-42.716095],[145.873548,-42.713155],[145.87209,-42.711489],[145.870736,-42.707249],[145.871925,-42.704624],[145.867758,-42.702434],[145.868174,-42.699519],[145.866864,-42.698597],[145.868296,-42.694944],[145.867038,-42.691975],[145.869925,-42.690263],[145.874059,-42.692429],[145.876672,-42.694988],[145.881375,-42.697873],[145.887098,-42.699675],[145.895422,-42.697086],[145.899329,-42.694074],[145.902245,-42.693196],[145.903614,-42.691121],[145.9034,-42.689061],[145.904812,-42.687295],[145.904686,-42.684091],[145.907323,-42.684104],[145.909128,-42.681768],[145.916493,-42.681716],[145.918335,-42.679586],[145.92076,-42.681479],[145.9237,-42.682294],[145.928044,-42.682029],[145.930635,-42.67838],[145.931373,-42.673751],[145.934281,-42.669417],[145.940405,-42.669274],[145.943517,-42.668087],[145.947007,-42.667932],[145.954701,-42.665621],[145.956122,-42.662482],[145.960266,-42.65821],[145.965081,-42.659027],[145.966406,-42.656207],[145.964176,-42.653995],[145.964666,-42.650994],[145.967088,-42.648574],[145.966094,-42.646911],[145.962528,-42.647124],[145.96114,-42.646203],[145.960544,-42.643339],[145.961503,-42.639797],[145.963868,-42.635821],[145.967212,-42.633473],[145.967557,-42.638623],[145.970582,-42.638235],[145.969366,-42.635313],[145.972019,-42.633094],[145.97126,-42.631031],[145.971885,-42.627556],[145.971429,-42.624975],[145.974902,-42.624573],[145.979887,-42.627636],[145.984821,-42.626306],[145.983849,-42.620564],[145.987543,-42.617435],[145.987047,-42.615952],[145.98845,-42.612069],[145.991307,-42.611391],[145.991922,-42.609216],[145.995532,-42.608562],[145.997037,-42.603272],[145.996678,-42.601022],[145.99276,-42.59866],[145.992709,-42.595921],[145.995856,-42.591912],[145.995531,-42.590706],[146.000577,-42.589827],[146.000234,-42.586635],[146.001158,-42.583557],[146.001261,-42.579748],[146.00694,-42.580351],[146.013576,-42.576745],[146.014295,-42.573051],[146.018229,-42.572246],[146.016433,-42.566126],[146.018965,-42.561791],[146.021068,-42.560648],[146.026166,-42.559931],[146.025635,-42.558197],[146.023001,-42.556275],[146.029757,-42.554138],[146.030356,-42.549073],[146.032682,-42.547628],[146.031296,-42.54617],[146.031519,-42.543745],[146.028936,-42.542049],[146.029295,-42.538241],[146.031365,-42.537588],[146.036103,-42.533152],[146.039609,-42.533076],[146.042004,-42.530639],[146.049205,-42.529985],[146.051035,-42.528301],[146.053361,-42.528553],[146.056337,-42.525449],[146.055875,-42.524557],[146.059467,-42.520712],[146.067131,-42.517105],[146.066942,-42.515233],[146.073511,-42.511211],[146.071937,-42.508686],[146.073442,-42.503596],[146.07729,-42.502641],[146.081515,-42.502654],[146.082062,-42.498683],[146.086527,-42.496032],[146.089743,-42.489986],[146.088264,-42.488584],[146.08183,-42.487353],[146.087734,-42.48415],[146.085456,-42.481683],[146.083683,-42.481284],[146.080719,-42.482945],[146.077488,-42.483506],[146.07546,-42.479441],[146.075373,-42.477746],[146.077648,-42.476716],[146.080732,-42.477066],[146.084649,-42.474918],[146.086131,-42.475935],[146.088266,-42.472855],[146.089095,-42.469918],[146.093617,-42.467809],[146.09598,-42.464614],[146.097491,-42.461266],[146.09998,-42.458382],[146.104433,-42.457699],[146.106968,-42.45483],[146.109093,-42.450845],[146.108732,-42.445467],[146.112555,-42.443998],[146.114926,-42.441445],[146.117615,-42.439902],[146.119684,-42.441087],[146.122659,-42.438455],[146.12571,-42.436789],[146.124075,-42.431623],[146.12684,-42.429198],[146.126062,-42.42727],[146.128348,-42.425265],[146.134305,-42.424539],[146.133003,-42.421812],[146.129915,-42.417921],[146.133915,-42.418081],[146.133106,-42.4136],[146.131105,-42.411985],[146.129849,-42.407313],[146.124168,-42.405788],[146.121524,-42.406939],[146.118229,-42.404357],[146.114012,-42.406756],[146.108991,-42.405944],[146.105573,-42.407766],[146.100921,-42.404145],[146.099548,-42.402409],[146.103855,-42.398484],[146.10645,-42.397938],[146.106649,-42.393885],[146.1059,-42.391786],[146.11024,-42.390809],[146.11245,-42.388647],[146.11083,-42.38463],[146.114878,-42.380292],[146.109634,-42.379447],[146.108127,-42.377682],[146.110305,-42.375474],[146.108423,-42.372823],[146.106001,-42.371604],[146.10411,-42.372429],[146.10135,-42.371631],[146.099125,-42.369677],[146.099607,-42.367497],[146.09852,-42.36527],[146.097117,-42.358517],[146.097644,-42.354885],[146.098938,-42.354029],[146.097118,-42.346108],[146.097679,-42.342291],[146.096186,-42.341178],[146.096502,-42.338659],[146.098131,-42.337211],[146.099859,-42.329125],[146.102667,-42.326899],[146.104006,-42.317783],[146.105347,-42.31532],[146.105847,-42.309151],[146.10695,-42.305306],[146.104253,-42.301373],[146.100604,-42.299679],[146.0994,-42.296388],[146.09617,-42.293608],[146.093712,-42.292982],[146.089817,-42.29065],[146.088634,-42.287766],[146.09069,-42.283916],[146.090981,-42.281365],[146.089781,-42.27938],[146.075328,-42.21047],[145.999753,-42.0669],[146.023422,-42.039447],[146.014916,-42.005321],[146.050484,-41.974556],[146.036418,-41.930915],[146.014045,-41.866885],[145.964646,-41.725521],[145.951331,-41.684662],[145.903259,-41.634851],[145.887302,-41.618063],[145.853526,-41.582863],[145.852912,-41.518264],[145.852733,-41.51035],[145.852023,-41.510296],[145.852557,-41.484942],[145.852831,-41.465863],[145.954065,-41.451806],[146.04349,-41.45513],[146.082866,-41.456594],[146.087203,-41.458146],[146.088936,-41.45667],[146.088987,-41.452631],[146.092046,-41.451259],[146.09083,-41.44939],[146.092641,-41.445324],[146.092537,-41.443355],[146.089603,-41.440847],[146.09161,-41.439436],[146.090653,-41.435354],[146.092021,-41.432249],[146.090306,-41.429678],[146.087489,-41.429832],[146.084909,-41.42764],[146.08639,-41.424597],[146.088334,-41.42395],[146.087975,-41.42187],[146.085254,-41.421004],[146.08957,-41.417216],[146.092994,-41.415681],[146.09226,-41.412565],[146.094219,-41.410866],[146.092996,-41.406962],[146.095633,-41.403852],[146.09906,-41.403735],[146.102339,-41.402284],[146.102683,-41.400392],[146.105217,-41.39836],[146.104264,-41.395873],[146.107361,-41.392128],[146.107924,-41.39022],[146.111548,-41.387222],[146.112479,-41.385429],[146.117264,-41.384437],[146.117901,-41.379398],[146.114737,-41.378579],[146.11332,-41.376763],[146.11439,-41.375351],[146.11467,-41.37119],[146.119133,-41.371675],[146.121031,-41.369111],[146.123187,-41.36793],[146.128718,-41.368729],[146.130822,-41.365772],[146.13481,-41.368615],[146.136325,-41.36697],[146.134468,-41.363907],[146.135696,-41.362233],[146.140085,-41.361845],[146.143265,-41.362914],[146.145493,-41.360608],[146.147633,-41.360116],[146.148413,-41.358076],[146.152009,-41.356497],[146.153993,-41.357323],[146.160085,-41.351957],[146.164123,-41.351415],[146.163716,-41.348624],[146.167161,-41.346229],[146.166828,-41.343582],[146.176291,-41.341565],[146.177165,-41.340183],[146.175481,-41.337573],[146.178792,-41.335011],[146.180359,-41.332834],[146.181088,-41.329747],[146.182916,-41.328386],[146.184111,-41.322293],[146.185555,-41.320484],[146.18505,-41.315978],[146.192861,-41.317704],[146.195322,-41.316467],[146.200302,-41.316092],[146.199551,-41.314028],[146.196503,-41.312567],[146.199331,-41.310623],[146.204132,-41.312182],[146.205314,-41.310799],[146.203097,-41.303968],[146.1993,-41.302828],[146.195697,-41.304349],[146.194183,-41.302788],[146.194933,-41.299591],[146.196917,-41.295633],[146.199252,-41.295394],[146.202432,-41.298263],[146.203442,-41.297548],[146.201961,-41.294663],[146.203629,-41.291942],[146.202756,-41.290819],[146.198406,-41.292209],[146.197637,-41.290738],[146.203298,-41.287246],[146.206439,-41.288115],[146.20778,-41.282715],[146.209922,-41.282546],[146.211287,-41.279262],[146.21472,-41.278719],[146.216538,-41.275955],[146.222378,-41.274002],[146.226703,-41.271646],[146.230802,-41.273703],[146.232486,-41.2777],[146.235479,-41.278279],[146.244054,-41.278296],[146.248055,-41.277936],[146.248699,-41.275475],[146.251022,-41.272052],[146.252999,-41.271499],[146.25603,-41.268602],[146.261376,-41.269261],[146.261787,-41.267399],[146.26515,-41.267806],[146.265684,-41.265593],[146.281762,-41.267869],[146.281877,-41.267283],[146.292293,-41.268871],[146.308656,-41.270359],[146.321033,-41.271849],[146.319267,-41.268055],[146.319705,-41.266329],[146.322816,-41.265269],[146.322098,-41.261377],[146.32034,-41.258932],[146.322566,-41.257293],[146.323461,-41.254969],[146.342213,-41.245475],[146.349472,-41.242148],[146.351471,-41.243967],[146.362813,-41.256351],[146.361354,-41.257165],[146.370102,-41.266802],[146.366523,-41.268001],[146.357527,-41.272633],[146.362314,-41.277834],[146.358279,-41.279709],[146.359468,-41.281064],[146.358921,-41.284202],[146.369114,-41.285584],[146.369727,-41.285081],[146.38418,-41.28694],[146.384479,-41.289767],[146.383722,-41.292936],[146.38899,-41.293602],[146.390164,-41.287854],[146.398708,-41.288963],[146.398978,-41.291547],[146.400508,-41.295266],[146.407979,-41.293125],[146.410191,-41.293642],[146.411064,-41.295512],[146.413666,-41.295743],[146.41424,-41.293029],[146.418702,-41.293555],[146.444449,-41.297836],[146.443565,-41.300333],[146.445294,-41.305125],[146.448011,-41.309263],[146.446637,-41.31391],[146.447,-41.315195],[146.450515,-41.31608],[146.453547,-41.318639],[146.459757,-41.319725],[146.461459,-41.325483],[146.461027,-41.330122],[146.46206,-41.336042],[146.461032,-41.341083],[146.459497,-41.344207],[146.460211,-41.347269],[146.464065,-41.34925],[146.465583,-41.351823],[146.46856,-41.354709],[146.472019,-41.355307],[146.475942,-41.359695],[146.479025,-41.360698],[146.480915,-41.366515],[146.480116,-41.368685],[146.484519,-41.375631],[146.489447,-41.37647],[146.492021,-41.375503],[146.494373,-41.37673],[146.5104,-41.371171],[146.510988,-41.37164],[146.528035,-41.365072],[146.539801,-41.366354],[146.54558,-41.367394],[146.548216,-41.355006],[146.557625,-41.356137],[146.557269,-41.357945],[146.589922,-41.361746],[146.590604,-41.359873],[146.589915,-41.356439],[146.583073,-41.353196],[146.582482,-41.349627],[146.580859,-41.346875],[146.586998,-41.347593],[146.589574,-41.334794],[146.617472,-41.3379],[146.619945,-41.324477],[146.641341,-41.327242],[146.654646,-41.328772],[146.703586,-41.33269]]],[[[144.13823,-39.933889],[144.135646,-39.924383],[144.111387,-39.913816],[144.108218,-39.906615],[144.105013,-39.891295],[144.10452,-39.878211],[144.106584,-39.866197],[144.110865,-39.857406],[144.118168,-39.850316],[144.118726,-39.846335],[144.124785,-39.836229],[144.127918,-39.822138],[144.111627,-39.799594],[144.104715,-39.779272],[144.10179,-39.764481],[144.100803,-39.737075],[144.109925,-39.677727],[144.109657,-39.669979],[144.068915,-39.644025],[144.056413,-39.633379],[144.051478,-39.625462],[144.035905,-39.62031],[144.01259,-39.608841],[144.005857,-39.602262],[144.004207,-39.59817],[144.001672,-39.599866],[143.996405,-39.601512],[143.98439,-39.600984],[143.975964,-39.592113],[143.972073,-39.591547],[143.969496,-39.588758],[143.956389,-39.585389],[143.949762,-39.579261],[143.94575,-39.580467],[143.940558,-39.584475],[143.935747,-39.594632],[143.93309,-39.59502],[143.930714,-39.592588],[143.926989,-39.592182],[143.924209,-39.595287],[143.92629,-39.597587],[143.925237,-39.600776],[143.92758,-39.60315],[143.92694,-39.609315],[143.924982,-39.612159],[143.931755,-39.620402],[143.930725,-39.622843],[143.933255,-39.625402],[143.931346,-39.62952],[143.93418,-39.633756],[143.934618,-39.638209],[143.932529,-39.649732],[143.922707,-39.668873],[143.912902,-39.680417],[143.891328,-39.698318],[143.889751,-39.697057],[143.875148,-39.700392],[143.866022,-39.709556],[143.849336,-39.710786],[143.84424,-39.715568],[143.847068,-39.717903],[143.845044,-39.723058],[143.846855,-39.729227],[143.849605,-39.729999],[143.847903,-39.732631],[143.851025,-39.732947],[143.851402,-39.735365],[143.854673,-39.737523],[143.852724,-39.739587],[143.853436,-39.745281],[143.851475,-39.746618],[143.854246,-39.750678],[143.848656,-39.754351],[143.851519,-39.757311],[143.851209,-39.760657],[143.852789,-39.766198],[143.850197,-39.770257],[143.855828,-39.773207],[143.856659,-39.778324],[143.863026,-39.789616],[143.862948,-39.792893],[143.859987,-39.793838],[143.86009,-39.795412],[143.866013,-39.801015],[143.86038,-39.80714],[143.863154,-39.80987],[143.859472,-39.812173],[143.860697,-39.813962],[143.859078,-39.81616],[143.863884,-39.819876],[143.863511,-39.821819],[143.860139,-39.823496],[143.864516,-39.824648],[143.867172,-39.833486],[143.866138,-39.840704],[143.863896,-39.844357],[143.858769,-39.849725],[143.854139,-39.851258],[143.859248,-39.853512],[143.860358,-39.856619],[143.853868,-39.861717],[143.856308,-39.864032],[143.85119,-39.869762],[143.846829,-39.870427],[143.847915,-39.873266],[143.844206,-39.876864],[143.845529,-39.878714],[143.84209,-39.8835],[143.841937,-39.885024],[143.846584,-39.887544],[143.843823,-39.889609],[143.847086,-39.894641],[143.841904,-39.895949],[143.835297,-39.902223],[143.837669,-39.904335],[143.836731,-39.90717],[143.839495,-39.911192],[143.833303,-39.915546],[143.834396,-39.916473],[143.833773,-39.921387],[143.835472,-39.923338],[143.842361,-39.922607],[143.84452,-39.923211],[143.845164,-39.925474],[143.844499,-39.928986],[143.840317,-39.928357],[143.839316,-39.932455],[143.840938,-39.934963],[143.838594,-39.9362],[143.843794,-39.938029],[143.845028,-39.940751],[143.848361,-39.942154],[143.852642,-39.945717],[143.855012,-39.944891],[143.856409,-39.948407],[143.860436,-39.949021],[143.859409,-39.951043],[143.863705,-39.951882],[143.869006,-39.958089],[143.869649,-39.960861],[143.868174,-39.96351],[143.8748,-39.967009],[143.879028,-39.967228],[143.879617,-39.970093],[143.884299,-39.975596],[143.885748,-39.983593],[143.889029,-39.985648],[143.886012,-39.988423],[143.887068,-39.9915],[143.891671,-39.993511],[143.885039,-39.998922],[143.887874,-40.005688],[143.892566,-40.006963],[143.892987,-40.010933],[143.891715,-40.013002],[143.888981,-40.013293],[143.889156,-40.01842],[143.885419,-40.023508],[143.885799,-40.027574],[143.884037,-40.028189],[143.886153,-40.036963],[143.885411,-40.042666],[143.889314,-40.049089],[143.888264,-40.049344],[143.890026,-40.053951],[143.886311,-40.05892],[143.879926,-40.062694],[143.873752,-40.062622],[143.871578,-40.063968],[143.868817,-40.06316],[143.864887,-40.060055],[143.860137,-40.0606],[143.858082,-40.062372],[143.85837,-40.065196],[143.865496,-40.068366],[143.863459,-40.072659],[143.868056,-40.075229],[143.869355,-40.077548],[143.87011,-40.081911],[143.872038,-40.083458],[143.868995,-40.085189],[143.868073,-40.089476],[143.869984,-40.091346],[143.869429,-40.094915],[143.876111,-40.097308],[143.875855,-40.099987],[143.874147,-40.104175],[143.876388,-40.10635],[143.873961,-40.10911],[143.876466,-40.111548],[143.875275,-40.116764],[143.876231,-40.117716],[143.881644,-40.119705],[143.881793,-40.120965],[143.887586,-40.12202],[143.904426,-40.121394],[143.904439,-40.124239],[143.907619,-40.125403],[143.908402,-40.128058],[143.902577,-40.130278],[143.903432,-40.132035],[143.900353,-40.133988],[143.90083,-40.139383],[143.905498,-40.139205],[143.912913,-40.144516],[143.915953,-40.143472],[143.915683,-40.14812],[143.919549,-40.150878],[143.923262,-40.157267],[143.925725,-40.157964],[143.929999,-40.151565],[143.928059,-40.149392],[143.929769,-40.146124],[143.928683,-40.143357],[143.921081,-40.139172],[143.921046,-40.134081],[143.928595,-40.127691],[143.941026,-40.123376],[143.943144,-40.11789],[143.949699,-40.112923],[143.958204,-40.109391],[143.962635,-40.109148],[143.968089,-40.113723],[143.969544,-40.116684],[143.971088,-40.116734],[143.975072,-40.114194],[143.978762,-40.114004],[143.977692,-40.110798],[143.979138,-40.109063],[143.977086,-40.108085],[143.977311,-40.106056],[143.989663,-40.09824],[143.996044,-40.097217],[144.003781,-40.099684],[144.007828,-40.098362],[144.007273,-40.096498],[144.011797,-40.093436],[144.023296,-40.091962],[144.026951,-40.094863],[144.026121,-40.090703],[144.028889,-40.090442],[144.033392,-40.086446],[144.036737,-40.086181],[144.037146,-40.080024],[144.050871,-40.074095],[144.047435,-40.07077],[144.049329,-40.067693],[144.056726,-40.065142],[144.060763,-40.066488],[144.060319,-40.06378],[144.062986,-40.063035],[144.064217,-40.065287],[144.060276,-40.069461],[144.062736,-40.069223],[144.065651,-40.064976],[144.062786,-40.062173],[144.062977,-40.059693],[144.068124,-40.057816],[144.070387,-40.05144],[144.087409,-40.048439],[144.093888,-40.052257],[144.096541,-40.046831],[144.100595,-40.047009],[144.103553,-40.043392],[144.105961,-40.042521],[144.101573,-40.038889],[144.102382,-40.031961],[144.100807,-40.028812],[144.106223,-40.023007],[144.116243,-40.018145],[144.116946,-40.011982],[144.114989,-40.01126],[144.113551,-40.008047],[144.115707,-40.007835],[144.116288,-40.005786],[144.120947,-40.002569],[144.121356,-39.998479],[144.124114,-39.997782],[144.128013,-39.993243],[144.125431,-39.988072],[144.127707,-39.984258],[144.131131,-39.982794],[144.133027,-39.977346],[144.131265,-39.963351],[144.133677,-39.960045],[144.132985,-39.957429],[144.134931,-39.950602],[144.133822,-39.949192],[144.136419,-39.945095],[144.13565,-39.942738],[144.13823,-39.933889]]],[[[145.067883,-40.714494],[145.067579,-40.712801],[145.064015,-40.711962],[145.056968,-40.706046],[145.044316,-40.689174],[145.044388,-40.682589],[145.045786,-40.680185],[145.037087,-40.684258],[145.026648,-40.684931],[145.014638,-40.681837],[144.991571,-40.670004],[144.979686,-40.660877],[144.9579,-40.631783],[144.954757,-40.629474],[144.952217,-40.62981],[144.952169,-40.63347],[144.958674,-40.639589],[144.968174,-40.655458],[144.967983,-40.658739],[144.962032,-40.658722],[144.959107,-40.654412],[144.954425,-40.652199],[144.942744,-40.651955],[144.93738,-40.649773],[144.933515,-40.644211],[144.936302,-40.638497],[144.929155,-40.63174],[144.92939,-40.62232],[144.919365,-40.624943],[144.915109,-40.640646],[144.912442,-40.643215],[144.912174,-40.646658],[144.908985,-40.650401],[144.905917,-40.650602],[144.903128,-40.657129],[144.897351,-40.659345],[144.892198,-40.664744],[144.877404,-40.673506],[144.87183,-40.678599],[144.87214,-40.684558],[144.871113,-40.686726],[144.873594,-40.690501],[144.871808,-40.695018],[144.876441,-40.710768],[144.875304,-40.713368],[144.873258,-40.713856],[144.873982,-40.717112],[144.867154,-40.722024],[144.869445,-40.724987],[144.872801,-40.724955],[144.878531,-40.732663],[144.88264,-40.735578],[144.893737,-40.74048],[144.898172,-40.738436],[144.905784,-40.739463],[144.910153,-40.731737],[144.919415,-40.728478],[144.930317,-40.728917],[144.937786,-40.732015],[144.943067,-40.731348],[144.963864,-40.712192],[144.976938,-40.707686],[144.987022,-40.707571],[144.993173,-40.709298],[144.994516,-40.711295],[145.000578,-40.71169],[145.004435,-40.714161],[145.004554,-40.711893],[145.008309,-40.711415],[145.009443,-40.708364],[145.014057,-40.706642],[145.020047,-40.705324],[145.031189,-40.706038],[145.032951,-40.707959],[145.038789,-40.705607],[145.038976,-40.707321],[145.035504,-40.709827],[145.039127,-40.713134],[145.043577,-40.714473],[145.051107,-40.712278],[145.04837,-40.715796],[145.042145,-40.715909],[145.041145,-40.717437],[145.059831,-40.716886],[145.067883,-40.714494]]],[[[144.792726,-40.417558],[144.791737,-40.413638],[144.789362,-40.411639],[144.79035,-40.405097],[144.787607,-40.40119],[144.784142,-40.399758],[144.785366,-40.403876],[144.783044,-40.404298],[144.783443,-40.406756],[144.785228,-40.409393],[144.784576,-40.411681],[144.786422,-40.412948],[144.782654,-40.414665],[144.784387,-40.420541],[144.781311,-40.420411],[144.774453,-40.4259],[144.775256,-40.427055],[144.772409,-40.430536],[144.773489,-40.43171],[144.770752,-40.433203],[144.772218,-40.435506],[144.770347,-40.439152],[144.768075,-40.439877],[144.766331,-40.444897],[144.765126,-40.453438],[144.771125,-40.458727],[144.772548,-40.464634],[144.771454,-40.46637],[144.766816,-40.467753],[144.767081,-40.470181],[144.763859,-40.473616],[144.764849,-40.474955],[144.761045,-40.47645],[144.755862,-40.485733],[144.746542,-40.490117],[144.744163,-40.489765],[144.742092,-40.486625],[144.73994,-40.488751],[144.737135,-40.486563],[144.735046,-40.489057],[144.730751,-40.489194],[144.728151,-40.485244],[144.72586,-40.485798],[144.724777,-40.479136],[144.72137,-40.481409],[144.711474,-40.482228],[144.710652,-40.484483],[144.710873,-40.492503],[144.713998,-40.493067],[144.716731,-40.499165],[144.718277,-40.500491],[144.712951,-40.507096],[144.7101,-40.506218],[144.709542,-40.510031],[144.719905,-40.513818],[144.722219,-40.517046],[144.719896,-40.519901],[144.721728,-40.522497],[144.720309,-40.524474],[144.724104,-40.525974],[144.724219,-40.528848],[144.726133,-40.529863],[144.722891,-40.533404],[144.727904,-40.535284],[144.726616,-40.53869],[144.728184,-40.539054],[144.729043,-40.544979],[144.733166,-40.550062],[144.730846,-40.551521],[144.732086,-40.554021],[144.725519,-40.566191],[144.725805,-40.5746],[144.73167,-40.577494],[144.732262,-40.579764],[144.730788,-40.581623],[144.733893,-40.582208],[144.7345,-40.584427],[144.73309,-40.586137],[144.735348,-40.588343],[144.73356,-40.590324],[144.735489,-40.592882],[144.747062,-40.596856],[144.757535,-40.605984],[144.767557,-40.596955],[144.775962,-40.581231],[144.776273,-40.575666],[144.76961,-40.555399],[144.773489,-40.55003],[144.773941,-40.540406],[144.771284,-40.533477],[144.773211,-40.529698],[144.779201,-40.528849],[144.779996,-40.525638],[144.78562,-40.520308],[144.783953,-40.518677],[144.78403,-40.515662],[144.787341,-40.514668],[144.786168,-40.513253],[144.787025,-40.510686],[144.791029,-40.507352],[144.787535,-40.504689],[144.786718,-40.499106],[144.790501,-40.492851],[144.788419,-40.487495],[144.792562,-40.479053],[144.788184,-40.474577],[144.784988,-40.47021],[144.78611,-40.467175],[144.789809,-40.466916],[144.791023,-40.464458],[144.790537,-40.451491],[144.788674,-40.447869],[144.790303,-40.439437],[144.788473,-40.436282],[144.788194,-40.427425],[144.792726,-40.417558]]],[[[144.969887,-40.426313],[144.967048,-40.421997],[144.961293,-40.419087],[144.961917,-40.4163],[144.957863,-40.415321],[144.956215,-40.412446],[144.956315,-40.408803],[144.959149,-40.408034],[144.957307,-40.405292],[144.961565,-40.405784],[144.961752,-40.404493],[144.959068,-40.403115],[144.962033,-40.401478],[144.959055,-40.400055],[144.954683,-40.391265],[144.952669,-40.392915],[144.949828,-40.392662],[144.947897,-40.396141],[144.943638,-40.397748],[144.936319,-40.397046],[144.935322,-40.394539],[144.933021,-40.395534],[144.929988,-40.394355],[144.926183,-40.391706],[144.923867,-40.393727],[144.918189,-40.394304],[144.913897,-40.397452],[144.907561,-40.393728],[144.905787,-40.395153],[144.903138,-40.393303],[144.899267,-40.394887],[144.897021,-40.388734],[144.891635,-40.388251],[144.890921,-40.390337],[144.887152,-40.388676],[144.881929,-40.390886],[144.881221,-40.393372],[144.88441,-40.399455],[144.879437,-40.399371],[144.874494,-40.401325],[144.877835,-40.404975],[144.8857,-40.408489],[144.883924,-40.415373],[144.877013,-40.422894],[144.865414,-40.431975],[144.85422,-40.43453],[144.846175,-40.432319],[144.844956,-40.430188],[144.841026,-40.429911],[144.843007,-40.436048],[144.840733,-40.438029],[144.837384,-40.438746],[144.834773,-40.44306],[144.835738,-40.445234],[144.840501,-40.447522],[144.842778,-40.446893],[144.850925,-40.45246],[144.853362,-40.461354],[144.858052,-40.468834],[144.872439,-40.471589],[144.880386,-40.477376],[144.896639,-40.483856],[144.90858,-40.480186],[144.913024,-40.481114],[144.913829,-40.477675],[144.916861,-40.478031],[144.918814,-40.47426],[144.922632,-40.473994],[144.92768,-40.470158],[144.932322,-40.470307],[144.940709,-40.465314],[144.938754,-40.462655],[144.942257,-40.459279],[144.945131,-40.45817],[144.949157,-40.460489],[144.951601,-40.460038],[144.952129,-40.45477],[144.947379,-40.453782],[144.946431,-40.451349],[144.947913,-40.438604],[144.951224,-40.435426],[144.957038,-40.436109],[144.960944,-40.433],[144.963973,-40.43201],[144.963866,-40.430058],[144.965508,-40.427727],[144.969887,-40.426313]]],[[[145.104473,-40.793431],[145.098966,-40.787578],[145.084667,-40.781955],[145.073132,-40.775257],[145.063229,-40.767121],[145.050979,-40.753388],[145.047311,-40.751108],[145.044247,-40.751168],[145.042043,-40.762848],[145.042528,-40.768899],[145.04007,-40.774177],[145.041411,-40.77855],[145.045964,-40.782596],[145.059712,-40.785353],[145.077657,-40.794962],[145.101314,-40.795899],[145.104473,-40.793431]]],[[[144.949955,-40.62121],[144.942411,-40.611771],[144.936368,-40.600624],[144.937053,-40.598647],[144.934864,-40.595907],[144.938497,-40.589407],[144.936145,-40.58843],[144.933457,-40.58308],[144.930453,-40.582999],[144.929522,-40.578024],[144.927522,-40.577381],[144.92265,-40.58266],[144.924448,-40.591849],[144.919959,-40.613082],[144.931839,-40.618972],[144.935869,-40.62931],[144.949955,-40.62121]]],[[[144.841326,-40.695521],[144.83965,-40.69345],[144.832674,-40.690735],[144.825632,-40.695061],[144.823774,-40.699205],[144.827569,-40.701745],[144.831354,-40.701921],[144.837873,-40.700066],[144.841326,-40.695521]]],[[[144.698287,-40.633742],[144.687391,-40.626681],[144.6791,-40.627154],[144.679262,-40.629593],[144.68378,-40.630147],[144.684021,-40.632862],[144.686568,-40.634093],[144.685548,-40.636203],[144.687308,-40.638708],[144.695842,-40.636892],[144.698287,-40.633742]]],[[[143.837861,-39.669329],[143.836474,-39.667297],[143.826748,-39.665015],[143.825298,-39.66771],[143.82044,-39.669172],[143.819218,-39.674996],[143.825828,-39.67733],[143.825327,-39.673508],[143.827626,-39.671364],[143.836637,-39.67061],[143.837861,-39.669329]]],[[[143.835897,-39.687897],[143.830004,-39.682101],[143.826046,-39.682948],[143.829122,-39.688704],[143.8277,-39.69044],[143.83018,-39.691354],[143.829885,-39.693141],[143.834238,-39.692756],[143.835897,-39.687897]]],[[[144.9264,-40.749173],[144.922341,-40.74639],[144.92136,-40.74769],[144.913564,-40.747501],[144.909456,-40.7492],[144.913043,-40.751457],[144.919575,-40.752014],[144.925015,-40.750746],[144.9264,-40.749173]]],[[[144.723282,-40.606018],[144.72197,-40.600401],[144.720044,-40.598806],[144.717605,-40.599452],[144.716306,-40.606493],[144.721191,-40.609015],[144.72291,-40.608411],[144.723282,-40.606018]]],[[[145.300715,-42.187458],[145.294929,-42.185279],[145.292824,-42.188416],[145.294243,-42.191525],[145.298833,-42.190629],[145.300715,-42.187458]]],[[[144.779959,-40.604786],[144.779107,-40.602448],[144.776721,-40.603146],[144.772955,-40.607439],[144.773589,-40.610246],[144.779959,-40.604786]]],[[[144.686782,-40.564973],[144.68632,-40.561152],[144.67854,-40.562625],[144.68411,-40.566753],[144.686782,-40.564973]]],[[[144.657406,-40.374154],[144.65421,-40.37286],[144.654967,-40.376534],[144.657406,-40.374154]]],[[[146.401512,-41.230711],[146.399404,-41.227658],[146.394716,-41.226188],[146.398413,-41.228934],[146.39657,-41.231917],[146.399897,-41.232819],[146.401512,-41.230711]]],[[[146.579347,-41.208147],[146.577148,-41.206718],[146.573448,-41.208809],[146.574213,-41.211867],[146.579347,-41.208147]]],[[[145.5063,-42.344836],[145.497573,-42.345834],[145.501422,-42.348676],[145.503671,-42.345597],[145.5063,-42.344836]]],[[[146.574947,-41.171909],[146.573455,-41.167999],[146.568555,-41.170059],[146.574947,-41.171909]]],[[[144.874975,-40.731366],[144.868415,-40.727242],[144.869992,-40.730766],[144.874975,-40.731366]]],[[[146.379788,-41.22569],[146.378381,-41.222155],[146.374103,-41.226053],[146.375448,-41.2274],[146.379788,-41.22569]]],[[[144.164143,-39.828413],[144.160414,-39.827398],[144.158004,-39.832844],[144.162559,-39.83103],[144.164143,-39.828413]]],[[[144.93045,-40.570302],[144.929349,-40.567813],[144.925701,-40.568806],[144.925717,-40.571061],[144.93045,-40.570302]]],[[[144.876185,-40.729214],[144.872527,-40.724835],[144.869606,-40.725724],[144.876185,-40.729214]]],[[[145.787683,-43.22349],[145.784291,-43.221914],[145.78273,-43.224869],[145.785649,-43.224837],[145.787683,-43.22349]]],[[[145.454004,-42.335374],[145.449232,-42.333434],[145.447588,-42.334395],[145.451285,-42.336323],[145.454004,-42.335374]]],[[[143.929054,-40.159816],[143.926741,-40.157669],[143.924436,-40.161488],[143.927889,-40.161357],[143.929054,-40.159816]]],[[[146.569181,-41.236214],[146.566475,-41.235494],[146.565162,-41.238118],[146.568318,-41.237812],[146.569181,-41.236214]]],[[[146.569818,-41.175187],[146.563325,-41.173343],[146.563962,-41.174969],[146.568332,-41.176394],[146.569818,-41.175187]]],[[[144.708844,-40.50736],[144.704844,-40.504973],[144.704693,-40.507255],[144.708844,-40.50736]]]]},"bbox":[143.819218,-43.322614,146.76206,-39.579261]}]}