{"type":"FeatureCollection","features":[
{"properties":{"electorateShortName":"bradfield","electorateName":"Bradfield","area":101.379361,"state":"NSW"},"type":"Feature","geometry":{"type":"MultiPolygon","coordinates":[[[[151.232938,-33.792589],[151.203599,-33.773133],[151.191417,-33.702699],[151.161505,-33.659605],[151.11223,-33.679097],[151.100105,-33.753515],[151.157106,-33.792709],[151.232938,-33.792589]]],[[[151.282829,-33.862556],[151.297434836172,-33.85565127166434],[151.30737722932173,-33.843870789638686],[151.30785922932174,-33.84318878963869],[151.31832853479554,-33.82364285539864],[151.307883,-33.744221],[151.299717,-33.756601],[151.288071,-33.79454],[151.297149,-33.799331],[151.301061,-33.818464],[151.290672,-33.828322],[151.280955,-33.832769],[151.282829,-33.862556]]]]},"bbox":[151.100105,-33.862556,151.31832853479554,-33.659605]}]}