{"type":"FeatureCollection","features":[
{"properties":{"electorateShortName":"brand","electorateName":"Brand","area":377.340612,"state":"WA"},"type":"Feature","geometry":{"type":"MultiPolygon","coordinates":[[[[115.747816,-32.455643],[115.801425,-32.455616],[115.827484,-32.458152],[115.831507,-32.444579],[115.857725,-32.444576],[115.857654,-32.406225],[115.830645,-32.404353],[115.834907,-32.395343],[115.834949,-32.37879],[115.85191,-32.367644],[115.855852,-32.34545],[115.875073,-32.332349],[115.889645,-32.291934],[115.876778,-32.281802],[115.885737,-32.265131],[115.884522,-32.240671],[115.885334,-32.203956],[115.896977,-32.202241],[115.900736,-32.193107],[115.898546,-32.180241],[115.774924,-32.181389],[115.772648,-32.200397],[115.755697,-32.223666],[115.75989,-32.236549],[115.755206,-32.251149],[115.740579,-32.266435],[115.722401,-32.276931],[115.70529,-32.275719],[115.701971,-32.282413],[115.701554,-32.305276],[115.7136,-32.304954],[115.729844,-32.3098],[115.741893,-32.326167],[115.74347,-32.344532],[115.739077,-32.358782],[115.73157,-32.366003],[115.712858,-32.370174],[115.73018,-32.385374],[115.744135,-32.404004],[115.749807,-32.433786],[115.747816,-32.455643]]],[[[115.700388,-32.22636],[115.68917,-32.216215],[115.674959,-32.184634],[115.677182,-32.172242],[115.669118,-32.15602],[115.660534,-32.156225],[115.660053,-32.173632],[115.669762,-32.19499],[115.67096,-32.21238],[115.677048,-32.225556],[115.686935,-32.232409],[115.700388,-32.22636]]]]},"bbox":[115.660053,-32.458152,115.900736,-32.15602]}]}