{"type":"FeatureCollection","features":[
{"properties":{"electorateShortName":"brisbane","electorateName":"Brisbane","area":54.785102,"state":"QLD"},"type":"Feature","geometry":{"type":"Polygon","coordinates":[[[153.099932,-27.445258],[153.095832,-27.436421],[153.083152,-27.433196],[153.074746,-27.406965],[153.059643,-27.410424],[153.050679,-27.404299],[153.033503,-27.412687],[152.99082,-27.407275],[152.992407,-27.412612],[152.987742,-27.438726],[152.976127,-27.437076],[152.97752,-27.450486],[152.997212,-27.466273],[153.003899,-27.47611],[153.015912,-27.468639],[153.026922,-27.479797],[153.0407,-27.473657],[153.054538,-27.472002],[153.048416,-27.444306],[153.062773,-27.441445],[153.080142,-27.446423],[153.099932,-27.445258]]]},"bbox":[152.976127,-27.479797,153.099932,-27.404299]}]}