{"type":"FeatureCollection","features":[
{"properties":{"electorateShortName":"bruce","electorateName":"Bruce","area":95.9,"state":"VIC"},"type":"Feature","geometry":{"type":"MultiPolygon","coordinates":[[[[145.316998,-37.967846],[145.29336,-37.963976],[145.279621,-37.947596],[145.219188,-37.940148],[145.15674,-37.933148],[145.145911,-37.983612],[145.144698,-37.990854],[145.18173,-37.995075],[145.1919,-37.992627],[145.192957,-37.978964],[145.225378,-38.00053],[145.251854,-38.003635],[145.248989,-38.017011],[145.286755,-38.021634],[145.299604,-38.031242],[145.303503,-38.043664],[145.314399,-37.989031],[145.310581,-37.980828],[145.316998,-37.967846]]],[[[145.06165,-37.990547],[145.05479064070394,-37.99493649242573],[145.05743051815125,-38.01286278487738],[145.06360764737673,-38.029896985431876],[145.07307164804539,-38.04534863923795],[145.08543891159556,-38.05859143751777],[145.1002081502158,-38.06908860402008],[145.12042725651082,-38.07720928434174],[145.112784,-38.051975],[145.095823,-38.021372],[145.081111,-38.00581],[145.07207,-37.997362],[145.06165,-37.990547]]]]},"bbox":[145.05479064070394,-38.07720928434174,145.316998,-37.933148]}]}