{"type":"FeatureCollection","features":[
{"properties":{"electorateShortName":"burt","electorateName":"Burt","area":172.374245,"state":"WA"},"type":"Feature","geometry":{"type":"Polygon","coordinates":[[[115.898628,-32.18024],[115.909231,-32.180185],[115.921849,-32.180045],[115.92278,-32.180456],[115.924403,-32.180021],[115.978086,-32.179564],[115.978422,-32.18166],[115.990098,-32.181625],[115.992345,-32.180217],[115.992729,-32.180545],[115.995663,-32.185907],[115.998623,-32.186852],[116.000128,-32.185226],[116.001539,-32.186705],[116.002156,-32.186535],[116.015818,-32.186556],[116.016303,-32.183118],[116.015507,-32.178969],[116.015156,-32.170427],[116.015566,-32.167994],[116.016967,-32.162915],[116.018565,-32.153052],[116.021739,-32.149873],[116.024646,-32.149741],[116.025828,-32.148005],[116.025723,-32.146053],[116.027079,-32.144488],[116.030633,-32.143361],[116.030722,-32.142909],[116.033621,-32.14125],[116.035584,-32.139051],[116.034815,-32.137667],[116.043483,-32.130356],[116.05014,-32.130348],[116.050132,-32.127874],[116.052151,-32.128654],[116.053118,-32.127608],[116.051819,-32.12686],[116.050125,-32.125273],[116.050119,-32.121282],[116.047866,-32.120807],[116.042079,-32.117133],[116.042089,-32.116168],[116.032853,-32.116186],[116.030947,-32.11628],[116.031356,-32.114796],[116.034659,-32.115099],[116.035794,-32.114449],[116.036688,-32.112607],[116.038632,-32.112008],[116.040465,-32.109856],[116.041221,-32.107436],[116.043872,-32.103371],[116.045873,-32.099836],[116.047429,-32.097615],[116.048478,-32.095522],[116.043636,-32.095513],[116.043639,-32.094758],[116.032995,-32.094741],[116.032995,-32.093215],[116.023022,-32.093203],[116.015802,-32.093325],[116.018056,-32.089827],[116.017686,-32.088879],[116.017696,-32.086659],[116.016641,-32.085082],[116.015197,-32.083883],[116.015241,-32.082208],[116.013741,-32.081366],[116.014053,-32.079763],[116.013194,-32.078527],[116.013149,-32.076945],[116.012362,-32.076186],[116.010416,-32.076586],[116.009157,-32.075511],[116.00928,-32.074283],[116.007862,-32.072359],[116.006692,-32.071934],[116.006983,-32.070847],[116.004718,-32.069623],[116.003126,-32.070421],[116.001789,-32.069189],[116.001963,-32.067419],[115.999286,-32.066878],[115.997811,-32.065682],[115.996173,-32.063434],[115.994677,-32.062674],[115.995051,-32.061091],[115.992047,-32.060679],[115.989987,-32.061806],[115.987465,-32.060932],[115.986406,-32.061978],[115.982705,-32.062939],[115.981094,-32.06007],[115.979611,-32.060105],[115.978355,-32.061251],[115.977237,-32.060806],[115.976851,-32.059826],[115.978142,-32.058434],[115.978001,-32.057762],[115.976313,-32.057311],[115.974289,-32.056209],[115.975103,-32.055213],[115.975446,-32.053714],[115.972507,-32.053586],[115.970914,-32.052571],[115.970759,-32.051609],[115.972628,-32.048315],[115.970551,-32.04699],[115.967922,-32.047111],[115.966342,-32.045659],[115.965717,-32.043366],[115.964836,-32.042526],[115.961402,-32.041443],[115.958353,-32.043569],[115.957206,-32.043763],[115.95447,-32.042496],[115.954249,-32.041299],[115.955196,-32.040517],[115.953824,-32.03783],[115.952287,-32.036033],[115.950594,-32.034756],[115.948404,-32.032559],[115.946347,-32.032231],[115.945031,-32.031305],[115.944781,-32.030207],[115.943637,-32.029473],[115.941156,-32.02962],[115.936278,-32.033364],[115.9358,-32.034098],[115.930236,-32.05427],[115.925506,-32.054946],[115.923772,-32.055029],[115.911204,-32.054806],[115.907838,-32.055486],[115.905866,-32.056568],[115.896541,-32.063845],[115.892417,-32.067417],[115.890435,-32.069732],[115.888765,-32.070994],[115.884285,-32.075037],[115.892017,-32.081769],[115.892108,-32.082241],[115.891012,-32.085565],[115.889682,-32.086993],[115.890686,-32.088228],[115.890624,-32.092087],[115.896141,-32.09654],[115.900055,-32.102187],[115.914245,-32.114054],[115.915903,-32.114519],[115.916173,-32.115337],[115.904825,-32.125188],[115.901705,-32.130249],[115.899233,-32.132122],[115.896914,-32.136137],[115.897381,-32.136348],[115.89784,-32.177146],[115.898628,-32.18024]]]},"bbox":[115.884285,-32.186852,116.053118,-32.029473]}]}