{"type":"FeatureCollection","features":[
{"properties":{"electorateShortName":"calare","electorateName":"Calare","area":32666.202795,"state":"NSW"},"type":"Feature","geometry":{"type":"Polygon","coordinates":[[[150.186093,-33.88118],[150.179152,-33.873107],[150.170536,-33.872325],[150.166036,-33.864556],[150.176052,-33.860469],[150.175586,-33.852848],[150.181839,-33.847939],[150.185295,-33.838119],[150.182725,-33.829878],[150.176151,-33.834295],[150.169176,-33.826616],[150.174279,-33.821168],[150.173391,-33.816977],[150.180411,-33.805847],[150.179346,-33.796961],[150.171948,-33.798754],[150.171853,-33.787983],[150.177901,-33.786165],[150.177912,-33.778027],[150.183949,-33.778115],[150.190419,-33.774913],[150.191167,-33.770044],[150.195675,-33.766337],[150.193354,-33.76248],[150.19551,-33.757427],[150.190628,-33.749664],[150.185842,-33.750854],[150.179646,-33.743476],[150.188077,-33.737183],[150.19454,-33.734365],[150.198909,-33.728766],[150.210142,-33.725839],[150.212336,-33.720971],[150.206317,-33.714092],[150.195512,-33.71289],[150.190722,-33.719125],[150.181753,-33.722527],[150.177654,-33.721036],[150.178003,-33.715309],[150.182809,-33.709169],[150.181602,-33.704467],[150.207621,-33.708514],[150.214826,-33.674875],[150.228915,-33.675998],[150.231364,-33.663004],[150.243138,-33.66454],[150.248256,-33.663644],[150.248329,-33.658346],[150.237807,-33.651222],[150.240504,-33.638576],[150.261918,-33.641664],[150.264089,-33.631226],[150.267516,-33.629347],[150.266463,-33.622346],[150.258977,-33.61747],[150.260282,-33.610715],[150.249016,-33.609112],[150.250274,-33.603441],[150.243219,-33.60244],[150.244826,-33.59442],[150.236942,-33.593271],[150.239418,-33.58181],[150.235253,-33.576002],[150.228146,-33.575059],[150.225521,-33.571677],[150.227451,-33.563532],[150.224756,-33.560321],[150.21372,-33.557651],[150.215642,-33.547977],[150.22689,-33.549511],[150.226118,-33.560516],[150.235422,-33.562018],[150.241251,-33.556794],[150.250674,-33.558046],[150.25767,-33.51874],[150.253341,-33.518181],[150.256814,-33.494305],[150.260788,-33.496272],[150.27679,-33.49918],[150.314668,-33.504414],[150.311912,-33.52015],[150.332084,-33.522197],[150.335619,-33.511948],[150.342197,-33.512052],[150.348298,-33.508797],[150.347034,-33.502089],[150.35577,-33.495917],[150.353547,-33.490626],[150.35677,-33.485726],[150.364006,-33.489175],[150.375798,-33.486303],[150.38183,-33.487721],[150.384153,-33.479874],[150.389435,-33.481546],[150.39308,-33.487081],[150.402519,-33.476926],[150.409409,-33.473919],[150.408594,-33.480962],[150.419212,-33.486562],[150.422948,-33.48233],[150.440457,-33.480904],[150.4474,-33.481423],[150.447816,-33.473436],[150.450839,-33.466658],[150.451186,-33.458985],[150.465404,-33.456469],[150.465794,-33.451301],[150.460296,-33.449083],[150.472755,-33.438565],[150.476945,-33.427524],[150.480221,-33.408536],[150.475923,-33.399445],[150.480138,-33.396699],[150.487725,-33.386328],[150.489808,-33.377476],[150.509062,-33.37915],[150.5282,-33.370725],[150.538791,-33.367729],[150.542538,-33.364039],[150.550972,-33.368615],[150.559071,-33.366022],[150.560141,-33.361656],[150.574088,-33.357999],[150.576968,-33.352138],[150.580997,-33.351442],[150.582762,-33.34305],[150.590621,-33.342604],[150.591305,-33.337363],[150.583174,-33.33254],[150.585587,-33.325331],[150.58063,-33.320707],[150.574565,-33.322405],[150.554153,-33.318294],[150.553543,-33.31098],[150.560319,-33.312407],[150.566799,-33.30573],[150.565444,-33.29868],[150.556317,-33.293352],[150.56158,-33.289092],[150.566112,-33.290837],[150.575561,-33.289619],[150.564387,-33.283181],[150.557395,-33.280644],[150.552368,-33.271817],[150.555345,-33.265422],[150.562852,-33.26403],[150.560389,-33.256919],[150.555318,-33.254255],[150.549228,-33.257329],[150.543929,-33.255993],[150.539721,-33.248086],[150.53315,-33.240176],[150.527084,-33.240151],[150.532535,-33.223316],[150.542957,-33.222186],[150.543207,-33.216862],[150.534081,-33.211498],[150.527999,-33.194059],[150.536844,-33.191916],[150.539,-33.187797],[150.552354,-33.183727],[150.55542,-33.174281],[150.554055,-33.162685],[150.563113,-33.162301],[150.566823,-33.157243],[150.572718,-33.156826],[150.570094,-33.164484],[150.570949,-33.168698],[150.581126,-33.168448],[150.589786,-33.160277],[150.586393,-33.1517],[150.587936,-33.14746],[150.595648,-33.145242],[150.604485,-33.1473],[150.610163,-33.142866],[150.610509,-33.135035],[150.599497,-33.127922],[150.59865,-33.124654],[150.611668,-33.119417],[150.613723,-33.110012],[150.619741,-33.110009],[150.616785,-33.103606],[150.610914,-33.098752],[150.613546,-33.089187],[150.609832,-33.083299],[150.612507,-33.072258],[150.610687,-33.066137],[150.603766,-33.069697],[150.589082,-33.063105],[150.579858,-33.063442],[150.572197,-33.058909],[150.558307,-33.060312],[150.552877,-33.059622],[150.552392,-33.051218],[150.544665,-33.042484],[150.53359,-33.042216],[150.53084,-33.037366],[150.524203,-33.037771],[150.520464,-33.035048],[150.504655,-33.036682],[150.496685,-33.03574],[150.488448,-33.048124],[150.464638,-33.045876],[150.464395,-33.041239],[150.448336,-33.035378],[150.430974,-33.035636],[150.425313,-33.028713],[150.419165,-33.027742],[150.413401,-33.023787],[150.405019,-33.024502],[150.400505,-33.033318],[150.392913,-33.03412],[150.38691,-33.026841],[150.380777,-33.024506],[150.379662,-33.020549],[150.371672,-33.015457],[150.37052,-33.010952],[150.375142,-33.005928],[150.376302,-32.990227],[150.366606,-32.971648],[150.376637,-32.961748],[150.372058,-32.954708],[150.367779,-32.954011],[150.366455,-32.936634],[150.359379,-32.925468],[150.352985,-32.923544],[150.355203,-32.917654],[150.350503,-32.903117],[150.346616,-32.895492],[150.347194,-32.890812],[150.336322,-32.884549],[150.335937,-32.880334],[150.340494,-32.875609],[150.340685,-32.87098],[150.349906,-32.870872],[150.361758,-32.867377],[150.358919,-32.859595],[150.360883,-32.856701],[150.3622,-32.845066],[150.356102,-32.839323],[150.349351,-32.8179],[150.342672,-32.814844],[150.338294,-32.808117],[150.338388,-32.798777],[150.341577,-32.794335],[150.332958,-32.789029],[150.329321,-32.784017],[150.324811,-32.785655],[150.317095,-32.783755],[150.314477,-32.779945],[150.303239,-32.774328],[150.29739,-32.767045],[150.289272,-32.765431],[150.275344,-32.746762],[150.276988,-32.732349],[150.29079,-32.721148],[150.29694,-32.691551],[150.300003,-32.689704],[150.304872,-32.678377],[150.3081,-32.66522],[150.31929,-32.660848],[150.320162,-32.647922],[150.311343,-32.646919],[150.251156,-32.61527],[150.227412,-32.612312],[150.236149,-32.608418],[150.239234,-32.601114],[150.252703,-32.600801],[150.25947,-32.597717],[150.262564,-32.584787],[150.266043,-32.577718],[150.236833,-32.574043],[150.237577,-32.566814],[150.247005,-32.551348],[150.243148,-32.547816],[150.241839,-32.538423],[150.243594,-32.526318],[150.248291,-32.524499],[150.24714,-32.519241],[150.241115,-32.509881],[150.243035,-32.50418],[150.240483,-32.494422],[150.246508,-32.488264],[150.24592,-32.480509],[150.237284,-32.479717],[150.238273,-32.472883],[150.231324,-32.465127],[150.226655,-32.462928],[150.22741,-32.455727],[150.234448,-32.454258],[150.246977,-32.460298],[150.254504,-32.457659],[150.267406,-32.44944],[150.273145,-32.435946],[150.279758,-32.428957],[150.279603,-32.422298],[150.287944,-32.422454],[150.299748,-32.419382],[150.302781,-32.415342],[150.309574,-32.41408],[150.310551,-32.409165],[150.319073,-32.40827],[150.314967,-32.403495],[150.315072,-32.392688],[150.320379,-32.388209],[150.316837,-32.384971],[150.309427,-32.38668],[150.304668,-32.37325],[150.294834,-32.385022],[150.28843,-32.3869],[150.285274,-32.374744],[150.278826,-32.375134],[150.276805,-32.381146],[150.266882,-32.375964],[150.264699,-32.362144],[150.259542,-32.359631],[150.261842,-32.351743],[150.26056,-32.346173],[150.260895,-32.334576],[150.27144,-32.324624],[150.265386,-32.322485],[150.261057,-32.327178],[150.251908,-32.323452],[150.262383,-32.315621],[150.25528,-32.313771],[150.249223,-32.30561],[150.246518,-32.312697],[150.235609,-32.308222],[150.232254,-32.313887],[150.220506,-32.315794],[150.217188,-32.323074],[150.208533,-32.318443],[150.206605,-32.326101],[150.214117,-32.328076],[150.218141,-32.337819],[150.209968,-32.339769],[150.206128,-32.333502],[150.197112,-32.332611],[150.195557,-32.340853],[150.185981,-32.343733],[150.18757,-32.334989],[150.17927,-32.333881],[150.176846,-32.325747],[150.163331,-32.320836],[150.159054,-32.326233],[150.151684,-32.329392],[150.149961,-32.334725],[150.142012,-32.341451],[150.132276,-32.336576],[150.127247,-32.341279],[150.117906,-32.338999],[150.102209,-32.342791],[150.09134,-32.341906],[150.074879,-32.344702],[150.067384,-32.343541],[150.067073,-32.356008],[150.053646,-32.350755],[150.047259,-32.337463],[150.037448,-32.328178],[150.030674,-32.33398],[150.027724,-32.324452],[150.032068,-32.315553],[150.021931,-32.305593],[150.030106,-32.291558],[150.036512,-32.285362],[150.041236,-32.286972],[150.04577,-32.276028],[150.041813,-32.262032],[150.053136,-32.258416],[150.051872,-32.253843],[150.045812,-32.251923],[150.047243,-32.244276],[150.057791,-32.250354],[150.062501,-32.247197],[150.062277,-32.242852],[150.055455,-32.239116],[150.059027,-32.234529],[150.060247,-32.227224],[150.049282,-32.22546],[150.04884,-32.216252],[150.05774,-32.214676],[150.062718,-32.208113],[150.065351,-32.196854],[150.072083,-32.192886],[150.069726,-32.187841],[150.0639,-32.18419],[150.058476,-32.19256],[150.053194,-32.187877],[150.045029,-32.193727],[150.04176,-32.188531],[150.03576,-32.190264],[150.034803,-32.195905],[150.026908,-32.194864],[150.028746,-32.187263],[150.023077,-32.183632],[150.013982,-32.186598],[150.015475,-32.178376],[150.008146,-32.176603],[150.00946,-32.162659],[150.00064,-32.164655],[149.990684,-32.163682],[149.98935,-32.171135],[149.985142,-32.170585],[149.982621,-32.184721],[149.960754,-32.181876],[149.964628,-32.160154],[149.939343,-32.157041],[149.947996,-32.134952],[149.933553,-32.133589],[149.92077,-32.137369],[149.921928,-32.13009],[149.930319,-32.131107],[149.932317,-32.119232],[149.922783,-32.11806],[149.921931,-32.123016],[149.893994,-32.11996],[149.892267,-32.11267],[149.861229,-32.108567],[149.849847,-32.109167],[149.845959,-32.10608],[149.81943,-32.103624],[149.820768,-32.096376],[149.815993,-32.095748],[149.81249,-32.090657],[149.803022,-32.089331],[149.802182,-32.093675],[149.795238,-32.092721],[149.79754,-32.080168],[149.791608,-32.079359],[149.795665,-32.05809],[149.792019,-32.066365],[149.782548,-32.07108],[149.778478,-32.07755],[149.777619,-32.091553],[149.762869,-32.089301],[149.751833,-32.099561],[149.753312,-32.106283],[149.750811,-32.119822],[149.692819,-32.112377],[149.692121,-32.116378],[149.681179,-32.114894],[149.675092,-32.116466],[149.674493,-32.121333],[149.669345,-32.122255],[149.655123,-32.11657],[149.639956,-32.112853],[149.633471,-32.116695],[149.627047,-32.115947],[149.618445,-32.117837],[149.616683,-32.122779],[149.608589,-32.123283],[149.604367,-32.12695],[149.593955,-32.121979],[149.591934,-32.116411],[149.581727,-32.111109],[149.57844,-32.106699],[149.578441,-32.099266],[149.574904,-32.095179],[149.576362,-32.091038],[149.573383,-32.086081],[149.560957,-32.084361],[149.551882,-32.089234],[149.532066,-32.089365],[149.51826,-32.08378],[149.510431,-32.074656],[149.500301,-32.073225],[149.494803,-32.102092],[149.479716,-32.108794],[149.478736,-32.101989],[149.480145,-32.094151],[149.472505,-32.093272],[149.470718,-32.103526],[149.446976,-32.100632],[149.447643,-32.096816],[149.432506,-32.095033],[149.427052,-32.097023],[149.415023,-32.095554],[149.412256,-32.10611],[149.428251,-32.124041],[149.427939,-32.137201],[149.412891,-32.135524],[149.411783,-32.138195],[149.417288,-32.153064],[149.413277,-32.175537],[149.407363,-32.178088],[149.396757,-32.176834],[149.39626,-32.18036],[149.38858,-32.183529],[149.388541,-32.191351],[149.384681,-32.193166],[149.373105,-32.189919],[149.373174,-32.203613],[149.375344,-32.20492],[149.373717,-32.215765],[149.366813,-32.216562],[149.361011,-32.220394],[149.356421,-32.234832],[149.346378,-32.238059],[149.345953,-32.24606],[149.339784,-32.256435],[149.326494,-32.260376],[149.325403,-32.266076],[149.327897,-32.274684],[149.335167,-32.284461],[149.329354,-32.289245],[149.321015,-32.286807],[149.315209,-32.292634],[149.312734,-32.299326],[149.307309,-32.300297],[149.305892,-32.304507],[149.29333,-32.302698],[149.284998,-32.288772],[149.280004,-32.288237],[149.273224,-32.294852],[149.264557,-32.293979],[149.253305,-32.295055],[149.238575,-32.299269],[149.225781,-32.295275],[149.189159,-32.290575],[149.194979,-32.258674],[149.192127,-32.258286],[149.196199,-32.236153],[149.198555,-32.236461],[149.203123,-32.213625],[149.190704,-32.212045],[149.192528,-32.201953],[149.196513,-32.202271],[149.199006,-32.194443],[149.198763,-32.186752],[149.205981,-32.1831],[149.218841,-32.18479],[149.220284,-32.180113],[149.214605,-32.172297],[149.210776,-32.163767],[149.212196,-32.151001],[149.197872,-32.145157],[149.201478,-32.133165],[149.195968,-32.124405],[149.200175,-32.119482],[149.195839,-32.1141],[149.198129,-32.109779],[149.193723,-32.104417],[149.178188,-32.104477],[149.166214,-32.10665],[149.165604,-32.113005],[149.173367,-32.123283],[149.162908,-32.123995],[149.155107,-32.121617],[149.155144,-32.116093],[149.144279,-32.11795],[149.1312,-32.112021],[149.123841,-32.100284],[149.119632,-32.108011],[149.111828,-32.110814],[149.104398,-32.106633],[149.104236,-32.113092],[149.095629,-32.114747],[149.09397,-32.109063],[149.082369,-32.105653],[149.077091,-32.10173],[149.071743,-32.103446],[149.070806,-32.094315],[149.059604,-32.086972],[149.056853,-32.088243],[149.059438,-32.096086],[149.055568,-32.100264],[149.047124,-32.104126],[149.034582,-32.099371],[149.025932,-32.108786],[149.012024,-32.106866],[149.008757,-32.112981],[149.008957,-32.118713],[149.004268,-32.122178],[149.001224,-32.139404],[148.993543,-32.138268],[148.988214,-32.142606],[148.98716,-32.15001],[148.981011,-32.157329],[148.968396,-32.167622],[148.964489,-32.167292],[148.959971,-32.161548],[148.950374,-32.165805],[148.944185,-32.174016],[148.938574,-32.189759],[148.935174,-32.209943],[148.939146,-32.210435],[148.934434,-32.236129],[148.927247,-32.271664],[148.89617,-32.291159],[148.8873,-32.290286],[148.883545,-32.312008],[148.851192,-32.31338],[148.852684,-32.319664],[148.850666,-32.332466],[148.841097,-32.331192],[148.820526,-32.352182],[148.805097,-32.367108],[148.799842,-32.363262],[148.790523,-32.359617],[148.770239,-32.343616],[148.768123,-32.343124],[148.760477,-32.386089],[148.765665,-32.390262],[148.764591,-32.39658],[148.757358,-32.395653],[148.754109,-32.419051],[148.740778,-32.418047],[148.734998,-32.423472],[148.724161,-32.421029],[148.72466,-32.416117],[148.716606,-32.415897],[148.710111,-32.407473],[148.700428,-32.405867],[148.698419,-32.408755],[148.704409,-32.420476],[148.703837,-32.434946],[148.711782,-32.434273],[148.717157,-32.436744],[148.716681,-32.446327],[148.72171,-32.451291],[148.725946,-32.462179],[148.731995,-32.465031],[148.73372,-32.469475],[148.72766,-32.472939],[148.7226,-32.483155],[148.724458,-32.493788],[148.719586,-32.495371],[148.714604,-32.491885],[148.700407,-32.496936],[148.702499,-32.509846],[148.699205,-32.516992],[148.699642,-32.523412],[148.708746,-32.523119],[148.712669,-32.531306],[148.70543,-32.544895],[148.701491,-32.548838],[148.701208,-32.554063],[148.706761,-32.554718],[148.714699,-32.552531],[148.714541,-32.561977],[148.717867,-32.56645],[148.723659,-32.568773],[148.719957,-32.575391],[148.70925,-32.574637],[148.700857,-32.576506],[148.700969,-32.582471],[148.709107,-32.583894],[148.708254,-32.58926],[148.692833,-32.597355],[148.693894,-32.604953],[148.699774,-32.607024],[148.7026,-32.612075],[148.697775,-32.615316],[148.686155,-32.612737],[148.678041,-32.619574],[148.669562,-32.624041],[148.664408,-32.634848],[148.658853,-32.638707],[148.64562,-32.63946],[148.637557,-32.63329],[148.635565,-32.640827],[148.630079,-32.644168],[148.631834,-32.649419],[148.627795,-32.652856],[148.621315,-32.647987],[148.616435,-32.653134],[148.604781,-32.652036],[148.501184,-32.614117],[148.475148,-32.627842],[148.467384,-32.621001],[148.459516,-32.60721],[148.435418,-32.620599],[148.401477,-32.62371],[148.391421,-32.621925],[148.378215,-32.62679],[148.375462,-32.630361],[148.369629,-32.628854],[148.361775,-32.621947],[148.355706,-32.633293],[148.349499,-32.636824],[148.348767,-32.645278],[148.344554,-32.653727],[148.346763,-32.660719],[148.342801,-32.664758],[148.347663,-32.672819],[148.347143,-32.675763],[148.33496,-32.679034],[148.329513,-32.701025],[148.331908,-32.709749],[148.32974,-32.715975],[148.33182,-32.728392],[148.335609,-32.73187],[148.331923,-32.746568],[148.332528,-32.758459],[148.334944,-32.768913],[148.33533,-32.781608],[148.331597,-32.784338],[148.331807,-32.795715],[148.328315,-32.798687],[148.329377,-32.810831],[148.34251,-32.81081],[148.347443,-32.81636],[148.359879,-32.824577],[148.367733,-32.825991],[148.3781,-32.833621],[148.378526,-32.842034],[148.375828,-32.845576],[148.37795,-32.85021],[148.383154,-32.85222],[148.385047,-32.865789],[148.384572,-32.874917],[148.380598,-32.878381],[148.382125,-32.889427],[148.381257,-32.914022],[148.378697,-32.921153],[148.372514,-32.929172],[148.381831,-32.93455],[148.378367,-32.942259],[148.376304,-32.961737],[148.372179,-32.971583],[148.382944,-32.971448],[148.391627,-32.974233],[148.399352,-32.959165],[148.406958,-32.966374],[148.41419,-32.968974],[148.42144,-32.974409],[148.430165,-32.969942],[148.437365,-32.976252],[148.439192,-32.983498],[148.44635,-32.992575],[148.455275,-32.993992],[148.454646,-33.000726],[148.464864,-33.014495],[148.472815,-33.01718],[148.481055,-33.016377],[148.486498,-33.02081],[148.487583,-33.025463],[148.493038,-33.03024],[148.495488,-33.039428],[148.503737,-33.046861],[148.503823,-33.060008],[148.505455,-33.062037],[148.502703,-33.079039],[148.499598,-33.082631],[148.497275,-33.096367],[148.499758,-33.097941],[148.490432,-33.107743],[148.486567,-33.123236],[148.491298,-33.125007],[148.49205,-33.129862],[148.497977,-33.134124],[148.504332,-33.134199],[148.502386,-33.140386],[148.505823,-33.150971],[148.502941,-33.157372],[148.505521,-33.165857],[148.493043,-33.179705],[148.4927,-33.185358],[148.495895,-33.190869],[148.489988,-33.194898],[148.475442,-33.198397],[148.46668,-33.208771],[148.458002,-33.204896],[148.44755,-33.202623],[148.442501,-33.204476],[148.431934,-33.200082],[148.42834,-33.202387],[148.431691,-33.212422],[148.429009,-33.220244],[148.432654,-33.225572],[148.431711,-33.232299],[148.428194,-33.239169],[148.414688,-33.250728],[148.401701,-33.259592],[148.401671,-33.266776],[148.397185,-33.269909],[148.399063,-33.284574],[148.400981,-33.28751],[148.402028,-33.2997],[148.405274,-33.305801],[148.412847,-33.313627],[148.415578,-33.327606],[148.409727,-33.326489],[148.398745,-33.335101],[148.393449,-33.34152],[148.39194,-33.347301],[148.385666,-33.350789],[148.386058,-33.356555],[148.390472,-33.357573],[148.403173,-33.36891],[148.41474,-33.370297],[148.413,-33.37989],[148.418223,-33.385],[148.410606,-33.390246],[148.403638,-33.392221],[148.408395,-33.401768],[148.404482,-33.405398],[148.396207,-33.401777],[148.390759,-33.405906],[148.388437,-33.412704],[148.367931,-33.410824],[148.367777,-33.42084],[148.357159,-33.421674],[148.345935,-33.420913],[148.344124,-33.42947],[148.355552,-33.43097],[148.354995,-33.433953],[148.365145,-33.435299],[148.360481,-33.446278],[148.348144,-33.451627],[148.333022,-33.444225],[148.333004,-33.449012],[148.329322,-33.455928],[148.319232,-33.45268],[148.313524,-33.453189],[148.308663,-33.458684],[148.315826,-33.460462],[148.315991,-33.466261],[148.307341,-33.465745],[148.300064,-33.473681],[148.293234,-33.478291],[148.290344,-33.485772],[148.290656,-33.491909],[148.297935,-33.494271],[148.308506,-33.494466],[148.30838,-33.49914],[148.314945,-33.499899],[148.32511,-33.497162],[148.322571,-33.493051],[148.328952,-33.490636],[148.34086,-33.492502],[148.342868,-33.497074],[148.351789,-33.49463],[148.356411,-33.502323],[148.357113,-33.510524],[148.367207,-33.513853],[148.37723,-33.51334],[148.384773,-33.518738],[148.392772,-33.518727],[148.400175,-33.535056],[148.390233,-33.540161],[148.39125,-33.546972],[148.396593,-33.55387],[148.403737,-33.557585],[148.410564,-33.558502],[148.41558,-33.556066],[148.421274,-33.55957],[148.422681,-33.568616],[148.415161,-33.567108],[148.409817,-33.570222],[148.401362,-33.567563],[148.397255,-33.569588],[148.390459,-33.567654],[148.387872,-33.573132],[148.388833,-33.57999],[148.402002,-33.586093],[148.414106,-33.596161],[148.413811,-33.60338],[148.417382,-33.607154],[148.43585,-33.607194],[148.442462,-33.60816],[148.446819,-33.613971],[148.468423,-33.602253],[148.479417,-33.600132],[148.476064,-33.593477],[148.481223,-33.589844],[148.483455,-33.581299],[148.493466,-33.58219],[148.502857,-33.579226],[148.51355,-33.581145],[148.514625,-33.575086],[148.520661,-33.57304],[148.524169,-33.577287],[148.535451,-33.584013],[148.534736,-33.588299],[148.542002,-33.593942],[148.54324,-33.599913],[148.551799,-33.603514],[148.557937,-33.602925],[148.56307,-33.596179],[148.569568,-33.598218],[148.582421,-33.593648],[148.585722,-33.594832],[148.594851,-33.591607],[148.602018,-33.59441],[148.621066,-33.591714],[148.625431,-33.584941],[148.623599,-33.581425],[148.629554,-33.574863],[148.629347,-33.57168],[148.635899,-33.567008],[148.645311,-33.567075],[148.648553,-33.562975],[148.654742,-33.562731],[148.658306,-33.566439],[148.652535,-33.577102],[148.676146,-33.580518],[148.677238,-33.58563],[148.682814,-33.586415],[148.686089,-33.582104],[148.691247,-33.581999],[148.695827,-33.577216],[148.701975,-33.579158],[148.712026,-33.573728],[148.723761,-33.55887],[148.73031,-33.555292],[148.738927,-33.53792],[148.745204,-33.536755],[148.754102,-33.529633],[148.761418,-33.52753],[148.768582,-33.529092],[148.775941,-33.525513],[148.787796,-33.529269],[148.798328,-33.539375],[148.802858,-33.549401],[148.811792,-33.548738],[148.81298,-33.553697],[148.818702,-33.558043],[148.814609,-33.567565],[148.824365,-33.569569],[148.84372,-33.568687],[148.847096,-33.570406],[148.84569,-33.577403],[148.856065,-33.576921],[148.864928,-33.579713],[148.869167,-33.573648],[148.874132,-33.578632],[148.871944,-33.590744],[148.875823,-33.593852],[148.881185,-33.588347],[148.882194,-33.582929],[148.888798,-33.582833],[148.898437,-33.579117],[148.904443,-33.585074],[148.909653,-33.583402],[148.910833,-33.594224],[148.922539,-33.598657],[148.917618,-33.602734],[148.919204,-33.613705],[148.914414,-33.616917],[148.912346,-33.625308],[148.91444,-33.630375],[148.911174,-33.633206],[148.911656,-33.647903],[148.907541,-33.660548],[148.909113,-33.6687],[148.907206,-33.673819],[148.914553,-33.685372],[148.925936,-33.686045],[148.9304,-33.688021],[148.937117,-33.682734],[148.949927,-33.689151],[148.957793,-33.688219],[148.961256,-33.695799],[148.958613,-33.703439],[148.96561,-33.70939],[148.981829,-33.714127],[148.99366,-33.720609],[148.993041,-33.726771],[148.986587,-33.729662],[148.978397,-33.737606],[148.976026,-33.749861],[148.987471,-33.748846],[148.992937,-33.754018],[148.975614,-33.751722],[148.974566,-33.756454],[148.984838,-33.758045],[148.981954,-33.772288],[148.990494,-33.773598],[148.988919,-33.781096],[149.009881,-33.784013],[149.007713,-33.794905],[149.018642,-33.79644],[149.019597,-33.791832],[149.028849,-33.793145],[149.030796,-33.7987],[149.026006,-33.803346],[149.042028,-33.805596],[149.041283,-33.809334],[149.064589,-33.812386],[149.068106,-33.794445],[149.067175,-33.790083],[149.091597,-33.793688],[149.093958,-33.781996],[149.088345,-33.781192],[149.091447,-33.765415],[149.098837,-33.765477],[149.106922,-33.768429],[149.108198,-33.761111],[149.130187,-33.764289],[149.134144,-33.756484],[149.133245,-33.74988],[149.141085,-33.738504],[149.149455,-33.730307],[149.156177,-33.730789],[149.169131,-33.721122],[149.17209,-33.72628],[149.205446,-33.73056],[149.214839,-33.732635],[149.222151,-33.730318],[149.225046,-33.726275],[149.232545,-33.730152],[149.236403,-33.738028],[149.257771,-33.74066],[149.253306,-33.748142],[149.240469,-33.760308],[149.234978,-33.759632],[149.228365,-33.770418],[149.226971,-33.777784],[149.219365,-33.791689],[149.208785,-33.799242],[149.202121,-33.801871],[149.197303,-33.798261],[149.187623,-33.797769],[149.180371,-33.806749],[149.182485,-33.815732],[149.17852,-33.819301],[149.181128,-33.835088],[149.174233,-33.844105],[149.175988,-33.850232],[149.184096,-33.852565],[149.175399,-33.859665],[149.167472,-33.85237],[149.163865,-33.856577],[149.14828,-33.849389],[149.144044,-33.851115],[149.142147,-33.856901],[149.13561,-33.860279],[149.134793,-33.868585],[149.125151,-33.867224],[149.118462,-33.872095],[149.119836,-33.887828],[149.131513,-33.895481],[149.130782,-33.90112],[149.139233,-33.904481],[149.13859,-33.91099],[149.147509,-33.914462],[149.155178,-33.92836],[149.153337,-33.93595],[149.145688,-33.939892],[149.140126,-33.945092],[149.146406,-33.954369],[149.144443,-33.957981],[149.154628,-33.968345],[149.160652,-33.969714],[149.166589,-33.978023],[149.171404,-33.975644],[149.179487,-33.984419],[149.1992,-33.983648],[149.202084,-33.969479],[149.210555,-33.971078],[149.216851,-33.964264],[149.226031,-33.966612],[149.225818,-33.972183],[149.232336,-33.971375],[149.237208,-33.967631],[149.243941,-33.969786],[149.266024,-33.960375],[149.274113,-33.959584],[149.279321,-33.948523],[149.294748,-33.950853],[149.298809,-33.946269],[149.302661,-33.954023],[149.308821,-33.952767],[149.314838,-33.956678],[149.323403,-33.956032],[149.332982,-33.950973],[149.337431,-33.953544],[149.347778,-33.953299],[149.353862,-33.958566],[149.352065,-33.971236],[149.36113,-33.969198],[149.363415,-33.976903],[149.369503,-33.976605],[149.375804,-33.984377],[149.383571,-33.979627],[149.383561,-33.986752],[149.388755,-33.994475],[149.394684,-33.997568],[149.400279,-33.997024],[149.402596,-34.00612],[149.421993,-34.015571],[149.43557,-34.02321],[149.444712,-34.023125],[149.452996,-34.027313],[149.458712,-34.017823],[149.459062,-34.012992],[149.464282,-34.010543],[149.480927,-34.016144],[149.484382,-34.022139],[149.492257,-34.021677],[149.492058,-34.027594],[149.498402,-34.028412],[149.506828,-34.032775],[149.514517,-34.033579],[149.518472,-34.041232],[149.512453,-34.048301],[149.516127,-34.053359],[149.523567,-34.052511],[149.527717,-34.06159],[149.537234,-34.063117],[149.53857,-34.071962],[149.545787,-34.0713],[149.544561,-34.078196],[149.551122,-34.085946],[149.549961,-34.091452],[149.569676,-34.091002],[149.583209,-34.107362],[149.591168,-34.111464],[149.596607,-34.111807],[149.606797,-34.122804],[149.612903,-34.115826],[149.614532,-34.10965],[149.620421,-34.105599],[149.623521,-34.114057],[149.619491,-34.116524],[149.623351,-34.125547],[149.62751,-34.125677],[149.626931,-34.117931],[149.629556,-34.114157],[149.637226,-34.124349],[149.637285,-34.135572],[149.646479,-34.141986],[149.654231,-34.150905],[149.650256,-34.159191],[149.658525,-34.159374],[149.659118,-34.163519],[149.665067,-34.166631],[149.678851,-34.190516],[149.678392,-34.195596],[149.682216,-34.199149],[149.687943,-34.199033],[149.695106,-34.193514],[149.700514,-34.196709],[149.711624,-34.19845],[149.717337,-34.190745],[149.722542,-34.19528],[149.728728,-34.190309],[149.736384,-34.193853],[149.748398,-34.189147],[149.756471,-34.190008],[149.760924,-34.194223],[149.771934,-34.192815],[149.782028,-34.194941],[149.781457,-34.197917],[149.791861,-34.199612],[149.795792,-34.205733],[149.804127,-34.198689],[149.817852,-34.200856],[149.827866,-34.197097],[149.83702,-34.18767],[149.849061,-34.184152],[149.859671,-34.186328],[149.864883,-34.184812],[149.872137,-34.188405],[149.891418,-34.18295],[149.903626,-34.182076],[149.910507,-34.183518],[149.920377,-34.181711],[149.926082,-34.174198],[149.937549,-34.168544],[149.936116,-34.161387],[149.93816,-34.151464],[149.944597,-34.143984],[149.943392,-34.140751],[149.949395,-34.124609],[149.945785,-34.123752],[149.941928,-34.117355],[149.931818,-34.11674],[149.931418,-34.104446],[149.934926,-34.100996],[149.932543,-34.090534],[149.935377,-34.085456],[149.944877,-34.09165],[149.95004,-34.086124],[149.95446,-34.08639],[149.959636,-34.079137],[149.971036,-34.077843],[149.976945,-34.080726],[150.003674,-34.084191],[150.003369,-34.096812],[150.006545,-34.104117],[150.012541,-34.109947],[150.021096,-34.115116],[150.027973,-34.115968],[150.037713,-34.121387],[150.044467,-34.119892],[150.054843,-34.128341],[150.066709,-34.128793],[150.071402,-34.131429],[150.085456,-34.120564],[150.089497,-34.125659],[150.09054,-34.133366],[150.095235,-34.137313],[150.105241,-34.138496],[150.107726,-34.146281],[150.11492,-34.151045],[150.125046,-34.149178],[150.121938,-34.140786],[150.114569,-34.140472],[150.11017,-34.130681],[150.112814,-34.126764],[150.105326,-34.118347],[150.104817,-34.109399],[150.112941,-34.102596],[150.10699,-34.090075],[150.118481,-34.090976],[150.115857,-34.080292],[150.122806,-34.075625],[150.131673,-34.072795],[150.137161,-34.0743],[150.145656,-34.071363],[150.142743,-34.064131],[150.14339,-34.05818],[150.140766,-34.051246],[150.146672,-34.047677],[150.146985,-34.043032],[150.153086,-34.043159],[150.154833,-34.035129],[150.160802,-34.029807],[150.168322,-34.028017],[150.165229,-34.023469],[150.182957,-34.011889],[150.190457,-34.010309],[150.195137,-34.004846],[150.20097,-34.005271],[150.202381,-34.00043],[150.209036,-33.997793],[150.211503,-33.989305],[150.216575,-33.987399],[150.224083,-33.97956],[150.23206,-33.968057],[150.233312,-33.962149],[150.2412,-33.952033],[150.237709,-33.950503],[150.217023,-33.947822],[150.218789,-33.93844],[150.209977,-33.937432],[150.198189,-33.947053],[150.189058,-33.950622],[150.182435,-33.949829],[150.175556,-33.945178],[150.175229,-33.939044],[150.170603,-33.934342],[150.171258,-33.930008],[150.167857,-33.917479],[150.165069,-33.912438],[150.170067,-33.902425],[150.165731,-33.897578],[150.15919,-33.897393],[150.155908,-33.89309],[150.158872,-33.887926],[150.164375,-33.88628],[150.168571,-33.889053],[150.181229,-33.880897],[150.186093,-33.88118]]]},"bbox":[148.290344,-34.205733,150.619741,-32.05809]}]}