{"type":"FeatureCollection","features":[
{"properties":{"electorateShortName":"calwell","electorateName":"Calwell","area":265.5,"state":"VIC"},"type":"Feature","geometry":{"type":"Polygon","coordinates":[[[144.972061,-37.690999],[144.972347,-37.663718],[144.976277,-37.650083],[144.96551,-37.635895],[144.958548,-37.63442],[144.952549,-37.600226],[144.957551,-37.581563],[144.965343,-37.572253],[144.965536,-37.560237],[144.953106,-37.548006],[144.97675,-37.528811],[144.977205,-37.513729],[144.890369,-37.503963],[144.86685,-37.508123],[144.871585,-37.513915],[144.862285,-37.527378],[144.850536,-37.535888],[144.854234,-37.542314],[144.847961,-37.556473],[144.831873,-37.55603],[144.830244,-37.565228],[144.81903,-37.572779],[144.811356,-37.590563],[144.821559,-37.608063],[144.818376,-37.627622],[144.836363,-37.629605],[144.833881,-37.644208],[144.815865,-37.64127],[144.813369,-37.655095],[144.80475,-37.669517],[144.810007,-37.68151],[144.819833,-37.682828],[144.82524,-37.703457],[144.835358,-37.703427],[144.840307,-37.720577],[144.860167,-37.727555],[144.902407,-37.694686],[144.906973,-37.693889],[144.919003,-37.694691],[144.972061,-37.690999]]]},"bbox":[144.80475,-37.727555,144.977205,-37.503963]}]}