{"type":"FeatureCollection","features":[
{"properties":{"electorateShortName":"canning","electorateName":"Canning","area":6304.282687,"state":"WA"},"type":"Feature","geometry":{"type":"Polygon","coordinates":[[[116.208891,-33.030373],[116.284449,-33.030262],[116.284459,-33.011794],[116.3543,-33.011797],[116.3543,-32.99459],[116.409406,-32.994578],[116.409452,-33.085823],[116.469052,-33.085828],[116.469049,-33.062039],[116.512128,-33.062031],[116.512131,-33.072526],[116.523187,-33.07721],[116.539917,-33.078094],[116.54057,-33.058007],[116.568113,-33.061172],[116.567321,-33.037929],[116.57878,-33.021857],[116.578354,-33.008567],[116.603491,-33.008548],[116.603431,-32.981808],[116.617707,-32.981815],[116.617499,-32.907765],[116.650012,-32.907795],[116.650121,-32.846937],[116.658552,-32.846938],[116.659442,-32.815896],[116.654208,-32.799872],[116.654314,-32.781779],[116.645358,-32.781997],[116.625602,-32.771382],[116.604889,-32.769448],[116.590653,-32.77175],[116.574224,-32.747985],[116.567096,-32.731544],[116.548264,-32.716089],[116.539554,-32.703854],[116.521273,-32.688977],[116.521001,-32.682196],[116.506704,-32.659078],[116.497975,-32.65302],[116.47662,-32.62818],[116.440194,-32.574181],[116.389794,-32.523553],[116.379216,-32.518122],[116.359596,-32.498093],[116.259682,-32.498103],[116.259679,-32.389635],[116.231005,-32.356134],[116.225239,-32.342503],[116.1959,-32.294873],[116.189706,-32.287429],[116.224901,-32.235885],[116.35808,-32.23635],[116.343799,-32.231768],[116.335368,-32.219441],[116.328021,-32.194539],[116.316133,-32.189183],[116.312437,-32.171092],[116.303859,-32.167737],[116.285558,-32.173122],[116.284994,-32.062108],[116.288879,-32.062154],[116.273648,-32.050402],[116.271163,-32.041007],[116.26035,-32.033469],[116.250103,-32.019753],[116.232528,-32.029416],[116.217737,-32.019147],[116.188272,-32.013684],[116.139816,-32.013762],[116.138465,-32.010052],[116.099824,-32.010428],[116.068643,-32.012649],[116.058718,-32.009727],[116.048316,-32.031689],[116.029442,-32.026335],[116.014399,-32.013494],[116.002678,-32.023481],[116.014797,-32.047276],[116.015115,-32.054704],[115.997811,-32.065682],[116.012362,-32.076186],[116.015802,-32.093325],[116.048478,-32.095522],[116.038632,-32.112008],[116.050119,-32.121282],[116.024646,-32.149741],[116.018565,-32.153052],[116.015156,-32.170427],[116.015818,-32.186556],[115.995663,-32.185907],[115.978086,-32.179564],[115.898628,-32.18024],[115.898546,-32.180241],[115.900736,-32.193107],[115.896977,-32.202241],[115.885334,-32.203956],[115.884522,-32.240671],[115.885737,-32.265131],[115.876778,-32.281802],[115.889645,-32.291934],[115.875073,-32.332349],[115.855852,-32.34545],[115.85191,-32.367644],[115.834949,-32.37879],[115.834907,-32.395343],[115.830645,-32.404353],[115.857654,-32.406225],[115.857725,-32.444576],[115.831507,-32.444579],[115.827484,-32.458152],[115.801425,-32.455616],[115.747816,-32.455643],[115.746323,-32.475558],[115.739374,-32.49873],[115.727917,-32.516497],[115.700593,-32.520285],[115.671224,-32.56231],[115.6554,-32.578814],[115.633002,-32.594595],[115.623776,-32.616486],[115.615019,-32.653169],[115.608439,-32.665692],[115.606972,-32.684929],[115.613787,-32.705727],[115.621946,-32.764802],[115.628623,-32.793323],[115.632637,-32.833887],[115.652847,-32.895228],[115.65846,-32.933052],[115.687064,-32.933073],[115.708281,-32.929315],[115.719171,-32.921106],[115.763772,-32.921983],[115.763787,-32.929977],[115.780796,-32.930025],[115.780777,-32.936556],[115.813082,-32.93651],[115.812876,-32.925917],[115.835832,-32.928779],[115.838658,-32.935687],[115.852993,-32.931366],[115.868036,-32.942221],[115.874544,-32.93805],[115.924421,-32.938124],[115.94005,-32.941049],[115.956378,-32.93294],[115.993463,-32.933332],[116.000324,-32.939882],[116.021619,-32.935821],[116.136581,-32.934869],[116.163983,-32.933621],[116.165926,-32.942464],[116.184546,-32.943157],[116.182181,-32.952331],[116.18691,-32.966605],[116.199648,-32.967078],[116.208859,-32.984207],[116.208891,-33.030373]]]},"bbox":[115.606972,-33.085828,116.659442,-32.009727]}]}