{"type":"FeatureCollection","features":[
{"properties":{"electorateShortName":"capricornia","electorateName":"Capricornia","area":90898.086034,"state":"QLD"},"type":"Feature","geometry":{"type":"Polygon","coordinates":[[[152.908736,-23.165072],[152.720898,-22.364034],[152.72311,-22.357725],[152.73368,-22.344849],[152.73502,-22.328713],[152.738246,-22.31902],[152.738751,-22.287197],[152.749174,-22.278169],[152.757182,-22.267981],[152.765671,-22.25027],[152.766709,-22.242979],[152.762254,-22.210215],[152.76611,-22.198916],[152.764061,-22.178801],[152.766439,-22.145206],[152.764734,-22.139799],[152.76041,-22.136389],[152.75172,-22.116014],[152.74995,-22.090844],[152.739897,-22.049667],[152.734028,-22.014541],[152.735684,-22.007713],[152.734242,-21.999951],[152.67615,-21.900725],[152.658427,-21.856311],[152.655139,-21.842816],[152.656459,-21.836007],[152.655098,-21.822472],[152.652276,-21.816026],[152.619402,-21.76716],[152.61237,-21.76426],[152.603968,-21.753499],[152.58582,-21.718717],[152.575739,-21.705636],[152.560039,-21.667342],[152.554383,-21.557566],[152.560421,-21.54997],[152.567229,-21.537375],[152.567754,-21.50913],[152.565013,-21.492993],[152.572034,-21.489666],[152.577039,-21.482367],[152.585945,-21.439556],[152.589327,-21.394643],[152.586776,-21.33615],[152.588945,-21.315206],[152.600659,-21.291989],[152.603969,-21.288322],[152.610136,-21.28681],[152.613952,-21.279534],[152.653539,-21.236472],[151.836784,-21.24469],[150.09178,-21.248983],[149.751162,-21.247711],[149.257767,-21.224197],[149.235018,-21.238868],[149.214647,-21.26372],[149.206091,-21.275943],[149.196517,-21.291832],[149.1958,-21.297364],[149.189895,-21.295243],[149.195984,-21.285163],[149.201734,-21.278373],[149.187404,-21.277423],[149.179245,-21.284683],[149.181725,-21.274403],[149.199274,-21.268113],[149.201164,-21.259523],[149.205844,-21.256123],[149.214069,-21.241534],[149.210054,-21.231603],[149.203174,-21.227683],[149.198474,-21.229293],[149.196534,-21.223203],[149.186144,-21.216353],[149.185474,-21.204513],[149.181364,-21.201363],[149.176794,-21.202293],[149.173235,-21.197688],[149.166383,-21.198303],[149.149293,-21.196304],[149.154522,-21.160487],[149.150206,-21.154077],[149.147331,-21.144351],[149.13992,-21.143072],[149.131018,-21.144052],[149.1123,-21.147827],[149.09557,-21.148255],[149.07788,-21.141986],[149.05673,-21.138986],[149.03833,-21.139086],[149.026608,-21.141368],[149.013856,-21.138875],[148.990512,-21.13737],[148.979768,-21.132981],[148.966402,-21.134037],[148.967314,-21.126525],[148.957135,-21.123766],[148.951967,-21.125082],[148.953244,-21.113187],[148.941502,-21.111711],[148.941899,-21.108281],[148.929596,-21.105133],[148.930132,-21.10106],[148.922553,-21.100259],[148.923271,-21.092807],[148.904624,-21.090331],[148.90591,-21.0794],[148.902354,-21.076469],[148.891283,-21.075545],[148.880367,-21.076331],[148.878673,-21.071031],[148.862778,-21.069355],[148.860803,-21.082968],[148.849291,-21.082012],[148.845928,-21.083764],[148.839487,-21.080135],[148.829561,-21.077537],[148.828615,-21.084781],[148.82332,-21.086006],[148.812887,-21.084758],[148.812477,-21.075343],[148.816263,-21.070072],[148.801825,-21.069352],[148.781871,-21.066458],[148.780437,-21.077488],[148.773424,-21.073393],[148.771117,-21.068509],[148.765274,-21.067315],[148.754361,-21.072252],[148.753539,-21.079717],[148.739124,-21.078645],[148.739591,-21.074235],[148.730228,-21.07334],[148.731344,-21.068693],[148.721639,-21.067673],[148.721154,-21.071859],[148.692769,-21.068385],[148.581507,-21.058324],[148.580276,-21.050716],[148.58401,-21.044819],[148.590436,-21.042778],[148.600415,-21.033006],[148.601958,-21.029435],[148.598339,-21.02417],[148.597084,-21.016505],[148.609826,-21.014536],[148.621455,-21.004309],[148.625928,-21.007527],[148.62651,-21.023817],[148.637052,-21.024788],[148.636725,-21.017093],[148.643049,-21.008182],[148.641945,-20.986547],[148.636295,-20.96821],[148.639722,-20.952162],[148.632466,-20.948671],[148.627123,-20.950316],[148.618068,-20.932786],[148.613265,-20.929278],[148.61417,-20.925358],[148.606238,-20.922306],[148.599894,-20.916632],[148.597107,-20.900717],[148.595588,-20.88466],[148.593656,-20.880124],[148.597311,-20.872619],[148.589978,-20.862103],[148.587606,-20.853965],[148.580047,-20.846343],[148.579147,-20.841446],[148.573073,-20.83649],[148.561274,-20.837871],[148.554124,-20.834411],[148.548503,-20.829401],[148.542444,-20.828731],[148.540553,-20.822161],[148.533243,-20.822131],[148.525003,-20.815071],[148.521243,-20.803631],[148.517223,-20.795441],[148.504534,-20.804411],[148.497604,-20.799141],[148.484294,-20.803051],[148.480394,-20.798021],[148.475784,-20.797341],[148.474854,-20.791301],[148.467353,-20.78052],[148.464585,-20.773176],[148.469064,-20.76558],[148.47007,-20.759859],[148.46519,-20.745445],[148.455079,-20.735197],[148.447935,-20.736611],[148.447898,-20.73227],[148.440341,-20.725863],[148.44059,-20.718046],[148.434239,-20.711689],[148.431718,-20.705945],[148.424463,-20.704433],[148.419323,-20.707844],[148.409873,-20.702007],[148.405938,-20.703789],[148.399016,-20.695411],[148.392484,-20.695093],[148.387753,-20.698305],[148.378214,-20.699935],[148.375074,-20.7025],[148.367965,-20.693458],[148.368746,-20.684461],[148.371702,-20.683556],[148.373589,-20.673767],[148.364023,-20.653445],[148.353933,-20.643878],[148.353028,-20.640194],[148.346518,-20.635707],[148.343474,-20.637292],[148.334586,-20.634193],[148.33742,-20.625649],[148.330719,-20.61483],[148.329506,-20.606616],[148.319936,-20.60477],[148.315441,-20.599449],[148.306353,-20.598742],[148.303166,-20.59601],[148.295547,-20.595361],[148.29287,-20.584749],[148.294304,-20.566267],[148.277646,-20.559037],[148.275053,-20.561884],[148.273199,-20.570593],[148.266794,-20.574911],[148.259156,-20.577293],[148.250257,-20.576621],[148.242768,-20.573124],[148.238801,-20.568441],[148.22731,-20.558863],[148.218869,-20.564618],[148.210203,-20.561423],[148.202255,-20.563252],[148.194687,-20.568431],[148.189847,-20.564324],[148.190284,-20.55816],[148.187811,-20.554009],[148.170655,-20.554611],[148.165026,-20.542684],[148.158939,-20.536083],[148.152612,-20.531724],[148.132721,-20.52958],[148.124795,-20.532247],[148.117213,-20.536867],[148.119713,-20.553889],[148.124328,-20.560798],[148.122735,-20.568104],[148.116351,-20.57326],[148.10977,-20.570586],[148.101027,-20.564314],[148.099928,-20.55594],[148.095293,-20.548192],[148.088367,-20.543565],[148.077981,-20.542641],[148.07901,-20.536465],[148.069506,-20.523492],[148.062848,-20.517741],[148.059037,-20.507459],[148.051075,-20.508727],[148.047961,-20.514383],[148.043177,-20.517632],[148.03296,-20.518302],[148.026245,-20.522066],[148.02041,-20.537286],[148.016668,-20.541554],[148.00648,-20.536709],[147.991579,-20.532791],[147.988472,-20.526973],[147.989776,-20.519953],[147.985429,-20.51192],[147.985542,-20.504642],[147.988882,-20.496184],[147.987332,-20.493415],[147.973051,-20.490606],[147.967738,-20.491265],[147.96108,-20.485514],[147.951026,-20.47423],[147.942114,-20.472998],[147.936097,-20.469194],[147.934758,-20.463062],[147.938789,-20.45851],[147.935957,-20.451847],[147.927967,-20.451997],[147.922817,-20.447337],[147.920478,-20.436747],[147.907458,-20.425239],[147.905866,-20.420792],[147.895346,-20.426306],[147.886504,-20.416119],[147.882072,-20.416482],[147.868277,-20.403765],[147.86022,-20.406959],[147.856063,-20.406477],[147.851617,-20.418033],[147.848389,-20.430966],[147.848677,-20.442434],[147.842279,-20.447031],[147.83915,-20.452127],[147.834683,-20.451091],[147.828025,-20.44534],[147.826356,-20.437816],[147.819529,-20.437105],[147.813688,-20.42854],[147.809306,-20.419108],[147.800006,-20.414246],[147.797407,-20.405061],[147.789269,-20.399337],[147.784598,-20.390191],[147.780147,-20.366209],[147.761553,-20.356765],[147.747463,-20.338001],[147.750782,-20.328704],[147.736846,-20.316094],[147.729476,-20.317352],[147.723804,-20.3155],[147.722445,-20.30853],[147.731084,-20.298853],[147.724757,-20.294495],[147.714118,-20.295254],[147.708389,-20.302917],[147.704006,-20.305238],[147.686413,-20.300252],[147.663253,-20.309362],[147.655249,-20.308953],[147.651543,-20.302866],[147.638212,-20.302557],[147.631518,-20.30716],[147.622662,-20.308166],[147.610655,-20.313428],[147.611106,-20.319576],[147.603094,-20.33064],[147.59039,-20.331718],[147.582174,-20.334671],[147.574466,-20.334256],[147.566335,-20.340565],[147.559754,-20.349643],[147.557604,-20.358358],[147.564551,-20.363824],[147.552523,-20.38],[147.467416,-20.374603],[147.456961,-20.465184],[147.452139,-20.467455],[147.446714,-20.459966],[147.439193,-20.455241],[147.432579,-20.453514],[147.414167,-20.452478],[147.400392,-20.453648],[147.391988,-20.44955],[147.389015,-20.442909],[147.388577,-20.435554],[147.390574,-20.428599],[147.39768,-20.41635],[147.397251,-20.409653],[147.387665,-20.406932],[147.373769,-20.405909],[147.361077,-20.402988],[147.343212,-20.389059],[147.347225,-20.3938],[147.347632,-20.400586],[147.34239,-20.421973],[147.338812,-20.426919],[147.330818,-20.430775],[147.319862,-20.433447],[147.30857,-20.43836],[147.297819,-20.447431],[147.29449,-20.456535],[147.290542,-20.472727],[147.291672,-20.480132],[147.300924,-20.497261],[147.299247,-20.508054],[147.288443,-20.517811],[147.284816,-20.524583],[147.283139,-20.536336],[147.279867,-20.543989],[147.279528,-20.55239],[147.274488,-20.557244],[147.267014,-20.557942],[147.251311,-20.572916],[147.241376,-20.584451],[147.227972,-20.581452],[147.222478,-20.576521],[147.214552,-20.57674],[147.209544,-20.587112],[147.198443,-20.591433],[147.19377,-20.599124],[147.186076,-20.603923],[147.178723,-20.606456],[147.178015,-20.618594],[147.171876,-20.622736],[147.164624,-20.63518],[147.16312,-20.643046],[147.156114,-20.651727],[147.148618,-20.651831],[147.133111,-20.641065],[147.124199,-20.637689],[147.11177,-20.635865],[147.105707,-20.636785],[147.097148,-20.642071],[147.08636,-20.652185],[147.08052,-20.653288],[147.073275,-20.648893],[147.065078,-20.630402],[147.058105,-20.625756],[147.048231,-20.630408],[147.036322,-20.629317],[147.026154,-20.622756],[147.023249,-20.618928],[147.021208,-20.609497],[147.011894,-20.606059],[146.976003,-20.619695],[146.972653,-20.62359],[146.973242,-20.634717],[146.979504,-20.64927],[146.985755,-20.658402],[146.985539,-20.664895],[146.982736,-20.669359],[146.975836,-20.67362],[146.964839,-20.676053],[146.960867,-20.68867],[146.96453,-20.702266],[146.965605,-20.714441],[146.962279,-20.729239],[146.962061,-20.73837],[146.960118,-20.74182],[146.943984,-20.752055],[146.939062,-20.754002],[146.927405,-20.755216],[146.92041,-20.757406],[146.91704,-20.761546],[146.915478,-20.774703],[146.909893,-20.78672],[146.901206,-20.790288],[146.888177,-20.791301],[146.876226,-20.801247],[146.87134,-20.801754],[146.865916,-20.796901],[146.861594,-20.79648],[146.856182,-20.803513],[146.851807,-20.812892],[146.852841,-20.819149],[146.858028,-20.830687],[146.85834,-20.836655],[146.862806,-20.847301],[146.861039,-20.860005],[146.856204,-20.867756],[146.856398,-20.871136],[146.865953,-20.885978],[146.862218,-20.895082],[146.863054,-20.902203],[146.854205,-20.912084],[146.853461,-20.919202],[146.856401,-20.92672],[146.863547,-20.938592],[146.866887,-20.955189],[146.876428,-20.978025],[146.877915,-20.990793],[146.88367,-20.997613],[146.882281,-21.005834],[146.869131,-21.020804],[146.863798,-21.025195],[146.860353,-21.03119],[146.859852,-21.040878],[146.86304,-21.047917],[146.861149,-21.064179],[146.853693,-21.0725],[146.855502,-21.077547],[146.852117,-21.094565],[146.848807,-21.100944],[146.86171,-21.11889],[146.862635,-21.137782],[146.872026,-21.150948],[146.874081,-21.161528],[146.882608,-21.170292],[146.882208,-21.173331],[146.868005,-21.183451],[146.865898,-21.188156],[146.866992,-21.193895],[146.873874,-21.203658],[146.885653,-21.217748],[146.89655,-21.223909],[146.907007,-21.224228],[146.926582,-21.232164],[146.93203,-21.238425],[146.949719,-21.239578],[146.960507,-21.252098],[146.959742,-21.262605],[146.965571,-21.27484],[146.966126,-21.278745],[146.963275,-21.294753],[146.956607,-21.30204],[146.946676,-21.30451],[146.934203,-21.315353],[146.928585,-21.32168],[146.917828,-21.325454],[146.910894,-21.334736],[146.904631,-21.350322],[146.895332,-21.357231],[146.882787,-21.36212],[146.878829,-21.370877],[146.882242,-21.37327],[146.87564,-21.382529],[146.873668,-21.393704],[146.882212,-21.4111],[146.891194,-21.421694],[146.895904,-21.424785],[146.898439,-21.434759],[146.904956,-21.436288],[146.909744,-21.441144],[146.911818,-21.453846],[146.905182,-21.468615],[146.895315,-21.475096],[146.896414,-21.476855],[146.882739,-21.489017],[146.875516,-21.497348],[146.872261,-21.504374],[146.865919,-21.512341],[146.870072,-21.526673],[146.858946,-21.535647],[146.851795,-21.545481],[146.850385,-21.55292],[146.845178,-21.563752],[146.834724,-21.574405],[146.834989,-21.579816],[146.838687,-21.587345],[146.833158,-21.599937],[146.834782,-21.613936],[146.834632,-21.632471],[146.836746,-21.636434],[146.833884,-21.643224],[146.782233,-21.638733],[146.759931,-21.63619],[146.756055,-21.636697],[146.740883,-21.632437],[146.728523,-21.631193],[146.717501,-21.625571],[146.703072,-21.625194],[146.692326,-21.620268],[146.651612,-21.609274],[146.649231,-21.599442],[146.656718,-21.582545],[146.492307,-21.566479],[146.490043,-21.58648],[146.492922,-21.588661],[146.488435,-21.646931],[146.487333,-21.649716],[146.483889,-21.680292],[146.446651,-21.668095],[146.395972,-21.66319],[146.340708,-21.570118],[146.346695,-21.518123],[146.150511,-21.500057],[146.132293,-21.514031],[146.093438,-21.509941],[146.084063,-21.609594],[146.078208,-21.689836],[146.069187,-21.808809],[146.126718,-21.813565],[146.118452,-21.900853],[146.211379,-21.908495],[146.201384,-22.007584],[146.072068,-21.997239],[146.06699,-22.026532],[146.039479,-22.02335],[146.031455,-22.104814],[146.037758,-22.105799],[146.06606,-22.116209],[146.074055,-22.123377],[146.064585,-22.185761],[146.070664,-22.226622],[146.052132,-22.338502],[146.122071,-22.347422],[146.108921,-22.445663],[146.113263,-22.446842],[146.283188,-22.463379],[146.269482,-22.507225],[146.273866,-22.506364],[146.280611,-22.501345],[146.289756,-22.497751],[146.311092,-22.493311],[146.31923,-22.495435],[146.335271,-22.495551],[146.347122,-22.500006],[146.352293,-22.505341],[146.372382,-22.519444],[146.387628,-22.519329],[146.413661,-22.503222],[146.415891,-22.499352],[146.428595,-22.487942],[146.436728,-22.487078],[146.451774,-22.499313],[146.439324,-22.548865],[146.423746,-22.547344],[146.417928,-22.602164],[146.408313,-22.690146],[146.40076,-22.756239],[146.548767,-22.768926],[146.547815,-22.77856],[146.539913,-22.789057],[146.529443,-22.793157],[146.524223,-22.800287],[146.525953,-22.812137],[146.539163,-22.828946],[146.542103,-22.836406],[146.546013,-22.838656],[146.553413,-22.868696],[146.560753,-22.880536],[146.577053,-22.889976],[146.594432,-22.887576],[146.609782,-22.881316],[146.624072,-22.887046],[146.641811,-22.883376],[146.646871,-22.885966],[146.648721,-22.892516],[146.661821,-22.906146],[146.666831,-22.908396],[146.669181,-22.918326],[146.664201,-22.924106],[146.681581,-22.941906],[146.684901,-22.949126],[146.694941,-22.957006],[146.697041,-22.964685],[146.713521,-22.966096],[146.727951,-22.973846],[146.73491,-22.975516],[146.74496,-22.986556],[146.74911,-22.986316],[146.75474,-22.990256],[146.76155,-22.998456],[146.7727,-23.017586],[146.7782,-23.021756],[146.78604,-23.033826],[146.78765,-23.047155],[146.78169,-23.055065],[146.78439,-23.062515],[146.78368,-23.071215],[146.78625,-23.076065],[146.783951,-23.084545],[146.778111,-23.092115],[146.785341,-23.103735],[146.784621,-23.113225],[146.789791,-23.129925],[146.798861,-23.143125],[146.811331,-23.149305],[146.815011,-23.155065],[146.82808,-23.158315],[146.84104,-23.163815],[146.84666,-23.163575],[146.86293,-23.173925],[146.8698,-23.184525],[146.87424,-23.198635],[146.87147,-23.210385],[146.87417,-23.214895],[146.88212,-23.219505],[146.88446,-23.224925],[146.88081,-23.231705],[146.88095,-23.236565],[146.8777,-23.255205],[146.87919,-23.261755],[146.87495,-23.275315],[146.863481,-23.280875],[146.861421,-23.290364],[146.855179,-23.292957],[146.853436,-23.297922],[146.854617,-23.304626],[146.932611,-23.315527],[146.939911,-23.260153],[146.976317,-23.263559],[147.047729,-23.27505],[147.079057,-23.279834],[147.074733,-23.307149],[147.158239,-23.326392],[147.157764,-23.33175],[147.161732,-23.339787],[147.286615,-23.351236],[147.286103,-23.336898],[147.283115,-23.331396],[147.287584,-23.326116],[147.293292,-23.323829],[147.290057,-23.313957],[147.284831,-23.306622],[147.279112,-23.302727],[147.278358,-23.29447],[147.285052,-23.285071],[147.287288,-23.278636],[147.284048,-23.274062],[147.275107,-23.270846],[147.271377,-23.267638],[147.270374,-23.25594],[147.263662,-23.25021],[147.260676,-23.244019],[147.260559,-23.209974],[147.269586,-23.206854],[147.277843,-23.196115],[147.287032,-23.193599],[147.298204,-23.195443],[147.315009,-23.193149],[147.325448,-23.187432],[147.339918,-23.182564],[147.351258,-23.186534],[147.371093,-23.17578],[147.372578,-23.170645],[147.383367,-23.16536],[147.39118,-23.156131],[147.394779,-23.147322],[147.400621,-23.146626],[147.404897,-23.143343],[147.411592,-23.134398],[147.422156,-23.128905],[147.42843,-23.129117],[147.435278,-23.122149],[147.441575,-23.119549],[147.442565,-23.114105],[147.446895,-23.107122],[147.460002,-23.098592],[147.464149,-23.092223],[147.468058,-23.091146],[147.476561,-23.092949],[147.486973,-23.078755],[147.484988,-23.069222],[147.486379,-23.062791],[147.482596,-23.058179],[147.485997,-23.052291],[147.484001,-23.046347],[147.498497,-23.039308],[147.506366,-23.030419],[147.511381,-23.028113],[147.519762,-23.028142],[147.497045,-23.000881],[147.50429,-22.985964],[147.553108,-23.009011],[147.554661,-22.997411],[147.554001,-22.991827],[147.559506,-22.990871],[147.5608,-22.986703],[147.555036,-22.977293],[147.559936,-22.973029],[147.568241,-22.961692],[147.572061,-22.960484],[147.582373,-22.962449],[147.58792,-22.922221],[147.596864,-22.923426],[147.598908,-22.90895],[147.606412,-22.907331],[147.607712,-22.90062],[147.611576,-22.89612],[147.617631,-22.89372],[147.621552,-22.901966],[147.619219,-22.906575],[147.626125,-22.918959],[147.630823,-22.918375],[147.640496,-22.926223],[147.650809,-22.924728],[147.661686,-22.920591],[147.662237,-22.914873],[147.671046,-22.9124],[147.684761,-22.911714],[147.69296,-22.914396],[147.69977,-22.908772],[147.70159,-22.901479],[147.700356,-22.894861],[147.703666,-22.890636],[147.702627,-22.886115],[147.714062,-22.876731],[147.737358,-22.861511],[147.740905,-22.862179],[147.756222,-22.854843],[147.759272,-22.843865],[147.763891,-22.841224],[147.773247,-22.826673],[147.784139,-22.819204],[147.788117,-22.807411],[147.794069,-22.800503],[147.820954,-22.782927],[147.825713,-22.78478],[147.83457,-22.783244],[147.844495,-22.78507],[147.849915,-22.780962],[147.85633,-22.780397],[147.861129,-22.774211],[147.876535,-22.764766],[147.88891,-22.763738],[147.895114,-22.761733],[147.903179,-22.751189],[147.907405,-22.749165],[147.908713,-22.742525],[147.911966,-22.738885],[147.914539,-22.729504],[147.910906,-22.722588],[147.91342,-22.718712],[147.919614,-22.717394],[147.928745,-22.718856],[147.936708,-22.713884],[147.941661,-22.713013],[147.955322,-22.706716],[147.965712,-22.705894],[147.975888,-22.701857],[147.984757,-22.70469],[147.993769,-22.693531],[147.995828,-22.685521],[147.99369,-22.677014],[148.000963,-22.666527],[148.009675,-22.660182],[148.016055,-22.663531],[148.014921,-22.673135],[148.022936,-22.693102],[148.044389,-22.696653],[148.050534,-22.699222],[148.060759,-22.709873],[148.060497,-22.717718],[148.063937,-22.739495],[148.070245,-22.741068],[148.087103,-22.751387],[148.091341,-22.756496],[148.109514,-22.766599],[148.11345,-22.766264],[148.132147,-22.768739],[148.14254,-22.764804],[148.145817,-22.776351],[148.148841,-22.779533],[148.169404,-22.783642],[148.175159,-22.790282],[148.184026,-22.789166],[148.19584,-22.781126],[148.212514,-22.782072],[148.230347,-22.777506],[148.234736,-22.772183],[148.238785,-22.739685],[148.242727,-22.741492],[148.248231,-22.738082],[148.253156,-22.739629],[148.263391,-22.738935],[148.269605,-22.73355],[148.277492,-22.733367],[148.280993,-22.730122],[148.297807,-22.732239],[148.298762,-22.729163],[148.31308,-22.72999],[148.32985,-22.724914],[148.343011,-22.725732],[148.370675,-22.765725],[148.373922,-22.767502],[148.371004,-22.787263],[148.368287,-22.794957],[148.358864,-22.801712],[148.352854,-22.808912],[148.345352,-22.807286],[148.337546,-22.810431],[148.331633,-22.817241],[148.329712,-22.826973],[148.325823,-22.832537],[148.322237,-22.833145],[148.311844,-22.84175],[148.308902,-22.846474],[148.29903,-22.854368],[148.296629,-22.854645],[148.290148,-22.866935],[148.284629,-22.868268],[148.282303,-22.874642],[148.27661,-22.873844],[148.279797,-22.885739],[148.289793,-22.899564],[148.286615,-22.904575],[148.288211,-22.907873],[148.297722,-22.909496],[148.304263,-22.918101],[148.324751,-22.949829],[148.458237,-22.867753],[148.541899,-22.877303],[148.541092,-22.884532],[148.541127,-22.919718],[148.540165,-22.923386],[148.546814,-22.930587],[148.552636,-22.942195],[148.549477,-22.947106],[148.542686,-22.950795],[148.544671,-22.954721],[148.550302,-22.957235],[148.554187,-22.974479],[148.562112,-22.975681],[148.57252,-22.969438],[148.561538,-22.998657],[148.603569,-22.999462],[148.584836,-23.070544],[148.585139,-23.076009],[148.562155,-23.116055],[148.578928,-23.117772],[148.624114,-23.149483],[148.565081,-23.222276],[148.582211,-23.234164],[148.529778,-23.275482],[148.511934,-23.289072],[148.502448,-23.330441],[148.505718,-23.330702],[148.550276,-23.347229],[148.570388,-23.379695],[148.550304,-23.407284],[148.572936,-23.469349],[148.522676,-23.505379],[148.524572,-23.525041],[148.522818,-23.537987],[148.525498,-23.550323],[148.53194,-23.554883],[148.537486,-23.555964],[148.546106,-23.552485],[148.550394,-23.556035],[148.558293,-23.553472],[148.569267,-23.552874],[148.577274,-23.546568],[148.574062,-23.544604],[148.574859,-23.537035],[148.57783,-23.532457],[148.58596,-23.534103],[148.592378,-23.543155],[148.602911,-23.540028],[148.606302,-23.541314],[148.618668,-23.535828],[148.6257,-23.525017],[148.625897,-23.520177],[148.631031,-23.511156],[148.634147,-23.509707],[148.635704,-23.49854],[148.633973,-23.478616],[148.636622,-23.475568],[148.642827,-23.477393],[148.654241,-23.476079],[148.678514,-23.449371],[148.699681,-23.440988],[148.706025,-23.434288],[148.704675,-23.431413],[148.690868,-23.430036],[148.674954,-23.42469],[148.673498,-23.419255],[148.678531,-23.418059],[148.680399,-23.406066],[148.685677,-23.403061],[148.695249,-23.401828],[148.700364,-23.396237],[148.711363,-23.387594],[148.712004,-23.382661],[148.705981,-23.374372],[148.704689,-23.364297],[148.711838,-23.353753],[148.721082,-23.352352],[148.729411,-23.348614],[148.736709,-23.348453],[148.744679,-23.367219],[148.747531,-23.37911],[148.75027,-23.380733],[148.764571,-23.380672],[148.770779,-23.378718],[148.77641,-23.372193],[148.777788,-23.365868],[148.777653,-23.352668],[148.796833,-23.352398],[148.796326,-23.358124],[148.799646,-23.362369],[148.817214,-23.371193],[148.824323,-23.379128],[148.838128,-23.371336],[148.844292,-23.371727],[148.851148,-23.368026],[148.864183,-23.357455],[148.868587,-23.351642],[148.869953,-23.32656],[148.867048,-23.315448],[148.856416,-23.309963],[148.84566,-23.2906],[148.846794,-23.284054],[148.852647,-23.281698],[148.855769,-23.265929],[148.865654,-23.260258],[148.874011,-23.25963],[148.873241,-23.252851],[148.880456,-23.247974],[148.886918,-23.255945],[148.898031,-23.261447],[148.909598,-23.264566],[148.916344,-23.264533],[148.925088,-23.261956],[148.926807,-23.256411],[148.921254,-23.251523],[148.927227,-23.244349],[148.941502,-23.244372],[148.947205,-23.242221],[148.952595,-23.224652],[148.947262,-23.21789],[148.952334,-23.209204],[148.958771,-23.203344],[148.970337,-23.202065],[148.967848,-23.195813],[148.977557,-23.193018],[148.98544,-23.194509],[148.992577,-23.185535],[148.997986,-23.174236],[149.006485,-23.166331],[149.006861,-23.153929],[149.005738,-23.15022],[148.990971,-23.146518],[148.987109,-23.142809],[148.990547,-23.129709],[148.984488,-23.127577],[148.978207,-23.128326],[148.973236,-23.124038],[148.97722,-23.113087],[148.97158,-23.106768],[148.972451,-23.098269],[148.977966,-23.093157],[149.005218,-23.085924],[149.025361,-23.081416],[149.030364,-23.07739],[149.039604,-23.061738],[149.044293,-23.058847],[149.0545,-23.058417],[149.065889,-23.060284],[149.081592,-23.061475],[149.096393,-23.059515],[149.111424,-23.056046],[149.117878,-23.060352],[149.125102,-23.062709],[149.130287,-23.060752],[149.147294,-23.058683],[149.168124,-23.052965],[149.179074,-23.048273],[149.1862,-23.04803],[149.192807,-23.050537],[149.199207,-23.049914],[149.202604,-23.046849],[149.210302,-23.032814],[149.214422,-23.022698],[149.224031,-23.011498],[149.229082,-23.002999],[149.234281,-22.987265],[149.234149,-22.982527],[149.240807,-22.972953],[149.250483,-22.974464],[149.275535,-22.963759],[149.285372,-22.958352],[149.28872,-22.952015],[149.284751,-22.946076],[149.287868,-22.938071],[149.301817,-22.928257],[149.305176,-22.923357],[149.30757,-22.913476],[149.314709,-22.904784],[149.324126,-22.901304],[149.328987,-22.89735],[149.327752,-22.880791],[149.329556,-22.875714],[149.346716,-22.878761],[149.353703,-22.876122],[149.367615,-22.877834],[149.374732,-22.888385],[149.382735,-22.895325],[149.401138,-22.896322],[149.403159,-22.900963],[149.412165,-22.911684],[149.414914,-22.91801],[149.417721,-22.946244],[149.421488,-22.95379],[149.421529,-22.961987],[149.415783,-22.974785],[149.411298,-22.988103],[149.412252,-22.993706],[149.416215,-22.999399],[149.425057,-23.001265],[149.427861,-23.005262],[149.42775,-23.016891],[149.42915,-23.020364],[149.442494,-23.033423],[149.453351,-23.040364],[149.46951,-23.047371],[149.485786,-23.057813],[149.486268,-23.066773],[149.488851,-23.070407],[149.491892,-23.084097],[149.490555,-23.095824],[149.486475,-23.099576],[149.480475,-23.098972],[149.478229,-23.108201],[149.481568,-23.113155],[149.494664,-23.116882],[149.502879,-23.124087],[149.617037,-23.093423],[149.621895,-23.084759],[149.636915,-23.074261],[149.648859,-23.07742],[149.655344,-23.076657],[149.672626,-23.082061],[149.719493,-23.060742],[149.722103,-23.052237],[149.719603,-23.041537],[149.723823,-23.033047],[149.731223,-23.025897],[149.737563,-23.026437],[149.744843,-23.019737],[149.752903,-23.021627],[149.761293,-23.017177],[149.769093,-23.017587],[149.778463,-23.014497],[149.784023,-23.006907],[149.789503,-23.005527],[149.792893,-23.000877],[149.802532,-22.992307],[149.808622,-22.991377],[149.814682,-22.984697],[149.821002,-22.981287],[149.826492,-22.981597],[149.828102,-22.987797],[149.835192,-22.990817],[149.833882,-22.996797],[149.841102,-23.000137],[149.846622,-22.998437],[149.848582,-22.988387],[149.850642,-22.986797],[149.861262,-22.989906],[149.866282,-22.994056],[149.877832,-22.988136],[149.891032,-22.995976],[149.902251,-22.997046],[149.904691,-23.002516],[149.910211,-23.008126],[149.920502,-23.006785],[149.933171,-23.013746],[149.927271,-23.024166],[149.932408,-23.035964],[149.930969,-23.042972],[149.927459,-23.047198],[149.925217,-23.055259],[149.93567,-23.06422],[149.942065,-23.062727],[149.950732,-23.071185],[149.964649,-23.078344],[149.985631,-23.080996],[149.994573,-23.086875],[150.001067,-23.086839],[150.010888,-23.077764],[150.0225,-23.074685],[150.02508,-23.071369],[150.031414,-23.046906],[150.032639,-23.044771],[150.058786,-23.036292],[150.064782,-23.035044],[150.070913,-23.038645],[150.077267,-23.045378],[150.077034,-23.053731],[150.067263,-23.074729],[150.065538,-23.080873],[150.067954,-23.086117],[150.097723,-23.09306],[150.104216,-23.093442],[150.113827,-23.089666],[150.117732,-23.092181],[150.122531,-23.090106],[150.136468,-23.097539],[150.13869,-23.103092],[150.134575,-23.11322],[150.134046,-23.122298],[150.142901,-23.13428],[150.156812,-23.143372],[150.163031,-23.145759],[150.174591,-23.140151],[150.188006,-23.132028],[150.207542,-23.111505],[150.215837,-23.108256],[150.231773,-23.109663],[150.250265,-23.112568],[150.274949,-23.128773],[150.296553,-23.137715],[150.326465,-23.140992],[150.333853,-23.140253],[150.337034,-23.143133],[150.348794,-23.144754],[150.358626,-23.143544],[150.368642,-23.146861],[150.382558,-23.141938],[150.385016,-23.143227],[150.391909,-23.154909],[150.392683,-23.161213],[150.382429,-23.168845],[150.38383,-23.178481],[150.386856,-23.182952],[150.395039,-23.18423],[150.401814,-23.190435],[150.400114,-23.194188],[150.392114,-23.202162],[150.380008,-23.206863],[150.373434,-23.212235],[150.36677,-23.22248],[150.355146,-23.233579],[150.345258,-23.237296],[150.341632,-23.244011],[150.34508,-23.2496],[150.350671,-23.253094],[150.356224,-23.262722],[150.366312,-23.266554],[150.373049,-23.26507],[150.381417,-23.252189],[150.393224,-23.243064],[150.40117,-23.240125],[150.408512,-23.240311],[150.416207,-23.24503],[150.420477,-23.244466],[150.426775,-23.250131],[150.42666,-23.253756],[150.431044,-23.270752],[150.433781,-23.285142],[150.436968,-23.292487],[150.447603,-23.305879],[150.451768,-23.313971],[150.452186,-23.322015],[150.447225,-23.331299],[150.449914,-23.339752],[150.456447,-23.340179],[150.460435,-23.337474],[150.47158,-23.32114],[150.476606,-23.317468],[150.481878,-23.319102],[150.491649,-23.333471],[150.494279,-23.343044],[150.493211,-23.358567],[150.484747,-23.363252],[150.47215,-23.372466],[150.467131,-23.378679],[150.45926,-23.380206],[150.451142,-23.384803],[150.440061,-23.378299],[150.435293,-23.371741],[150.429301,-23.40688],[150.433543,-23.405685],[150.458966,-23.41783],[150.460416,-23.421412],[150.46756,-23.426791],[150.50713,-23.432698],[150.511434,-23.427372],[150.519704,-23.42846],[150.536465,-23.445141],[150.541231,-23.44677],[150.546269,-23.44399],[150.547767,-23.436516],[150.544677,-23.425671],[150.530656,-23.394851],[150.541112,-23.390787],[150.546257,-23.385592],[150.548396,-23.379291],[150.55191,-23.377622],[150.561889,-23.385213],[150.578168,-23.410054],[150.590348,-23.420559],[150.594655,-23.425536],[150.60001,-23.439683],[150.603912,-23.445167],[150.620024,-23.451237],[150.626539,-23.458715],[150.627122,-23.472147],[150.631252,-23.480815],[150.639665,-23.486206],[150.65765,-23.488056],[150.663078,-23.491481],[150.661709,-23.50066],[150.640846,-23.505791],[150.636757,-23.509054],[150.63618,-23.516102],[150.646319,-23.51891],[150.654211,-23.516699],[150.668034,-23.50532],[150.681333,-23.498796],[150.690395,-23.498784],[150.706387,-23.505102],[150.712035,-23.503156],[150.723375,-23.492944],[150.727288,-23.491587],[150.743427,-23.49526],[150.752516,-23.498434],[150.763051,-23.504031],[150.772133,-23.506496],[150.79062,-23.506043],[150.816658,-23.509731],[150.842783,-23.509906],[150.867505,-23.503244],[150.920631,-23.502718],[150.968222,-23.49908],[150.977573,-23.474061],[150.990546,-23.448213],[151.001072,-23.431756],[151.04048,-23.389822],[151.251067,-23.165086],[151.647842,-23.166157],[152.048,-23.167255],[152.908736,-23.165072]]]},"bbox":[146.031455,-23.556035,152.908736,-20.294495]}]}