{"type":"FeatureCollection","features":[
{"properties":{"electorateShortName":"capricornia","electorateName":"Capricornia","area":90898.086034,"state":"QLD"},"type":"Feature","geometry":{"type":"Polygon","coordinates":[[[152.908736,-23.165072],[152.720898,-22.364034],[152.766709,-22.242979],[152.766439,-22.145206],[152.734242,-21.999951],[152.67615,-21.900725],[152.652276,-21.816026],[152.603968,-21.753499],[152.560039,-21.667342],[152.554383,-21.557566],[152.589327,-21.394643],[152.588945,-21.315206],[152.653539,-21.236472],[151.836784,-21.24469],[150.09178,-21.248983],[149.751162,-21.247711],[149.257767,-21.224197],[149.235018,-21.238868],[149.149293,-21.196304],[149.13992,-21.143072],[148.990512,-21.13737],[148.904624,-21.090331],[148.816263,-21.070072],[148.721154,-21.071859],[148.581507,-21.058324],[148.597084,-21.016505],[148.643049,-21.008182],[148.599894,-20.916632],[148.597311,-20.872619],[148.464585,-20.773176],[148.431718,-20.705945],[148.375074,-20.7025],[148.329506,-20.606616],[148.152612,-20.531724],[148.101027,-20.564314],[148.059037,-20.507459],[147.936097,-20.469194],[147.868277,-20.403765],[147.819529,-20.437105],[147.722445,-20.30853],[147.638212,-20.302557],[147.574466,-20.334256],[147.552523,-20.38],[147.467416,-20.374603],[147.456961,-20.465184],[147.389015,-20.442909],[147.343212,-20.389059],[147.297819,-20.447431],[147.279528,-20.55239],[147.178723,-20.606456],[147.148618,-20.651831],[146.976003,-20.619695],[146.960118,-20.74182],[146.851807,-20.812892],[146.853461,-20.919202],[146.882281,-21.005834],[146.848807,-21.100944],[146.885653,-21.217748],[146.949719,-21.239578],[146.963275,-21.294753],[146.882787,-21.36212],[146.909744,-21.441144],[146.834724,-21.574405],[146.833884,-21.643224],[146.756055,-21.636697],[146.651612,-21.609274],[146.656718,-21.582545],[146.492307,-21.566479],[146.483889,-21.680292],[146.395972,-21.66319],[146.340708,-21.570118],[146.346695,-21.518123],[146.150511,-21.500057],[146.093438,-21.509941],[146.069187,-21.808809],[146.126718,-21.813565],[146.118452,-21.900853],[146.211379,-21.908495],[146.201384,-22.007584],[146.072068,-21.997239],[146.039479,-22.02335],[146.031455,-22.104814],[146.074055,-22.123377],[146.070664,-22.226622],[146.052132,-22.338502],[146.122071,-22.347422],[146.108921,-22.445663],[146.283188,-22.463379],[146.311092,-22.493311],[146.387628,-22.519329],[146.428595,-22.487942],[146.40076,-22.756239],[146.548767,-22.768926],[146.525953,-22.812137],[146.577053,-22.889976],[146.641811,-22.883376],[146.694941,-22.957006],[146.75474,-22.990256],[146.78604,-23.033826],[146.778111,-23.092115],[146.815011,-23.155065],[146.86293,-23.173925],[146.88446,-23.224925],[146.854617,-23.304626],[146.932611,-23.315527],[146.939911,-23.260153],[147.079057,-23.279834],[147.074733,-23.307149],[147.161732,-23.339787],[147.286615,-23.351236],[147.287288,-23.278636],[147.260676,-23.244019],[147.277843,-23.196115],[147.351258,-23.186534],[147.486973,-23.078755],[147.484001,-23.046347],[147.553108,-23.009011],[147.58792,-22.922221],[147.69977,-22.908772],[147.794069,-22.800503],[147.907405,-22.749165],[147.993769,-22.693531],[148.060759,-22.709873],[148.063937,-22.739495],[148.184026,-22.789166],[148.238785,-22.739685],[148.343011,-22.725732],[148.368287,-22.794957],[148.27661,-22.873844],[148.324751,-22.949829],[148.458237,-22.867753],[148.541899,-22.877303],[148.561538,-22.998657],[148.603569,-22.999462],[148.578928,-23.117772],[148.624114,-23.149483],[148.511934,-23.289072],[148.502448,-23.330441],[148.550276,-23.347229],[148.572936,-23.469349],[148.522676,-23.505379],[148.525498,-23.550323],[148.618668,-23.535828],[148.678514,-23.449371],[148.680399,-23.406066],[148.747531,-23.37911],[148.824323,-23.379128],[148.868587,-23.351642],[148.84566,-23.2906],[148.909598,-23.264566],[149.006485,-23.166331],[148.977966,-23.093157],[149.039604,-23.061738],[149.125102,-23.062709],[149.202604,-23.046849],[149.234149,-22.982527],[149.285372,-22.958352],[149.329556,-22.875714],[149.401138,-22.896322],[149.442494,-23.033423],[149.485786,-23.057813],[149.502879,-23.124087],[149.672626,-23.082061],[149.731223,-23.025897],[149.826492,-22.981597],[149.933171,-23.013746],[149.925217,-23.055259],[150.001067,-23.086839],[150.122531,-23.090106],[150.163031,-23.145759],[150.215837,-23.108256],[150.392683,-23.161213],[150.380008,-23.206863],[150.42666,-23.253756],[150.460435,-23.337474],[150.433543,-23.405685],[150.46756,-23.426791],[150.544677,-23.425671],[150.55191,-23.377622],[150.661709,-23.50066],[150.772133,-23.506496],[150.968222,-23.49908],[151.001072,-23.431756],[151.251067,-23.165086],[152.048,-23.167255],[152.908736,-23.165072]]]},"bbox":[146.031455,-23.550323,152.908736,-20.302557]}]}