{"type":"FeatureCollection","features":[
{"properties":{"electorateShortName":"clark","electorateName":"Clark","area":292.264918,"state":"TAS"},"type":"Feature","geometry":{"type":"MultiPolygon","coordinates":[[[[147.316069,-42.973681],[147.316998,-42.977398],[147.32117660784124,-42.979329728271345],[147.317314,-42.977441],[147.321578,-42.979526],[147.32422,-42.974379],[147.328476,-42.977419],[147.329554,-42.977814],[147.324121,-42.983113],[147.33042,-42.989362],[147.328875,-42.992322],[147.329306,-42.998336],[147.325547,-43.00197],[147.32415,-43.006165],[147.330434,-43.010675],[147.328829,-43.016841],[147.334158,-43.022512],[147.338569,-43.036045],[147.337413,-43.041247],[147.34081,-43.043163],[147.345149,-43.049127],[147.342968,-43.052812],[147.337922,-43.054537],[147.333442,-43.058639],[147.329242,-43.057562],[147.321945,-43.060816],[147.314093,-43.059496],[147.307592,-43.052331],[147.300673,-43.038985],[147.296815,-43.035849],[147.296951,-43.033319],[147.290526,-43.026287],[147.292387,-43.021642],[147.28766,-43.020045],[147.28527569173514,-43.00977655574863],[147.27884,-43.010499],[147.272476,-43.015759],[147.26928,-43.021282],[147.269128,-43.027004],[147.275994,-43.023294],[147.279916,-43.026768],[147.276143,-43.029805],[147.276434,-43.037381],[147.272044,-43.039666],[147.273501,-43.042362],[147.267323,-43.044117],[147.265389,-43.050638],[147.268573,-43.054358],[147.265423,-43.056027],[147.2667931241378,-43.062117139311376],[147.28558602967,-43.06170249289587],[147.29836490668015,-43.0664808865707],[147.31555669005272,-43.06932435091203],[147.33297419278827,-43.06880156658981],[147.34996448925162,-43.0649321310912],[147.364156578194,-43.06071123236737],[147.38135057047356,-43.05360543022547],[147.39671618228041,-43.04311620869146],[147.4095968167509,-43.029691788770045],[147.4154441733089,-43.020316076591534],[147.41271,-43.014469],[147.404861,-43.008148],[147.397036,-43.006683],[147.398289,-42.998425],[147.403844,-42.991555],[147.40407,-42.984539],[147.401115,-42.981226],[147.393367,-42.978],[147.391862,-42.97595],[147.401378,-42.973607],[147.404934,-42.967504],[147.40409,-42.963166],[147.408787,-42.962914],[147.408451,-42.973797],[147.403757,-42.977578],[147.408549,-42.981767],[147.417869,-42.984372],[147.419681,-42.993559],[147.417537,-43.002823],[147.42400522669695,-43.00927854265596],[147.42777224809882,-43.00521151401169],[147.43725557117932,-42.98948941452535],[147.44335083630713,-42.97216990033097],[147.44970916319454,-42.94716675311194],[147.45079616319455,-42.940452753111934],[147.45192661344467,-42.92388980663823],[147.45076288104292,-42.9094610188508],[147.446437,-42.908197],[147.435069,-42.908677],[147.431961,-42.911859],[147.435198,-42.917066],[147.433419,-42.924363],[147.42807,-42.928226],[147.421401,-42.939748],[147.419056,-42.940621],[147.413645,-42.937756],[147.408976,-42.938846],[147.408057,-42.935199],[147.411266,-42.929168],[147.411677,-42.924257],[147.409231,-42.918964],[147.415796,-42.91375],[147.417327,-42.908852],[147.409727,-42.893759],[147.405042,-42.891345],[147.404691,-42.884291],[147.391682,-42.880684],[147.386092,-42.882279],[147.383907,-42.879796],[147.370601,-42.879366],[147.366546,-42.882554],[147.363062,-42.87863],[147.363513,-42.875315],[147.369213,-42.872626],[147.365664,-42.870159],[147.355941,-42.875654],[147.352402,-42.875777],[147.35094,-42.870474],[147.355186,-42.8655],[147.350539,-42.860591],[147.354622,-42.857453],[147.355057,-42.850012],[147.350314,-42.853127],[147.344275,-42.850832],[147.343282,-42.848302],[147.337797,-42.845038],[147.34175,-42.839646],[147.333777,-42.841081],[147.326579,-42.829533],[147.317373,-42.824903],[147.319935,-42.816675],[147.312217,-42.81561],[147.308148,-42.812345],[147.294137,-42.809418],[147.291076,-42.806196],[147.283331,-42.802795],[147.281926,-42.797003],[147.289859,-42.79526],[147.292566,-42.790883],[147.291152,-42.786337],[147.285786,-42.782488],[147.280564,-42.781811],[147.270837,-42.782239],[147.264187,-42.777529],[147.263192,-42.767843],[147.260522,-42.765294],[147.263649,-42.754279],[147.256084,-42.748636],[147.252229,-42.751215],[147.248284,-42.750291],[147.247779,-42.746509],[147.234957,-42.740915],[147.230667,-42.742828],[147.221951,-42.738273],[147.223421,-42.737187],[147.214594,-42.737002],[147.203873,-42.726579],[147.198991,-42.725319],[147.191446,-42.727361],[147.18397,-42.732291],[147.184099,-42.739253],[147.161939,-42.749562],[147.150007,-42.7518],[147.14405,-42.758423],[147.139875,-42.767072],[147.130835,-42.77001],[147.119402,-42.769952],[147.111632,-42.775588],[147.112674,-42.776702],[147.122806,-42.770986],[147.132795,-42.77162],[147.142733,-42.768133],[147.146402,-42.759454],[147.154535,-42.752804],[147.165986,-42.751435],[147.180365,-42.745175],[147.187274,-42.743],[147.191201,-42.74338],[147.195448,-42.741044],[147.20834,-42.741108],[147.226904,-42.75042],[147.222971,-42.758555],[147.212892,-42.766963],[147.211632,-42.766635],[147.206708,-42.777105],[147.203754,-42.780044],[147.201103,-42.78666],[147.205884,-42.789142],[147.202286,-42.791276],[147.200564,-42.79795],[147.197835,-42.797599],[147.200835,-42.806465],[147.195803,-42.805735],[147.19243,-42.809062],[147.193922,-42.813491],[147.185749,-42.811807],[147.178795,-42.814609],[147.17664,-42.817864],[147.180042,-42.822379],[147.177181,-42.824266],[147.173858,-42.829746],[147.163036,-42.831005],[147.161877,-42.835438],[147.153641,-42.834332],[147.152313,-42.837689],[147.148338,-42.837198],[147.147274,-42.842099],[147.142437,-42.841558],[147.135393,-42.847832],[147.146491,-42.849228],[147.145094,-42.854765],[147.151047,-42.855773],[147.150353,-42.858481],[147.150668,-42.875041],[147.150368,-42.913351],[147.155644,-42.914131],[147.154141,-42.919237],[147.157296,-42.91969],[147.151538,-42.939133],[147.157079,-42.939867],[147.157648,-42.94402],[147.156037,-42.951208],[147.153232,-42.950873],[147.150221,-42.955809],[147.148946,-42.965206],[147.146155,-42.974447],[147.152285,-42.9771],[147.158882,-42.976264],[147.161088,-42.978576],[147.170752,-42.979051],[147.173271,-42.981631],[147.177377,-42.981472],[147.18111,-42.985523],[147.188085,-42.985903],[147.200266,-42.981645],[147.214393,-42.979999],[147.219041,-42.978468],[147.226879,-42.972963],[147.249082,-42.966519],[147.25591,-42.966822],[147.265396,-42.970682],[147.274267,-42.972343],[147.281954,-42.970898],[147.290667,-42.965969],[147.297007,-42.965192],[147.308197,-42.969464],[147.312832,-42.975026],[147.316069,-42.973681]]],[[[147.32184759066962,-42.97900079819207],[147.32814105061755,-42.97717975044112],[147.32422,-42.974379],[147.32184759066962,-42.97900079819207]]]]},"bbox":[147.111632,-43.06932435091203,147.45192661344467,-42.725319]}]}