{"type":"FeatureCollection","features":[
{"properties":{"electorateShortName":"clark","electorateName":"Clark","area":292.264918,"state":"TAS"},"type":"Feature","geometry":{"type":"Polygon","coordinates":[[[147.316069,-42.973681],[147.321578,-42.979526],[147.338563,-42.974427],[147.344532,-42.954768],[147.35585,-42.951108],[147.361953,-42.926069],[147.355722,-42.908636],[147.332239,-42.90022],[147.341468,-42.88224],[147.336789,-42.864589],[147.319663,-42.855131],[147.327849,-42.84461],[147.317326,-42.829185],[147.298018,-42.818736],[147.279306,-42.825996],[147.255959,-42.815145],[147.257206,-42.801509],[147.269359,-42.790785],[147.256845,-42.782797],[147.253576,-42.769487],[147.226904,-42.75042],[147.212892,-42.766963],[147.201103,-42.78666],[147.200835,-42.806465],[147.178795,-42.814609],[147.173858,-42.829746],[147.153641,-42.834332],[147.146491,-42.849228],[147.150353,-42.858481],[147.150368,-42.913351],[147.157296,-42.91969],[147.151538,-42.939133],[147.156037,-42.951208],[147.150221,-42.955809],[147.146155,-42.974447],[147.170752,-42.979051],[147.18111,-42.985523],[147.214393,-42.979999],[147.226879,-42.972963],[147.249082,-42.966519],[147.274267,-42.972343],[147.297007,-42.965192],[147.316069,-42.973681]]]},"bbox":[147.146155,-42.985523,147.361953,-42.75042]}]}