{"type":"FeatureCollection","features":[
{"properties":{"electorateShortName":"cook","electorateName":"Cook","area":93.822496,"state":"NSW"},"type":"Feature","geometry":{"type":"Polygon","coordinates":[[[151.231926,-34.016739],[151.22823,-34.004195],[151.221147,-34.001613],[151.163887,-34.000746],[151.149176,-33.994409],[151.148619,-33.982831],[151.154842,-33.966669],[151.137127,-33.964309],[151.129671,-33.973631],[151.114012,-33.984041],[151.094338,-33.988857],[151.092083,-33.995127],[151.095557,-34.003737],[151.081535,-34.029246],[151.076868,-34.053482],[151.096354,-34.056368],[151.112757,-34.075693],[151.131975,-34.070467],[151.138089,-34.077436],[151.152001,-34.077811],[151.162586,-34.072444],[151.156756,-34.069717],[151.154915,-34.055118],[151.16529,-34.040893],[151.185918,-34.034563],[151.198776,-34.041682],[151.220659,-34.039339],[151.230295,-34.026401],[151.231926,-34.016739]]]},"bbox":[151.076868,-34.077811,151.231926,-33.964309]}]}