{"type":"FeatureCollection","features":[
{"properties":{"electorateShortName":"cook","electorateName":"Cook","area":93.822496,"state":"NSW"},"type":"Feature","geometry":{"type":"Polygon","coordinates":[[[151.162586,-34.072444],[151.171761,-34.086503],[151.135818,-34.120275],[151.095677,-34.158109],[151.09707229276623,-34.16431573951414],[151.1356639176509,-34.16740332170961],[151.1495759176509,-34.167778321709605],[151.16384177935302,-34.16702868851698],[151.20412851185833,-34.153987728463925],[151.23187196783292,-34.12983763618443],[151.2415695181609,-34.12776893969093],[151.25211191369948,-34.123307117135695],[151.2561500271334,-34.12204563209814],[151.28619243741466,-34.10102666959952],[151.30196528820727,-34.08162013890392],[151.30683728820728,-34.07374313890392],[151.31433410205494,-34.058610149721815],[151.32190936260267,-34.01846944928137],[151.32072480042794,-34.000221726838454],[151.31715931319778,-33.9841899095423],[151.31275807743862,-33.972091684327125],[151.30470449465903,-33.95653899480223],[151.29446611176627,-33.94316006040645],[151.2819137129544,-33.93192361729071],[151.28164171295438,-33.9317226172907],[151.27329840662867,-33.92624526542164],[151.26913546229673,-33.92390821255461],[151.26641060464183,-33.922427324316615],[151.26606970061383,-33.92228459137845],[151.26597646229672,-33.92223521255461],[151.2659719797204,-33.92224367666613],[151.26030578809173,-33.919871301707445],[151.257682,-33.922042],[151.25946,-33.937314],[151.258558,-33.945658],[151.256967,-33.951596],[151.256485,-33.964933],[151.251886,-33.964671],[151.251185,-33.978936],[151.24988,-34.001238],[151.231926,-34.016739],[151.163887,-34.000746],[151.154842,-33.966669],[151.129671,-33.973631],[151.092083,-33.995127],[151.076868,-34.053482],[151.162586,-34.072444]]]},"bbox":[151.076868,-34.167778321709605,151.32190936260267,-33.919871301707445]}]}