{"type":"FeatureCollection","features":[
{"properties":{"electorateShortName":"cooper","electorateName":"Cooper","area":60.6,"state":"VIC"},"type":"Feature","geometry":{"type":"MultiPolygon","coordinates":[[[[145.040197,-37.784222],[145.058219,-37.699983],[144.972061,-37.690999],[144.986865,-37.774378],[145.001945,-37.796659],[145.040197,-37.784222]]],[[[144.918525,-37.839688],[144.92112361939618,-37.84845867370122],[144.9335412437853,-37.86219743581495],[144.94850795744463,-37.87310378543922],[144.96539007529822,-37.8807159517974],[144.96638019807702,-37.88122916863484],[144.97931756835888,-37.885604099674616],[144.975658,-37.882121],[144.975607,-37.870261],[144.969681,-37.864589],[144.963316,-37.855467],[144.935592,-37.842548],[144.918525,-37.839688]]]]},"bbox":[144.918525,-37.885604099674616,145.058219,-37.690999]}]}