{"type":"FeatureCollection","features":[
{"properties":{"electorateShortName":"corangamite","electorateName":"Corangamite","area":5441.65,"state":"VIC"},"type":"Feature","geometry":{"type":"Polygon","coordinates":[[[143.918605,-37.809731],[143.9166,-37.814415],[143.912694,-37.819612],[143.918213,-37.82747],[143.92276,-37.829647],[143.925185,-37.838223],[143.924557,-37.841541],[143.92897,-37.843911],[143.927906,-37.84624],[143.929252,-37.851796],[143.926906,-37.853249],[143.933063,-37.857863],[143.931191,-37.861086],[143.936793,-37.864347],[143.937931,-37.868774],[143.935477,-37.872429],[143.937778,-37.874279],[143.932881,-37.880555],[143.932948,-37.885258],[143.9359,-37.890134],[143.934949,-37.891921],[143.908415,-37.888646],[143.888627,-37.886646],[143.88785,-37.890937],[143.87298,-37.889219],[143.873775,-37.884904],[143.862524,-37.883446],[143.861528,-37.887861],[143.858506,-37.889015],[143.856439,-37.893151],[143.857582,-37.897642],[143.850758,-37.899745],[143.849239,-37.90412],[143.848696,-37.912597],[143.850183,-37.913518],[143.844667,-37.942439],[143.856087,-37.942972],[143.854688,-37.950914],[143.843159,-37.949582],[143.838206,-37.976385],[143.787175,-37.970538],[143.778925,-37.976885],[143.745882,-37.972929],[143.739365,-38.005477],[143.752317,-38.023704],[143.735576,-38.027397],[143.729862,-38.057857],[143.751815,-38.063326],[143.768767,-38.122981],[143.766824,-38.130617],[143.75958,-38.170576],[143.752719,-38.169867],[143.747421,-38.198583],[143.763024,-38.2005],[143.757597,-38.229145],[143.750982,-38.22855],[143.748928,-38.239373],[143.744359,-38.238835],[143.740241,-38.260434],[143.72408,-38.258332],[143.709347,-38.275866],[143.703369,-38.278738],[143.689734,-38.279444],[143.683236,-38.27635],[143.680511,-38.290548],[143.689378,-38.291558],[143.685642,-38.31189],[143.6757,-38.312004],[143.673643,-38.323035],[143.683357,-38.324113],[143.682626,-38.327887],[143.672906,-38.326792],[143.671552,-38.333694],[143.672193,-38.338346],[143.680464,-38.339245],[143.67403,-38.374632],[143.665785,-38.373727],[143.66106,-38.399342],[143.664098,-38.405202],[143.659025,-38.410155],[143.652886,-38.441883],[143.643873,-38.440825],[143.639794,-38.462162],[143.619712,-38.459904],[143.586203,-38.45687],[143.584804,-38.461061],[143.575913,-38.459363],[143.5741,-38.464067],[143.569878,-38.463678],[143.567631,-38.473923],[143.563237,-38.473529],[143.557956,-38.477516],[143.502968,-38.471012],[143.494794,-38.512811],[143.48755,-38.515148],[143.482407,-38.51522],[143.479829,-38.513524],[143.470384,-38.51193],[143.466516,-38.509672],[143.459722,-38.511419],[143.453492,-38.509147],[143.451068,-38.504991],[143.45569,-38.500822],[143.451531,-38.492607],[143.445928,-38.494406],[143.445072,-38.497006],[143.439806,-38.499805],[143.433291,-38.500873],[143.408425,-38.497988],[143.407829,-38.501085],[143.395528,-38.499929],[143.387792,-38.502908],[143.382775,-38.510388],[143.373465,-38.515259],[143.369109,-38.511827],[143.370531,-38.507087],[143.364312,-38.495939],[143.351479,-38.493894],[143.345771,-38.49675],[143.344665,-38.499482],[143.351116,-38.516751],[143.362114,-38.520856],[143.35873,-38.529428],[143.347717,-38.540514],[143.348042,-38.545017],[143.344627,-38.545621],[143.333958,-38.552451],[143.322564,-38.557165],[143.314455,-38.557745],[143.299367,-38.561161],[143.290436,-38.564401],[143.277853,-38.567044],[143.276083,-38.573686],[143.267258,-38.574193],[143.270704,-38.581105],[143.278911,-38.587479],[143.281899,-38.600909],[143.28146,-38.604697],[143.291639,-38.612237],[143.292414,-38.615097],[143.28455,-38.619091],[143.280165,-38.624218],[143.271379,-38.625209],[143.272429,-38.627229],[143.265235,-38.628625],[143.267016,-38.632085],[143.262714,-38.63594],[143.264309,-38.639796],[143.269494,-38.643913],[143.266112,-38.647361],[143.27471,-38.648059],[143.2777,-38.653747],[143.272728,-38.658675],[143.271377,-38.66488],[143.263496,-38.667917],[143.262561,-38.671401],[143.265215,-38.675137],[143.256842,-38.676635],[143.251835,-38.682356],[143.256266,-38.683505],[143.258542,-38.686634],[143.247298,-38.688258],[143.248905,-38.698555],[143.256886,-38.704382],[143.253712,-38.708087],[143.259327,-38.713133],[143.258806,-38.716311],[143.255069,-38.719493],[143.254746,-38.724355],[143.251448,-38.724726],[143.253416,-38.731531],[143.250805,-38.735577],[143.252428,-38.742049],[143.26187,-38.74777],[143.265017,-38.745801],[143.27625,-38.747538],[143.280146,-38.747288],[143.287111,-38.757535],[143.280376,-38.758993],[143.280148,-38.76294],[143.273385,-38.761283],[143.271492,-38.764189],[143.267387,-38.763093],[143.264859,-38.766193],[143.265872,-38.769134],[143.257632,-38.770702],[143.249107,-38.768013],[143.233065,-38.766477],[143.229569,-38.761347],[143.215322,-38.758393],[143.201514,-38.745939],[143.196519,-38.744177],[143.196138,-38.741258],[143.190311,-38.740194],[143.189635,-38.734177],[143.185605,-38.733816],[143.163109,-38.71053],[143.159401139689,-38.707663866598686],[143.16138663748367,-38.71836402771149],[143.16055332208944,-38.740020974821135],[143.16311364766352,-38.75968824098953],[143.16991947383914,-38.77831717965096],[143.17307227146907,-38.78450684202387],[143.18064976330064,-38.79634342638365],[143.18997760830132,-38.80685601024334],[143.20217740955252,-38.81728330380764],[143.21548585135278,-38.82620652359228],[143.23059216742476,-38.8327981962173],[143.2434212701807,-38.835775779487605],[143.2546289763696,-38.84146901063259],[143.2720867939557,-38.84627210178239],[143.29015271179176,-38.847483585255],[143.3081175043265,-38.84504915478198],[143.3211852871574,-38.84690084137295],[143.34067777840738,-38.845924510210274],[143.34616746364847,-38.85113936113434],[143.3625663093432,-38.861325929599275],[143.38161957467582,-38.86872110078596],[143.39525028525324,-38.87163018456001],[143.4041230191694,-38.877313235578335],[143.41450537040845,-38.88758958506675],[143.4212623514257,-38.898469956700886],[143.43296540029831,-38.911099462511835],[143.44033302043434,-38.9174750277161],[143.45586834121545,-38.929432171139],[143.46411934121545,-38.934455171139],[143.4814170263911,-38.94260725182657],[143.50004654841558,-38.946920862971794],[143.5191668963031,-38.94720127094933],[143.52880070817247,-38.94526636241563],[143.54397404337016,-38.94458698402203],[143.55410995465877,-38.945621663675425],[143.57181749200333,-38.943911842547244],[143.58884278003933,-38.93875239156962],[143.6045206126671,-38.93034489900668],[143.61823843109332,-38.91901785946738],[143.63874441876177,-38.90382855745329],[143.64861886209397,-38.893755107943754],[143.65877213062885,-38.88012693582978],[143.66572780279932,-38.879192080627575],[143.67990960800395,-38.87482590041443],[143.6931812355158,-38.868188805289094],[143.7127662355158,-38.85628180528909],[143.72667331107462,-38.845863624829406],[143.73831910344717,-38.83296708441325],[143.7440611230614,-38.823411908286296],[143.7501351742267,-38.81716541698882],[143.75737427039064,-38.806141831190196],[143.76756372278692,-38.80154693652387],[143.78669094527535,-38.795332439525],[143.79757323393494,-38.79253257677752],[143.81278762429315,-38.78698569975326],[143.83259986435596,-38.78268498151195],[143.85128236222465,-38.781653804537655],[143.86934789210684,-38.77678187651659],[143.88601562376843,-38.768279772434454],[143.88993262376843,-38.76573677243445],[143.9088934344514,-38.750911233385175],[143.92366356206054,-38.74095671816207],[143.93618405860906,-38.72828840299798],[143.94431028221274,-38.715920249905075],[143.9482862158007,-38.71348933701695],[143.960895930685,-38.70200968326165],[143.96875683781252,-38.69150698587711],[143.9826981502598,-38.676519723254295],[143.98689555845573,-38.669305473710885],[143.9908658969969,-38.66460038857009],[143.99394652507843,-38.65881464012853],[143.99788368914943,-38.65739405754929],[144.01135242728185,-38.649703458154676],[144.0194554086982,-38.64299716408329],[144.02492595360445,-38.63968074123582],[144.04016352712404,-38.62662361408961],[144.0468587663302,-38.61761016077864],[144.0495577671581,-38.61525234694729],[144.0609910171964,-38.5998802017691],[144.06435801719638,-38.5941712017691],[144.0717376680551,-38.57831245946641],[144.07494963848984,-38.56523676568995],[144.08400615565043,-38.55899860050235],[144.10361459277064,-38.55924773648416],[144.12126735084124,-38.557727828228785],[144.13828025948945,-38.55277899726259],[144.15399395300932,-38.544593044381735],[144.16779941910113,-38.533487230832456],[144.18339901417986,-38.51882489577345],[144.18819568286054,-38.518601893452804],[144.20599378065438,-38.515974295230144],[144.2229136448206,-38.50985917020319],[144.2382791564226,-38.500500879188905],[144.25147630855918,-38.48827338014032],[144.2529096990471,-38.48627945189834],[144.26495276915728,-38.484804644933334],[144.28231188203432,-38.48090719927762],[144.29856514139203,-38.47367114767683],[144.31307740821532,-38.46337925794914],[144.32622036258607,-38.448929397944184],[144.3404704057943,-38.439015169206854],[144.3500123423989,-38.42983840435833],[144.3675959600606,-38.421261182794865],[144.3743250362814,-38.41700257150575],[144.38904341527575,-38.405793400676096],[144.3964131104508,-38.39728835258437],[144.41166817797352,-38.39119270713422],[144.4240753038139,-38.38356255399635],[144.43862074492566,-38.37679768450655],[144.44748321842957,-38.373827113707385],[144.4869677427759,-38.379557040624974],[144.50597593932628,-38.38028419719087],[144.52471240099433,-38.37700009960855],[144.54234013928928,-38.36985145390651],[144.5491822287554,-38.36553984482068],[144.58538478569557,-38.37762325097289],[144.60317422380493,-38.381614108803625],[144.62140294238927,-38.3819379501919],[144.63932290898043,-38.37858148600431],[144.6561987610363,-38.371682451879195],[144.6690067643584,-38.3630882153708],[144.68077902684433,-38.361409492518476],[144.69657705149984,-38.356046158773836],[144.71111369981773,-38.34785904771102],[144.71726204796283,-38.34269543303937],[144.690343,-38.328856],[144.688186,-38.32557],[144.684739,-38.324815],[144.678128,-38.319735],[144.669801,-38.316606],[144.666036,-38.312161],[144.661932,-38.310258],[144.65523,-38.30516],[144.666925,-38.308117],[144.675802,-38.305586],[144.681755,-38.305611],[144.70485,-38.315237],[144.707343,-38.317795],[144.71559,-38.318813],[144.71891,-38.317751],[144.723124,-38.320614],[144.739005,-38.32461],[144.73933742319838,-38.327295163774835],[144.74891687326016,-38.322273455289626],[144.7650051091947,-38.308120805670335],[144.7692031091947,-38.30342980567033],[144.77945635030787,-38.28947411098035],[144.78684695828687,-38.273813035624364],[144.79110130694113,-38.25702640745987],[144.792061885384,-38.23973572625119],[144.7970518666645,-38.22004280311701],[144.80095738029658,-38.21180281846916],[144.80683546918968,-38.19550922770764],[144.80948337029744,-38.17839135258651],[144.8087105465531,-38.16069200123858],[144.81018876598804,-38.14805296903933],[144.8086567280576,-38.13003560119955],[144.80355395755933,-38.11268813979056],[144.79508643801995,-38.096710849753],[144.78189172997315,-38.08127593678923],[144.76956600081974,-38.0661283490529],[144.75426301963648,-38.05399608709156],[144.75143084449243,-38.05261776497601],[144.74533264849026,-38.04730775945042],[144.73223790987916,-38.03935182160682],[144.7179833854125,-38.033732421416936],[144.6911693854125,-38.02572242141693],[144.67610906943008,-38.02259532748772],[144.66073621652797,-38.02207838688974],[144.63824883928044,-38.01764734615115],[144.6197315892666,-38.01814225278913],[144.60170787579423,-38.02241767479425],[144.5849412222631,-38.030292496063545],[144.57649120939217,-38.036653492483474],[144.55230183379874,-38.049524868386115],[144.5401873744432,-38.057272390181055],[144.52418129835542,-38.06941382013093],[144.5185625263819,-38.070400238877006],[144.51341112626173,-38.07050568207256],[144.511644,-38.073191],[144.510226,-38.087795],[144.506846,-38.091508],[144.503729,-38.088496],[144.49448,-38.085023],[144.487723,-38.078414],[144.482994,-38.079897],[144.478739,-38.076697],[144.470912,-38.083542],[144.46689,-38.081151],[144.465995,-38.077184],[144.458759,-38.077241],[144.45675,-38.08029],[144.450675,-38.083992],[144.444942,-38.091816],[144.441475,-38.08959],[144.443259,-38.086266],[144.41352,-38.084488],[144.406845,-38.081434],[144.397943,-38.073816],[144.388751,-38.07713],[144.383197,-38.084083],[144.383237,-38.092254],[144.381575,-38.097352],[144.376324,-38.100996],[144.371958,-38.101203],[144.367352,-38.104775],[144.361606,-38.105136],[144.366582,-38.109905],[144.360078,-38.115209],[144.359908,-38.122211],[144.358296,-38.122865],[144.355617,-38.137201],[144.360416,-38.142016],[144.368573,-38.146523],[144.373929,-38.146697],[144.3848,-38.143255],[144.388768,-38.148685],[144.394561,-38.149598],[144.40264,-38.155458],[144.40667,-38.154661],[144.40535,-38.157658],[144.395024,-38.214568],[144.391775,-38.210115],[144.386291,-38.205982],[144.384444,-38.197944],[144.380248,-38.193155],[144.36854,-38.192944],[144.365478,-38.190041],[144.364316,-38.186043],[144.358381,-38.184479],[144.350036,-38.189342],[144.349136,-38.192768],[144.343165,-38.190176],[144.338328,-38.190598],[144.329554,-38.193254],[144.325506,-38.196181],[144.320571,-38.195553],[144.313683,-38.199796],[144.311045,-38.192244],[144.306418,-38.18628],[144.296962,-38.179006],[144.290649,-38.171742],[144.293676,-38.156445],[144.288898,-38.15611],[144.288045,-38.147514],[144.283677,-38.145456],[144.269425,-38.146317],[144.263261,-38.140784],[144.265116,-38.131467],[144.261105,-38.130341],[144.268149,-38.092832],[144.271861,-38.091798],[144.274074,-38.088005],[144.27785,-38.089194],[144.280928,-38.083503],[144.283996,-38.083189],[144.28602,-38.079431],[144.276861,-38.068204],[144.272878,-38.065738],[144.270452,-38.067592],[144.259637,-38.065755],[144.25957,-38.059529],[144.262632,-38.055398],[144.263098,-38.050387],[144.26103,-38.0476],[144.260491,-38.040908],[144.258353,-38.035319],[144.251436,-38.031667],[144.249687,-38.025285],[144.251748,-38.020956],[144.247082,-38.018476],[144.244992,-38.011989],[144.240788,-38.007892],[144.242743,-38.004667],[144.243137,-37.998255],[144.246864,-37.997064],[144.247345,-37.987815],[144.240096,-37.981106],[144.24145,-37.973423],[144.239464,-37.968747],[144.235542,-37.96454],[144.236572,-37.956889],[144.23533,-37.95308],[144.235137,-37.944003],[144.236834,-37.942383],[144.20252,-37.938258],[144.206788,-37.91626],[144.208101,-37.912827],[144.212176,-37.910623],[144.213431,-37.901447],[144.217677,-37.898755],[144.223793,-37.897328],[144.228156,-37.890491],[144.233319,-37.885532],[144.244126,-37.871819],[144.236521,-37.869941],[144.232553,-37.860951],[144.23381,-37.848391],[144.232252,-37.845161],[144.231391,-37.83611],[144.228973,-37.832837],[144.218586,-37.830029],[144.210676,-37.824994],[144.211288,-37.822188],[144.217498,-37.81904],[144.222446,-37.810201],[144.218273,-37.807005],[144.17639,-37.802879],[144.134436,-37.798241],[144.125584,-37.797629],[144.122819,-37.798718],[144.122279,-37.803],[144.060212,-37.795771],[144.05459,-37.832295],[144.049687,-37.826215],[144.016009,-37.822609],[143.989329,-37.82274],[143.979287,-37.827626],[143.958062,-37.827451],[143.957664,-37.823824],[143.939214,-37.823657],[143.939207,-37.815386],[143.929743,-37.815342],[143.925542,-37.812976],[143.920192,-37.812106],[143.918605,-37.809731]]]},"bbox":[143.159401139689,-38.94720127094933,144.81018876598804,-37.795771]}]}