{"type":"FeatureCollection","features":[
{"properties":{"electorateShortName":"corangamite","electorateName":"Corangamite","area":5441.65,"state":"VIC"},"type":"Feature","geometry":{"type":"Polygon","coordinates":[[[143.287111,-38.757535],[143.356471,-38.753943],[143.429177,-38.783691],[143.510919,-38.85758],[143.554356,-38.855622],[143.616031,-38.795509],[143.666012,-38.779379],[143.681545,-38.737487],[143.837008,-38.692793],[143.971968,-38.566854],[143.979728,-38.532276],[144.036497,-38.475775],[144.104758,-38.469255],[144.318827,-38.34562],[144.332286,-38.323258],[144.428618,-38.281629],[144.499893,-38.29049],[144.538709,-38.271631],[144.613879,-38.292253],[144.666154,-38.210062],[144.71963,-38.173256],[144.692223,-38.119967],[144.631382,-38.107385],[144.557972,-38.154858],[144.40667,-38.154661],[144.380248,-38.193155],[144.320571,-38.195553],[144.261105,-38.130341],[144.268149,-38.092832],[144.236834,-37.942383],[144.213431,-37.901447],[144.244126,-37.871819],[144.222446,-37.810201],[144.060212,-37.795771],[144.049687,-37.826215],[143.939214,-37.823657],[143.918605,-37.809731],[143.934949,-37.891921],[143.862524,-37.883446],[143.838206,-37.976385],[143.745882,-37.972929],[143.729862,-38.057857],[143.768767,-38.122981],[143.757597,-38.229145],[143.689734,-38.279444],[143.67403,-38.374632],[143.639794,-38.462162],[143.557956,-38.477516],[143.502968,-38.471012],[143.494794,-38.512811],[143.344665,-38.499482],[143.344627,-38.545621],[143.277853,-38.567044],[143.291639,-38.612237],[143.247298,-38.688258],[143.252428,-38.742049],[143.287111,-38.757535]]]},"bbox":[143.247298,-38.85758,144.71963,-37.795771]}]}