{"type":"FeatureCollection","features":[
{"properties":{"electorateShortName":"corio","electorateName":"Corio","area":773.2,"state":"VIC"},"type":"Feature","geometry":{"type":"Polygon","coordinates":[[[144.40667,-38.154661],[144.3848,-38.143255],[144.368573,-38.146523],[144.355617,-38.137201],[144.360078,-38.115209],[144.367352,-38.104775],[144.381575,-38.097352],[144.383197,-38.084083],[144.397943,-38.073816],[144.41352,-38.084488],[144.443259,-38.086266],[144.458759,-38.077241],[144.470912,-38.083542],[144.478739,-38.076697],[144.49448,-38.085023],[144.510226,-38.087795],[144.512013,-38.059008],[144.515169,-38.046055],[144.534374,-38.042974],[144.550731,-38.036062],[144.558663,-38.037541],[144.567493,-38.022783],[144.591578,-38.004446],[144.577308,-38.001598],[144.566652,-37.986267],[144.554588,-37.984748],[144.541643,-37.971302],[144.523961,-37.973407],[144.517519,-37.981034],[144.495417,-37.973762],[144.493946,-37.96241],[144.477137,-37.945976],[144.474146,-37.934156],[144.479552,-37.895035],[144.453032,-37.867078],[144.444053,-37.864132],[144.421414,-37.846015],[144.420317,-37.820586],[144.416318,-37.809953],[144.399119,-37.815232],[144.361988,-37.81083],[144.354938,-37.843099],[144.330448,-37.846289],[144.30521,-37.83657],[144.296016,-37.819565],[144.222446,-37.810201],[144.210676,-37.824994],[144.228973,-37.832837],[144.23381,-37.848391],[144.232553,-37.860951],[144.244126,-37.871819],[144.223793,-37.897328],[144.213431,-37.901447],[144.206788,-37.91626],[144.20252,-37.938258],[144.236834,-37.942383],[144.235542,-37.96454],[144.240096,-37.981106],[144.247345,-37.987815],[144.240788,-38.007892],[144.251436,-38.031667],[144.258353,-38.035319],[144.262632,-38.055398],[144.259637,-38.065755],[144.276861,-38.068204],[144.28602,-38.079431],[144.268149,-38.092832],[144.261105,-38.130341],[144.269425,-38.146317],[144.283677,-38.145456],[144.293676,-38.156445],[144.290649,-38.171742],[144.320571,-38.195553],[144.350036,-38.189342],[144.358381,-38.184479],[144.36854,-38.192944],[144.380248,-38.193155],[144.395024,-38.214568],[144.40667,-38.154661]]]},"bbox":[144.20252,-38.214568,144.591578,-37.809953]}]}