{"type":"FeatureCollection","features":[
{"properties":{"electorateShortName":"cowan","electorateName":"Cowan","area":179.897853,"state":"WA"},"type":"Feature","geometry":{"type":"Polygon","coordinates":[[[115.965103,-31.861983],[115.967178,-31.856908],[115.966531,-31.839452],[115.962577,-31.829418],[115.963501,-31.81338],[115.962736,-31.795663],[115.88283,-31.795638],[115.883109,-31.732221],[115.880197,-31.724928],[115.883271,-31.720456],[115.850719,-31.720599],[115.850737,-31.723937],[115.837094,-31.72397],[115.829277,-31.729828],[115.829292,-31.733511],[115.803883,-31.733549],[115.805454,-31.730753],[115.805512,-31.716109],[115.804407,-31.710525],[115.78965,-31.712769],[115.780535,-31.716514],[115.773748,-31.717249],[115.774304,-31.723001],[115.792254,-31.742984],[115.787774,-31.751885],[115.795652,-31.762389],[115.799087,-31.770411],[115.796116,-31.776717],[115.808556,-31.783339],[115.816815,-31.799718],[115.807082,-31.803318],[115.810079,-31.809309],[115.811785,-31.820021],[115.799103,-31.821964],[115.783178,-31.817323],[115.785368,-31.825691],[115.792847,-31.836918],[115.796752,-31.845875],[115.814149,-31.845037],[115.827039,-31.842538],[115.838273,-31.84842],[115.868651,-31.848634],[115.877739,-31.850739],[115.87829,-31.867862],[115.885725,-31.868544],[115.915478,-31.866122],[115.917385,-31.871875],[115.933392,-31.871782],[115.933427,-31.887497],[115.955944,-31.887658],[115.955819,-31.869898],[115.952647,-31.860522],[115.965103,-31.861983]]]},"bbox":[115.773748,-31.887658,115.967178,-31.710525]}]}