{"type":"FeatureCollection","features":[
{"properties":{"electorateShortName":"cowper","electorateName":"Cowper","area":7296.13595,"state":"NSW"},"type":"Feature","geometry":{"type":"Polygon","coordinates":[[[152.915202,-31.492816],[152.932944,-31.476575],[152.938449,-31.472927],[152.934198,-31.46726],[152.935522,-31.460035],[152.931171,-31.452564],[152.933401,-31.447599],[152.926839,-31.443212],[152.923912,-31.430142],[152.919414,-31.428968],[152.914747,-31.42373],[152.914861,-31.410307],[152.917846,-31.398803],[152.926162,-31.380203],[152.944161,-31.351373],[152.962311,-31.32838],[152.971419,-31.320303],[152.973562,-31.311324],[152.968262,-31.311948],[152.964537,-31.30634],[152.965379,-31.291386],[152.968002,-31.284543],[152.966721,-31.27457],[152.970611,-31.261072],[152.968729,-31.25389],[152.962094,-31.249701],[152.960197,-31.242051],[152.961352,-31.228513],[152.966471,-31.212969],[152.974418,-31.197795],[152.982477,-31.192452],[152.975547,-31.179434],[152.97736,-31.171432],[152.989217,-31.146896],[153.006635,-31.123408],[153.042305,-31.085082],[153.04925,-31.079172],[153.055722,-31.078636],[153.053477,-31.070138],[153.05995,-31.059596],[153.064704,-31.056733],[153.064443,-31.047326],[153.054389,-31.053706],[153.048539,-31.050766],[153.042042,-31.043417],[153.037643,-31.027349],[153.037487,-31.015952],[153.039757,-30.999138],[153.047178,-30.977959],[153.05734,-30.958407],[153.079782,-30.930921],[153.089288,-30.923973],[153.086255,-30.918164],[153.086784,-30.913313],[153.081609,-30.905726],[153.084223,-30.897525],[153.076483,-30.889125],[153.076012,-30.878209],[153.06637,-30.875077],[153.069048,-30.881776],[153.060289,-30.886687],[153.051678,-30.886082],[153.044134,-30.882379],[153.037184,-30.882482],[153.028778,-30.872456],[153.022906,-30.873152],[153.015332,-30.863432],[153.010126,-30.853061],[153.004201,-30.834944],[153.000849,-30.80387],[153.001537,-30.796351],[152.997189,-30.784958],[152.998541,-30.762208],[153.000881,-30.758097],[153.001682,-30.748759],[152.991151,-30.741473],[152.988284,-30.727084],[152.990863,-30.701758],[152.997491,-30.678914],[153.012058,-30.651544],[153.019183,-30.649375],[153.016918,-30.643808],[153.010114,-30.615465],[153.011566,-30.600878],[153.014517,-30.595788],[153.012623,-30.579853],[153.019048,-30.560251],[153.022644,-30.553527],[153.02959,-30.546964],[153.026114,-30.542856],[153.025088,-30.533115],[153.028655,-30.521592],[153.033449,-30.492612],[153.04119,-30.474951],[153.06172,-30.446728],[153.076319,-30.43189],[153.072085,-30.425023],[153.075807,-30.410593],[153.081203,-30.399806],[153.090296,-30.387201],[153.100156,-30.376029],[153.104516,-30.376997],[153.10362,-30.366641],[153.109789,-30.35632],[153.106312,-30.354371],[153.113451,-30.340617],[153.124613,-30.326353],[153.136083,-30.315935],[153.14286,-30.312221],[153.148814,-30.313768],[153.152929,-30.309492],[153.148646,-30.304976],[153.140955,-30.301646],[153.139025,-30.296585],[153.140878,-30.284349],[153.147838,-30.277603],[153.142791,-30.274485],[153.138258,-30.262552],[153.143639,-30.248052],[153.1495,-30.240696],[153.147822,-30.234106],[153.128433,-30.233978],[153.120824,-30.236025],[153.111631,-30.232286],[153.09517,-30.239992],[153.088061,-30.249266],[153.086427,-30.256036],[153.082838,-30.257402],[153.086,-30.266165],[153.084741,-30.272736],[153.069036,-30.279087],[153.063319,-30.287125],[153.058655,-30.286735],[153.047405,-30.280003],[153.046471,-30.271946],[153.034252,-30.270049],[153.027458,-30.272981],[153.020376,-30.267484],[153.021702,-30.263862],[153.017729,-30.259232],[153.009672,-30.254251],[153.010696,-30.248775],[152.99494,-30.24676],[152.99908,-30.221404],[152.98726,-30.222288],[152.982412,-30.213909],[152.975682,-30.218734],[152.966118,-30.222588],[152.952152,-30.215507],[152.937008,-30.218641],[152.927924,-30.227114],[152.911059,-30.228489],[152.891758,-30.225911],[152.890097,-30.227469],[152.873489,-30.220503],[152.868435,-30.210215],[152.82954,-30.222078],[152.831375,-30.215633],[152.822002,-30.212613],[152.817555,-30.20687],[152.80927,-30.200639],[152.803453,-30.189567],[152.767521,-30.184706],[152.767936,-30.182442],[152.755184,-30.180789],[152.755151,-30.186547],[152.7506,-30.187883],[152.750763,-30.196616],[152.692987,-30.189015],[152.698602,-30.200212],[152.706547,-30.202967],[152.705889,-30.207145],[152.694852,-30.209951],[152.693396,-30.218782],[152.697823,-30.223335],[152.68596,-30.230282],[152.682015,-30.231104],[152.670631,-30.239541],[152.669445,-30.244978],[152.665166,-30.245788],[152.663602,-30.251438],[152.655376,-30.255316],[152.635409,-30.25166],[152.625973,-30.258376],[152.615696,-30.257952],[152.610902,-30.249251],[152.603012,-30.252486],[152.598015,-30.247926],[152.589764,-30.244985],[152.586725,-30.24099],[152.573454,-30.244055],[152.569803,-30.239287],[152.558213,-30.240646],[152.559647,-30.243719],[152.551689,-30.259172],[152.55721,-30.262152],[152.555282,-30.273888],[152.550971,-30.275647],[152.547091,-30.28865],[152.535396,-30.294983],[152.529328,-30.301111],[152.527107,-30.309438],[152.517572,-30.317073],[152.506245,-30.320598],[152.501693,-30.329694],[152.490477,-30.337341],[152.480573,-30.333043],[152.479941,-30.340735],[152.482101,-30.345338],[152.477936,-30.348232],[152.474912,-30.356637],[152.478,-30.37421],[152.477668,-30.389834],[152.484632,-30.390795],[152.478585,-30.396993],[152.465233,-30.395579],[152.460534,-30.398083],[152.44109,-30.398902],[152.430484,-30.406173],[152.428078,-30.418897],[152.425068,-30.423699],[152.419692,-30.426637],[152.41753,-30.436503],[152.411021,-30.437011],[152.401805,-30.435009],[152.396846,-30.442124],[152.39205,-30.442917],[152.389645,-30.453052],[152.395074,-30.468166],[152.392931,-30.4725],[152.394568,-30.479499],[152.403551,-30.48701],[152.408423,-30.489261],[152.400253,-30.500942],[152.392128,-30.500786],[152.385807,-30.505194],[152.382551,-30.519325],[152.386866,-30.521258],[152.386854,-30.528965],[152.376725,-30.535486],[152.376388,-30.540287],[152.363655,-30.546112],[152.361994,-30.555286],[152.352503,-30.556123],[152.348328,-30.563125],[152.335809,-30.567038],[152.335719,-30.57348],[152.330239,-30.579028],[152.329911,-30.584223],[152.317728,-30.593425],[152.311722,-30.600191],[152.316055,-30.602971],[152.317822,-30.611685],[152.321906,-30.615829],[152.333149,-30.620307],[152.331578,-30.628318],[152.333571,-30.63659],[152.337037,-30.640624],[152.343798,-30.639482],[152.349223,-30.643146],[152.350185,-30.647314],[152.355535,-30.64877],[152.369291,-30.658905],[152.364359,-30.663496],[152.357992,-30.678444],[152.358405,-30.684213],[152.369327,-30.698688],[152.365915,-30.702985],[152.369392,-30.711234],[152.371882,-30.721824],[152.371082,-30.728387],[152.37586,-30.731802],[152.375309,-30.745347],[152.36675,-30.751786],[152.365477,-30.758481],[152.361448,-30.757902],[152.351956,-30.769156],[152.354998,-30.77812],[152.348538,-30.779729],[152.343857,-30.791901],[152.333339,-30.789489],[152.315673,-30.793799],[152.31791,-30.800261],[152.310699,-30.804966],[152.298103,-30.823219],[152.291453,-30.823737],[152.286781,-30.829869],[152.288597,-30.832337],[152.28454,-30.841506],[152.28951,-30.844152],[152.299116,-30.868431],[152.295075,-30.872234],[152.290613,-30.882266],[152.289493,-30.900382],[152.294739,-30.910623],[152.291013,-30.924718],[152.296107,-30.930719],[152.293185,-30.936259],[152.285433,-30.943909],[152.284306,-30.949125],[152.290658,-30.961333],[152.29117,-30.975444],[152.288659,-30.980927],[152.284119,-30.979437],[152.282404,-30.985676],[152.269825,-30.999147],[152.275066,-31.008692],[152.285222,-31.010356],[152.307849,-31.025194],[152.315267,-31.02785],[152.324392,-31.024857],[152.326425,-31.030117],[152.334049,-31.035471],[152.340341,-31.036442],[152.344607,-31.042386],[152.34517,-31.050618],[152.331474,-31.05557],[152.331245,-31.057657],[152.340634,-31.06821],[152.334219,-31.075715],[152.337351,-31.080097],[152.334987,-31.096198],[152.338112,-31.106029],[152.34815,-31.109224],[152.349587,-31.117004],[152.359171,-31.128132],[152.368173,-31.136362],[152.36693,-31.140874],[152.371598,-31.149352],[152.36943,-31.156354],[152.380807,-31.161674],[152.385897,-31.166653],[152.394155,-31.166756],[152.405619,-31.163231],[152.412845,-31.165378],[152.420968,-31.160946],[152.424922,-31.162593],[152.431331,-31.158611],[152.443454,-31.160467],[152.449824,-31.159897],[152.455832,-31.155831],[152.470766,-31.166289],[152.48302,-31.164655],[152.49118,-31.168036],[152.505574,-31.163125],[152.513884,-31.167638],[152.525169,-31.164552],[152.539697,-31.162886],[152.541162,-31.152034],[152.547833,-31.148418],[152.555966,-31.148409],[152.560598,-31.141774],[152.561495,-31.129865],[152.567077,-31.128355],[152.574175,-31.131573],[152.578054,-31.127998],[152.588513,-31.128189],[152.597606,-31.123699],[152.614845,-31.136131],[152.619992,-31.134767],[152.631646,-31.138326],[152.637072,-31.143359],[152.64048,-31.14974],[152.650273,-31.154256],[152.657781,-31.149226],[152.662814,-31.151271],[152.66882,-31.149024],[152.671742,-31.153149],[152.679144,-31.148426],[152.681127,-31.140929],[152.693307,-31.141455],[152.698292,-31.150317],[152.706943,-31.151512],[152.704083,-31.165232],[152.709376,-31.163456],[152.705956,-31.180721],[152.717725,-31.182455],[152.719212,-31.174937],[152.72796,-31.176278],[152.726196,-31.185229],[152.740383,-31.187278],[152.739285,-31.192914],[152.751654,-31.194713],[152.748086,-31.213885],[152.746399,-31.21646],[152.726882,-31.213217],[152.724094,-31.206176],[152.712374,-31.208294],[152.705219,-31.207461],[152.698277,-31.213778],[152.697074,-31.220024],[152.691416,-31.219235],[152.689657,-31.228642],[152.679693,-31.227203],[152.674271,-31.253765],[152.680821,-31.259178],[152.69005,-31.262699],[152.692466,-31.266152],[152.692304,-31.274989],[152.6979,-31.276063],[152.700555,-31.28275],[152.706213,-31.288193],[152.706585,-31.292338],[152.711973,-31.301117],[152.719496,-31.305832],[152.726045,-31.313502],[152.732347,-31.31517],[152.735387,-31.319015],[152.732222,-31.325718],[152.747264,-31.323442],[152.745874,-31.328723],[152.734767,-31.333129],[152.736674,-31.340141],[152.744744,-31.342776],[152.744183,-31.345726],[152.757761,-31.347603],[152.759192,-31.34064],[152.769521,-31.340568],[152.785939,-31.343094],[152.788645,-31.348168],[152.788026,-31.354077],[152.793948,-31.355012],[152.804653,-31.382577],[152.824844,-31.413747],[152.825532,-31.417166],[152.822614,-31.429026],[152.823998,-31.446452],[152.820146,-31.464566],[152.814899,-31.476896],[152.84069,-31.476018],[152.843392,-31.479562],[152.867798,-31.48551],[152.874346,-31.488122],[152.909138,-31.492967],[152.915202,-31.492816]]]},"bbox":[152.269825,-31.492967,153.152929,-30.180789]}]}