{"type":"FeatureCollection","features":[
{"properties":{"electorateShortName":"cunningham","electorateName":"Cunningham","area":518.775526,"state":"NSW"},"type":"Feature","geometry":{"type":"Polygon","coordinates":[[[150.89778,-34.500723],[150.885949,-34.512485],[150.877995,-34.525865],[150.87465,-34.537108],[150.87474,-34.542994],[150.870405,-34.548696],[150.868387,-34.554754],[150.869874,-34.560796],[150.874975,-34.562027],[150.869083,-34.565824],[150.868446,-34.570207],[150.872651,-34.579571],[150.877301,-34.579955],[150.873518,-34.584325],[150.874428662653,-34.5873752652058],[150.88651894200703,-34.59001571287669],[150.9026090022349,-34.59059335516462],[150.91854452025672,-34.58829488303622],[150.9325445073641,-34.583618413205414],[150.93346018781884,-34.58352243892535],[150.9461700647795,-34.58318971782462],[150.9641303460205,-34.578954791397415],[150.9808494041804,-34.571145860718644],[150.9956244065799,-34.56009119617403],[151.00874023063344,-34.54551511719866],[151.01779175564846,-34.52983166125701],[151.02352056148212,-34.51265371961397],[151.0256947369539,-34.49467668269491],[151.02422626797937,-34.47662828957413],[151.0203116888482,-34.46315331458476],[151.02074146767072,-34.45060030131456],[151.0176458106505,-34.43253847002424],[151.01095580323707,-34.415478087767234],[151.00924746645913,-34.41285734584754],[151.01407064884208,-34.4040934726668],[151.01942609352108,-34.38702196553676],[151.0212987390251,-34.3692284177675],[151.0191586608625,-34.34990696285817],[151.02519132343778,-34.3388850844229],[151.03102085762404,-34.3310452954639],[151.04075602870589,-34.32017662854147],[151.0456642999386,-34.311742565563094],[151.05089057176764,-34.30473390918638],[151.0541082358919,-34.29807306590455],[151.06715537965104,-34.289140809042756],[151.07916052958626,-34.27751921554284],[151.08217854941387,-34.27325316977567],[151.0927799080416,-34.26634635520724],[151.09838911065665,-34.263905206807856],[151.11246912775817,-34.25426495284798],[151.11970310276072,-34.24696039567742],[151.1213629419242,-34.24555649081441],[151.133140854706,-34.233533475028345],[151.1416934153644,-34.221261617196824],[151.14990157517673,-34.20529888954513],[151.15477878195614,-34.188024763934315],[151.15613104175523,-34.170126329504924],[151.1539045675955,-34.152315507670906],[151.14818791887794,-34.13530073500045],[151.13920847887758,-34.11975878470884],[151.135818,-34.120275],[151.134632,-34.126268],[151.129156,-34.13072],[151.127882,-34.137919],[151.117982,-34.141441],[151.116347,-34.144542],[151.1023,-34.153714],[151.098355,-34.153725],[151.095677,-34.158109],[151.081098,-34.166807],[151.074588,-34.169293],[151.071986,-34.168583],[151.066158,-34.172329],[151.060313,-34.171458],[151.060833,-34.168514],[151.055163,-34.16772],[151.054478,-34.171526],[151.015917,-34.166444],[151.013982,-34.163035],[151.01874,-34.15589],[151.013652,-34.154531],[150.991098,-34.146037],[150.979838,-34.13847],[150.922732,-34.130009],[150.922458,-34.133936],[150.917943,-34.137899],[150.91947,-34.141238],[150.91871,-34.146877],[150.915083,-34.150649],[150.916568,-34.153225],[150.914114,-34.159257],[150.907085,-34.164498],[150.904029,-34.180881],[150.903908,-34.185063],[150.898911,-34.187371],[150.899306,-34.189606],[150.879449,-34.187138],[150.874078,-34.187863],[150.870599,-34.182473],[150.862476,-34.183178],[150.859442,-34.181408],[150.857477,-34.182493],[150.858638,-34.193599],[150.864127,-34.192991],[150.864676,-34.199541],[150.874471,-34.199772],[150.878853,-34.202859],[150.880375,-34.208383],[150.885075,-34.212096],[150.889819,-34.213375],[150.893582,-34.220879],[150.891466,-34.227428],[150.892079,-34.230081],[150.897192,-34.231486],[150.896399,-34.234309],[150.891911,-34.23611],[150.889033,-34.240975],[150.886336,-34.242763],[150.882626,-34.25154],[150.880814,-34.258531],[150.876359,-34.25966],[150.852796,-34.279952],[150.837176,-34.274533],[150.827281,-34.274914],[150.817033,-34.269794],[150.813978,-34.269334],[150.80519,-34.27134],[150.806647,-34.280748],[150.811371,-34.289812],[150.815836,-34.29591],[150.814347,-34.300539],[150.81676,-34.306375],[150.792833,-34.303348],[150.791745,-34.307086],[150.750861,-34.301926],[150.745677,-34.337416],[150.689634,-34.441706],[150.701766,-34.443988],[150.70928,-34.447213],[150.711898,-34.449777],[150.716918,-34.449473],[150.717595,-34.45478],[150.727989,-34.456861],[150.734918,-34.460658],[150.742902,-34.459684],[150.747162,-34.461249],[150.751164,-34.455918],[150.755197,-34.454579],[150.760032,-34.449966],[150.766458,-34.449297],[150.769382,-34.450523],[150.78477,-34.448065],[150.787005,-34.445053],[150.792239,-34.44283],[150.798363,-34.450307],[150.803249,-34.452755],[150.804622,-34.455215],[150.814883,-34.461801],[150.821838,-34.461237],[150.827272,-34.463363],[150.836525,-34.462168],[150.841049,-34.459939],[150.850837,-34.450786],[150.864942,-34.459168],[150.869677,-34.46506],[150.875174,-34.466114],[150.873296,-34.47953],[150.868532,-34.478977],[150.867474,-34.484564],[150.86532,-34.485839],[150.865901,-34.489973],[150.873632,-34.492705],[150.879164,-34.492975],[150.886605,-34.491595],[150.88733,-34.497918],[150.896243,-34.499058],[150.89778,-34.500723]]]},"bbox":[150.689634,-34.59059335516462,151.15613104175523,-34.11975878470884]}]}