{"type":"FeatureCollection","features":[
{"properties":{"electorateShortName":"cunningham","electorateName":"Cunningham","area":518.775526,"state":"NSW"},"type":"Feature","geometry":{"type":"Polygon","coordinates":[[[150.89778,-34.500723],[150.87465,-34.537108],[150.873518,-34.584325],[150.9026090022349,-34.59059335516462],[150.9325445073641,-34.583618413205414],[150.93346018781884,-34.58352243892535],[150.9461700647795,-34.58318971782462],[150.9641303460205,-34.578954791397415],[150.9808494041804,-34.571145860718644],[150.9956244065799,-34.56009119617403],[151.00874023063344,-34.54551511719866],[151.0256947369539,-34.49467668269491],[151.00924746645913,-34.41285734584754],[151.0191586608625,-34.34990696285817],[151.11246912775817,-34.25426495284798],[151.11970310276072,-34.24696039567742],[151.1213629419242,-34.24555649081441],[151.133140854706,-34.233533475028345],[151.14990157517673,-34.20529888954513],[151.15613104175523,-34.170126329504924],[151.1539045675955,-34.152315507670906],[151.14818791887794,-34.13530073500045],[151.135818,-34.120275],[151.095677,-34.158109],[151.066158,-34.172329],[150.922732,-34.130009],[150.899306,-34.189606],[150.859442,-34.181408],[150.880814,-34.258531],[150.745677,-34.337416],[150.689634,-34.441706],[150.747162,-34.461249],[150.850837,-34.450786],[150.89778,-34.500723]]]},"bbox":[150.689634,-34.59059335516462,151.15613104175523,-34.120275]}]}