{"type":"FeatureCollection","features":[
{"properties":{"electorateShortName":"cunningham","electorateName":"Cunningham","area":518.775526,"state":"NSW"},"type":"Feature","geometry":{"type":"Polygon","coordinates":[[[151.066158,-34.172329],[151.015917,-34.166444],[151.01874,-34.15589],[150.991098,-34.146037],[150.979838,-34.13847],[150.922732,-34.130009],[150.914114,-34.159257],[150.907085,-34.164498],[150.903908,-34.185063],[150.899306,-34.189606],[150.879449,-34.187138],[150.859442,-34.181408],[150.858638,-34.193599],[150.874471,-34.199772],[150.889819,-34.213375],[150.892079,-34.230081],[150.880814,-34.258531],[150.852796,-34.279952],[150.817033,-34.269794],[150.80519,-34.27134],[150.815836,-34.29591],[150.81676,-34.306375],[150.791745,-34.307086],[150.750861,-34.301926],[150.745677,-34.337416],[150.689634,-34.441706],[150.701766,-34.443988],[150.717595,-34.45478],[150.747162,-34.461249],[150.760032,-34.449966],[150.78477,-34.448065],[150.798363,-34.450307],[150.814883,-34.461801],[150.841049,-34.459939],[150.850837,-34.450786],[150.875174,-34.466114],[150.873296,-34.47953],[150.865901,-34.489973],[150.886605,-34.491595],[150.89778,-34.500723],[150.909228,-34.49304],[150.913669,-34.481025],[150.913644,-34.4648],[150.901876,-34.46205],[150.899948,-34.44525],[150.907179,-34.423381],[150.902211,-34.417201],[150.903812,-34.401143],[150.925308,-34.367648],[150.919416,-34.358597],[150.925568,-34.34013],[150.92639,-34.319425],[150.958781,-34.274473],[150.967967,-34.267245],[150.977149,-34.245157],[150.993284,-34.227982],[151.01083,-34.218945],[151.021278,-34.204055],[151.038634,-34.194912],[151.044957,-34.186403],[151.054813,-34.185158],[151.066158,-34.172329]]]},"bbox":[150.689634,-34.500723,151.066158,-34.130009]}]}