{"type":"FeatureCollection","features":[
{"properties":{"electorateShortName":"curtin","electorateName":"Curtin","area":97.821263,"state":"WA"},"type":"Feature","geometry":{"type":"Polygon","coordinates":[[[115.838086,-31.991159],[115.827252,-31.972849],[115.818139,-31.973694],[115.819685,-31.962606],[115.843977,-31.941431],[115.824917,-31.920735],[115.823045,-31.914195],[115.820995,-31.902355],[115.804969,-31.894477],[115.800677,-31.882535],[115.771636,-31.885199],[115.771567,-31.893977],[115.754493,-31.894212],[115.750917,-31.876067],[115.75223,-31.867142],[115.751007,-31.8462],[115.748519,-31.835121],[115.736905,-31.820449],[115.72801607544761,-31.806937120710536],[115.70531754371028,-31.818834453617157],[115.69145449669888,-31.82997690755393],[115.68005336280572,-31.84362800634208],[115.6715594032541,-31.859254618364805],[115.66630434213882,-31.87624646007923],[115.66449341123443,-31.893939930101613],[115.66427759746459,-31.96533022594568],[115.66145673023718,-31.980801251044827],[115.65999786507543,-31.996550395349477],[115.6611965626483,-32.010855672835554],[115.66092796473369,-32.01840137430625],[115.6619663845159,-32.03560190515806],[115.66626394407857,-32.05228925243178],[115.67366309988748,-32.067851677388816],[115.68389260749818,-32.08171867963411],[115.69657746506168,-32.0933819109969],[115.71125266045607,-32.102413810983315],[115.72053330478528,-32.105906502839815],[115.72448645102487,-32.108087476887405],[115.74058985159151,-32.113346291310656],[115.76201173424427,-32.11547171796007],[115.762165,-32.106388],[115.758589,-32.095537],[115.750337,-32.082988],[115.75073,-32.071679],[115.738303,-32.062867],[115.740672,-32.056798],[115.724328,-32.05389],[115.735008,-32.041053],[115.741786,-32.03951],[115.749752,-32.026033],[115.750871,-32.021603],[115.760353,-32.025543],[115.775886,-32.026464],[115.786641,-32.007172],[115.817888,-32.014201],[115.82296,-32.001451],[115.838086,-31.991159]]]},"bbox":[115.65999786507543,-32.11547171796007,115.843977,-31.806937120710536]}]}