{"type":"FeatureCollection","features":[
{"properties":{"electorateShortName":"dobell","electorateName":"Dobell","area":787.16958,"state":"NSW"},"type":"Feature","geometry":{"type":"Polygon","coordinates":[[[151.202438,-33.138989],[151.208787,-33.152269],[151.20214,-33.16857],[151.208732,-33.175856],[151.199234,-33.199734],[151.204118,-33.211376],[151.22353,-33.219062],[151.216628,-33.23361],[151.216733,-33.248361],[151.228891,-33.249994],[151.226105,-33.264112],[151.239042,-33.271337],[151.236333,-33.285381],[151.251492,-33.289008],[151.250464,-33.294355],[151.266561,-33.296632],[151.263872,-33.310595],[151.281261,-33.313005],[151.279948,-33.319933],[151.296322,-33.322193],[151.302527,-33.328444],[151.295728,-33.351467],[151.302593,-33.36238],[151.325034,-33.366797],[151.329939,-33.364503],[151.376638,-33.371292],[151.371765,-33.38088],[151.354362,-33.383311],[151.343542,-33.395501],[151.348346,-33.404232],[151.34508,-33.412419],[151.363073,-33.414984],[151.390708,-33.422519],[151.39507,-33.427578],[151.414406,-33.427199],[151.438677,-33.422679],[151.449605,-33.429352],[151.443595,-33.442565],[151.444331,-33.456617],[151.435561,-33.466388],[151.442572,-33.481745],[151.433105,-33.491149],[151.418963,-33.510806],[151.4209938190887,-33.51697943091398],[151.4601040670826,-33.51873751107644],[151.47931084444267,-33.514308240535634],[151.49709277278077,-33.505804020485535],[151.5336697041643,-33.47694752325219],[151.5453597034156,-33.46535216496753],[151.54821720635044,-33.462691189437166],[151.55897145928367,-33.44989952790057],[151.5720160946759,-33.42164923351796],[151.58126337800513,-33.40940054599001],[151.59198923021634,-33.381687328300956],[151.61404216120613,-33.37138898663794],[151.63073367815997,-33.359459439007374],[151.64316693174442,-33.34663843220527],[151.6573461955336,-33.32656423412875],[151.66475226928097,-33.309628374082884],[151.66854220505175,-33.2915366723747],[151.66855613620393,-33.27305227111938],[151.66479347509525,-33.25495487723999],[151.6539148457686,-33.232860230033445],[151.6496657183257,-33.21656722747074],[151.64245608805368,-33.2013508465648],[151.63253830715806,-33.187743692614],[151.628207,-33.185604],[151.622218,-33.195364],[151.62012,-33.198056],[151.61208,-33.202133],[151.599754,-33.210699],[151.573884,-33.233899],[151.565085,-33.247326],[151.549461,-33.240454],[151.538012,-33.245949],[151.527986,-33.244476],[151.508896,-33.216175],[151.5227,-33.199574],[151.51218,-33.194307],[151.490526,-33.186818],[151.464382,-33.193886],[151.455115,-33.202843],[151.443243,-33.20103],[151.438643,-33.195382],[151.418526,-33.19214],[151.398625,-33.185747],[151.400568,-33.175853],[151.397477,-33.165259],[151.383068,-33.139816],[151.378995,-33.099827],[151.363189,-33.093981],[151.353888,-33.079317],[151.332755,-33.069027],[151.331453,-33.062237],[151.315283,-33.048252],[151.30355,-33.043733],[151.296928,-33.054257],[151.267284,-33.063614],[151.259958,-33.100407],[151.248783,-33.100083],[151.241181,-33.107747],[151.221096,-33.120536],[151.202438,-33.138989]]]},"bbox":[151.199234,-33.51873751107644,151.66855613620393,-33.043733]}]}