{"type":"FeatureCollection","features":[
{"properties":{"electorateShortName":"eden-monaro","electorateName":"Eden-Monaro","area":41617.11144,"state":"NSW"},"type":"Feature","geometry":{"type":"Polygon","coordinates":[[[150.134459,-36.066015],[150.014268,-36.035793],[149.966665,-36.010489],[149.855705,-35.809015],[149.817232,-35.753041],[149.856847,-35.719476],[149.934096,-35.61165],[149.929853,-35.565592],[149.964045,-35.500787],[149.998742,-35.478744],[150.007436,-35.430683],[150.038056,-35.406213],[150.053093,-35.309068],[150.16437,-35.269778],[150.204361,-35.177503],[150.141643,-35.14446],[150.129401,-35.09779],[150.071681,-35.049501],[150.05191,-35.007276],[149.980741,-35.095146],[150.018646,-35.107978],[149.931118,-35.235045],[149.798404,-35.207386],[149.73154,-35.182711],[149.660656,-35.137933],[149.559783,-35.115521],[149.538247,-35.068569],[149.551228,-34.97557],[149.526448,-34.907917],[149.447813,-34.927857],[149.280448,-34.911674],[149.279035,-34.89052],[149.120476,-34.888003],[149.075955,-34.852642],[148.990355,-34.706223],[148.94143,-34.690136],[148.949465,-34.646075],[148.90471,-34.63903],[148.847302,-34.568959],[148.782707,-34.572021],[148.653642,-34.542419],[148.658767,-34.614207],[148.586709,-34.627441],[148.563403,-34.805531],[148.522239,-34.901612],[148.543287,-34.952692],[148.531103,-34.98869],[148.572175,-35.01861],[148.567022,-35.094995],[148.469226,-35.080143],[148.456831,-35.154524],[148.333559,-35.138318],[148.215651,-35.110415],[148.221527,-35.166189],[148.119788,-35.202562],[147.964299,-35.187705],[147.958622,-35.229068],[147.900025,-35.230347],[147.846795,-35.328457],[147.88534,-35.358071],[147.89795,-35.412611],[147.883819,-35.488498],[147.92309,-35.542743],[147.845391,-35.554599],[147.89396,-35.62422],[147.833648,-35.641585],[147.801382,-35.678068],[147.819173,-35.747238],[147.803961,-35.795358],[147.760588,-35.839756],[147.714259,-35.838507],[147.690258,-35.93753],[147.913997,-35.997954],[147.924591,-36.042748],[147.997571,-36.047766],[147.99078,-36.120669],[148.021889,-36.176971],[148.038261,-36.365556],[148.087713,-36.451949],[148.124717,-36.46484],[148.139815,-36.525603],[148.124448,-36.55098],[148.217443,-36.598853],[148.185114,-36.692217],[148.134466,-36.743739],[148.10882,-36.797001],[148.194946,-36.796253],[148.680015,-36.992665],[149.199775,-37.201189],[149.976679,-37.50506],[149.97541,-37.44545],[149.951181,-37.366104],[149.972162,-37.328523],[149.942936,-37.282524],[150.021247,-37.218864],[150.004599,-37.14645],[149.938309,-37.09858],[149.872514,-37.083208],[149.939397,-37.038901],[149.908606,-36.939094],[149.929592,-36.894714],[149.940621,-36.811683],[149.967162,-36.78743],[149.999881,-36.665002],[150.058028,-36.579313],[150.055037,-36.495297],[150.082699,-36.422783],[150.068941,-36.393006],[150.136439,-36.305905],[150.147542,-36.237994],[150.124678,-36.137445],[150.134459,-36.066015]],[[149.200699,-35.205565],[149.271628,-35.270805],[149.383697,-35.306471],[149.336346,-35.339884],[149.249308,-35.330127],[149.206345,-35.345905],[149.147175,-35.414151],[149.150948,-35.48986],[149.132384,-35.549458],[149.140486,-35.588292],[149.078148,-35.586417],[149.109483,-35.69664],[149.090716,-35.7656],[149.101088,-35.805063],[149.048811,-35.92041],[148.958406,-35.891788],[148.912654,-35.85546],[148.889403,-35.722723],[148.834726,-35.740511],[148.788417,-35.69774],[148.798519,-35.666869],[148.768473,-35.603186],[148.762675,-35.495505],[148.785764,-35.408748],[148.808702,-35.382373],[148.810041,-35.307412],[148.961731,-35.218467],[149.120902,-35.124517],[149.164312,-35.142046],[149.200699,-35.205565]]]},"bbox":[147.690258,-37.50506,150.204361,-34.542419]}]}