{"type":"FeatureCollection","features":[
{"properties":{"electorateShortName":"fadden","electorateName":"Fadden","area":387.399781,"state":"QLD"},"type":"Feature","geometry":{"type":"Polygon","coordinates":[[[153.433728,-27.933812],[153.429548,-27.935752],[153.429127,-27.938144],[153.431074,-27.998905],[153.437734,-28.040372],[153.43873752495418,-28.044009128271497],[153.4498399823792,-28.040432476488412],[153.4666118529861,-28.030655559200742],[153.48089690252354,-28.017509414708247],[153.48901690252356,-28.008229414708246],[153.49543003567553,-27.999274040688757],[153.5065500364649,-27.986698208080263],[153.5152974742911,-27.971843840132635],[153.52105232029083,-27.955594173577094],[153.52360344272333,-27.938545370393832],[153.5228572469172,-27.921322911003084],[153.51884110903848,-27.904558646862178],[153.51561295206733,-27.897463120343087],[153.5158436186194,-27.88872498252043],[153.52399168811462,-27.82635892978995],[153.52991627656823,-27.792716183385206],[153.53380406883758,-27.778657883290002],[153.53620997516416,-27.767009256408475],[153.53705697516415,-27.760890256408477],[153.5373722843691,-27.753628947854995],[153.53935279677717,-27.731867619872933],[153.53750429801417,-27.714180177629498],[153.53221399196912,-27.697201507989583],[153.52368843737503,-27.681594539044436],[153.5122605124699,-27.667968641160087],[153.49837641784575,-27.656855834257268],[153.4825782546532,-27.648690015221007],[153.46455107176305,-27.64371416736409],[153.458708,-27.67062],[153.45353,-27.705997],[153.453997,-27.728758],[153.449354,-27.732333],[153.440311,-27.734314],[153.429763,-27.740013],[153.424549,-27.741407],[153.418063,-27.741407],[153.409576,-27.738194],[153.40566,-27.733184],[153.404739,-27.723613],[153.401383,-27.717705],[153.390257,-27.706368],[153.385366,-27.709591],[153.369561,-27.706579],[153.36534,-27.704792],[153.361964,-27.699439],[153.358758,-27.690982],[153.352995,-27.690266],[153.345937,-27.692482],[153.339458,-27.696813],[153.331717,-27.695313],[153.325374,-27.69712],[153.322851,-27.703258],[153.317702,-27.706327],[153.308392,-27.709089],[153.302084,-27.708646],[153.298606,-27.707077],[153.293286,-27.698245],[153.291991,-27.691917],[153.286842,-27.693992],[153.278047,-27.695801],[153.273455,-27.697999],[153.266232,-27.692749],[153.258991,-27.692863],[153.256511,-27.691889],[153.252434,-27.697457],[153.243282,-27.698319],[153.241001,-27.695874],[153.234435,-27.693883],[153.233885,-27.699392],[153.236213,-27.703083],[153.232104,-27.707035],[153.233843,-27.709884],[153.226476,-27.715363],[153.213937,-27.714128],[153.215195,-27.718094],[153.219525,-27.718138],[153.23077,-27.72165],[153.232778,-27.723554],[153.229712,-27.726847],[153.225733,-27.723336],[153.220885,-27.726323],[153.228968,-27.736844],[153.239354,-27.756074],[153.247923,-27.764123],[153.251229,-27.771308],[153.252497,-27.779661],[153.259489,-27.792444],[153.260768,-27.797249],[153.264911,-27.804939],[153.267887,-27.808414],[153.275427,-27.813812],[153.292549,-27.82223],[153.299156,-27.827599],[153.301934,-27.833014],[153.304588,-27.843485],[153.309612,-27.859037],[153.312451,-27.865686],[153.314623,-27.876927],[153.30932,-27.878443],[153.303868,-27.882581],[153.296,-27.885739],[153.293599,-27.892247],[153.288121,-27.893837],[153.285617,-27.896617],[153.290355,-27.900424],[153.293562,-27.896964],[153.296054,-27.900279],[153.292184,-27.903982],[153.296566,-27.90058],[153.300634,-27.903096],[153.29307,-27.914009],[153.307078,-27.91605],[153.307838,-27.920322],[153.306788,-27.92438],[153.300777,-27.926659],[153.303641,-27.931879],[153.304698,-27.940473],[153.298491,-27.948964],[153.299348,-27.953586],[153.317956,-27.956341],[153.320853,-27.953834],[153.324225,-27.955069],[153.32178,-27.96819],[153.336927,-27.970413],[153.335924,-27.975739],[153.344164,-27.9768],[153.346874,-27.972733],[153.347026,-27.960762],[153.370792,-27.964291],[153.376538,-27.964772],[153.377562,-27.960846],[153.383803,-27.954014],[153.413165,-27.958244],[153.421285,-27.948964],[153.421281,-27.940901],[153.424358,-27.936692],[153.433728,-27.933812]]]},"bbox":[153.213937,-28.044009128271497,153.53935279677717,-27.64371416736409]}]}