{"type":"FeatureCollection","features":[
{"properties":{"electorateShortName":"fenner","electorateName":"Fenner","area":238.212122,"state":"ACT"},"type":"Feature","geometry":{"type":"MultiPolygon","coordinates":[[[[149.033922,-35.265958],[149.02762,-35.258563],[149.026108,-35.253528],[149.027563,-35.245358],[149.030149,-35.239596],[149.041859,-35.241307],[149.04812,-35.243333],[149.057919,-35.243969],[149.068285,-35.248317],[149.075773,-35.250452],[149.075676,-35.246637],[149.07339,-35.241107],[149.076883,-35.238064],[149.080283,-35.231015],[149.074179,-35.225857],[149.076722,-35.224591],[149.080157,-35.219719],[149.086463,-35.214146],[149.091307,-35.202603],[149.095138,-35.201506],[149.100533,-35.205342],[149.107773,-35.20902],[149.119028,-35.219613],[149.12512,-35.231391],[149.135675,-35.22835],[149.142117,-35.225562],[149.151283,-35.230968],[149.158113,-35.22677],[149.173557,-35.222126],[149.179534,-35.219513],[149.195544,-35.206559],[149.200699,-35.205565],[149.198518,-35.202903],[149.19239,-35.202536],[149.190287,-35.194353],[149.196388,-35.190942],[149.197037,-35.185499],[149.191465,-35.179295],[149.185822,-35.177832],[149.183629,-35.175618],[149.187779,-35.169529],[149.189097,-35.165677],[149.185495,-35.161201],[149.17941,-35.158805],[149.171901,-35.158642],[149.16979,-35.160326],[149.162773,-35.154332],[149.164679,-35.15085],[149.163195,-35.146968],[149.164312,-35.142046],[149.159195,-35.141708],[149.157444,-35.144129],[149.150061,-35.14547],[149.149637,-35.138669],[149.145875,-35.13615],[149.1386,-35.135257],[149.139966,-35.130832],[149.136822,-35.127813],[149.131698,-35.12906],[149.126449,-35.125322],[149.120902,-35.124517],[149.112652,-35.127711],[149.109725,-35.131145],[149.104328,-35.132328],[149.102863,-35.135229],[149.093322,-35.138657],[149.091017,-35.142339],[149.00082,-35.195652],[148.961731,-35.218467],[148.967251,-35.227354],[148.968677,-35.231135],[148.976254,-35.238837],[148.974483,-35.240724],[148.96807,-35.241726],[148.962525,-35.243979],[148.963887,-35.24718],[148.968735,-35.248642],[148.972791,-35.253794],[148.977272,-35.255386],[148.979653,-35.25937],[148.987715,-35.262346],[148.994524,-35.262659],[148.996516,-35.257991],[149.002417,-35.261831],[149.00516,-35.270187],[149.007625,-35.272079],[149.016765,-35.271791],[149.018645,-35.274176],[149.018413,-35.279818],[149.023894,-35.276838],[149.033922,-35.265958]]],[[[150.701604,-35.122862],[150.700489,-35.12304],[150.661053,-35.117824],[150.66032,-35.125394],[150.657174,-35.12937],[150.651688,-35.131917],[150.647523,-35.136904],[150.643638,-35.139545],[150.637259,-35.146881],[150.633428,-35.14925],[150.627903,-35.149976],[150.617393,-35.147626],[150.615435,-35.14856],[150.607504,-35.143847],[150.602853,-35.146252],[150.59343,-35.146914],[150.596246,-35.15218],[150.602606,-35.153179],[150.604696,-35.1579],[150.600744,-35.165708],[150.601698,-35.168886],[150.591249,-35.172472],[150.592547,-35.184281],[150.593971,-35.185018],[150.593331,-35.191714],[150.587021,-35.188398],[150.572751,-35.193035],[150.563802,-35.198375],[150.553604,-35.208717],[150.546422,-35.211162],[150.539507,-35.216614],[150.540554,-35.219998],[150.535522,-35.223386],[150.530686,-35.231685],[150.531884,-35.233926],[150.531116,-35.241207],[150.533043,-35.243838],[150.541494,-35.245711],[150.544311,-35.249386],[150.53406429707059,-35.252689869732436],[150.54774284820093,-35.262336031750465],[150.55783169139048,-35.26744342310006],[150.57510496828473,-35.273018413904246],[150.5931455723799,-35.27501421474953],[150.61121974861544,-35.27334965158199],[150.6285923764706,-35.26809242621698],[150.6331708912447,-35.26561565823347],[150.63791567709697,-35.26974400555528],[150.6524586286991,-35.27970124018871],[150.66866330963563,-35.28663321527467],[150.68590825246176,-35.29027408189822],[150.70353209453816,-35.29048420879564],[150.72085894202002,-35.287255537367905],[150.73722429113377,-35.280711890736875],[150.7573101551213,-35.26786381628704],[150.77516767539598,-35.26179598728625],[150.78850468573427,-35.25420861295388],[150.79236987033678,-35.25289706889812],[150.80703598624854,-35.244604499027744],[150.81989954598674,-35.233723759078025],[150.8305097505931,-35.2206361607803],[150.83908086045076,-35.206111326817535],[150.84561985897454,-35.1914483257318],[150.84944952770863,-35.175856797906675],[150.84955629240272,-35.17414338924785],[150.85132457111789,-35.16777302900864],[150.85171534378281,-35.16189151440761],[150.85756284024345,-35.14867302686731],[150.86201552240138,-35.13039810342723],[150.8625725030615,-35.11159680087436],[150.85920945391328,-35.093090339690036],[150.85787445391327,-35.08852433969004],[150.85050043630793,-35.0706821720078],[150.84082179780663,-35.056740409642686],[150.840569,-35.060413],[150.837841,-35.065623],[150.830542,-35.076373],[150.825606,-35.075916],[150.81794,-35.084963],[150.81542,-35.084619],[150.81003,-35.088097],[150.806169,-35.094352],[150.802449,-35.093793],[150.799512,-35.09063],[150.80028,-35.083846],[150.798925,-35.080325],[150.795292,-35.081627],[150.793643,-35.076603],[150.788776,-35.07739],[150.786259,-35.072542],[150.781235,-35.072909],[150.78158,-35.077331],[150.773462,-35.079261],[150.773507,-35.065335],[150.777649,-35.055046],[150.779248,-35.053844],[150.781407,-35.045887],[150.786657,-35.039934],[150.787111,-35.036227],[150.785012,-35.030788],[150.775304,-35.026707],[150.77508,-35.023644],[150.77154029148033,-35.022392989699185],[150.75401793598186,-35.023477040839886],[150.7370393990051,-35.02794217143372],[150.72413949943498,-35.03421398378803],[150.71064504372185,-35.03245421520529],[150.69994868273295,-35.03222192537069],[150.67590251492655,-35.029014541470154],[150.67113,-35.037153],[150.677648,-35.042719],[150.676243,-35.047757],[150.677356,-35.050677],[150.674287,-35.061513],[150.676828,-35.069026],[150.683136,-35.069582],[150.688889,-35.072156],[150.697125,-35.070219],[150.693619,-35.076419],[150.691608,-35.083161],[150.694448,-35.092163],[150.693393,-35.100379],[150.695,-35.111113],[150.697787,-35.118526],[150.701604,-35.122862]]]]},"bbox":[148.961731,-35.29048420879564,150.8625725030615,-35.022392989699185]}]}