{"type":"FeatureCollection","features":[
{"properties":{"electorateShortName":"flinders","electorateName":"Flinders","area":871.11,"state":"VIC"},"type":"Feature","geometry":{"type":"Polygon","coordinates":[[[145.061238,-38.201436],[145.044952,-38.213405],[145.03542,-38.21494],[145.026596,-38.22784],[145.027091,-38.250279],[145.01537,-38.264741],[144.99344,-38.282909],[144.982967,-38.296183],[144.994453,-38.305305],[144.982454,-38.321918],[144.957725,-38.33552],[144.923174,-38.349256],[144.906167,-38.352948],[144.859627,-38.367048],[144.840625,-38.370088],[144.814373,-38.368488],[144.774547,-38.35947],[144.763457,-38.348283],[144.745722,-38.34008],[144.739005,-38.32461],[144.71559,-38.318813],[144.681755,-38.305611],[144.666925,-38.308117],[144.669801,-38.316606],[144.724921,-38.346633],[144.752367,-38.363947],[144.78146,-38.387644],[144.838867,-38.430572],[144.869378,-38.457159],[144.886653,-38.477217],[144.883815,-38.490979],[144.911152,-38.489253],[144.924398,-38.497396],[144.948813,-38.488548],[144.967303,-38.486717],[144.976631,-38.490335],[145.010999,-38.479662],[145.026691,-38.483221],[145.026758,-38.470363],[145.032913,-38.455295],[145.050185,-38.430022],[145.067717,-38.424818],[145.096999,-38.402275],[145.111835,-38.400917],[145.129935,-38.390452],[145.175813,-38.396709],[145.208608,-38.406178],[145.33591,-38.424042],[145.368225,-38.424275],[145.377008,-38.40987],[145.392378,-38.396471],[145.390367,-38.385129],[145.406087,-38.372763],[145.426461,-38.371668],[145.458997,-38.366097],[145.476252,-38.366455],[145.502613,-38.353033],[145.492215,-38.343217],[145.472552,-38.332312],[145.459541,-38.311585],[145.450964,-38.306422],[145.425553,-38.308227],[145.41086,-38.304493],[145.384973,-38.312838],[145.372237,-38.314154],[145.347542,-38.310217],[145.33036,-38.292367],[145.300092,-38.282306],[145.259036,-38.2438],[145.25422,-38.22361],[145.229938,-38.220597],[145.215447,-38.208729],[145.215767,-38.200652],[145.182029,-38.199097],[145.159062,-38.181571],[145.152387,-38.194479],[145.128944,-38.199996],[145.093616,-38.216765],[145.077657,-38.21925],[145.063324,-38.215133],[145.061238,-38.201436]]]},"bbox":[144.666925,-38.497396,145.502613,-38.181571]}]}