{"type":"FeatureCollection","features":[
{"properties":{"electorateShortName":"forrest","electorateName":"Forrest","area":11071.808585,"state":"WA"},"type":"Feature","geometry":{"type":"Polygon","coordinates":[[[115.65846,-32.933052],[115.652847,-32.895228],[115.63663091390545,-32.846009250018504],[115.62269782824707,-32.850462248386904],[115.60710659924659,-32.85914105202165],[115.59353405375406,-32.870725268142245],[115.58251372359686,-32.88475952542583],[115.5744788139457,-32.90069214232241],[115.56974517417694,-32.91789681345601],[115.56849888194839,-32.93569722946116],[115.57078892855431,-32.95339366245819],[115.58497196703756,-33.01452151681808],[115.59867172104434,-33.12535364615739],[115.59554515098952,-33.14222385673518],[115.59314305903082,-33.17597008028684],[115.59284104688544,-33.22888128617655],[115.57447839936205,-33.24290065447048],[115.56317083600953,-33.25563383352676],[115.55446417420538,-33.27026902666106],[115.53788184057932,-33.31144365017185],[115.5160837418042,-33.37394606417708],[115.50171813348545,-33.39760524320356],[115.48671476333432,-33.411796029603614],[115.42202491935005,-33.484176077945335],[115.39716947285602,-33.508646190169614],[115.37625854607678,-33.533018473091325],[115.35970940634627,-33.54537071690837],[115.34383456066267,-33.5521140457834],[115.31803039394968,-33.5578385956858],[115.29851834034665,-33.56414998845286],[115.25980376184926,-33.566616621799845],[115.23025097328804,-33.56352644595317],[115.18357016065418,-33.54807177918526],[115.1793245496534,-33.539237264403674],[115.15739618179079,-33.50998375604362],[115.14447283388925,-33.4975462073298],[115.1232728408997,-33.48415746681168],[115.10072824051906,-33.466554648249634],[115.0670650384168,-33.45104056608517],[115.05093842206193,-33.44584382655556],[115.01791444838062,-33.44073574735396],[114.99093697397068,-33.44116008606437],[114.97358859831947,-33.44556244011574],[114.95745443224763,-33.453310700829995],[114.94317256580737,-33.46409843228345],[114.9313078324621,-33.47749899053954],[114.92232947049074,-33.49298239698775],[114.91605027224617,-33.510730648693695],[114.91364847742668,-33.52760534732192],[114.91458385286344,-33.57260283288756],[114.91838860574894,-33.589314891569195],[114.92647223011132,-33.60699779547783],[114.91971265342505,-33.614813564253026],[114.9083394242325,-33.63826783875444],[114.89267665285895,-33.661861106078206],[114.88723292063327,-33.67848091937746],[114.88510621748063,-33.69583976577772],[114.88614326881284,-33.71724962908832],[114.89038083032541,-33.73348003095408],[114.89939589202085,-33.754533347352194],[114.90061084230587,-33.783863281212035],[114.90736091035107,-33.80617430485028],[114.89135713823238,-33.83345764014912],[114.88710244830955,-33.849826379275946],[114.88598526167156,-33.86670209854825],[114.88804502990351,-33.883488860051656],[114.89594597633487,-33.90598904571278],[114.89730185909823,-33.92671427137921],[114.89015062654059,-33.954428110566866],[114.89053723013669,-33.97230121664599],[114.89406696878372,-33.99168326812786],[114.9088691563441,-34.03232882632977],[114.90741407675634,-34.066365323912635],[114.90163640858515,-34.08862916959666],[114.90140238252444,-34.10587580641715],[114.90446270964901,-34.122850365254],[114.91092966001996,-34.140556884391586],[114.931895068848,-34.17090532437871],[114.93353258990844,-34.179048780166454],[114.92365784311933,-34.2066961215719],[114.92218067745442,-34.22415253513459],[114.92411331414549,-34.24156440775915],[114.92938252573317,-34.25827200489691],[114.94581624968905,-34.29800113754681],[114.96480549322449,-34.327909626462976],[114.9777053057015,-34.34060148896928],[115.0001859702134,-34.35332590361069],[115.01285194261919,-34.36472292220837],[115.02762999222347,-34.38440017180419],[115.04411846888917,-34.39759071990452],[115.05399196739859,-34.418195952369615],[115.06331518748578,-34.4322414353992],[115.07509418771791,-34.44430183256765],[115.08891568801862,-34.453953990656196],[115.10429474479454,-34.460859252346495],[115.13091184843147,-34.467533416627646],[115.14989614260917,-34.4848032115149],[115.16397374515599,-34.49419240633986],[115.17956002861091,-34.50078055031139],[115.19610401617412,-34.50433475183009],[115.21302087610232,-34.504729369489255],[115.22971259557393,-34.5019504535121],[115.24558912050679,-34.4960962388779],[115.26008921403353,-34.48737367270487],[115.27270029628532,-34.47609109864725],[115.28354456414549,-34.46173835691389],[115.29164242582037,-34.445236607858874],[115.29621869370162,-34.427433774998356],[115.29561178789378,-34.399817380398694],[115.32408737258744,-34.40384284836003],[115.35222661235167,-34.41194153592007],[115.37852745796091,-34.42331340264786],[115.40335430463344,-34.43677215946687],[115.42302613592621,-34.4523305537413],[115.4422359011112,-34.46395294519341],[115.46573026174363,-34.47256548884991],[115.47800184345773,-34.48749955988875],[115.4913441568898,-34.498242041825364],[115.50648011950831,-34.5062620718433],[115.52881943901684,-34.51248512856729],[115.55560282187484,-34.513376012273504],[115.563528404772,-34.518026340118034],[115.61462137348933,-34.552243821501634],[115.62529427586348,-34.56076679131716],[115.64047991534032,-34.56873146899696],[115.65690052478526,-34.57367144089172],[115.67396001633648,-34.57540738008343],[115.69103910994382,-34.573876269892686],[115.72224892178866,-34.56563214596689],[115.74964387423319,-34.55107238702915],[115.74301,-34.538714],[115.701197,-34.508108],[115.6745,-34.485409],[115.700229,-34.476076],[115.706352,-34.470403],[115.725032,-34.462281],[115.765957,-34.458837],[115.776347,-34.449106],[115.794817,-34.437662],[115.812508,-34.414233],[115.822517,-34.406498],[115.806183,-34.395946],[115.798908,-34.380089],[115.789617,-34.374896],[115.781048,-34.353419],[115.792726,-34.352766],[115.793891,-34.333806],[115.810538,-34.333626],[115.82804,-34.328557],[115.835095,-34.317733],[115.835332,-34.309432],[115.845214,-34.299607],[115.867095,-34.304529],[115.875992,-34.297061],[115.878101,-34.213177],[115.890337,-34.213176],[115.890364,-34.204958],[115.905907,-34.190161],[115.908996,-34.166358],[115.916638,-34.161638],[115.94434,-34.161975],[115.944332,-34.135065],[115.951098,-34.126871],[115.959089,-34.133751],[115.970733,-34.129028],[115.981098,-34.130571],[115.989832,-34.138025],[116.003346,-34.134023],[116.009664,-34.126597],[116.011008,-34.085878],[115.979766,-34.085652],[115.979705,-33.997664],[115.94579,-33.997633],[115.945825,-33.963984],[115.96343,-33.963991],[115.963433,-33.957606],[115.977911,-33.957611],[115.977908,-33.943831],[115.99427,-33.943835],[115.991607,-33.933419],[115.982654,-33.934178],[115.975176,-33.922523],[115.970375,-33.906736],[115.977317,-33.902756],[115.998259,-33.902746],[116.001915,-33.895048],[116.002361,-33.810196],[116.000066,-33.801311],[116.082889,-33.801176],[116.099942,-33.790287],[116.100255,-33.780593],[116.196244,-33.780762],[116.196134,-33.771123],[116.217957,-33.771099],[116.218444,-33.735072],[116.228172,-33.735012],[116.228256,-33.7213],[116.239769,-33.706536],[116.227273,-33.701445],[116.215802,-33.701428],[116.215449,-33.669785],[116.201104,-33.66985],[116.201082,-33.657791],[116.206029,-33.64628],[116.195226,-33.634724],[116.203767,-33.627897],[116.206502,-33.617459],[116.20644,-33.596373],[116.196959,-33.592518],[116.196836,-33.513495],[116.132841,-33.513338],[116.132815,-33.486809],[116.06419,-33.484954],[116.064179,-33.440355],[116.02365,-33.440481],[116.023288,-33.360891],[116.057862,-33.360737],[116.051351,-33.35411],[116.021678,-33.349233],[116.008885,-33.358027],[116.00192,-33.367287],[116.008142,-33.379813],[116.01705,-33.385356],[116.009144,-33.395639],[116.015946,-33.401613],[116.00576,-33.407106],[115.994471,-33.407057],[115.967919,-33.401831],[115.962219,-33.395551],[115.938541,-33.388184],[115.936992,-33.378078],[115.919199,-33.378625],[115.918585,-33.290001],[115.946984,-33.289856],[115.945799,-33.222402],[115.960875,-33.222474],[115.973637,-33.214018],[115.990137,-33.212604],[116.013467,-33.203762],[116.01023,-33.19134],[116.030244,-33.191046],[116.0312,-33.21296],[116.008534,-33.231938],[116.145003,-33.23187],[116.14673,-33.22421],[116.146899,-33.084885],[116.209065,-33.085053],[116.208891,-33.030373],[116.208859,-32.984207],[116.199648,-32.967078],[116.18691,-32.966605],[116.182181,-32.952331],[116.184546,-32.943157],[116.165926,-32.942464],[116.163983,-32.933621],[116.136581,-32.934869],[116.021619,-32.935821],[116.021626,-32.940167],[116.000324,-32.939882],[115.993463,-32.933332],[115.956378,-32.93294],[115.94005,-32.941049],[115.924421,-32.938124],[115.874544,-32.93805],[115.868036,-32.942221],[115.852993,-32.931366],[115.838658,-32.935687],[115.835832,-32.928779],[115.812876,-32.925917],[115.813082,-32.93651],[115.780777,-32.936556],[115.780796,-32.930025],[115.763787,-32.929977],[115.763772,-32.921983],[115.719171,-32.921106],[115.708281,-32.929315],[115.687064,-32.933073],[115.65846,-32.933052]]]},"bbox":[114.88510621748063,-34.57540738008343,116.239769,-32.846009250018504]}]}