{"type":"FeatureCollection","features":[
{"properties":{"electorateShortName":"forrest","electorateName":"Forrest","area":11071.808585,"state":"WA"},"type":"Feature","geometry":{"type":"Polygon","coordinates":[[[115.65846,-32.933052],[115.652847,-32.895228],[115.63663091390545,-32.846009250018504],[115.62269782824707,-32.850462248386904],[115.60710659924659,-32.85914105202165],[115.59353405375406,-32.870725268142245],[115.58251372359686,-32.88475952542583],[115.5744788139457,-32.90069214232241],[115.56974517417694,-32.91789681345601],[115.56849888194839,-32.93569722946116],[115.57078892855431,-32.95339366245819],[115.58497196703756,-33.01452151681808],[115.59867172104434,-33.12535364615739],[115.59554515098952,-33.14222385673518],[115.59342915098952,-33.16869585673518],[115.59314305903082,-33.17597008028684],[115.59319689687557,-33.22297618589305],[115.59284104688544,-33.22888128617655],[115.58911551192332,-33.23136447990927],[115.58785648001347,-33.232621827024275],[115.57447839936205,-33.24290065447048],[115.56317083600953,-33.25563383352676],[115.55446417420538,-33.27026902666106],[115.54867012839132,-33.28628226714994],[115.54862441117278,-33.2865698040485],[115.54065952991705,-33.30443739329622],[115.53788184057932,-33.31144365017185],[115.5160837418042,-33.37394606417708],[115.51215669109664,-33.381539116999036],[115.51016921022506,-33.38384354047391],[115.50306292980764,-33.39508313259909],[115.50171813348545,-33.39760524320356],[115.49479680827406,-33.403779621103055],[115.49229305350148,-33.407000054995954],[115.48671476333432,-33.411796029603614],[115.47793527926963,-33.42198857217822],[115.47252769876066,-33.42930868047298],[115.46902730966842,-33.432440997837844],[115.46194946007917,-33.439521860537525],[115.42202491935005,-33.484176077945335],[115.39716947285602,-33.508646190169614],[115.39123306588554,-33.515088910651926],[115.37625854607678,-33.533018473091325],[115.37111845344222,-33.53779074065492],[115.35970940634627,-33.54537071690837],[115.35182310554188,-33.54932898860094],[115.34383456066267,-33.5521140457834],[115.33725914343837,-33.55301119442118],[115.31803039394968,-33.5578385956858],[115.3049043719282,-33.56272439277158],[115.29851834034665,-33.56414998845286],[115.28019260622666,-33.564493838468834],[115.27005947792665,-33.56525775781321],[115.25980376184926,-33.566616621799845],[115.24820404683844,-33.5661044388052],[115.24477460444729,-33.564999664404034],[115.23025097328804,-33.56352644595317],[115.22051809961353,-33.559636276694754],[115.20920961431719,-33.55596220916643],[115.19638031336441,-33.55271324490349],[115.18357016065418,-33.54807177918526],[115.1793245496534,-33.539237264403674],[115.168357505689,-33.5248032187047],[115.1665444844261,-33.52321535848914],[115.15739618179079,-33.50998375604362],[115.14447283388925,-33.4975462073298],[115.14009315689478,-33.49475979241399],[115.13549147965,-33.490875532166626],[115.1232728408997,-33.48415746681168],[115.11949447058717,-33.47990978835687],[115.10474324051906,-33.46894464824964],[115.10072824051906,-33.466554648249634],[115.08294317626174,-33.45843868320979],[115.0790941392481,-33.45761641459774],[115.0670650384168,-33.45104056608517],[115.05093842206193,-33.44584382655556],[115.03604148032449,-33.44399915687888],[115.01791444838062,-33.44073574735396],[115.00881344838062,-33.44027774735396],[114.99093697397068,-33.44116008606437],[114.97358859831947,-33.44556244011574],[114.95745443224763,-33.453310700829995],[114.94317256580737,-33.46409843228345],[114.9313078324621,-33.47749899053954],[114.92232947049074,-33.49298239698775],[114.92159047049074,-33.49461139698775],[114.91605027224617,-33.510730648693695],[114.91364847742668,-33.52760534732192],[114.91447123161389,-33.54463024519816],[114.91523741848825,-33.547789062115065],[114.91401629517298,-33.55547254018236],[114.91458385286344,-33.57260283288756],[114.91838860574894,-33.589314891569195],[114.92529256387392,-33.60500260689383],[114.92647223011132,-33.60699779547783],[114.91971265342505,-33.614813564253026],[114.9109391771815,-33.63032634854327],[114.9083394242325,-33.63826783875444],[114.90123186123841,-33.64660788267359],[114.89267665285895,-33.661861106078206],[114.88723292063327,-33.67848091937746],[114.88510621748063,-33.69583976577772],[114.88499121748063,-33.70051476577772],[114.88614326881284,-33.71724962908832],[114.89038083032541,-33.73348003095408],[114.89481542724684,-33.74285003551332],[114.89713120957101,-33.74995168913715],[114.89939589202085,-33.754533347352194],[114.89879549725858,-33.767467925609665],[114.8999320277311,-33.77445319632716],[114.90061084230587,-33.783863281212035],[114.90560385539769,-33.801494261713344],[114.90742519556368,-33.80499335690591],[114.90736091035107,-33.80617430485028],[114.89859908415293,-33.81817391592283],[114.89135713823238,-33.83345764014912],[114.88710244830955,-33.849826379275946],[114.88598526167156,-33.86670209854825],[114.88804502990351,-33.883488860051656],[114.89320901572145,-33.89959386726723],[114.89594597633487,-33.90598904571278],[114.89622782057283,-33.907915102006065],[114.8956893124232,-33.913507250062565],[114.89730185909823,-33.92671427137921],[114.89330434810056,-33.93683119539465],[114.89015062654059,-33.954428110566866],[114.89053723013669,-33.97230121664599],[114.89232550295993,-33.980499118098365],[114.89406696878372,-33.99168326812786],[114.89990352502343,-34.00787391660709],[114.90045121205165,-34.00879277870091],[114.90181690129486,-34.01276291378029],[114.90212449114244,-34.01469400481593],[114.90864671310939,-34.03188537563965],[114.9088691563441,-34.03232882632977],[114.90889165757281,-34.05173633816903],[114.90858668387904,-34.05282850638921],[114.90741407675634,-34.066365323912635],[114.9051561923934,-34.07174389874427],[114.90163640858515,-34.08862916959666],[114.90140238252444,-34.10587580641715],[114.90446270964901,-34.122850365254],[114.90509526635569,-34.12479490078015],[114.91092966001996,-34.140556884391586],[114.91959294857936,-34.15495923517655],[114.92555481095215,-34.16164056098578],[114.931895068848,-34.17090532437871],[114.93202423536556,-34.173080439980694],[114.93353258990844,-34.179048780166454],[114.93103339772105,-34.183399564764656],[114.92958203155115,-34.18772744764048],[114.9284888414439,-34.18985658927253],[114.92365784311933,-34.2066961215719],[114.92218067745442,-34.22415253513459],[114.92411331414549,-34.24156440775915],[114.92938252573317,-34.25827200489691],[114.93583273473172,-34.270065944673675],[114.93822042146421,-34.28104085707035],[114.94581624968905,-34.29800113754681],[114.94804424968905,-34.30185213754682],[114.95303906475303,-34.30884755744832],[114.95470552606461,-34.312893661652474],[114.96480549322449,-34.327909626462976],[114.9777053057015,-34.34060148896928],[114.99288341526102,-34.35045610849619],[115.0001859702134,-34.35332590361069],[115.00433220714066,-34.35736256523631],[115.01285194261919,-34.36472292220837],[115.01466865723488,-34.36773091215489],[115.02762999222347,-34.38440017180419],[115.04411846888917,-34.39759071990452],[115.04473168957924,-34.3979727512456],[115.0472871032651,-34.401889346298454],[115.047451643598,-34.40265818576974],[115.05399196739859,-34.418195952369615],[115.06331518748578,-34.4322414353992],[115.07509418771791,-34.44430183256765],[115.08891568801862,-34.453953990656196],[115.10429474479454,-34.460859252346495],[115.12069176575156,-34.46477533841094],[115.12449474342458,-34.46531375762919],[115.12814617571668,-34.466926145356986],[115.13091184843147,-34.467533416627646],[115.13731144474083,-34.47413124602267],[115.14183618262527,-34.47719289469719],[115.14781014260916,-34.4831082115149],[115.14989614260917,-34.4848032115149],[115.16397374515599,-34.49419240633986],[115.17956002861091,-34.50078055031139],[115.19610401617412,-34.50433475183009],[115.21302087610232,-34.504729369489255],[115.22971259557393,-34.5019504535121],[115.24558912050679,-34.4960962388779],[115.26008921403353,-34.48737367270487],[115.27270029628532,-34.47609109864725],[115.28297656414549,-34.46264735691389],[115.28354456414549,-34.46173835691389],[115.29164242582037,-34.445236607858874],[115.29621869370162,-34.427433774998356],[115.29708247352849,-34.409072485011244],[115.29561178789378,-34.399817380398694],[115.30084415273143,-34.400250951815075],[115.32408737258744,-34.40384284836003],[115.35222661235167,-34.41194153592007],[115.37852745796091,-34.42331340264786],[115.40335430463344,-34.43677215946687],[115.42302613592621,-34.4523305537413],[115.4422359011112,-34.46395294519341],[115.44922690111122,-34.46706694519341],[115.46573026174363,-34.47256548884991],[115.46693649750883,-34.47442376679966],[115.47800184345773,-34.48749955988875],[115.4913441568898,-34.498242041825364],[115.50648011950831,-34.5062620718433],[115.52286143901684,-34.51126912856729],[115.52881943901684,-34.51248512856729],[115.54797714356359,-34.51429552228331],[115.55560282187484,-34.513376012273504],[115.563528404772,-34.518026340118034],[115.61462137348933,-34.552243821501634],[115.62529427586348,-34.56076679131716],[115.64047991534032,-34.56873146899696],[115.65690052478526,-34.57367144089172],[115.67396001633648,-34.57540738008343],[115.69103910994382,-34.573876269892686],[115.69795309641867,-34.571886421475575],[115.69906974230983,-34.57179091780177],[115.70807648376132,-34.569080731440806],[115.71416574840275,-34.56789356124996],[115.72224892178866,-34.56563214596689],[115.73425555902087,-34.56071292549397],[115.74268979429897,-34.55596253389488],[115.74964387423319,-34.55107238702915],[115.75326526220023,-34.54987426240948],[115.7564082949135,-34.549958655669194],[115.74301,-34.538714],[115.701197,-34.508108],[115.6745,-34.485409],[115.675505,-34.484459],[115.676809,-34.481816],[115.678167,-34.481033],[115.680892,-34.481026],[115.682671,-34.482409],[115.685266,-34.482855],[115.688057,-34.481478],[115.689609,-34.480212],[115.692224,-34.480424],[115.694615,-34.479865],[115.695035,-34.47902],[115.697806,-34.477211],[115.700229,-34.476076],[115.702879,-34.472891],[115.704646,-34.472163],[115.706352,-34.470403],[115.70958,-34.469485],[115.713698,-34.468652],[115.714836,-34.467488],[115.717299,-34.466623],[115.721198,-34.465872],[115.723338,-34.464296],[115.725032,-34.462281],[115.726941,-34.462016],[115.728713,-34.462458],[115.731692,-34.462241],[115.732588,-34.461269],[115.735441,-34.461542],[115.736853,-34.460796],[115.740738,-34.460876],[115.744107,-34.460362],[115.745787,-34.460442],[115.746596,-34.458523],[115.748331,-34.458488],[115.749991,-34.457868],[115.751923,-34.458578],[115.753333,-34.459702],[115.755566,-34.458895],[115.757485,-34.459946],[115.759544,-34.459919],[115.760306,-34.458756],[115.761805,-34.459295],[115.765957,-34.458837],[115.766892,-34.458132],[115.767071,-34.457085],[115.768726,-34.456135],[115.771462,-34.456216],[115.774316,-34.454111],[115.77582,-34.451327],[115.776347,-34.449106],[115.774083,-34.444048],[115.774832,-34.442713],[115.775806,-34.442278],[115.779676,-34.444603],[115.781274,-34.445278],[115.783664,-34.444437],[115.785882,-34.442425],[115.789253,-34.44184],[115.792784,-34.439866],[115.794817,-34.437662],[115.796422,-34.434013],[115.798717,-34.433067],[115.800621,-34.429946],[115.802123,-34.428141],[115.803442,-34.427158],[115.804419,-34.425819],[115.806063,-34.420622],[115.807617,-34.420249],[115.808654,-34.419174],[115.809391,-34.417598],[115.811977,-34.415364],[115.812508,-34.414233],[115.814145,-34.414479],[115.814782,-34.413905],[115.81751,-34.414342],[115.819784,-34.413916],[115.821993,-34.415019],[115.825179,-34.415008],[115.825178,-34.413946],[115.826624,-34.411412],[115.82851,-34.41037],[115.829066,-34.408982],[115.830152,-34.407689],[115.828998,-34.406159],[115.826288,-34.405308],[115.822517,-34.406498],[115.820257,-34.40571],[115.81956,-34.404618],[115.817738,-34.404014],[115.81636,-34.40244],[115.812198,-34.400795],[115.811042,-34.400709],[115.808991,-34.399045],[115.806183,-34.395946],[115.805033,-34.394001],[115.803961,-34.391313],[115.802905,-34.390365],[115.801346,-34.387475],[115.801804,-34.384812],[115.800911,-34.38262],[115.798908,-34.380089],[115.797318,-34.37961],[115.794193,-34.377439],[115.789617,-34.374896],[115.789067,-34.37223],[115.78814,-34.37084],[115.786392,-34.369372],[115.785686,-34.363049],[115.782699,-34.360205],[115.781393,-34.358163],[115.780779,-34.354494],[115.781048,-34.353419],[115.785793,-34.352791],[115.792726,-34.352766],[115.792701,-34.347038],[115.787118,-34.34706],[115.787101,-34.342713],[115.794124,-34.342579],[115.793891,-34.333806],[115.798339,-34.333802],[115.798332,-34.329492],[115.801199,-34.330801],[115.80375,-34.329627],[115.805589,-34.3329],[115.80577,-34.33501],[115.807095,-34.335116],[115.809726,-34.334681],[115.810538,-34.333626],[115.81275,-34.334415],[115.815015,-34.334609],[115.816717,-34.335908],[115.818774,-34.336953],[115.821737,-34.336491],[115.822668,-34.335701],[115.820067,-34.331851],[115.821235,-34.330403],[115.822987,-34.330764],[115.82489,-34.329109],[115.823873,-34.328489],[115.824026,-34.327602],[115.82804,-34.328557],[115.828535,-34.32742],[115.828245,-34.325865],[115.82863,-34.324659],[115.830896,-34.324827],[115.830315,-34.323409],[115.830837,-34.321515],[115.833148,-34.320453],[115.833736,-34.321208],[115.836618,-34.31985],[115.837053,-34.318637],[115.835095,-34.317733],[115.834683,-34.316716],[115.835158,-34.31508],[115.83454,-34.314366],[115.83522,-34.313265],[115.834991,-34.3119],[115.835678,-34.310913],[115.835332,-34.309432],[115.836703,-34.308427],[115.837772,-34.306308],[115.838312,-34.302507],[115.841334,-34.302957],[115.842533,-34.302598],[115.844047,-34.301078],[115.842429,-34.298982],[115.845214,-34.299607],[115.850317,-34.3],[115.851302,-34.299565],[115.85243,-34.300105],[115.853633,-34.301603],[115.85575,-34.303397],[115.857187,-34.303585],[115.858864,-34.302335],[115.862601,-34.3032],[115.864936,-34.304063],[115.867095,-34.304529],[115.868046,-34.303217],[115.870091,-34.302599],[115.869615,-34.300064],[115.87,-34.29951],[115.872291,-34.299828],[115.873741,-34.298422],[115.875992,-34.297061],[115.876924,-34.295436],[115.876984,-34.294313],[115.875602,-34.292772],[115.875115,-34.291588],[115.876563,-34.291101],[115.877001,-34.251312],[115.877037,-34.242244],[115.876113,-34.237624],[115.876151,-34.222238],[115.878081,-34.22224],[115.878101,-34.213177],[115.890337,-34.213176],[115.890364,-34.204958],[115.897383,-34.195761],[115.897399,-34.190147],[115.905907,-34.190161],[115.905956,-34.182326],[115.90899,-34.171797],[115.908996,-34.166358],[115.916615,-34.16636],[115.916638,-34.161638],[115.94434,-34.161975],[115.944332,-34.135065],[115.940905,-34.132127],[115.942246,-34.131543],[115.942403,-34.130703],[115.941205,-34.130006],[115.941753,-34.129084],[115.943009,-34.130024],[115.942987,-34.130819],[115.945345,-34.130788],[115.945919,-34.129656],[115.947097,-34.129703],[115.948497,-34.128962],[115.951098,-34.126871],[115.959089,-34.133751],[115.963268,-34.130357],[115.964948,-34.130991],[115.970733,-34.129028],[115.976725,-34.134128],[115.981098,-34.130571],[115.989832,-34.138025],[116.003346,-34.134023],[116.006438,-34.134023],[116.006438,-34.135833],[116.010775,-34.135833],[116.010766,-34.128007],[116.009664,-34.126597],[116.009629,-34.124962],[116.009806,-34.100912],[116.011008,-34.085878],[116.001514,-34.085775],[115.979766,-34.085652],[115.979748,-34.029326],[115.979705,-33.997664],[115.94579,-33.997633],[115.945736,-33.976774],[115.945817,-33.97635],[115.945825,-33.963984],[115.96343,-33.963991],[115.963433,-33.957606],[115.977911,-33.957611],[115.977908,-33.943831],[115.99427,-33.943835],[115.994272,-33.935859],[115.994559,-33.934867],[115.993686,-33.933805],[115.991607,-33.933419],[115.989838,-33.934397],[115.987185,-33.935066],[115.984687,-33.934873],[115.982654,-33.934178],[115.981875,-33.932492],[115.978543,-33.930885],[115.977239,-33.929264],[115.977395,-33.927874],[115.97606,-33.924298],[115.975176,-33.922523],[115.971809,-33.919976],[115.969741,-33.919501],[115.967957,-33.91685],[115.976237,-33.916853],[115.972271,-33.913285],[115.971519,-33.909889],[115.970555,-33.908113],[115.970375,-33.906736],[115.977311,-33.906735],[115.977317,-33.902756],[115.998259,-33.902746],[115.998301,-33.895035],[116.001915,-33.895048],[116.001862,-33.878194],[116.003064,-33.878191],[116.003045,-33.866582],[116.001848,-33.866583],[116.001871,-33.846363],[116.005141,-33.846365],[116.005142,-33.840014],[116.002555,-33.840013],[116.002389,-33.835418],[116.002361,-33.810196],[115.999287,-33.807208],[115.99781,-33.804942],[116.000116,-33.804907],[116.000066,-33.801311],[116.010583,-33.801206],[116.010587,-33.801487],[116.021445,-33.801385],[116.021451,-33.801835],[116.027,-33.80157],[116.038584,-33.802559],[116.038684,-33.803021],[116.044274,-33.803021],[116.044209,-33.801274],[116.048597,-33.801181],[116.067879,-33.801246],[116.082889,-33.801176],[116.0812,-33.798927],[116.092407,-33.796476],[116.092767,-33.79354],[116.093817,-33.791135],[116.093856,-33.790285],[116.099942,-33.790287],[116.100255,-33.780593],[116.17886,-33.78079],[116.196244,-33.780762],[116.196134,-33.771123],[116.217957,-33.771099],[116.218444,-33.735072],[116.228172,-33.735012],[116.228256,-33.7213],[116.231507,-33.721299],[116.231509,-33.71839],[116.233681,-33.71839],[116.23369,-33.711126],[116.239114,-33.711124],[116.239117,-33.707506],[116.239769,-33.706536],[116.235337,-33.705706],[116.233816,-33.704287],[116.230526,-33.703074],[116.227272,-33.703077],[116.227273,-33.701445],[116.215802,-33.701428],[116.215754,-33.694244],[116.215472,-33.684659],[116.215449,-33.669785],[116.201104,-33.66985],[116.201082,-33.657791],[116.205341,-33.657798],[116.205359,-33.649145],[116.206024,-33.648721],[116.206029,-33.64628],[116.20199,-33.646254],[116.201988,-33.644689],[116.202648,-33.644353],[116.201153,-33.642303],[116.201149,-33.638705],[116.198151,-33.638722],[116.195226,-33.634724],[116.203767,-33.627897],[116.203763,-33.617444],[116.206502,-33.617459],[116.20644,-33.596373],[116.20312,-33.595637],[116.200527,-33.593327],[116.198699,-33.59259],[116.196959,-33.592518],[116.196804,-33.572976],[116.196836,-33.513495],[116.132841,-33.513338],[116.132774,-33.498986],[116.132815,-33.486809],[116.105765,-33.486937],[116.105767,-33.485362],[116.099607,-33.485301],[116.065252,-33.485406],[116.06419,-33.484954],[116.064179,-33.440355],[116.02365,-33.440481],[116.023632,-33.411882],[116.023288,-33.360891],[116.057862,-33.360737],[116.057968,-33.347713],[116.056759,-33.347871],[116.055713,-33.346809],[116.054367,-33.346482],[116.053155,-33.347057],[116.053628,-33.349532],[116.054457,-33.350844],[116.052912,-33.351345],[116.05285,-33.352828],[116.051351,-33.35411],[116.046979,-33.354219],[116.044786,-33.353882],[116.043987,-33.352462],[116.042367,-33.35216],[116.04099,-33.35279],[116.040042,-33.351248],[116.035971,-33.350233],[116.03373,-33.347763],[116.032573,-33.347164],[116.030419,-33.347692],[116.029407,-33.348859],[116.026672,-33.349064],[116.024763,-33.34858],[116.023676,-33.347546],[116.023012,-33.349073],[116.021678,-33.349233],[116.019528,-33.351325],[116.019186,-33.352473],[116.015994,-33.354414],[116.015998,-33.356029],[116.014139,-33.356091],[116.012789,-33.355626],[116.010314,-33.355794],[116.008825,-33.355442],[116.008885,-33.358027],[116.007642,-33.35949],[116.007179,-33.36087],[116.00467,-33.362756],[116.001143,-33.362866],[116.000546,-33.364077],[116.00116,-33.365055],[116.001125,-33.366458],[116.00192,-33.367287],[116.004612,-33.366909],[116.005531,-33.367391],[116.004482,-33.368713],[116.00536,-33.369904],[116.00389,-33.372138],[116.005361,-33.37273],[116.008433,-33.372833],[116.00711,-33.375164],[116.008557,-33.377354],[116.007893,-33.378741],[116.008142,-33.379813],[116.009554,-33.381446],[116.011964,-33.380343],[116.011997,-33.381547],[116.013146,-33.383833],[116.013975,-33.384541],[116.015942,-33.384412],[116.01705,-33.385356],[116.01506,-33.386963],[116.014771,-33.388176],[116.011669,-33.390093],[116.012055,-33.391002],[116.015245,-33.391792],[116.013264,-33.393719],[116.013064,-33.395118],[116.011509,-33.393675],[116.010481,-33.393765],[116.009144,-33.395639],[116.009431,-33.396815],[116.011313,-33.398856],[116.012797,-33.399231],[116.019283,-33.400188],[116.02048,-33.400768],[116.020702,-33.401816],[116.020072,-33.40325],[116.017927,-33.402029],[116.015946,-33.401613],[116.012676,-33.402671],[116.010764,-33.403002],[116.011361,-33.404099],[116.010429,-33.40513],[116.007215,-33.403836],[116.005384,-33.405349],[116.00576,-33.407106],[116.009032,-33.408717],[116.008499,-33.411809],[116.001501,-33.411599],[116.00076,-33.41062],[116.001378,-33.408942],[116.000404,-33.408121],[115.996924,-33.408259],[115.995192,-33.409688],[115.994473,-33.409489],[115.994471,-33.407057],[115.993638,-33.405974],[115.993244,-33.403383],[115.991545,-33.402683],[115.991256,-33.401727],[115.992256,-33.400777],[115.992641,-33.399199],[115.99144,-33.399298],[115.989861,-33.400219],[115.986439,-33.400817],[115.986309,-33.403316],[115.986684,-33.404038],[115.986089,-33.405912],[115.98434,-33.406457],[115.984287,-33.407425],[115.985116,-33.408313],[115.983764,-33.41016],[115.982138,-33.410346],[115.98263,-33.408844],[115.982376,-33.407493],[115.98119,-33.406388],[115.982213,-33.404583],[115.979818,-33.404312],[115.978553,-33.402666],[115.979806,-33.401648],[115.977002,-33.401754],[115.973897,-33.400853],[115.971722,-33.402303],[115.970745,-33.402449],[115.969405,-33.401432],[115.967919,-33.401831],[115.965138,-33.399595],[115.964644,-33.397392],[115.962888,-33.396434],[115.962219,-33.395551],[115.959806,-33.395976],[115.957713,-33.395467],[115.957255,-33.394631],[115.955101,-33.392755],[115.953706,-33.392404],[115.951304,-33.393007],[115.949863,-33.392648],[115.949289,-33.390858],[115.94832,-33.390396],[115.941796,-33.388768],[115.94009,-33.389122],[115.938541,-33.388184],[115.938326,-33.387177],[115.938936,-33.385445],[115.938986,-33.382852],[115.93825,-33.380334],[115.938241,-33.379188],[115.936992,-33.378078],[115.934113,-33.378776],[115.933221,-33.378018],[115.929656,-33.379633],[115.926513,-33.379496],[115.924491,-33.380113],[115.922982,-33.37996],[115.921032,-33.378478],[115.919199,-33.378625],[115.918995,-33.348946],[115.927861,-33.348947],[115.92786,-33.34168],[115.924286,-33.34168],[115.924287,-33.339066],[115.918926,-33.339065],[115.918585,-33.290001],[115.946984,-33.289856],[115.946644,-33.274437],[115.946134,-33.244475],[115.945799,-33.222402],[115.946249,-33.221867],[115.948324,-33.221402],[115.950074,-33.220378],[115.953496,-33.221605],[115.954999,-33.222989],[115.957364,-33.221942],[115.960875,-33.222474],[115.963364,-33.221532],[115.96543,-33.220213],[115.966007,-33.218834],[115.96885,-33.216693],[115.971001,-33.217645],[115.972109,-33.217081],[115.973081,-33.215678],[115.973637,-33.214018],[115.977291,-33.21292],[115.980398,-33.212595],[115.983043,-33.209988],[115.984448,-33.210287],[115.986587,-33.209622],[115.987284,-33.209878],[115.987909,-33.21144],[115.990137,-33.212604],[115.992781,-33.212593],[115.995781,-33.210707],[115.997626,-33.210095],[116.000169,-33.21002],[116.001499,-33.21029],[116.002818,-33.20935],[116.002718,-33.207705],[116.003331,-33.206986],[116.005151,-33.20697],[116.008934,-33.204541],[116.012755,-33.204095],[116.013467,-33.203762],[116.013728,-33.201322],[116.01253,-33.198936],[116.011686,-33.198163],[116.011659,-33.195905],[116.01023,-33.19134],[116.010508,-33.189285],[116.012568,-33.187579],[116.012535,-33.185326],[116.013329,-33.183498],[116.015398,-33.182926],[116.017572,-33.183656],[116.019387,-33.184653],[116.018648,-33.185898],[116.019156,-33.186875],[116.021223,-33.188837],[116.023164,-33.18972],[116.025733,-33.190388],[116.030244,-33.191046],[116.03061,-33.191679],[116.030714,-33.194738],[116.030696,-33.208216],[116.0312,-33.20819],[116.0312,-33.21296],[116.008534,-33.231938],[116.077671,-33.231903],[116.145003,-33.23187],[116.144632,-33.23106],[116.144398,-33.227452],[116.142295,-33.22422],[116.14673,-33.22421],[116.146782,-33.181302],[116.146839,-33.134747],[116.146899,-33.084885],[116.209065,-33.085053],[116.208891,-33.030373],[116.208804,-32.998786],[116.208859,-32.984207],[116.20653,-32.982531],[116.206566,-32.982066],[116.204396,-32.979896],[116.204687,-32.977523],[116.203817,-32.975493],[116.202481,-32.974776],[116.2,-32.970637],[116.200361,-32.968636],[116.199648,-32.967078],[116.197636,-32.966435],[116.194436,-32.965905],[116.192605,-32.966965],[116.193197,-32.969729],[116.192477,-32.971872],[116.190214,-32.972397],[116.189101,-32.971337],[116.18691,-32.966605],[116.186751,-32.963723],[116.187652,-32.961725],[116.18708,-32.959705],[116.185266,-32.956884],[116.184181,-32.956432],[116.183494,-32.954102],[116.182181,-32.952331],[116.181035,-32.952324],[116.179556,-32.951533],[116.178745,-32.950396],[116.178988,-32.949232],[116.181489,-32.948387],[116.18318,-32.945832],[116.185063,-32.944241],[116.184546,-32.943157],[116.182659,-32.942811],[116.179953,-32.94311],[116.177573,-32.942725],[116.173628,-32.942808],[116.171107,-32.942483],[116.167981,-32.942851],[116.165926,-32.942464],[116.165219,-32.941049],[116.166484,-32.940209],[116.168474,-32.939834],[116.17051,-32.938486],[116.172772,-32.936252],[116.173428,-32.934868],[116.173645,-32.93248],[116.173325,-32.93036],[116.171565,-32.928822],[116.170908,-32.927566],[116.169491,-32.928392],[116.167616,-32.930172],[116.164328,-32.930102],[116.163587,-32.931594],[116.163983,-32.933621],[116.160433,-32.934166],[116.158078,-32.933525],[116.156224,-32.933993],[116.154053,-32.934107],[116.15058,-32.935487],[116.14695,-32.934906],[116.145867,-32.935298],[116.143157,-32.93455],[116.140713,-32.935235],[116.136581,-32.934869],[116.037171,-32.935725],[116.021619,-32.935821],[116.021626,-32.940167],[116.005274,-32.939874],[116.000324,-32.939882],[116.00033,-32.942406],[115.994417,-32.942417],[115.994407,-32.938441],[115.989336,-32.93844],[115.990766,-32.937212],[115.991955,-32.934687],[115.993463,-32.933332],[115.972326,-32.933224],[115.961543,-32.933238],[115.956378,-32.93294],[115.956388,-32.938444],[115.951331,-32.938451],[115.951339,-32.942282],[115.947817,-32.942288],[115.947906,-32.941234],[115.947024,-32.938954],[115.945894,-32.937749],[115.943535,-32.936398],[115.941263,-32.936244],[115.940047,-32.936985],[115.94005,-32.941049],[115.924423,-32.941058],[115.924421,-32.938124],[115.920271,-32.938002],[115.906812,-32.938018],[115.90653,-32.937283],[115.903072,-32.937283],[115.900078,-32.937014],[115.893714,-32.937035],[115.893435,-32.938127],[115.874544,-32.93805],[115.874546,-32.934952],[115.869173,-32.934991],[115.869167,-32.94222],[115.868036,-32.942221],[115.852993,-32.931366],[115.849768,-32.933671],[115.849691,-32.935632],[115.838658,-32.935687],[115.838181,-32.933163],[115.836861,-32.93145],[115.835832,-32.928779],[115.823832,-32.928782],[115.823833,-32.925939],[115.812876,-32.925917],[115.813076,-32.928984],[115.813082,-32.93651],[115.780777,-32.936556],[115.780796,-32.930025],[115.763787,-32.929977],[115.763772,-32.921983],[115.754011,-32.921728],[115.752867,-32.920678],[115.750375,-32.920788],[115.736,-32.920919],[115.72358,-32.921149],[115.719171,-32.921106],[115.719978,-32.925232],[115.708505,-32.925233],[115.708281,-32.929315],[115.70509,-32.929211],[115.703596,-32.929723],[115.701275,-32.929735],[115.701177,-32.931349],[115.700268,-32.931718],[115.695652,-32.931733],[115.693509,-32.930926],[115.690124,-32.931612],[115.686295,-32.931569],[115.687064,-32.933073],[115.675717,-32.933031],[115.65846,-32.933052]]]},"bbox":[114.88499121748063,-34.57540738008343,116.239769,-32.846009250018504]}]}