{"type":"FeatureCollection","features":[
{"properties":{"electorateShortName":"fraser","electorateName":"Fraser","area":106.23,"state":"VIC"},"type":"Feature","geometry":{"type":"MultiPolygon","coordinates":[[[[144.862115,-37.799158],[144.86594,-37.777933],[144.858377,-37.775978],[144.852653,-37.773229],[144.851212,-37.768458],[144.854092,-37.76538],[144.853852,-37.762433],[144.848295,-37.759738],[144.849607,-37.754715],[144.846761,-37.747919],[144.839455,-37.747046],[144.837214,-37.7414],[144.833678,-37.738884],[144.836308,-37.734309],[144.830502,-37.73459],[144.828643,-37.732573],[144.830456,-37.725289],[144.841755,-37.72884],[144.842825,-37.732627],[144.848173,-37.732499],[144.847642,-37.728497],[144.845034,-37.726899],[144.838326,-37.726587],[144.840307,-37.720577],[144.837667,-37.716397],[144.841558,-37.713174],[144.838057,-37.709588],[144.838344,-37.706077],[144.835358,-37.703427],[144.830849,-37.705588],[144.82524,-37.703457],[144.824878,-37.698377],[144.817849,-37.699463],[144.810576,-37.698761],[144.812304,-37.695152],[144.820229,-37.69255],[144.818856,-37.687559],[144.819833,-37.682828],[144.810007,-37.68151],[144.806998,-37.683203],[144.803342,-37.675267],[144.80475,-37.669517],[144.801651,-37.671514],[144.789995,-37.675739],[144.783354,-37.675624],[144.776394,-37.676718],[144.773626,-37.670313],[144.76827,-37.667463],[144.772046,-37.664002],[144.762332,-37.664755],[144.746472,-37.663029],[144.744413,-37.663077],[144.758351,-37.680937],[144.755457,-37.699384],[144.756501,-37.706196],[144.760544,-37.708861],[144.768098,-37.709813],[144.764061,-37.725471],[144.762722,-37.740109],[144.779445,-37.741954],[144.775286,-37.766222],[144.769138,-37.812017],[144.826586,-37.816872],[144.825316,-37.819595],[144.827414,-37.822832],[144.860216,-37.813721],[144.862115,-37.799158]]],[[[144.797522,-37.906676],[144.8035131067942,-37.909600354277146],[144.8194979935188,-37.91248319542644],[144.83574071471548,-37.912445982290976],[144.85171222414675,-37.90948992695025],[144.87005323435972,-37.904369640433416],[144.8742173026423,-37.903177733972974],[144.88587637237725,-37.89998539178167],[144.9013500076978,-37.89377094322745],[144.91541161531393,-37.8848085801397],[144.9275784953713,-37.87340595804934],[144.93743298927848,-37.85995450048147],[144.94391359306152,-37.84642574710582],[144.935592,-37.842548],[144.931891,-37.843299],[144.926912,-37.840035],[144.918525,-37.839688],[144.913601,-37.841836],[144.912499,-37.849458],[144.905739,-37.840155],[144.903215,-37.841399],[144.907213,-37.849526],[144.898362,-37.841204],[144.897148,-37.842552],[144.899459,-37.848829],[144.905593,-37.851732],[144.895234,-37.848709],[144.902042,-37.854318],[144.903492,-37.861283],[144.911555,-37.862068],[144.915524,-37.865543],[144.908045,-37.8707],[144.902906,-37.872753],[144.89215,-37.867605],[144.88505,-37.86828],[144.882677,-37.865786],[144.878621,-37.868083],[144.874437,-37.863592],[144.874646,-37.861723],[144.868582,-37.858712],[144.861666,-37.859841],[144.856185,-37.863435],[144.850369,-37.863943],[144.840214,-37.871507],[144.826561,-37.870863],[144.819566,-37.872528],[144.807735,-37.880643],[144.807636,-37.891284],[144.800995,-37.898549],[144.797522,-37.906676]]]]},"bbox":[144.744413,-37.91248319542644,144.94391359306152,-37.663029]}]}