{"type":"FeatureCollection","features":[
{"properties":{"electorateShortName":"fraser","electorateName":"Fraser","area":106.23,"state":"VIC"},"type":"Feature","geometry":{"type":"MultiPolygon","coordinates":[[[[144.862115,-37.799158],[144.840307,-37.720577],[144.80475,-37.669517],[144.746472,-37.663029],[144.779445,-37.741954],[144.769138,-37.812017],[144.862115,-37.799158]]],[[[144.797522,-37.906676],[144.8194979935188,-37.91248319542644],[144.83574071471548,-37.912445982290976],[144.85171222414675,-37.90948992695025],[144.87005323435972,-37.904369640433416],[144.8742173026423,-37.903177733972974],[144.88587637237725,-37.89998539178167],[144.9013500076978,-37.89377094322745],[144.91541161531393,-37.8848085801397],[144.9275784953713,-37.87340595804934],[144.93743298927848,-37.85995450048147],[144.94391359306152,-37.84642574710582],[144.935592,-37.842548],[144.918525,-37.839688],[144.913601,-37.841836],[144.912499,-37.849458],[144.907213,-37.849526],[144.898362,-37.841204],[144.905593,-37.851732],[144.902042,-37.854318],[144.903492,-37.861283],[144.911555,-37.862068],[144.902906,-37.872753],[144.89215,-37.867605],[144.878621,-37.868083],[144.868582,-37.858712],[144.850369,-37.863943],[144.840214,-37.871507],[144.826561,-37.870863],[144.819566,-37.872528],[144.807735,-37.880643],[144.807636,-37.891284],[144.797522,-37.906676]]]]},"bbox":[144.746472,-37.91248319542644,144.94391359306152,-37.663029]}]}