{"type":"FeatureCollection","features":[
{"properties":{"electorateShortName":"fremantle","electorateName":"Fremantle","area":196.296885,"state":"WA"},"type":"Feature","geometry":{"type":"MultiPolygon","coordinates":[[[[115.898628,-32.18024],[115.89784,-32.177146],[115.897381,-32.136348],[115.899233,-32.132122],[115.901705,-32.130249],[115.904825,-32.125188],[115.916173,-32.115337],[115.914245,-32.114054],[115.900055,-32.102187],[115.896141,-32.09654],[115.890624,-32.092087],[115.891012,-32.085565],[115.892017,-32.081769],[115.884285,-32.075037],[115.879483,-32.079988],[115.875221,-32.082387],[115.866931,-32.084841],[115.861851,-32.087188],[115.858263,-32.087593],[115.849094,-32.086753],[115.849228,-32.078654],[115.841282,-32.079693],[115.835131,-32.079685],[115.83334,-32.078928],[115.827834,-32.074584],[115.824114,-32.073882],[115.823941,-32.068538],[115.814157,-32.068662],[115.803274,-32.06582],[115.803205,-32.056437],[115.793621,-32.056642],[115.79374,-32.049192],[115.793608,-32.034151],[115.776047,-32.038323],[115.775886,-32.026464],[115.773893,-32.02679],[115.766738,-32.024698],[115.762549,-32.024756],[115.760353,-32.025543],[115.757497,-32.021174],[115.750871,-32.021603],[115.749752,-32.026033],[115.741786,-32.03951],[115.735008,-32.041053],[115.727255,-32.052886],[115.73184,-32.053535],[115.73228,-32.056106],[115.740672,-32.056798],[115.741386,-32.05942],[115.738303,-32.062867],[115.742605,-32.064925],[115.745755,-32.069676],[115.75073,-32.071679],[115.750337,-32.082988],[115.758589,-32.095537],[115.755312,-32.097876],[115.756912,-32.102611],[115.762165,-32.106388],[115.761982,-32.117234],[115.755948,-32.129549],[115.749868,-32.132801],[115.73734,-32.134952],[115.743571,-32.135821],[115.744851,-32.136729],[115.747773,-32.134755],[115.7554,-32.135494],[115.765381,-32.139611],[115.766082,-32.143592],[115.760232,-32.14482],[115.761673,-32.150867],[115.765939,-32.15329],[115.764835,-32.156921],[115.766508,-32.160572],[115.762692,-32.161582],[115.763445,-32.163835],[115.767257,-32.163866],[115.767328,-32.167131],[115.770443,-32.167104],[115.774924,-32.181389],[115.794246,-32.180787],[115.847437,-32.180738],[115.853298,-32.180592],[115.898546,-32.180241],[115.898628,-32.18024]]],[[[115.558403,-32.003453],[115.545093,-32.000753],[115.541053,-31.994043],[115.543213,-31.990453],[115.539653,-31.988183],[115.528123,-31.990393],[115.527873,-31.988133],[115.524173,-31.988013],[115.524293,-31.990373],[115.521503,-31.991724],[115.519403,-31.989343],[115.511343,-31.987614],[115.493433,-31.995994],[115.487363,-32.001144],[115.485163,-32.008154],[115.479533,-32.010394],[115.477243,-32.013764],[115.456893,-32.015734],[115.457013,-32.017674],[115.453973,-32.018434],[115.455873,-32.020175],[115.450023,-32.022035],[115.449783,-32.026185],[115.458473,-32.025705],[115.461113,-32.022354],[115.464653,-32.023464],[115.470243,-32.022254],[115.472063,-32.017774],[115.476913,-32.015864],[115.483343,-32.016084],[115.488623,-32.019454],[115.491443,-32.017734],[115.494693,-32.019464],[115.499533,-32.015144],[115.507593,-32.012964],[115.517453,-32.016064],[115.519783,-32.018474],[115.520303,-32.024234],[115.527643,-32.027634],[115.531253,-32.020704],[115.529873,-32.017404],[115.531653,-32.014954],[115.551173,-32.012473],[115.558403,-32.003453]]]]},"bbox":[115.449783,-32.181389,115.916173,-31.987614]}]}