{"type":"FeatureCollection","features":[
{"properties":{"electorateShortName":"fremantle","electorateName":"Fremantle","area":196.296885,"state":"WA"},"type":"Feature","geometry":{"type":"MultiPolygon","coordinates":[[[[115.898628,-32.18024],[115.897381,-32.136348],[115.916173,-32.115337],[115.890624,-32.092087],[115.892017,-32.081769],[115.884285,-32.075037],[115.875221,-32.082387],[115.858263,-32.087593],[115.849228,-32.078654],[115.835131,-32.079685],[115.823941,-32.068538],[115.803274,-32.06582],[115.793621,-32.056642],[115.793608,-32.034151],[115.776047,-32.038323],[115.775886,-32.026464],[115.750871,-32.021603],[115.741786,-32.03951],[115.727255,-32.052886],[115.75073,-32.071679],[115.750337,-32.082988],[115.758589,-32.095537],[115.761982,-32.117234],[115.7554,-32.135494],[115.767328,-32.167131],[115.774924,-32.181389],[115.898546,-32.180241],[115.898628,-32.18024]]],[[[115.558403,-32.003453],[115.545093,-32.000753],[115.539653,-31.988183],[115.521503,-31.991724],[115.511343,-31.987614],[115.493433,-31.995994],[115.477243,-32.013764],[115.456893,-32.015734],[115.461113,-32.022354],[115.483343,-32.016084],[115.494693,-32.019464],[115.507593,-32.012964],[115.517453,-32.016064],[115.551173,-32.012473],[115.558403,-32.003453]]]]},"bbox":[115.456893,-32.181389,115.916173,-31.987614]}]}