{"type":"FeatureCollection","features":[
{"properties":{"electorateShortName":"gilmore","electorateName":"Gilmore","area":6341.700118,"state":"NSW"},"type":"Feature","geometry":{"type":"Polygon","coordinates":[[[150.134459,-36.066015],[150.12512275482607,-36.1561757526425],[150.2123659027386,-36.11940532565086],[150.2219812299956,-36.10432759169972],[150.22450190968038,-36.098287197737356],[150.2312197429336,-36.08119438299286],[150.23300939552018,-36.07077225070443],[150.2476458335504,-36.04760117473377],[150.2506843798072,-35.92782528494971],[150.30718103880133,-35.88962065191807],[150.32684660208355,-35.81245359735795],[150.42440612070624,-35.64773157285101],[150.4827155146378,-35.59659918490668],[150.51085597074174,-35.53784369678447],[150.49931239843232,-35.48257108939416],[150.57442901713446,-35.403641052061154],[150.57789973350938,-35.33905831592088],[150.63123455938543,-35.27397054571478],[150.63189562819608,-35.27376237545618],[150.6478424822623,-35.26487911879944],[150.66166887989368,-35.252960849966385],[150.69928765998722,-35.21215239984758],[150.77223690471553,-35.17828983990337],[150.84403981074553,-35.175996361063554],[150.85910478741337,-35.167138004224206],[150.86797220771317,-35.15926532829685],[150.89271760823897,-35.14242284990866],[150.92285588455948,-35.096866650427536],[150.9395814002648,-35.01813488448038],[150.9280037706139,-34.96849653642892],[150.87487295659093,-34.920673964207445],[150.85575556059553,-34.86692420036947],[150.9056370203611,-34.82274707645958],[150.94687748342344,-34.71488421703995],[150.9544886195812,-34.67783178270332],[150.9540620539346,-34.662978086127396],[150.95520441642608,-34.641877853728495],[150.94856051195183,-34.60755617157033],[150.94277018159045,-34.590533558166655],[150.93371158774386,-34.575001682223686],[150.87465,-34.537108],[150.873518,-34.584325],[150.860886,-34.627883],[150.803508,-34.643238],[150.758131,-34.613022],[150.666625,-34.611709],[150.590467,-34.658718],[150.548328,-34.650451],[150.398433,-34.705382],[150.370862,-34.743955],[150.28782,-34.764691],[150.209564,-34.814495],[150.127115,-34.817387],[150.07422,-34.768097],[150.037447,-34.843872],[150.088242,-34.924887],[150.05191,-35.007276],[150.129401,-35.09779],[150.141643,-35.14446],[150.204361,-35.177503],[150.16437,-35.269778],[150.053093,-35.309068],[150.038056,-35.406213],[149.998742,-35.478744],[149.929853,-35.565592],[149.934096,-35.61165],[149.856847,-35.719476],[149.817232,-35.753041],[149.855705,-35.809015],[149.966665,-36.010489],[150.014268,-36.035793],[150.134459,-36.066015]],[[150.593971,-35.185018],[150.607504,-35.143847],[150.701604,-35.122862],[150.760481,-35.16227],[150.695731,-35.190068],[150.654952,-35.163097],[150.593971,-35.185018]]]},"bbox":[149.817232,-36.1561757526425,150.95520441642608,-34.537108]}]}