{"type":"FeatureCollection","features":[
{"properties":{"electorateShortName":"gilmore","electorateName":"Gilmore","area":6341.700118,"state":"NSW"},"type":"Feature","geometry":{"type":"Polygon","coordinates":[[[150.701604,-35.122862],[150.695,-35.111113],[150.694448,-35.092163],[150.688889,-35.072156],[150.676828,-35.069026],[150.674287,-35.061513],[150.677648,-35.042719],[150.67113,-35.037153],[150.678123,-35.025228],[150.692998,-35.013584],[150.709141,-35.007434],[150.728397,-35.007549],[150.72703,-34.996149],[150.753894,-34.991007],[150.778271,-35.002448],[150.767252,-35.015173],[150.775304,-35.026707],[150.785012,-35.030788],[150.773507,-35.065335],[150.773462,-35.079261],[150.793643,-35.076603],[150.799512,-35.09063],[150.81794,-35.084963],[150.830542,-35.076373],[150.840569,-35.060413],[150.834573,-35.04321],[150.835267,-35.032089],[150.846587,-35.008384],[150.835194,-35.003091],[150.821614,-35.014616],[150.79805,-35.003854],[150.78765,-34.990697],[150.779433,-34.973075],[150.776324,-34.949941],[150.78001,-34.934466],[150.768621,-34.926048],[150.760049,-34.900442],[150.750217,-34.887528],[150.749607,-34.854716],[150.762336,-34.817197],[150.776622,-34.797234],[150.792111,-34.782536],[150.80983,-34.773346],[150.822899,-34.773159],[150.834113,-34.75492],[150.833299,-34.738644],[150.846035,-34.725446],[150.856019,-34.700538],[150.858825,-34.686322],[150.854737,-34.662747],[150.863163,-34.653961],[150.855795,-34.642622],[150.860886,-34.627883],[150.835945,-34.632892],[150.832741,-34.6389],[150.803508,-34.643238],[150.793003,-34.628734],[150.795873,-34.614609],[150.790387,-34.602184],[150.768286,-34.598949],[150.758131,-34.613022],[150.700452,-34.604969],[150.666625,-34.611709],[150.654761,-34.624469],[150.642787,-34.624886],[150.623283,-34.644297],[150.590467,-34.658718],[150.576376,-34.669631],[150.579649,-34.693488],[150.568456,-34.69652],[150.562498,-34.68215],[150.567558,-34.672992],[150.565491,-34.655824],[150.554802,-34.641431],[150.548328,-34.650451],[150.504252,-34.666829],[150.498253,-34.681892],[150.469216,-34.678192],[150.451792,-34.691769],[150.441824,-34.690164],[150.398433,-34.705382],[150.3892,-34.712859],[150.380106,-34.732592],[150.370862,-34.743955],[150.359622,-34.748225],[150.339148,-34.748716],[150.330255,-34.759229],[150.310168,-34.772091],[150.305563,-34.767266],[150.28782,-34.764691],[150.267865,-34.774374],[150.257641,-34.790168],[150.236136,-34.794164],[150.231571,-34.801705],[150.21836,-34.804617],[150.209564,-34.814495],[150.193709,-34.819725],[150.177659,-34.818223],[150.156572,-34.822593],[150.127115,-34.817387],[150.125277,-34.807969],[150.110133,-34.799142],[150.105446,-34.78885],[150.07422,-34.768097],[150.067381,-34.778912],[150.052921,-34.785142],[150.040306,-34.79555],[150.036388,-34.807472],[150.043756,-34.827779],[150.037447,-34.843872],[150.040608,-34.8602],[150.051559,-34.870293],[150.053563,-34.882432],[150.079661,-34.896507],[150.086993,-34.912088],[150.088242,-34.924887],[150.068376,-34.93595],[150.05552,-34.965285],[150.077951,-34.975538],[150.08431,-34.991209],[150.066042,-35.00462],[150.05191,-35.007276],[150.0526,-35.018163],[150.064212,-35.021789],[150.071681,-35.049501],[150.087768,-35.059964],[150.088819,-35.067617],[150.105934,-35.071545],[150.103221,-35.082239],[150.129401,-35.09779],[150.129059,-35.112935],[150.139542,-35.118163],[150.141643,-35.14446],[150.150828,-35.143184],[150.170401,-35.149334],[150.176049,-35.165561],[150.188669,-35.16602],[150.205102,-35.172363],[150.204361,-35.177503],[150.215661,-35.200984],[150.186318,-35.199841],[150.197489,-35.230222],[150.169962,-35.238724],[150.172095,-35.248615],[150.161001,-35.257476],[150.16437,-35.269778],[150.137678,-35.272912],[150.133541,-35.279441],[150.113762,-35.290943],[150.086777,-35.290821],[150.087254,-35.30093],[150.067782,-35.309166],[150.053093,-35.309068],[150.03804,-35.331635],[150.046721,-35.347397],[150.044911,-35.358536],[150.037118,-35.368601],[150.041795,-35.38008],[150.038056,-35.406213],[150.023195,-35.411063],[150.007436,-35.430683],[150.014081,-35.437419],[150.005378,-35.444573],[150.00586,-35.460507],[149.998742,-35.478744],[149.97779,-35.489955],[149.978696,-35.502628],[149.964045,-35.500787],[149.957434,-35.53073],[149.949323,-35.529432],[149.949419,-35.553218],[149.929853,-35.565592],[149.929019,-35.578612],[149.936329,-35.59496],[149.934096,-35.61165],[149.920079,-35.623145],[149.922055,-35.634334],[149.908399,-35.637019],[149.875458,-35.688275],[149.856847,-35.719476],[149.840917,-35.7148],[149.830246,-35.721324],[149.822735,-35.734519],[149.817232,-35.753041],[149.824958,-35.763239],[149.826941,-35.778131],[149.837634,-35.786406],[149.859796,-35.795142],[149.855705,-35.809015],[149.966665,-36.010489],[149.971933,-36.009169],[150.004167,-36.027329],[150.014268,-36.035793],[150.077283,-36.044959],[150.081813,-36.051748],[150.096901,-36.043794],[150.107741,-36.030665],[150.117828,-36.03359],[150.117882,-36.04803],[150.134459,-36.066015],[150.141666,-36.063714],[150.141363,-36.049267],[150.149238,-36.02881],[150.160261,-36.013824],[150.151067,-35.97886],[150.160404,-35.953897],[150.155057,-35.945862],[150.161225,-35.93316],[150.158459,-35.911911],[150.149676,-35.895409],[150.160203,-35.871273],[150.181443,-35.856484],[150.177428,-35.84883],[150.187121,-35.832865],[150.199136,-35.828596],[150.217544,-35.830701],[150.227112,-35.822133],[150.227479,-35.803291],[150.233451,-35.7973],[150.234944,-35.771762],[150.225988,-35.771437],[150.211957,-35.760122],[150.216781,-35.745726],[150.204531,-35.7319],[150.199194,-35.719221],[150.17981,-35.708735],[150.198951,-35.701359],[150.228811,-35.70256],[150.262428,-35.717863],[150.279032,-35.716788],[150.280941,-35.703348],[150.29702,-35.686061],[150.304419,-35.670557],[150.29743,-35.663088],[150.299254,-35.647388],[150.313561,-35.635562],[150.326048,-35.637215],[150.325369,-35.617946],[150.334119,-35.611107],[150.34917,-35.58829],[150.364873,-35.570642],[150.376802,-35.571802],[150.387488,-35.559065],[150.385042,-35.546132],[150.396202,-35.53312],[150.407619,-35.529497],[150.393661,-35.505663],[150.389433,-35.48864],[150.395711,-35.479957],[150.392847,-35.464609],[150.410629,-35.441504],[150.423084,-35.420975],[150.43751,-35.409891],[150.445017,-35.410866],[150.447303,-35.394922],[150.466447,-35.37643],[150.490589,-35.361434],[150.474882,-35.356554],[150.475899,-35.330281],[150.483144,-35.322305],[150.471901,-35.316547],[150.478024,-35.291824],[150.489199,-35.28071],[150.541494,-35.245711],[150.533043,-35.243838],[150.530686,-35.231685],[150.539507,-35.216614],[150.553604,-35.208717],[150.572751,-35.193035],[150.593971,-35.185018],[150.591249,-35.172472],[150.601698,-35.168886],[150.604696,-35.1579],[150.59343,-35.146914],[150.607504,-35.143847],[150.627903,-35.149976],[150.637259,-35.146881],[150.66032,-35.125394],[150.661053,-35.117824],[150.701604,-35.122862]]]},"bbox":[149.817232,-36.066015,150.863163,-34.598949]}]}