{"type":"FeatureCollection","features":[
{"properties":{"electorateShortName":"gippsland","electorateName":"Gippsland","area":33182.27,"state":"VIC"},"type":"Feature","geometry":{"type":"Polygon","coordinates":[[[149.976679,-37.50506],[149.199775,-37.201189],[148.680015,-36.992665],[148.194946,-36.796253],[148.10882,-36.797001],[148.134466,-36.743739],[147.960215,-36.612428],[147.541888,-36.737568],[147.529527,-36.768575],[147.439217,-36.801276],[147.367151,-36.733889],[147.290455,-36.737782],[147.26839,-36.777562],[147.344897,-36.868623],[147.290354,-36.904354],[147.263301,-37.006678],[147.341849,-37.03174],[147.387254,-37.03006],[147.380527,-37.098739],[147.328434,-37.143438],[147.384854,-37.211503],[147.336985,-37.275538],[146.825501,-37.20283],[146.770778,-37.150455],[146.647394,-37.162591],[146.547102,-37.368753],[146.435794,-37.618203],[146.489068,-37.642678],[146.504747,-37.695143],[146.473333,-37.994591],[146.523358,-37.963936],[146.587275,-37.978073],[146.569508,-38.058099],[146.478977,-38.1038],[146.419037,-38.1105],[146.340831,-38.083549],[146.319168,-38.138475],[146.34001,-38.169907],[146.258234,-38.2648],[146.223298,-38.440052],[146.254758,-38.49611],[146.317239,-38.561992],[146.376092,-38.592541],[146.525602,-38.619309],[146.518226,-38.707452],[146.42636,-38.721348],[146.438635,-38.754542],[146.538867,-38.789978],[146.602828,-38.757758],[146.657551,-38.754863],[146.726405,-38.699354],[146.826177,-38.684738],[147.067248,-38.475119],[147.50836,-38.128009],[147.642131,-38.036875],[147.75127,-37.973341],[147.935016,-37.899735],[148.179178,-37.831635],[148.344892,-37.805556],[148.581396,-37.802004],[148.626577,-37.808219],[148.808733,-37.786417],[149.213458,-37.777487],[149.265928,-37.789319],[149.340379,-37.776913],[149.484958,-37.775441],[149.525501,-37.737284],[149.676489,-37.68413],[149.718381,-37.611745],[149.795527,-37.549758],[149.906609,-37.542865],[149.976679,-37.50506]]]},"bbox":[146.223298,-38.789978,149.976679,-36.612428]}]}