{"type":"FeatureCollection","features":[
{"properties":{"electorateShortName":"gippsland","electorateName":"Gippsland","area":33182.27,"state":"VIC"},"type":"Feature","geometry":{"type":"Polygon","coordinates":[[[146.42636,-38.721348],[146.406826,-38.722377],[146.384599,-38.719929],[146.379349,-38.701781],[146.381221,-38.686156],[146.373516,-38.681182],[146.360926,-38.680854],[146.351133,-38.672985],[146.33949588055282,-38.69779752754899],[146.3341944356933,-38.72336125062652],[146.33786124334767,-38.75666172798684],[146.34682711254146,-38.78080310256206],[146.36775242827474,-38.81000064247899],[146.38492479345632,-38.82675843658501],[146.417673856964,-38.84703661882241],[146.421131,-38.833708],[146.42073,-38.803807],[146.435645,-38.795912],[146.438267,-38.785605],[146.449026,-38.780908],[146.467056,-38.780916],[146.478636,-38.79178],[146.478891,-38.799272],[146.470605,-38.831786],[146.474634,-38.84281],[146.46831010200282,-38.86668733222666],[146.49311434538606,-38.86801705819265],[146.51449260561324,-38.87661453327712],[146.53542123018508,-38.88020967124343],[146.55579933515259,-38.880329934080606],[146.57568210987762,-38.87586262007219],[146.60185316999704,-38.86547406763454],[146.6247203828556,-38.849117206385365],[146.6700417248457,-38.84399201768128],[146.69029332878844,-38.83869580924263],[146.70877370498198,-38.828864584404194],[146.72741470498195,-38.81596158440419],[146.75698469464666,-38.786892046162606],[146.79840375829465,-38.77209699858098],[146.8214572870297,-38.77488620938032],[146.8443474029586,-38.77288467580983],[146.87392904052666,-38.761025237632126],[146.88668181220518,-38.75136507932977],[146.92676487487,-38.71496519202359],[146.98785937979005,-38.6665562728634],[147.05032688987677,-38.60790871175938],[147.12381589540237,-38.545162782190005],[147.1807094740259,-38.50173031127685],[147.23151169145993,-38.45986624082228],[147.2959011999854,-38.41094600882068],[147.4695111999854,-38.27348900882068],[147.51646112237034,-38.23455496678564],[147.56123567062718,-38.200855388499896],[147.63323678538927,-38.15047485415104],[147.6902395981174,-38.112955641937866],[147.750855767304,-38.07615768796552],[147.79261793523597,-38.053308478565356],[147.82558448486668,-38.037230303450436],[147.8561326099372,-38.02423310088518],[147.97709433933,-37.9809336277952],[148.0106996821547,-37.97387840262502],[148.03135315052367,-37.96603961098305],[148.0652470066299,-37.95683278218754],[148.09834394031122,-37.95063129068198],[148.14679694796027,-37.93432530344162],[148.20044505763985,-37.91915055761408],[148.2745432335979,-37.904043693346765],[148.35154050414548,-37.895376026670554],[148.46167135078585,-37.89144578025521],[148.5362016799057,-37.89189980398566],[148.55639159028826,-37.89333715529952],[148.59576026714018,-37.892993177219495],[148.62163416047747,-37.898083166036606],[148.6809678118103,-37.892282522734206],[148.69740130342933,-37.90015282033073],[148.71493330450218,-37.904514540482666],[148.73298321472134,-37.90528681335062],[148.75082369921807,-37.902438519611664],[148.76773586209256,-37.89608443342963],[148.7949843344515,-37.87939862897997],[148.81651762347164,-37.87623855932096],[148.85256225731325,-37.87525824275827],[148.88264094993252,-37.8799453478212],[148.89987498835086,-37.87857360100436],[148.9333558712531,-37.87137126482124],[149.0210177851975,-37.8709209111929],[149.12498749747778,-37.86731470869789],[149.1652449104932,-37.86802954095293],[149.18005486628152,-37.87003384645115],[149.2083535422081,-37.8678827453136],[149.22402320649059,-37.87936749812228],[149.24003689716093,-37.88674053914483],[149.2624921825317,-37.89283231265444],[149.27939859543065,-37.89369243446642],[149.2961670107498,-37.89137147468091],[149.3122041855414,-37.885951545590466],[149.34091688229853,-37.868947786329315],[149.36270377612252,-37.86552696089923],[149.39215501805813,-37.86779693354843],[149.40259623241545,-37.86586554846452],[149.44308180376342,-37.86656534639788],[149.46108506041946,-37.8620324742299],[149.4787709163148,-37.86522808145091],[149.4943349929257,-37.86495117821271],[149.51334955024535,-37.860933515489165],[149.5428755802867,-37.84667443073533],[149.5655143909228,-37.8241134140327],[149.5810347787241,-37.814997892320626],[149.60326972665138,-37.816268721563304],[149.63537293168528,-37.807428138162855],[149.65189007979913,-37.79764020906959],[149.67025400772883,-37.778683238843726],[149.70889960877216,-37.76936305755005],[149.72509353458867,-37.76136141554265],[149.7393634960585,-37.75028722447448],[149.7511346964767,-37.73658655482371],[149.76175071798934,-37.715091791003935],[149.780987003361,-37.69408490074665],[149.80169396269503,-37.655714277749],[149.82145747848008,-37.6438991337003],[149.84364412173585,-37.64690578775453],[149.86116111393756,-37.6453763276886],[149.87834542338052,-37.65308349505137],[149.90279406377894,-37.659207586429915],[149.92065881771336,-37.659521731978195],[149.93823357541612,-37.656300550168346],[149.95947974764297,-37.64844616107708],[149.97404400016825,-37.63912437911001],[149.98655669078585,-37.62718931965601],[150.00296235979576,-37.598894591692506],[150.02782802493766,-37.581801527229835],[150.0460933779969,-37.56234563630879],[150.0556262632921,-37.54827260948707],[150.062343109589,-37.532658194294655],[150.0660043278209,-37.51605935496671],[150.06647932279193,-37.49906817002409],[150.06375115149092,-37.482290712906604],[150.0579171274466,-37.466325433409295],[150.0491853495663,-37.451741811053175],[150.03786727927388,-37.43906004182199],[150.02436663071984,-37.42873248283661],[150.0091649703479,-37.42112751683315],[149.95475179156753,-37.400066959040736],[149.956554,-37.423509],[149.97541,-37.44545],[149.972893,-37.468817],[149.977295,-37.493278],[149.976679,-37.50506],[149.786225,-37.431345],[149.504912,-37.321672],[149.321238,-37.248951],[149.199775,-37.201189],[148.9762,-37.112015],[148.821603,-37.050028],[148.680015,-36.992665],[148.384631,-36.87346],[148.194946,-36.796253],[148.186027,-36.804421],[148.169968,-36.792915],[148.156117,-36.790075],[148.144327,-36.795789],[148.126509,-36.796678],[148.120152,-36.806079],[148.10882,-36.797001],[148.104716,-36.780507],[148.112864,-36.768127],[148.121644,-36.764687],[148.120915,-36.755904],[148.132654,-36.750847],[148.134466,-36.743739],[147.960215,-36.612428],[147.841554,-36.64808],[147.541888,-36.737568],[147.53569,-36.752565],[147.526719,-36.756283],[147.529527,-36.768575],[147.501256,-36.776234],[147.495838,-36.781576],[147.4714,-36.783069],[147.463877,-36.803166],[147.454809,-36.807239],[147.439217,-36.801276],[147.419829,-36.782998],[147.407457,-36.778949],[147.40763,-36.765318],[147.387757,-36.757495],[147.37941,-36.745018],[147.367151,-36.733889],[147.345183,-36.73899],[147.326327,-36.73877],[147.311728,-36.73133],[147.290455,-36.737782],[147.28807,-36.753619],[147.29031,-36.765552],[147.279848,-36.767632],[147.26839,-36.777562],[147.276099,-36.794404],[147.292645,-36.809521],[147.292052,-36.822575],[147.301875,-36.829969],[147.317743,-36.822811],[147.325389,-36.828992],[147.33672,-36.829889],[147.344745,-36.853574],[147.344897,-36.868623],[147.310418,-36.889098],[147.290354,-36.904354],[147.293956,-36.916845],[147.281138,-36.926442],[147.263301,-37.006678],[147.284543,-37.005398],[147.302931,-37.010995],[147.31359,-37.01991],[147.341849,-37.03174],[147.361595,-37.034503],[147.371401,-37.029957],[147.387254,-37.03006],[147.390507,-37.052423],[147.380339,-37.05871],[147.380527,-37.098739],[147.36963,-37.103113],[147.359025,-37.11433],[147.315691,-37.113846],[147.325389,-37.121416],[147.328434,-37.143438],[147.346494,-37.170393],[147.358583,-37.180372],[147.368222,-37.195765],[147.383387,-37.202153],[147.384854,-37.211503],[147.336985,-37.275538],[147.143683,-37.248464],[146.913287,-37.215708],[146.825501,-37.20283],[146.823267,-37.191728],[146.787822,-37.177668],[146.770778,-37.150455],[146.760892,-37.146011],[146.750233,-37.147553],[146.744088,-37.156445],[146.717678,-37.158797],[146.684468,-37.144984],[146.681282,-37.136888],[146.655247,-37.122371],[146.640031,-37.126591],[146.638337,-37.132418],[146.645505,-37.150434],[146.647394,-37.162591],[146.547102,-37.368753],[146.486662,-37.503231],[146.435794,-37.618203],[146.443626,-37.6122],[146.453049,-37.615281],[146.4607,-37.628231],[146.474041,-37.64067],[146.489068,-37.642678],[146.495486,-37.649028],[146.507302,-37.67044],[146.516173,-37.678358],[146.504747,-37.695143],[146.485497,-37.878825],[146.473333,-37.994591],[146.492471,-37.986066],[146.497639,-37.988894],[146.519253,-37.975469],[146.523358,-37.963936],[146.547712,-37.968049],[146.562542,-37.978407],[146.563668,-37.98371],[146.587275,-37.978073],[146.575261,-38.030063],[146.567027,-38.039236],[146.572309,-38.043466],[146.569508,-38.058099],[146.552506,-38.055964],[146.534787,-38.056958],[146.527911,-38.084253],[146.483669,-38.075472],[146.475718,-38.075308],[146.480989,-38.090994],[146.478977,-38.1038],[146.424409,-38.096541],[146.419037,-38.1105],[146.39788,-38.102481],[146.374382,-38.100073],[146.37656,-38.093511],[146.340831,-38.083549],[146.328577,-38.08615],[146.320908,-38.094101],[146.3185,-38.104955],[146.321386,-38.114982],[146.319168,-38.138475],[146.307004,-38.155508],[146.34001,-38.169907],[146.328474,-38.183037],[146.328085,-38.200756],[146.304084,-38.205869],[146.293973,-38.225031],[146.285888,-38.232342],[146.287154,-38.239553],[146.274694,-38.253227],[146.258234,-38.2648],[146.262287,-38.272613],[146.256537,-38.279648],[146.252297,-38.298638],[146.24013,-38.306168],[146.228567,-38.32389],[146.250515,-38.326651],[146.243482,-38.356223],[146.232875,-38.354381],[146.218034,-38.373819],[146.232719,-38.374839],[146.234541,-38.384946],[146.223298,-38.440052],[146.272185,-38.446422],[146.269265,-38.456953],[146.23718,-38.452907],[146.238424,-38.467969],[146.262567,-38.47099],[146.254758,-38.49611],[146.291694,-38.500076],[146.28529,-38.506369],[146.284338,-38.516574],[146.290267,-38.527854],[146.304806,-38.520822],[146.316529,-38.520342],[146.327389,-38.531358],[146.321139,-38.535176],[146.311277,-38.551344],[146.317239,-38.561992],[146.330522,-38.56455],[146.33735,-38.570304],[146.360863,-38.574026],[146.376092,-38.592541],[146.385896,-38.592363],[146.393767,-38.598394],[146.427666,-38.604984],[146.463128,-38.5985],[146.461553,-38.607385],[146.525602,-38.619309],[146.52835,-38.623066],[146.520416,-38.663544],[146.525857,-38.664176],[146.518226,-38.707452],[146.486445,-38.706831],[146.465169,-38.703575],[146.435299,-38.712196],[146.42636,-38.721348]]]},"bbox":[146.218034,-38.880329934080606,150.06647932279193,-36.612428]}]}