{"type":"FeatureCollection","features":[
{"properties":{"electorateShortName":"gorton","electorateName":"Gorton","area":540.86,"state":"VIC"},"type":"Feature","geometry":{"type":"MultiPolygon","coordinates":[[[[144.769138,-37.812017],[144.779445,-37.741954],[144.746472,-37.663029],[144.671646,-37.567722],[144.556225,-37.5589],[144.52329,-37.603215],[144.519055,-37.706734],[144.477678,-37.781013],[144.769138,-37.812017]]],[[[144.807636,-37.891284],[144.81113868573814,-37.89161563313854],[144.8254351064488,-37.88223548620906],[144.8366513726387,-37.87133895400127],[144.826561,-37.870863],[144.819566,-37.872528],[144.807735,-37.880643],[144.807636,-37.891284]]]]},"bbox":[144.477678,-37.89161563313854,144.8366513726387,-37.5589]}]}