{"type":"FeatureCollection","features":[
{"properties":{"electorateShortName":"herbert","electorateName":"Herbert","area":943.701716,"state":"QLD"},"type":"Feature","geometry":{"type":"Polygon","coordinates":[[[149.325557,-19.298439],[149.097628,-19.214047],[148.966427,-19.182911],[148.91591,-19.106576],[148.700877,-19.071529],[148.435854,-18.980579],[148.345125,-18.928127],[148.117469,-18.835125],[148.066351,-18.837661],[147.984005,-18.794765],[147.869915,-18.694894],[147.724735,-18.654575],[147.615122,-18.609304],[147.599399,-18.581784],[147.001096,-18.581787],[147.001095,-18.498454],[146.484849,-18.498739],[146.33591,-18.501345],[146.34494,-18.55416],[146.32932,-18.64346],[146.301843,-18.705106],[146.276724,-18.80579],[146.28911,-18.890641],[146.33456,-18.954206],[146.396268,-18.998504],[146.456628,-19.075064],[146.5289,-19.10995],[146.513882,-19.176641],[146.468773,-19.200005],[146.420443,-19.200935],[146.403588,-19.235251],[146.425521,-19.299903],[146.459617,-19.31903],[146.469852,-19.371804],[146.553709,-19.416314],[146.582004,-19.402494],[146.596195,-19.315833],[146.702107,-19.319262],[146.749937,-19.346849],[146.805946,-19.34159],[146.803622,-19.287775],[146.85216,-19.27615],[146.896415,-19.30567],[146.978881,-19.283182],[147.00802,-19.22555],[147.038645,-19.205509],[147.06064,-19.25735],[147.04466,-19.27841],[147.067506,-19.343022],[147.1084,-19.38051],[147.167765,-19.298449],[148.001086,-19.298446],[149.325557,-19.298439]]]},"bbox":[146.276724,-19.416314,149.325557,-18.498454]}]}