{"type":"FeatureCollection","features":[
{"properties":{"electorateShortName":"higgins","electorateName":"Higgins","area":41.85,"state":"VIC"},"type":"Feature","geometry":{"type":"MultiPolygon","coordinates":[[[[145.095612,-37.850387],[145.02439,-37.834451],[144.98792,-37.829672],[145.044819,-37.889737],[145.053446,-37.905646],[145.090716,-37.880271],[145.095612,-37.850387]]],[[[145.043007,-37.991002],[145.03984040460136,-37.9946426768928],[145.04950184158199,-37.99584381246864],[145.0516035820838,-37.99609554674395],[145.055674763266,-37.996557745011444],[145.07355271200146,-37.998747460788444],[145.07207,-37.997362],[145.06165,-37.990547],[145.051691,-37.98682],[145.043007,-37.991002]]],[[[144.902906,-37.872753],[144.90286177365317,-37.889186703761155],[144.9121337113967,-37.90457582838452],[144.92427765039412,-37.91781662638996],[144.9388096412038,-37.92838143728752],[144.95393846137821,-37.93529530891107],[144.95543825135732,-37.936403237106155],[144.9610420305721,-37.9390061643947],[144.96175501076962,-37.94117204596437],[144.97094176507707,-37.95711322978968],[144.983178365587,-37.97085307711119],[144.9979534163684,-37.98181736782533],[145.01464943376294,-37.98954787877997],[145.026986,-37.988055],[145.014133,-37.974622],[144.987407,-37.919984],[144.984792,-37.913367],[144.98499,-37.891003],[144.975658,-37.882121],[144.975607,-37.870261],[144.969681,-37.864589],[144.963316,-37.855467],[144.935592,-37.842548],[144.918525,-37.839688],[144.913601,-37.841836],[144.912499,-37.849458],[144.907213,-37.849526],[144.898362,-37.841204],[144.905593,-37.851732],[144.902042,-37.854318],[144.903492,-37.861283],[144.911555,-37.862068],[144.902906,-37.872753]]]]},"bbox":[144.898362,-37.998747460788444,145.095612,-37.829672]}]}