{"type":"FeatureCollection","features":[
{"properties":{"electorateShortName":"hindmarsh","electorateName":"Hindmarsh","area":122.42,"state":"SA"},"type":"Feature","geometry":{"type":"Polygon","coordinates":[[[138.554992,-34.967237],[138.55194,-34.924615],[138.548111,-34.913281],[138.552095,-34.904467],[138.548261,-34.889165],[138.546715,-34.850583],[138.564539,-34.849757],[138.563365,-34.832749],[138.56627,-34.825305],[138.558316,-34.822384],[138.547565,-34.809637],[138.553874,-34.797933],[138.550536,-34.786046],[138.543501,-34.774809],[138.546464,-34.765141],[138.541428,-34.752951],[138.532559,-34.744324],[138.529693,-34.73491],[138.525137,-34.737409],[138.493619,-34.718986],[138.484846,-34.712796],[138.475866,-34.698481],[138.456112,-34.688862],[138.4453641818799,-34.6904298254799],[138.42592575770905,-34.70506557483129],[138.40701228510653,-34.72761215663434],[138.3972084177403,-34.74327635195205],[138.39081046564877,-34.760612702182705],[138.38808815608968,-34.77889033498759],[138.38915625720793,-34.79733869508509],[138.3930672211069,-34.81183481444138],[138.38686459492988,-34.83901703813232],[138.38655941755457,-34.866234143531415],[138.38915457152862,-34.88016357470782],[138.41129257152863,-34.962390574707825],[138.41488624014818,-34.97303930186071],[138.42526624014818,-34.99843930186071],[138.4339988572663,-35.01477108520683],[138.44588944761037,-35.02896966296188],[138.4604345169785,-35.04043381169055],[138.48823895164023,-35.05480288145476],[138.503686,-35.056544],[138.508463,-35.044067],[138.515333,-35.03834],[138.517614,-35.03213],[138.511424,-35.00605],[138.508578,-34.964393],[138.523044,-34.964975],[138.528667,-34.974147],[138.53778,-34.975938],[138.554992,-34.967237]]]},"bbox":[138.38655941755457,-35.056544,138.56627,-34.688862]}]}