{"type":"FeatureCollection","features":[
{"properties":{"electorateShortName":"holt","electorateName":"Holt","area":266.45,"state":"VIC"},"type":"Feature","geometry":{"type":"Polygon","coordinates":[[[145.25422,-38.22361],[145.259036,-38.2438],[145.372237,-38.314154],[145.425553,-38.308227],[145.450964,-38.306422],[145.497964,-38.274077],[145.492847,-38.24389],[145.441756,-38.218692],[145.43647,-38.217589],[145.429965,-38.215171],[145.38886,-38.192516],[145.399479,-38.142997],[145.327163,-38.118743],[145.303503,-38.043664],[145.248989,-38.017011],[145.239583,-38.077677],[145.215767,-38.200652],[145.25422,-38.22361]]]},"bbox":[145.215767,-38.314154,145.497964,-38.017011]}]}