{"type":"FeatureCollection","features":[
{"properties":{"electorateShortName":"hunter","electorateName":"Hunter","area":10639.861096,"state":"NSW"},"type":"Feature","geometry":{"type":"Polygon","coordinates":[[[151.662412,-32.929851],[151.608578,-32.880151],[151.477827,-32.87227],[151.487259,-32.849374],[151.407551,-32.825686],[151.396164,-32.77718],[151.433194,-32.757466],[151.407184,-32.679147],[151.434772,-32.613621],[151.470816,-32.618177],[151.500727,-32.504188],[151.456798,-32.472384],[151.473929,-32.429147],[151.446149,-32.407075],[151.371487,-32.291598],[151.339355,-32.261983],[151.34264,-32.176516],[151.309698,-32.138984],[151.246256,-32.209568],[151.208815,-32.220166],[151.118349,-32.193692],[151.066043,-32.165754],[150.975451,-32.170118],[150.874117,-32.190646],[150.656558,-32.160607],[150.498859,-32.130034],[150.486444,-32.23985],[150.527348,-32.313199],[150.393601,-32.333752],[150.38685,-32.378895],[150.319073,-32.40827],[150.246977,-32.460298],[150.236149,-32.608418],[150.311343,-32.646919],[150.289272,-32.765431],[150.341577,-32.794335],[150.3622,-32.845066],[150.340685,-32.87098],[150.366455,-32.936634],[150.371672,-33.015457],[150.488448,-33.048124],[150.610687,-33.066137],[150.718059,-33.068653],[150.745841,-33.021913],[150.80474,-33.006038],[150.850685,-33.043454],[150.87408,-33.115068],[150.972613,-33.130433],[151.03529,-33.119331],[151.052491,-33.07994],[151.104072,-33.076993],[151.135811,-33.10996],[151.202438,-33.138989],[151.267284,-33.063614],[151.315283,-33.048252],[151.378995,-33.099827],[151.398625,-33.185747],[151.455115,-33.202843],[151.51218,-33.194307],[151.532684,-33.140792],[151.613877,-33.090566],[151.633277,-33.041009],[151.614129,-32.955406],[151.662412,-32.929851]]]},"bbox":[150.236149,-33.202843,151.662412,-32.130034]}]}