{"type":"FeatureCollection","features":[
{"properties":{"electorateShortName":"indi","electorateName":"Indi","area":29187.35,"state":"VIC"},"type":"Feature","geometry":{"type":"Polygon","coordinates":[[[148.134466,-36.743739],[148.185114,-36.692217],[148.217443,-36.598853],[148.124448,-36.55098],[148.139815,-36.525603],[148.124717,-36.46484],[148.087713,-36.451949],[148.038261,-36.365556],[148.021889,-36.176971],[147.99078,-36.120669],[147.997571,-36.047766],[147.924591,-36.042748],[147.913997,-35.997954],[147.690258,-35.93753],[147.555245,-36.00321],[147.498602,-35.946642],[147.404264,-35.943562],[147.360761,-35.988997],[147.352244,-36.032293],[147.204328,-36.049889],[147.137173,-36.028625],[147.016178,-36.089497],[146.836347,-36.082187],[146.760209,-36.058169],[146.72723,-36.02682],[146.679175,-36.021948],[146.607972,-35.985904],[146.517902,-35.960061],[146.414345,-35.975453],[146.387672,-36.035514],[146.299882,-36.047795],[146.242797,-36.028965],[146.177951,-36.033848],[146.238734,-36.135767],[146.220983,-36.186711],[146.131052,-36.186791],[146.131425,-36.255122],[146.036903,-36.255063],[146.030938,-36.299009],[145.798509,-36.29897],[145.775229,-36.443786],[145.731316,-36.442633],[145.73187,-36.499036],[145.63156,-36.499046],[145.644547,-36.623091],[145.572181,-36.701565],[145.494195,-36.699973],[145.453244,-36.730375],[145.477539,-36.788714],[145.463844,-36.909814],[145.413063,-36.992423],[145.372209,-37.093919],[145.288296,-37.099599],[145.284609,-37.138725],[145.231285,-37.137867],[145.229488,-37.180062],[145.174878,-37.204911],[145.163003,-37.277628],[145.195382,-37.29412],[145.251861,-37.304952],[145.279329,-37.337825],[145.26562,-37.419354],[145.222272,-37.472599],[145.294389,-37.498582],[145.366412,-37.545126],[145.417552,-37.526238],[145.480491,-37.561281],[145.618012,-37.572296],[145.675853,-37.624195],[145.819758,-37.536022],[145.866249,-37.531896],[146.186005,-37.534824],[146.192083,-37.587725],[146.2558,-37.610298],[146.298789,-37.59109],[146.367636,-37.629305],[146.435794,-37.618203],[146.547102,-37.368753],[146.647394,-37.162591],[146.770778,-37.150455],[146.825501,-37.20283],[147.336985,-37.275538],[147.384854,-37.211503],[147.328434,-37.143438],[147.380527,-37.098739],[147.387254,-37.03006],[147.341849,-37.03174],[147.263301,-37.006678],[147.290354,-36.904354],[147.344897,-36.868623],[147.26839,-36.777562],[147.290455,-36.737782],[147.367151,-36.733889],[147.439217,-36.801276],[147.529527,-36.768575],[147.541888,-36.737568],[147.960215,-36.612428],[148.134466,-36.743739]]]},"bbox":[145.163003,-37.629305,148.217443,-35.93753]}]}