{"type":"FeatureCollection","features":[
{"properties":{"electorateShortName":"kingston","electorateName":"Kingston","area":165.67,"state":"SA"},"type":"Feature","geometry":{"type":"Polygon","coordinates":[[[138.503686,-35.056544],[138.508463,-35.044067],[138.515333,-35.03834],[138.517614,-35.03213],[138.511424,-35.00605],[138.509258,-34.989297],[138.510361,-34.982901],[138.509073,-34.975315],[138.510859,-34.973329],[138.508578,-34.964393],[138.50460147885067,-34.95466239911433],[138.50365519118392,-34.95539744260945],[138.4920831527988,-34.96614005528893],[138.49082506576605,-34.967780485042404],[138.48631614797625,-34.96823608279733],[138.47019893527994,-34.973005885965534],[138.45524970000199,-34.98068937032914],[138.4419898485234,-34.991018547746876],[138.43088186411126,-35.0036331523646],[138.42231317621233,-35.01809320613532],[138.41485328565656,-35.03388045780577],[138.41347617429867,-35.03519573865295],[138.40442230518084,-35.04743814589193],[138.39914638225895,-35.05276196515053],[138.38930581861896,-35.06773334969002],[138.38262571697595,-35.0843572869439],[138.37937079000451,-35.10197501943683],[138.37942278291476,-35.10508756378203],[138.3777347047797,-35.11393214748379],[138.37800175472876,-35.127668914633105],[138.37648500894804,-35.1436788431908],[138.37646900894802,-35.147057843190794],[138.377074370167,-35.15412094067609],[138.37585882746325,-35.16223423360884],[138.37551982746325,-35.16856323360884],[138.37672581425068,-35.18881995425229],[138.37925414238478,-35.203336262465214],[138.3776607696245,-35.214415330340806],[138.37768528253204,-35.21515858083019],[138.37654430411962,-35.21781201283512],[138.37288360829086,-35.23447526082095],[138.37264060829088,-35.23646826082095],[138.3722145874164,-35.253868705703084],[138.37514594369972,-35.27102574875315],[138.38132503827234,-35.287297680603565],[138.39052076004717,-35.30207589690059],[138.40238916975756,-35.314807661382716],[138.41648636400666,-35.32501677937523],[138.4322850781848,-35.33232140846908],[138.44613599533562,-35.335701896812346],[138.447529,-35.320045],[138.446634,-35.301025],[138.442395,-35.284476],[138.443088,-35.27262],[138.44405,-35.270675],[138.45047,-35.2689],[138.460289,-35.261048],[138.461979,-35.247361],[138.481677,-35.246305],[138.48149,-35.243694],[138.494274,-35.243023],[138.492298,-35.217749],[138.490361,-35.214287],[138.49008,-35.211919],[138.491008,-35.206586],[138.491751,-35.206389],[138.497854,-35.206051],[138.50236,-35.200599],[138.503825,-35.200534],[138.503368,-35.19464],[138.501818,-35.193243],[138.500347,-35.191223],[138.497026,-35.189271],[138.495826,-35.188171],[138.494959,-35.185227],[138.498342,-35.185051],[138.500642,-35.18457],[138.50309,-35.183504],[138.504568,-35.182107],[138.503805,-35.179771],[138.503579,-35.177793],[138.504435,-35.177423],[138.506287,-35.178237],[138.50819,-35.178406],[138.509557,-35.177486],[138.510199,-35.17647],[138.511376,-35.17638],[138.513392,-35.174976],[138.517818,-35.174183],[138.520645,-35.17265],[138.519665,-35.170492],[138.520022,-35.168865],[138.521341,-35.168802],[138.525184,-35.169385],[138.526415,-35.169147],[138.527819,-35.16806],[138.529969,-35.168304],[138.529714,-35.165238],[138.531365,-35.164998],[138.532215,-35.164155],[138.534073,-35.163705],[138.535072,-35.162897],[138.535265,-35.161345],[138.538839,-35.161144],[138.540061,-35.161524],[138.542929,-35.163404],[138.544288,-35.163759],[138.546064,-35.163579],[138.548137,-35.164058],[138.551209,-35.159298],[138.552023,-35.158761],[138.553573,-35.158904],[138.557026,-35.161358],[138.56072,-35.161166],[138.564179,-35.161855],[138.565726,-35.160393],[138.566039,-35.158471],[138.567891,-35.158369],[138.569786,-35.158877],[138.572425,-35.157445],[138.573379,-35.157598],[138.575643,-35.159567],[138.578904,-35.160658],[138.579769,-35.160161],[138.579393,-35.158053],[138.579705,-35.156046],[138.582688,-35.155535],[138.582543,-35.154311],[138.583559,-35.151886],[138.585788,-35.151322],[138.587409,-35.151972],[138.588495,-35.149058],[138.586053,-35.148148],[138.585892,-35.146987],[138.587602,-35.146005],[138.590359,-35.146246],[138.591016,-35.144799],[138.593333,-35.144755],[138.596335,-35.141939],[138.597932,-35.142133],[138.599345,-35.141485],[138.601392,-35.142323],[138.603571,-35.141832],[138.605755,-35.140694],[138.604891,-35.139487],[138.604911,-35.138036],[138.60555,-35.13722],[138.607192,-35.136612],[138.606738,-35.13526],[138.606714,-35.132699],[138.605461,-35.133134],[138.605034,-35.134235],[138.603737,-35.134308],[138.602783,-35.133541],[138.59466,-35.133861],[138.586717,-35.134327],[138.585624,-35.132359],[138.586353,-35.127521],[138.587234,-35.125284],[138.586759,-35.123299],[138.587581,-35.121279],[138.590721,-35.118747],[138.593269,-35.11581],[138.594157,-35.112405],[138.594277,-35.109895],[138.595342,-35.108644],[138.594487,-35.106827],[138.592301,-35.104809],[138.589267,-35.102779],[138.589279,-35.102103],[138.588047,-35.100608],[138.585573,-35.099818],[138.585352,-35.096859],[138.591666,-35.096493],[138.591477,-35.094115],[138.597718,-35.094158],[138.597513,-35.090831],[138.603828,-35.089634],[138.609779,-35.086361],[138.61281,-35.087601],[138.615965,-35.086912],[138.617193,-35.08555],[138.619261,-35.08613],[138.621092,-35.082948],[138.622135,-35.082899],[138.621696,-35.079752],[138.622192,-35.078614],[138.623973,-35.077247],[138.625232,-35.076779],[138.626711,-35.074839],[138.627653,-35.072774],[138.627004,-35.07147],[138.62775,-35.070396],[138.62805,-35.068859],[138.625481,-35.068027],[138.624492,-35.067047],[138.622366,-35.066405],[138.62212,-35.06507],[138.625424,-35.064487],[138.622464,-35.062874],[138.619279,-35.060528],[138.618485,-35.058342],[138.616552,-35.05747],[138.616316,-35.055235],[138.614782,-35.054457],[138.612048,-35.054319],[138.609946,-35.052251],[138.611253,-35.052014],[138.612516,-35.049813],[138.611441,-35.049017],[138.609921,-35.050006],[138.608857,-35.050048],[138.607721,-35.049152],[138.60658,-35.049913],[138.605379,-35.048362],[138.603656,-35.047631],[138.602394,-35.049089],[138.600336,-35.048748],[138.598983,-35.049336],[138.596759,-35.045825],[138.595052,-35.045728],[138.594947,-35.044437],[138.590406,-35.041171],[138.589359,-35.041367],[138.587329,-35.040326],[138.586311,-35.037955],[138.584562,-35.037521],[138.584219,-35.036883],[138.581828,-35.037305],[138.578688,-35.036755],[138.577089,-35.037805],[138.574924,-35.037635],[138.573317,-35.038304],[138.571113,-35.03791],[138.571612,-35.036586],[138.570888,-35.035869],[138.572133,-35.034911],[138.570275,-35.03399],[138.570057,-35.03249],[138.568749,-35.032599],[138.567186,-35.031747],[138.567321,-35.030893],[138.565573,-35.029569],[138.56362,-35.029647],[138.563473,-35.027589],[138.563779,-35.026143],[138.563525,-35.023641],[138.562959,-35.023294],[138.558603,-35.026764],[138.556233,-35.030785],[138.556152,-35.032047],[138.558509,-35.034021],[138.560509,-35.03675],[138.559571,-35.040102],[138.560842,-35.042727],[138.561079,-35.044168],[138.560694,-35.046526],[138.559418,-35.050245],[138.559648,-35.053713],[138.543773,-35.054544],[138.535158,-35.055061],[138.526006,-35.055518],[138.526226,-35.058165],[138.524673,-35.056959],[138.523039,-35.056402],[138.520163,-35.056692],[138.518507,-35.056451],[138.514107,-35.057202],[138.509175,-35.059772],[138.505955,-35.059432],[138.504585,-35.058258],[138.504726,-35.057388],[138.503686,-35.056544]]]},"bbox":[138.3722145874164,-35.335701896812346,138.62805,-34.95466239911433]}]}