{"type":"FeatureCollection","features":[
{"properties":{"electorateShortName":"kooyong","electorateName":"Kooyong","area":55.89,"state":"VIC"},"type":"Feature","geometry":{"type":"MultiPolygon","coordinates":[[[[145.118458,-37.79639],[145.109691,-37.79479],[145.095655,-37.78011],[145.078794,-37.776966],[145.067113,-37.780935],[145.046303,-37.780698],[145.040197,-37.784222],[145.040426,-37.789768],[145.01537,-37.785737],[145.019378,-37.79286],[145.007696,-37.800819],[145.001945,-37.796659],[145.014379,-37.815533],[145.016119,-37.824462],[145.02439,-37.834451],[145.049326,-37.845144],[145.095612,-37.850387],[145.099929,-37.826247],[145.112901,-37.827721],[145.118458,-37.79639]]],[[[144.918525,-37.839688],[144.91695545676512,-37.84037268295461],[144.92253267204023,-37.85251612544102],[144.93208389941603,-37.86569561696699],[144.93270111059303,-37.86639884533754],[144.93279511059305,-37.86650484533754],[144.9388408622082,-37.87269544922905],[144.94174073855854,-37.87507691118816],[144.94365151414812,-37.87789677235238],[144.94807794433615,-37.88352219456206],[144.95350100326544,-37.88932850469652],[144.95673167983514,-37.89380040364038],[144.95678167983513,-37.893857403640375],[144.9655288415107,-37.90254824842289],[144.9685013149208,-37.90532403019485],[144.97980750858986,-37.91374224527813],[144.984792,-37.913367],[144.98499,-37.891003],[144.975658,-37.882121],[144.975607,-37.870261],[144.969681,-37.864589],[144.963316,-37.855467],[144.935592,-37.842548],[144.918525,-37.839688]]]]},"bbox":[144.91695545676512,-37.91374224527813,145.118458,-37.776966]}]}