{"type":"FeatureCollection","features":[
{"properties":{"electorateShortName":"la-trobe","electorateName":"La Trobe","area":748.13,"state":"VIC"},"type":"Feature","geometry":{"type":"MultiPolygon","coordinates":[[[[145.399479,-38.142997],[145.527749,-38.159314],[145.526932,-38.163178],[145.580246,-38.151358],[145.594089,-38.143256],[145.599127,-38.117479],[145.611035,-38.117027],[145.604152,-38.103042],[145.600285,-38.083313],[145.608394,-38.083787],[145.607135,-38.06766],[145.599435,-38.067941],[145.603105,-38.051319],[145.592981,-38.042736],[145.601277,-38.013471],[145.581905,-38.013329],[145.586938,-37.98454],[145.616444,-37.987461],[145.621507,-37.990512],[145.654854,-37.994147],[145.661592,-37.981366],[145.673628,-37.979861],[145.68718,-37.986684],[145.716874,-37.996674],[145.73124,-37.99525],[145.731331,-38.00412],[145.74344,-38.008854],[145.764468,-38.008824],[145.762536,-37.990723],[145.756012,-37.982549],[145.739578,-37.971795],[145.731039,-37.958673],[145.747058,-37.937798],[145.741617,-37.929617],[145.750802,-37.917137],[145.747876,-37.907446],[145.730391,-37.903432],[145.721541,-37.885239],[145.693888,-37.886008],[145.679666,-37.89355],[145.671682,-37.893451],[145.670701,-37.907142],[145.657956,-37.90799],[145.642089,-37.918364],[145.62511,-37.916976],[145.626749,-37.909611],[145.614753,-37.908094],[145.604326,-37.898018],[145.589937,-37.896277],[145.575233,-37.899342],[145.5534,-37.873679],[145.5319,-37.866915],[145.525513,-37.887403],[145.507707,-37.899837],[145.481592,-37.898426],[145.463323,-37.90796],[145.442652,-37.907018],[145.43871,-37.914577],[145.428501,-37.913492],[145.415986,-37.928284],[145.389803,-37.924286],[145.382168,-37.941172],[145.387748,-37.95798],[145.388033,-37.970981],[145.383432,-37.974733],[145.318933,-37.966372],[145.316998,-37.967846],[145.310581,-37.980828],[145.314399,-37.989031],[145.303503,-38.043664],[145.318367,-38.045817],[145.327875,-38.067741],[145.336153,-38.07034],[145.327163,-38.118743],[145.383508,-38.125745],[145.399479,-38.142997]]],[[[145.346201,-38.21378],[145.35865948449563,-38.223207767070186],[145.38811611482842,-38.232276812055005],[145.49029645767885,-38.245070440985344],[145.492847,-38.24389],[145.488988,-38.233414],[145.459991,-38.228038],[145.452466,-38.21876],[145.441756,-38.218692],[145.43647,-38.217589],[145.429965,-38.215171],[145.422665,-38.216895],[145.410917,-38.228048],[145.384366,-38.22097],[145.366722,-38.222339],[145.346201,-38.21378]]]]},"bbox":[145.303503,-38.245070440985344,145.764468,-37.866915]}]}