{"type":"FeatureCollection","features":[
{"properties":{"electorateShortName":"la-trobe","electorateName":"La Trobe","area":748.13,"state":"VIC"},"type":"Feature","geometry":{"type":"MultiPolygon","coordinates":[[[[145.399479,-38.142997],[145.42449,-38.146112],[145.485082,-38.153603],[145.503689,-38.156021],[145.527749,-38.159314],[145.526932,-38.163178],[145.542857,-38.159607],[145.557484,-38.156408],[145.580246,-38.151358],[145.581284,-38.146115],[145.594089,-38.143256],[145.599127,-38.117479],[145.610643,-38.118997],[145.611035,-38.117027],[145.604152,-38.103042],[145.60457,-38.101458],[145.603689,-38.099405],[145.601581,-38.097302],[145.60322,-38.097095],[145.602109,-38.09138],[145.600285,-38.083313],[145.608394,-38.083787],[145.607135,-38.06766],[145.599435,-38.067941],[145.60198,-38.05603],[145.603105,-38.051319],[145.603842,-38.049727],[145.601236,-38.049377],[145.601761,-38.046778],[145.598486,-38.04634],[145.599097,-38.043452],[145.592981,-38.042736],[145.594255,-38.036487],[145.594728,-38.032883],[145.593894,-38.031218],[145.592184,-38.031036],[145.593537,-38.028593],[145.59565,-38.02751],[145.595882,-38.026165],[145.599183,-38.026516],[145.601277,-38.013471],[145.591821,-38.01231],[145.591396,-38.01448],[145.581905,-38.013329],[145.583598,-38.004859],[145.586938,-37.98454],[145.596775,-37.985664],[145.599507,-37.983997],[145.605003,-37.983433],[145.605022,-37.986731],[145.610735,-37.986651],[145.612449,-37.988075],[145.613829,-37.987547],[145.616444,-37.987461],[145.616964,-37.989028],[145.61954,-37.988708],[145.621193,-37.989227],[145.621507,-37.990512],[145.624932,-37.990656],[145.629091,-37.99178],[145.63224,-37.991559],[145.635951,-37.992423],[145.642748,-37.992392],[145.645782,-37.993373],[145.647977,-37.993287],[145.654854,-37.994147],[145.656625,-37.993614],[145.661266,-37.993229],[145.661078,-37.986158],[145.661636,-37.985988],[145.661592,-37.981366],[145.664529,-37.981006],[145.666107,-37.981918],[145.667461,-37.982073],[145.667572,-37.980617],[145.673628,-37.979861],[145.674843,-37.981398],[145.682512,-37.983762],[145.68595,-37.985675],[145.68718,-37.986684],[145.690062,-37.987774],[145.691819,-37.987504],[145.69259,-37.988235],[145.694736,-37.987056],[145.69656,-37.987627],[145.699154,-37.989339],[145.701673,-37.989832],[145.702269,-37.989142],[145.701291,-37.98679],[145.701743,-37.985845],[145.701732,-37.981857],[145.704169,-37.98258],[145.704302,-37.992101],[145.70552,-37.992388],[145.707325,-37.992066],[145.711881,-37.99451],[145.715866,-37.995858],[145.716874,-37.996674],[145.721493,-37.997016],[145.723536,-37.998835],[145.725303,-37.99972],[145.727011,-37.999483],[145.72697,-37.995284],[145.73124,-37.99525],[145.731331,-38.00412],[145.738087,-38.004091],[145.740469,-38.005678],[145.74344,-38.008854],[145.745229,-38.008923],[145.764468,-38.008824],[145.764609,-38.007185],[145.763482,-38.005977],[145.761958,-38.002397],[145.762591,-38.001309],[145.762287,-37.999984],[145.761261,-37.999279],[145.761395,-37.996928],[145.762389,-37.995173],[145.762693,-37.993461],[145.762536,-37.990723],[145.76059,-37.988023],[145.756696,-37.985964],[145.756012,-37.982549],[145.755294,-37.981811],[145.752696,-37.980399],[145.749724,-37.977039],[145.747327,-37.975434],[145.739578,-37.971795],[145.737636,-37.969483],[145.736173,-37.966315],[145.734007,-37.963775],[145.733265,-37.961809],[145.73129,-37.960127],[145.731039,-37.958673],[145.732916,-37.95746],[145.73483,-37.95567],[145.736957,-37.955235],[145.736818,-37.953404],[145.735133,-37.951646],[145.734775,-37.950292],[145.736596,-37.948766],[145.740431,-37.948603],[145.741788,-37.947365],[145.742115,-37.943055],[145.744174,-37.940941],[145.744625,-37.939795],[145.747058,-37.937798],[145.746176,-37.936709],[145.746822,-37.936024],[145.7462,-37.934154],[145.743936,-37.932339],[145.742301,-37.930029],[145.741617,-37.929617],[145.741125,-37.927815],[145.74241,-37.926138],[145.745189,-37.925284],[145.746568,-37.924352],[145.74749,-37.922865],[145.747109,-37.921167],[145.747224,-37.919391],[145.750802,-37.917137],[145.750443,-37.915302],[145.74892,-37.912735],[145.748591,-37.910171],[145.749372,-37.908534],[145.747876,-37.907446],[145.745134,-37.905483],[145.743102,-37.905102],[145.740811,-37.903504],[145.738997,-37.903102],[145.737896,-37.902006],[145.734368,-37.901545],[145.733545,-37.903059],[145.730391,-37.903432],[145.728709,-37.902209],[145.728643,-37.901008],[145.727127,-37.899516],[145.728433,-37.898112],[145.728072,-37.896927],[145.726667,-37.896069],[145.725975,-37.89495],[145.724663,-37.894238],[145.723544,-37.89196],[145.723034,-37.889944],[145.72218,-37.889342],[145.722248,-37.88732],[145.721541,-37.885239],[145.718789,-37.884931],[145.716096,-37.883755],[145.714824,-37.884224],[145.712971,-37.886073],[145.711068,-37.886224],[145.707943,-37.887092],[145.705945,-37.887188],[145.703841,-37.886567],[145.702256,-37.886517],[145.699482,-37.885123],[145.697657,-37.885707],[145.695806,-37.885518],[145.693888,-37.886008],[145.691703,-37.885145],[145.689547,-37.883804],[145.688032,-37.881471],[145.686853,-37.880815],[145.685112,-37.88216],[145.68492,-37.883717],[145.686242,-37.885672],[145.685824,-37.887402],[145.686312,-37.888819],[145.681437,-37.891263],[145.679666,-37.89355],[145.676473,-37.893172],[145.675146,-37.893882],[145.673028,-37.893242],[145.671682,-37.893451],[145.670846,-37.895737],[145.669263,-37.897071],[145.669073,-37.899542],[145.669711,-37.901343],[145.670779,-37.902261],[145.671127,-37.903421],[145.670701,-37.907142],[145.667832,-37.908373],[145.662232,-37.908808],[145.657956,-37.90799],[145.656962,-37.908887],[145.653782,-37.910431],[145.65057,-37.912693],[145.650905,-37.914498],[145.652606,-37.916435],[145.64467,-37.917101],[145.642089,-37.918364],[145.636181,-37.917909],[145.634706,-37.918194],[145.632127,-37.918141],[145.631359,-37.918453],[145.630114,-37.917339],[145.628447,-37.917086],[145.626354,-37.917563],[145.62511,-37.916976],[145.626749,-37.909611],[145.614753,-37.908094],[145.615154,-37.906448],[145.614981,-37.904864],[145.616679,-37.904133],[145.613236,-37.903242],[145.613332,-37.90249],[145.608562,-37.901714],[145.603732,-37.901113],[145.604326,-37.898018],[145.589937,-37.896277],[145.588154,-37.897579],[145.585328,-37.896606],[145.580982,-37.897086],[145.578541,-37.897701],[145.57629,-37.897552],[145.575233,-37.899342],[145.572369,-37.898206],[145.571841,-37.896875],[145.570725,-37.895957],[145.569685,-37.89796],[145.567544,-37.897011],[145.567769,-37.895293],[145.568777,-37.894088],[145.568403,-37.892672],[145.567296,-37.89231],[145.565846,-37.889105],[145.564595,-37.887107],[145.562603,-37.885624],[145.562242,-37.881873],[145.561462,-37.881153],[145.556452,-37.878988],[145.555445,-37.878897],[145.554047,-37.877425],[145.554247,-37.876276],[145.553357,-37.874754],[145.5534,-37.873679],[145.551024,-37.872136],[145.549482,-37.872646],[145.547915,-37.872005],[145.544261,-37.871312],[145.541372,-37.871748],[145.539357,-37.870496],[145.539729,-37.869704],[145.538982,-37.868404],[145.53685,-37.86712],[145.535014,-37.866571],[145.5319,-37.866915],[145.530427,-37.866274],[145.530366,-37.864581],[145.528972,-37.862603],[145.522549,-37.857908],[145.521335,-37.857701],[145.519903,-37.858221],[145.524592,-37.859959],[145.525302,-37.862007],[145.526776,-37.863836],[145.526297,-37.868471],[145.527734,-37.869841],[145.528481,-37.871813],[145.52828,-37.87458],[145.528924,-37.87586],[145.52856,-37.87703],[145.52651,-37.879159],[145.527084,-37.880617],[145.525574,-37.882738],[145.526626,-37.884497],[145.525513,-37.887403],[145.523967,-37.886955],[145.5224,-37.887081],[145.520729,-37.889517],[145.517611,-37.892342],[145.514802,-37.893743],[145.511155,-37.897238],[145.509268,-37.897994],[145.507707,-37.899837],[145.505699,-37.899635],[145.503214,-37.900803],[145.500287,-37.899562],[145.497817,-37.900365],[145.494785,-37.899994],[145.492888,-37.898979],[145.492074,-37.899091],[145.48993,-37.898292],[145.489715,-37.899392],[145.481592,-37.898426],[145.479662,-37.90067],[145.473825,-37.899983],[145.469934,-37.902661],[145.469904,-37.906277],[145.469107,-37.910195],[145.466671,-37.912021],[145.464743,-37.910819],[145.464341,-37.909161],[145.463323,-37.90796],[145.46028,-37.907197],[145.459444,-37.905355],[145.45858,-37.905307],[145.456547,-37.907212],[145.454713,-37.906332],[145.451372,-37.907059],[145.450343,-37.906252],[145.447399,-37.905871],[145.446873,-37.906752],[145.444604,-37.906259],[145.442652,-37.907018],[145.442653,-37.908987],[145.442023,-37.909747],[145.440281,-37.909937],[145.438794,-37.912554],[145.43871,-37.914577],[145.428501,-37.913492],[145.425508,-37.919938],[145.422918,-37.919187],[145.419752,-37.926026],[145.418165,-37.925007],[145.417204,-37.92631],[145.416374,-37.926333],[145.415986,-37.928284],[145.411251,-37.927678],[145.411562,-37.926166],[145.410362,-37.926012],[145.409256,-37.927431],[145.400753,-37.926457],[145.400911,-37.92377],[145.399485,-37.921612],[145.398474,-37.921294],[145.39748,-37.922238],[145.394243,-37.923337],[145.391899,-37.923393],[145.389803,-37.924286],[145.385534,-37.927716],[145.384074,-37.929605],[145.384735,-37.932013],[145.384639,-37.933209],[145.385642,-37.934793],[145.385666,-37.936053],[145.383517,-37.938273],[145.382168,-37.941172],[145.383939,-37.949341],[145.385149,-37.951624],[145.385124,-37.95285],[145.384422,-37.954406],[145.381772,-37.956299],[145.381787,-37.956658],[145.387748,-37.95798],[145.387523,-37.960027],[145.388033,-37.970981],[145.386606,-37.971333],[145.384453,-37.970668],[145.383845,-37.971254],[145.383432,-37.974733],[145.382165,-37.974782],[145.379817,-37.973778],[145.37899,-37.975006],[145.366813,-37.973467],[145.357963,-37.971294],[145.318933,-37.966372],[145.317751,-37.966796],[145.316998,-37.967846],[145.315933,-37.971618],[145.314959,-37.976379],[145.314064,-37.97738],[145.311886,-37.978848],[145.310581,-37.980828],[145.310288,-37.983162],[145.311106,-37.984873],[145.313819,-37.98749],[145.314399,-37.989031],[145.311154,-38.004881],[145.311028,-38.00498],[145.308154,-38.019483],[145.308027,-38.021367],[145.307391,-38.023977],[145.303503,-38.043664],[145.308894,-38.045655],[145.318367,-38.045817],[145.319572,-38.045585],[145.31818,-38.048581],[145.318408,-38.049985],[145.320315,-38.052074],[145.320808,-38.053607],[145.321163,-38.056735],[145.322699,-38.057631],[145.32506,-38.057947],[145.326407,-38.060553],[145.327607,-38.063627],[145.327875,-38.067741],[145.330686,-38.068152],[145.33089,-38.069161],[145.33292,-38.070066],[145.336153,-38.07034],[145.33422,-38.080581],[145.332671,-38.089242],[145.330221,-38.103785],[145.327163,-38.118743],[145.345992,-38.12094],[145.364945,-38.123234],[145.383508,-38.125745],[145.399479,-38.142997]]],[[[145.346201,-38.21378],[145.345527973829,-38.215033704360316],[145.35865948449563,-38.223207767070186],[145.3729966921453,-38.22901262282917],[145.38811611482842,-38.232276812055005],[145.43704125223957,-38.238350297254],[145.48255125594025,-38.2440322410667],[145.49029645767885,-38.245070440985344],[145.4909674791284,-38.24542045359043],[145.492847,-38.24389],[145.491017,-38.242471],[145.491037,-38.239706],[145.488532,-38.238329],[145.488988,-38.233414],[145.48559,-38.234142],[145.483008,-38.231982],[145.47918,-38.232301],[145.474365,-38.229513],[145.459991,-38.228038],[145.452466,-38.21876],[145.441756,-38.218692],[145.438385,-38.214401],[145.439085,-38.21632],[145.43647,-38.217589],[145.435577,-38.215461],[145.429965,-38.215171],[145.430497,-38.21652],[145.422665,-38.216895],[145.416098,-38.225922],[145.410917,-38.228048],[145.391925,-38.224129],[145.390739,-38.220986],[145.387512,-38.218771],[145.389397,-38.222492],[145.384366,-38.22097],[145.366722,-38.222339],[145.353378,-38.214725],[145.346201,-38.21378]]]]},"bbox":[145.303503,-38.24542045359043,145.764609,-37.857701]}]}