{"type":"FeatureCollection","features":[
{"properties":{"electorateShortName":"lalor","electorateName":"Lalor","area":493.6,"state":"VIC"},"type":"Feature","geometry":{"type":"Polygon","coordinates":[[[144.591578,-38.004446],[144.580975,-38.011522],[144.576688,-38.016421],[144.575427,-38.020483],[144.567493,-38.022783],[144.566775,-38.02609],[144.562933,-38.029123],[144.562033,-38.032934],[144.558764,-38.035132],[144.558663,-38.037541],[144.550731,-38.036062],[144.538912,-38.040196],[144.53511538332842,-38.0436863325509],[144.539349,-38.039441],[144.534374,-38.042974],[144.519994,-38.044119],[144.515169,-38.046055],[144.512443,-38.051807],[144.513909,-38.054868],[144.512013,-38.059008],[144.513995,-38.06129],[144.515631,-38.061008],[144.51711525499348,-38.05504186155593],[144.517303,-38.056695],[144.514119,-38.06943],[144.51315142441862,-38.070900323944066],[144.51919647030647,-38.07101160538786],[144.52510130989123,-38.075160768587345],[144.5312782450184,-38.0789958173044],[144.536906776405,-38.082046447189995],[144.54350632553664,-38.085020765340026],[144.55206349651536,-38.087985167147764],[144.56508921231168,-38.09119735444324],[144.57019778224407,-38.09193175721157],[144.57623645468968,-38.09312878856402],[144.5899895803622,-38.09443198181414],[144.60378013131503,-38.09361498559124],[144.62313452849173,-38.09096647619857],[144.63397865028213,-38.09182234201591],[144.65255465028213,-38.09163334201591],[144.671633447801,-38.08938890915274],[144.68980129335688,-38.08314652327053],[144.70623045543456,-38.073190589006515],[144.72513445629903,-38.0587676738464],[144.7282064431818,-38.057821996739875],[144.7363794431818,-38.05448599673987],[144.7538835939954,-38.04495799167527],[144.7685516163892,-38.03208352827724],[144.77571174543135,-38.02669681714957],[144.78049132985396,-38.02219341867209],[144.7864034148798,-38.018686740789114],[144.80177708142145,-38.007187221420715],[144.81436189393625,-37.992688564151706],[144.82358518353152,-37.97585052692406],[144.82456303265332,-37.97254233632472],[144.83279136975872,-37.957231149864676],[144.83806291138544,-37.93909823798816],[144.8420588196154,-37.916607856436585],[144.84353827367792,-37.8982105703997],[144.841988811012,-37.88589850379092],[144.84376008559423,-37.88339762795208],[144.85088814220802,-37.86756448170027],[144.85176377814724,-37.8638211727478],[144.850369,-37.863943],[144.840214,-37.871507],[144.826561,-37.870863],[144.819566,-37.872528],[144.807735,-37.880643],[144.807636,-37.891284],[144.800995,-37.898549],[144.797522,-37.906676],[144.797013,-37.917642],[144.79917,-37.92317],[144.796078,-37.923861],[144.792834,-37.927342],[144.773836,-37.929182],[144.761028,-37.937347],[144.744038,-37.939266],[144.74049,-37.941279],[144.742765,-37.928815],[144.742515,-37.928691],[144.743415,-37.923971],[144.744094,-37.923105],[144.74553,-37.922746],[144.749482,-37.923179],[144.753561,-37.900233],[144.726617,-37.89718],[144.716863,-37.896116],[144.718022,-37.888806],[144.719303,-37.881535],[144.718952,-37.878042],[144.73691,-37.873462],[144.735474,-37.869808],[144.734501,-37.86891],[144.734534,-37.867346],[144.731346,-37.863285],[144.731793,-37.863037],[144.730616,-37.857986],[144.731271,-37.852724],[144.746544,-37.854009],[144.761029,-37.843993],[144.76564,-37.838707],[144.769171,-37.812217],[144.769138,-37.812017],[144.75097,-37.810463],[144.750776,-37.810371],[144.708886,-37.806863],[144.70494,-37.806047],[144.686704,-37.804037],[144.638789,-37.798604],[144.632016,-37.797908],[144.623011,-37.796813],[144.604728,-37.794696],[144.59229,-37.79358],[144.588763,-37.79313],[144.588229,-37.794305],[144.586911,-37.794746],[144.584765,-37.794715],[144.583188,-37.795397],[144.581634,-37.797057],[144.580274,-37.797723],[144.578186,-37.799399],[144.578358,-37.800032],[144.580078,-37.800844],[144.582357,-37.801296],[144.581583,-37.803047],[144.579999,-37.804363],[144.57756,-37.804137],[144.567576,-37.798894],[144.548797,-37.797141],[144.532683,-37.787272],[144.495907,-37.783085],[144.49002,-37.782358],[144.477678,-37.781013],[144.477743,-37.781373],[144.475378,-37.793406],[144.469749,-37.823447],[144.466844,-37.839095],[144.448985,-37.837061],[144.444053,-37.864132],[144.446192,-37.864015],[144.44719,-37.864929],[144.447337,-37.86768],[144.449214,-37.868645],[144.45026,-37.867541],[144.453032,-37.867078],[144.454706,-37.867615],[144.454348,-37.868869],[144.456188,-37.870913],[144.456039,-37.871973],[144.457396,-37.872746],[144.458322,-37.873965],[144.460571,-37.873695],[144.462941,-37.875132],[144.463522,-37.877052],[144.466426,-37.880307],[144.467733,-37.88244],[144.469323,-37.884197],[144.471229,-37.883172],[144.472887,-37.88319],[144.472384,-37.885272],[144.471497,-37.886701],[144.472026,-37.887831],[144.47314,-37.888121],[144.474615,-37.886681],[144.47642,-37.88717],[144.479984,-37.888794],[144.480797,-37.890329],[144.480163,-37.891533],[144.480033,-37.893681],[144.479552,-37.895035],[144.481362,-37.896994],[144.481579,-37.898426],[144.481072,-37.899385],[144.482603,-37.901463],[144.484078,-37.902448],[144.484535,-37.906379],[144.484282,-37.907485],[144.484671,-37.909155],[144.482381,-37.90942],[144.481416,-37.909062],[144.478112,-37.910793],[144.478733,-37.912462],[144.478509,-37.914865],[144.477622,-37.916026],[144.476418,-37.916456],[144.477483,-37.918022],[144.476717,-37.920081],[144.477166,-37.922274],[144.479028,-37.922245],[144.480889,-37.921429],[144.482503,-37.92273],[144.482125,-37.923708],[144.480734,-37.92365],[144.480725,-37.924986],[144.479891,-37.926825],[144.478995,-37.927597],[144.475576,-37.927824],[144.475064,-37.928543],[144.476497,-37.92956],[144.477168,-37.931455],[144.476819,-37.933099],[144.474146,-37.934156],[144.474056,-37.935852],[144.474606,-37.936542],[144.476778,-37.936548],[144.478848,-37.93883],[144.476667,-37.940106],[144.476925,-37.941966],[144.479619,-37.94235],[144.479611,-37.94438],[144.477307,-37.945022],[144.477137,-37.945976],[144.480038,-37.949139],[144.479886,-37.949947],[144.482189,-37.95203],[144.48438,-37.953323],[144.485202,-37.954956],[144.486215,-37.955128],[144.488264,-37.957143],[144.488659,-37.958292],[144.488646,-37.960451],[144.489497,-37.961268],[144.490728,-37.960942],[144.491896,-37.961823],[144.493946,-37.96241],[144.494483,-37.963352],[144.496435,-37.964359],[144.495337,-37.965498],[144.494764,-37.967829],[144.494621,-37.970522],[144.495363,-37.97183],[144.495417,-37.973762],[144.496157,-37.974515],[144.497335,-37.973979],[144.50187,-37.975722],[144.505966,-37.97389],[144.507104,-37.973816],[144.508481,-37.974609],[144.508389,-37.977349],[144.509224,-37.978505],[144.510476,-37.977636],[144.511676,-37.977792],[144.513332,-37.97956],[144.516108,-37.9795],[144.517519,-37.981034],[144.519443,-37.980834],[144.52048,-37.980215],[144.522121,-37.980452],[144.522952,-37.979789],[144.523235,-37.978496],[144.522712,-37.976677],[144.523462,-37.975615],[144.523961,-37.973407],[144.526477,-37.973993],[144.528867,-37.972926],[144.531527,-37.971312],[144.533633,-37.971246],[144.536462,-37.97248],[144.539899,-37.97138],[144.541643,-37.971302],[144.545231,-37.972269],[144.547547,-37.971871],[144.547735,-37.973537],[144.548631,-37.97472],[144.550488,-37.975864],[144.549617,-37.978813],[144.550989,-37.979515],[144.552201,-37.982352],[144.553513,-37.983015],[144.554588,-37.984748],[144.555894,-37.98528],[144.556757,-37.984815],[144.560842,-37.984712],[144.563759,-37.986549],[144.565843,-37.986704],[144.566652,-37.986267],[144.566243,-37.984717],[144.566919,-37.983994],[144.568376,-37.985282],[144.568426,-37.988467],[144.569364,-37.989024],[144.570897,-37.991406],[144.572071,-37.992231],[144.572306,-37.993495],[144.573373,-37.994329],[144.573213,-37.996036],[144.571985,-37.996432],[144.572046,-37.997893],[144.573351,-37.999183],[144.577308,-38.001598],[144.580212,-38.002477],[144.58348,-38.002568],[144.589734,-38.004127],[144.591578,-38.004446]],[[144.53418980228645,-38.04453724427538],[144.533681,-38.045005],[144.519247,-38.049097],[144.517194,-38.04848],[144.53418980228645,-38.04453724427538]]]},"bbox":[144.444053,-38.09443198181414,144.85176377814724,-37.781013]}]}