{"type":"FeatureCollection","features":[
{"properties":{"electorateShortName":"lalor","electorateName":"Lalor","area":493.6,"state":"VIC"},"type":"Feature","geometry":{"type":"Polygon","coordinates":[[[144.74049,-37.941279],[144.743415,-37.923971],[144.749482,-37.923179],[144.753561,-37.900233],[144.716863,-37.896116],[144.718952,-37.878042],[144.73691,-37.873462],[144.731793,-37.863037],[144.731271,-37.852724],[144.746544,-37.854009],[144.761029,-37.843993],[144.76564,-37.838707],[144.769138,-37.812017],[144.708886,-37.806863],[144.70494,-37.806047],[144.604728,-37.794696],[144.588763,-37.79313],[144.578186,-37.799399],[144.57756,-37.804137],[144.567576,-37.798894],[144.548797,-37.797141],[144.532683,-37.787272],[144.477678,-37.781013],[144.466844,-37.839095],[144.448985,-37.837061],[144.444053,-37.864132],[144.453032,-37.867078],[144.460571,-37.873695],[144.471497,-37.886701],[144.479984,-37.888794],[144.479552,-37.895035],[144.484078,-37.902448],[144.484671,-37.909155],[144.478112,-37.910793],[144.477166,-37.922274],[144.482503,-37.92273],[144.474146,-37.934156],[144.478848,-37.93883],[144.477137,-37.945976],[144.493946,-37.96241],[144.495417,-37.973762],[144.517519,-37.981034],[144.522121,-37.980452],[144.523961,-37.973407],[144.531527,-37.971312],[144.541643,-37.971302],[144.550488,-37.975864],[144.554588,-37.984748],[144.566652,-37.986267],[144.573373,-37.994329],[144.572046,-37.997893],[144.577308,-38.001598],[144.591578,-38.004446],[144.623074,-38.000136],[144.633063,-38.001827],[144.651639,-38.001638],[144.688341,-37.973636],[144.694195,-37.974496],[144.702368,-37.97116],[144.707922,-37.965071],[144.721605,-37.954777],[144.723354,-37.951443],[144.74049,-37.941279]]]},"bbox":[144.444053,-38.004446,144.769138,-37.781013]}]}