{"type":"FeatureCollection","features":[
{"properties":{"electorateShortName":"lindsay","electorateName":"Lindsay","area":339.036628,"state":"NSW"},"type":"Feature","geometry":{"type":"Polygon","coordinates":[[[150.812394,-33.677614],[150.808445,-33.673656],[150.803013,-33.66768],[150.796438,-33.660184],[150.79541,-33.65798],[150.791687,-33.649208],[150.790062,-33.646387],[150.787845,-33.643419],[150.784646,-33.640331],[150.782148,-33.637517],[150.774087,-33.634954],[150.773668,-33.634578],[150.757007,-33.629296],[150.75116,-33.62751],[150.738708,-33.623427],[150.721427,-33.617971],[150.719827,-33.61721],[150.713224,-33.615112],[150.708442,-33.61346],[150.701411,-33.61241],[150.69952,-33.612281],[150.699486,-33.613705],[150.696049,-33.618181],[150.694364,-33.620099],[150.691453,-33.621669],[150.687803,-33.622524],[150.685214,-33.622036],[150.681494,-33.625074],[150.679352,-33.627448],[150.677209,-33.630807],[150.674603,-33.637119],[150.672287,-33.641173],[150.669682,-33.647138],[150.66891,-33.649237],[150.667371,-33.651738],[150.666241,-33.654087],[150.666636,-33.656334],[150.66779,-33.659566],[150.667313,-33.659799],[150.667916,-33.663122],[150.667144,-33.666432],[150.665727,-33.667697],[150.661772,-33.669526],[150.660753,-33.669754],[150.658941,-33.673076],[150.657889,-33.677031],[150.659478,-33.689374],[150.659825,-33.692884],[150.659154,-33.697456],[150.658593,-33.702417],[150.658581,-33.704423],[150.658959,-33.70596],[150.658658,-33.709277],[150.657854,-33.712954],[150.657963,-33.713722],[150.655767,-33.716939],[150.654542,-33.716615],[150.649672,-33.716031],[150.648439,-33.721852],[150.644053,-33.721212],[150.64248,-33.730184],[150.647038,-33.730849],[150.646276,-33.734426],[150.644155,-33.734116],[150.642518,-33.741955],[150.641447,-33.744119],[150.64133,-33.745569],[150.640571,-33.748033],[150.641996,-33.748943],[150.643841,-33.749361],[150.644895,-33.751622],[150.644641,-33.753256],[150.642283,-33.756287],[150.641691,-33.758026],[150.642612,-33.761057],[150.641938,-33.76384],[150.643217,-33.766645],[150.643068,-33.767981],[150.642326,-33.769213],[150.642188,-33.770998],[150.642764,-33.773064],[150.642706,-33.775381],[150.641825,-33.777097],[150.640025,-33.778051],[150.639596,-33.779237],[150.640576,-33.779927],[150.642299,-33.779616],[150.642575,-33.780466],[150.64072,-33.781917],[150.636526,-33.788687],[150.633115,-33.795626],[150.631951,-33.797159],[150.628089,-33.80157],[150.626433,-33.804388],[150.623061,-33.808799],[150.619689,-33.814068],[150.617666,-33.815722],[150.614969,-33.818357],[150.609144,-33.822584],[150.606385,-33.823442],[150.599826,-33.826015],[150.597329,-33.827355],[150.594507,-33.830241],[150.592768,-33.832471],[150.591258,-33.834996],[150.590405,-33.83739],[150.589256,-33.841686],[150.588042,-33.844933],[150.588239,-33.846966],[150.58942,-33.849918],[150.591947,-33.85464],[150.593654,-33.856312],[150.594737,-33.85687],[150.597329,-33.857296],[150.602974,-33.857263],[150.606781,-33.857034],[150.61039,-33.857395],[150.611179,-33.859722],[150.612801,-33.861848],[150.617437,-33.862323],[150.619973,-33.860986],[150.622056,-33.861773],[150.624427,-33.861389],[150.625743,-33.862447],[150.628607,-33.861964],[150.629326,-33.859721],[150.630442,-33.858039],[150.63203,-33.856514],[150.634846,-33.855101],[150.64115,-33.85362],[150.646716,-33.851225],[150.656267,-33.846744],[150.662904,-33.844788],[150.672337,-33.842403],[150.673222,-33.841775],[150.67834,-33.843112],[150.684125,-33.845714],[150.686432,-33.846253],[150.687887,-33.846132],[150.688377,-33.848169],[150.689385,-33.84932],[150.69215,-33.851548],[150.69274,-33.852331],[150.693841,-33.855144],[150.697679,-33.860238],[150.698269,-33.864047],[150.706521,-33.864457],[150.709284,-33.864782],[150.713208,-33.865977],[150.716395,-33.868164],[150.718105,-33.869001],[150.720908,-33.869416],[150.734634,-33.871186],[150.743659,-33.872465],[150.758474,-33.874431],[150.76188,-33.874813],[150.767908,-33.875728],[150.773293,-33.873935],[150.774422,-33.874876],[150.774153,-33.871574],[150.775955,-33.870768],[150.774846,-33.869339],[150.773491,-33.869239],[150.77317,-33.867786],[150.771653,-33.866895],[150.769596,-33.866758],[150.769604,-33.86571],[150.770576,-33.865374],[150.77083,-33.864209],[150.769461,-33.86297],[150.771061,-33.861625],[150.769665,-33.859143],[150.768265,-33.858008],[150.768358,-33.856717],[150.769335,-33.854869],[150.770028,-33.854632],[150.770273,-33.852291],[150.77067,-33.851859],[150.76863,-33.849477],[150.768453,-33.848819],[150.769528,-33.841975],[150.768926,-33.841319],[150.768657,-33.83904],[150.768791,-33.836438],[150.767516,-33.835749],[150.765855,-33.835483],[150.765861,-33.833407],[150.766679,-33.831801],[150.766245,-33.828873],[150.762042,-33.828598],[150.761148,-33.827566],[150.76133,-33.825995],[150.765882,-33.822112],[150.766022,-33.820639],[150.765289,-33.816233],[150.763826,-33.814131],[150.764587,-33.812699],[150.768243,-33.813251],[150.769971,-33.810577],[150.770333,-33.808894],[150.76971,-33.806335],[150.768249,-33.804835],[150.764682,-33.80533],[150.76215,-33.804268],[150.761893,-33.803319],[150.76355,-33.802018],[150.763483,-33.799812],[150.763993,-33.798533],[150.763756,-33.796769],[150.761565,-33.795513],[150.760426,-33.795879],[150.759028,-33.794667],[150.758555,-33.792497],[150.76051,-33.790377],[150.762562,-33.789864],[150.763007,-33.789155],[150.761881,-33.787317],[150.761727,-33.786098],[150.762601,-33.785179],[150.765462,-33.784352],[150.765151,-33.783428],[150.773714,-33.784412],[150.781632,-33.785783],[150.786566,-33.786843],[150.801251,-33.790162],[150.805882,-33.790822],[150.811485,-33.791122],[150.81176,-33.788799],[150.811356,-33.788069],[150.809399,-33.787934],[150.809787,-33.786978],[150.80903,-33.786084],[150.810218,-33.784535],[150.80833,-33.783851],[150.808085,-33.781308],[150.806919,-33.779911],[150.805368,-33.779586],[150.805209,-33.778379],[150.803381,-33.776811],[150.802625,-33.774474],[150.802833,-33.772919],[150.801582,-33.771794],[150.800125,-33.768693],[150.798338,-33.767147],[150.7967,-33.764329],[150.795689,-33.764249],[150.794639,-33.760788],[150.794022,-33.75948],[150.792773,-33.758528],[150.791719,-33.755375],[150.7925,-33.755201],[150.79287,-33.753332],[150.79085,-33.751731],[150.788978,-33.751299],[150.789541,-33.74939],[150.788828,-33.74803],[150.788571,-33.746318],[150.786566,-33.746232],[150.78494,-33.744317],[150.783785,-33.740777],[150.782527,-33.740038],[150.778461,-33.739948],[150.777262,-33.739021],[150.777027,-33.737382],[150.775572,-33.736269],[150.761788,-33.735201],[150.761684,-33.732376],[150.75963,-33.730076],[150.760265,-33.728667],[150.763145,-33.727578],[150.763955,-33.725692],[150.762459,-33.721631],[150.76272,-33.720624],[150.764119,-33.719513],[150.763923,-33.71882],[150.765505,-33.718091],[150.766987,-33.714261],[150.767748,-33.713497],[150.767579,-33.711735],[150.766682,-33.71026],[150.765994,-33.705777],[150.767974,-33.705427],[150.769551,-33.703066],[150.771181,-33.701799],[150.772859,-33.701415],[150.775818,-33.704047],[150.777648,-33.702958],[150.779569,-33.701251],[150.779912,-33.700245],[150.779654,-33.698158],[150.778876,-33.697056],[150.779977,-33.695917],[150.782008,-33.694543],[150.783336,-33.694423],[150.785057,-33.693379],[150.785809,-33.692455],[150.785831,-33.691214],[150.788001,-33.690694],[150.789749,-33.689908],[150.791191,-33.6888],[150.79151,-33.68787],[150.790364,-33.686672],[150.792486,-33.685726],[150.795086,-33.684965],[150.795748,-33.68317],[150.796804,-33.679157],[150.799339,-33.675604],[150.8013,-33.674247],[150.80165,-33.67517],[150.803216,-33.675515],[150.805005,-33.674842],[150.805853,-33.676502],[150.807524,-33.678094],[150.810212,-33.678533],[150.812394,-33.677614]]]},"bbox":[150.588042,-33.875728,150.812394,-33.612281]}]}