{"type":"FeatureCollection","features":[
{"properties":{"electorateShortName":"lyne","electorateName":"Lyne","area":16099.473299,"state":"NSW"},"type":"Feature","geometry":{"type":"Polygon","coordinates":[[[152.915202,-31.492816],[152.874346,-31.488122],[152.843392,-31.479562],[152.84069,-31.476018],[152.814899,-31.476896],[152.823998,-31.446452],[152.824844,-31.413747],[152.804653,-31.382577],[152.793948,-31.355012],[152.785939,-31.343094],[152.759192,-31.34064],[152.744183,-31.345726],[152.736674,-31.340141],[152.732222,-31.325718],[152.735387,-31.319015],[152.711973,-31.301117],[152.69005,-31.262699],[152.674271,-31.253765],[152.679693,-31.227203],[152.705219,-31.207461],[152.724094,-31.206176],[152.726882,-31.213217],[152.746399,-31.21646],[152.751654,-31.194713],[152.740383,-31.187278],[152.705956,-31.180721],[152.709376,-31.163456],[152.706943,-31.151512],[152.693307,-31.141455],[152.681127,-31.140929],[152.671742,-31.153149],[152.657781,-31.149226],[152.650273,-31.154256],[152.64048,-31.14974],[152.631646,-31.138326],[152.614845,-31.136131],[152.597606,-31.123699],[152.574175,-31.131573],[152.561495,-31.129865],[152.555966,-31.148409],[152.541162,-31.152034],[152.539697,-31.162886],[152.513884,-31.167638],[152.505574,-31.163125],[152.49118,-31.168036],[152.470766,-31.166289],[152.455832,-31.155831],[152.449824,-31.159897],[152.431331,-31.158611],[152.412845,-31.165378],[152.405619,-31.163231],[152.385897,-31.166653],[152.36943,-31.156354],[152.368173,-31.136362],[152.349587,-31.117004],[152.336641,-31.116269],[152.330897,-31.127464],[152.316572,-31.202936],[152.254681,-31.194535],[152.253103,-31.205393],[152.223397,-31.207902],[152.199673,-31.193581],[152.175595,-31.19851],[152.170211,-31.190611],[152.157201,-31.186285],[152.14755,-31.196017],[152.154124,-31.209319],[152.151562,-31.226388],[152.16305,-31.231321],[152.1475,-31.279899],[152.137785,-31.284686],[152.123679,-31.278729],[152.103123,-31.373415],[152.09976,-31.392027],[152.087244,-31.391719],[152.065575,-31.409145],[152.061895,-31.429235],[152.064663,-31.438591],[152.085306,-31.449821],[152.079653,-31.46276],[152.083904,-31.500522],[151.91277,-31.4767],[151.915755,-31.510067],[151.84458,-31.499475],[151.842759,-31.509038],[151.802351,-31.505003],[151.789327,-31.514938],[151.761575,-31.511185],[151.753741,-31.524385],[151.763901,-31.540943],[151.787466,-31.549545],[151.788201,-31.559293],[151.802497,-31.573861],[151.757149,-31.601741],[151.756756,-31.638142],[151.739632,-31.635846],[151.713236,-31.620648],[151.690622,-31.622773],[151.688803,-31.614094],[151.644412,-31.611373],[151.634462,-31.614695],[151.623888,-31.606812],[151.610475,-31.606683],[151.600991,-31.595498],[151.569831,-31.609953],[151.558956,-31.603567],[151.540071,-31.600501],[151.535647,-31.596086],[151.524081,-31.659787],[151.522466,-31.679691],[151.532389,-31.697316],[151.517871,-31.768467],[151.540731,-31.775763],[151.54256,-31.780081],[151.56809,-31.790521],[151.572235,-31.787187],[151.594022,-31.78969],[151.584899,-31.837576],[151.57678,-31.85484],[151.556248,-31.861963],[151.556427,-31.849326],[151.535463,-31.84554],[151.516642,-31.852535],[151.515154,-31.865728],[151.491173,-31.878161],[151.484698,-31.892795],[151.469466,-31.896611],[151.469226,-31.906085],[151.455799,-31.923058],[151.450361,-31.944195],[151.442452,-31.949366],[151.448739,-31.961657],[151.446091,-31.970044],[151.454726,-31.995979],[151.433128,-32.016711],[151.408589,-32.032685],[151.406738,-32.058774],[151.394632,-32.069713],[151.387446,-32.083526],[151.35298,-32.080969],[151.335448,-32.082403],[151.334411,-32.091944],[151.324628,-32.094257],[151.312247,-32.111336],[151.309698,-32.138984],[151.327558,-32.154221],[151.327214,-32.171672],[151.34264,-32.176516],[151.343636,-32.192718],[151.348728,-32.203724],[151.348126,-32.219062],[151.33714,-32.237322],[151.342958,-32.249068],[151.339355,-32.261983],[151.361307,-32.289213],[151.371487,-32.291598],[151.382997,-32.324113],[151.393668,-32.325601],[151.395901,-32.339514],[151.410765,-32.349036],[151.413338,-32.356242],[151.428128,-32.370042],[151.428382,-32.376962],[151.446149,-32.407075],[151.466505,-32.419382],[151.473929,-32.429147],[151.467989,-32.436818],[151.468575,-32.4481],[151.454373,-32.464599],[151.456798,-32.472384],[151.500727,-32.504188],[151.49508,-32.524045],[151.502072,-32.529277],[151.496068,-32.557305],[151.479718,-32.555213],[151.473945,-32.586517],[151.477057,-32.593755],[151.470816,-32.618177],[151.434772,-32.613621],[151.432792,-32.627337],[151.424383,-32.646217],[151.403078,-32.661303],[151.407184,-32.679147],[151.424995,-32.691366],[151.438599,-32.68217],[151.437698,-32.671561],[151.451577,-32.670754],[151.453371,-32.656502],[151.471345,-32.662503],[151.484052,-32.637074],[151.496875,-32.638999],[151.510743,-32.66365],[151.509915,-32.687487],[151.518456,-32.693278],[151.535393,-32.679101],[151.543176,-32.687608],[151.566236,-32.688561],[151.569049,-32.697386],[151.554002,-32.728486],[151.580725,-32.736048],[151.58995,-32.732383],[151.589503,-32.722869],[151.599749,-32.716142],[151.612901,-32.714914],[151.619945,-32.722822],[151.641298,-32.71886],[151.654059,-32.724982],[151.665226,-32.739649],[151.673875,-32.741315],[151.686176,-32.727182],[151.714642,-32.736929],[151.727015,-32.751268],[151.743356,-32.746645],[151.734006,-32.736067],[151.747545,-32.720581],[151.744122,-32.713501],[151.753831,-32.700754],[151.749351,-32.687152],[151.756003,-32.678348],[151.809842,-32.686222],[151.844219,-32.661604],[151.894875,-32.668889],[151.896241,-32.658999],[151.932013,-32.661416],[151.940611,-32.673964],[151.976222,-32.684583],[152.039421,-32.692282],[152.05231,-32.688083],[152.124656,-32.699981],[152.187855,-32.70488],[152.194486,-32.707671],[152.209158,-32.696684],[152.191883,-32.694347],[152.187085,-32.686966],[152.18698,-32.669451],[152.195678,-32.647922],[152.214414,-32.627575],[152.244665,-32.608921],[152.285026,-32.594775],[152.302933,-32.559295],[152.317373,-32.542737],[152.33563,-32.527079],[152.36423,-32.508746],[152.406847,-32.490264],[152.418854,-32.482549],[152.448291,-32.470819],[152.479054,-32.460889],[152.499522,-32.457621],[152.533347,-32.44304],[152.519552,-32.428291],[152.516316,-32.408505],[152.522735,-32.388081],[152.532087,-32.378525],[152.529901,-32.370672],[152.534505,-32.35565],[152.545767,-32.3371],[152.523441,-32.311726],[152.526786,-32.280044],[152.536688,-32.259276],[152.551115,-32.239944],[152.566357,-32.229514],[152.56751,-32.211487],[152.543249,-32.201587],[152.536228,-32.182798],[152.512869,-32.177632],[152.506396,-32.165553],[152.505288,-32.151301],[152.508752,-32.129038],[152.51686,-32.107986],[152.526417,-32.093818],[152.548008,-32.073271],[152.548239,-32.058236],[152.541753,-32.048143],[152.54381,-32.036093],[152.555169,-32.018379],[152.564547,-32.010515],[152.577946,-31.985801],[152.596368,-31.967604],[152.608794,-31.94714],[152.633525,-31.922438],[152.657126,-31.903104],[152.685399,-31.883555],[152.700944,-31.875801],[152.714469,-31.863855],[152.745085,-31.845878],[152.734537,-31.831985],[152.733526,-31.820665],[152.739166,-31.803905],[152.747952,-31.789103],[152.765099,-31.76752],[152.797657,-31.733566],[152.803959,-31.722581],[152.795297,-31.717153],[152.793334,-31.705666],[152.807534,-31.678414],[152.842205,-31.642064],[152.833956,-31.629019],[152.839818,-31.610133],[152.847861,-31.598227],[152.840123,-31.58938],[152.844584,-31.574441],[152.863677,-31.544537],[152.893286,-31.513089],[152.915202,-31.492816]]]},"bbox":[151.309698,-32.751268,152.915202,-31.116269]}]}