{"type":"FeatureCollection","features":[
{"properties":{"electorateShortName":"lyons","electorateName":"Lyons","area":35721.830094,"state":"TAS"},"type":"Feature","geometry":{"type":"MultiPolygon","coordinates":[[[[147.434128,-42.77554],[147.437814,-42.779689],[147.44746,-42.780712],[147.448442,-42.775934],[147.454908,-42.774489],[147.448728,-42.768297],[147.457837,-42.766314],[147.468398,-42.772457],[147.456874,-42.781351],[147.466344,-42.792329],[147.475962,-42.795778],[147.487271,-42.803107],[147.491535,-42.797517],[147.49915,-42.793952],[147.512057,-42.782992],[147.52073,-42.785269],[147.519664,-42.788457],[147.527827,-42.805182],[147.53521,-42.805304],[147.539722,-42.80117],[147.534868,-42.793056],[147.530285,-42.790592],[147.530835,-42.781071],[147.538792,-42.784798],[147.550376,-42.785365],[147.551738,-42.793318],[147.561441,-42.797088],[147.56514,-42.794264],[147.587838,-42.797638],[147.597702,-42.796115],[147.601229,-42.803164],[147.59605,-42.807738],[147.59673,-42.813354],[147.605434,-42.826281],[147.605553,-42.83061],[147.616443,-42.837203],[147.621242,-42.842508],[147.620752,-42.850623],[147.612708,-42.85697],[147.610119,-42.865916],[147.653331,-42.87877],[147.656678,-42.875986],[147.68049,-42.865496],[147.677242,-42.874522],[147.664073,-42.874254],[147.656127,-42.881995],[147.647514,-42.877892],[147.641898,-42.877776],[147.639225,-42.884018],[147.641854,-42.890014],[147.649472,-42.893135],[147.65446,-42.886363],[147.65954,-42.886605],[147.670495,-42.893653],[147.66907,-42.901896],[147.680151,-42.900145],[147.688125,-42.896698],[147.69498,-42.891238],[147.704233,-42.894464],[147.714063,-42.891244],[147.721994,-42.886558],[147.729598,-42.892458],[147.736001,-42.894821],[147.749591,-42.896728],[147.751873,-42.90114],[147.76131,-42.901493],[147.766927,-42.906846],[147.77089,-42.899199],[147.781698,-42.899662],[147.790243,-42.903176],[147.790239,-42.895373],[147.794848,-42.891665],[147.802348,-42.893145],[147.814782,-42.88853],[147.825892,-42.876594],[147.82868,-42.868062],[147.835137,-42.865391],[147.842758,-42.876349],[147.845372,-42.871638],[147.835673,-42.864804],[147.839905,-42.852537],[147.844038,-42.845775],[147.853259,-42.842873],[147.856441,-42.831647],[147.861142,-42.827069],[147.873337,-42.831452],[147.869535,-42.818752],[147.869015,-42.808194],[147.872278,-42.786681],[147.88239,-42.763832],[147.900001,-42.743854],[147.904997,-42.744023],[147.909598,-42.739508],[147.927133,-42.739027],[147.938087,-42.734406],[147.946234,-42.726062],[147.943357,-42.721969],[147.947273,-42.709103],[147.942166,-42.707642],[147.938763,-42.700692],[147.944942,-42.690436],[147.957541,-42.685019],[147.959295,-42.676073],[147.962992,-42.669542],[147.953484,-42.66107],[147.95163,-42.654402],[147.943671,-42.655051],[147.938703,-42.64801],[147.957712,-42.652588],[147.95548,-42.644901],[147.936438,-42.636304],[147.931612,-42.631559],[147.945698,-42.610174],[147.945502,-42.606319],[147.936138,-42.603713],[147.923282,-42.591844],[147.91726,-42.590013],[147.914574,-42.582791],[147.910613,-42.581337],[147.907718,-42.569437],[147.899105,-42.565324],[147.896178,-42.568975],[147.881807,-42.566941],[147.877874,-42.56054],[147.87161,-42.55724],[147.882108,-42.550918],[147.888446,-42.54526],[147.904936,-42.546555],[147.91337,-42.548512],[147.916524,-42.544766],[147.913282,-42.530651],[147.910219,-42.531201],[147.898598,-42.521309],[147.907628,-42.510776],[147.913896,-42.510941],[147.914208,-42.516288],[147.930358,-42.530803],[147.925191,-42.53816],[147.931027,-42.540192],[147.932352,-42.550122],[147.940814,-42.546923],[147.94897,-42.55323],[147.955031,-42.551446],[147.955037,-42.538191],[147.958205,-42.531939],[147.968245,-42.529113],[147.966928,-42.523153],[147.975255,-42.516159],[147.983241,-42.515998],[147.988776,-42.524541],[147.994823,-42.526537],[147.998375,-42.521185],[148.011088,-42.509337],[147.997042,-42.501569],[147.994402,-42.489953],[147.996728,-42.476206],[148.007543,-42.458225],[148.009872,-42.44028],[148.000035,-42.440372],[147.99258,-42.43753],[147.998899,-42.432996],[147.994083,-42.427505],[147.993284,-42.418245],[147.98537,-42.415189],[147.980503,-42.405351],[147.983275,-42.40214],[147.987756,-42.389042],[147.997366,-42.37892],[148.008584,-42.373728],[148.009847,-42.363239],[148.018325,-42.353933],[148.02459,-42.342416],[148.019139,-42.338055],[148.014536,-42.320515],[148.018785,-42.317675],[147.999993,-42.315114],[147.996058,-42.311551],[147.99032,-42.314973],[147.992169,-42.318535],[147.988072,-42.324824],[147.978283,-42.325359],[147.981426,-42.329761],[147.969214,-42.341557],[147.960139,-42.34144],[147.959312,-42.351579],[147.951333,-42.343867],[147.93482,-42.348575],[147.93113,-42.343481],[147.936344,-42.340652],[147.943687,-42.343173],[147.952921,-42.336661],[147.970437,-42.332961],[147.974862,-42.328406],[147.970389,-42.32587],[147.977447,-42.314104],[147.981285,-42.31059],[148.000346,-42.309933],[148.000247,-42.30408],[148.003679,-42.296382],[148.015615,-42.285468],[148.012468,-42.279697],[148.015839,-42.274584],[148.014807,-42.268237],[148.023606,-42.261393],[148.024437,-42.254426],[148.013167,-42.249462],[148.013583,-42.23935],[148.02543,-42.226773],[148.029478,-42.225046],[148.031743,-42.217563],[148.042671,-42.209639],[148.043948,-42.203008],[148.049919,-42.19891],[148.065971,-42.192517],[148.068934,-42.181129],[148.07639,-42.170596],[148.083882,-42.167915],[148.078859,-42.163013],[148.076744,-42.148175],[148.081257,-42.143929],[148.077744,-42.140488],[148.076611,-42.132595],[148.085092,-42.125511],[148.075869,-42.123244],[148.072993,-42.112401],[148.08321,-42.103867],[148.09735,-42.09738],[148.123932,-42.092425],[148.165537,-42.09135],[148.199884,-42.09417],[148.231032,-42.09953],[148.233427,-42.092572],[148.211365,-42.084914],[148.183822,-42.08189],[148.176155,-42.084641],[148.167508,-42.084963],[148.150762,-42.074493],[148.129601,-42.080244],[148.127247,-42.073728],[148.122972,-42.070386],[148.129528,-42.061112],[148.139578,-42.063381],[148.152545,-42.062212],[148.165024,-42.051755],[148.157326,-42.048968],[148.162513,-42.044109],[148.162358,-42.038668],[148.155909,-42.035451],[148.150797,-42.04019],[148.148927,-42.048243],[148.139775,-42.050127],[148.144587,-42.03719],[148.14351,-42.029777],[148.145867,-42.026966],[148.143417,-42.020525],[148.145366,-42.015408],[148.153689,-42.010224],[148.15354,-42.005184],[148.165862,-41.996286],[148.170989,-41.997075],[148.173422,-42.008975],[148.184307,-42.011125],[148.187023,-42.01852],[148.198259,-42.02066],[148.210876,-42.010453],[148.213123,-42.004763],[148.217841,-42.001674],[148.212291,-41.99628],[148.215802,-41.98803],[148.221927,-41.990265],[148.230875,-41.984062],[148.24055,-41.986231],[148.245414,-41.992401],[148.243049,-42.002531],[148.233304,-42.00935],[148.226496,-42.022181],[148.222077,-42.020941],[148.21431,-42.035654],[148.206653,-42.039409],[148.192954,-42.036052],[148.179861,-42.04304],[148.172684,-42.043377],[148.170605,-42.051273],[148.173159,-42.055798],[148.163343,-42.057437],[148.156829,-42.065179],[148.157202,-42.074233],[148.162198,-42.077946],[148.18697,-42.077836],[148.197645,-42.067186],[148.213229,-42.071434],[148.208443,-42.077391],[148.241674,-42.091033],[148.236533,-42.096831],[148.236793,-42.101073],[148.243563,-42.105125],[148.244174,-42.110751],[148.251074,-42.114526],[148.267619,-42.112348],[148.282802,-42.120953],[148.283392,-42.128068],[148.288946,-42.128734],[148.298424,-42.12564],[148.302408,-42.134095],[148.297604,-42.140164],[148.29184,-42.141264],[148.272561,-42.148554],[148.265034,-42.155713],[148.259259,-42.165704],[148.264011,-42.169186],[148.271446,-42.168477],[148.279955,-42.175157],[148.291519,-42.190358],[148.290475,-42.198604],[148.276665,-42.207707],[148.278265,-42.209821],[148.271569,-42.216831],[148.269643,-42.22557],[148.262304,-42.229013],[148.25394,-42.228446],[148.251566,-42.243045],[148.257732,-42.252078],[148.269025,-42.254053],[148.274296,-42.257029],[148.27991,-42.254491],[148.288799,-42.260449],[148.29368,-42.273589],[148.291067,-42.277563],[148.29572,-42.283048],[148.302804,-42.282254],[148.314514,-42.276047],[148.306905,-42.270515],[148.314159,-42.265321],[148.324086,-42.25347],[148.320903,-42.24501],[148.324185,-42.237117],[148.331387,-42.230405],[148.341293,-42.227142],[148.346816,-42.222588],[148.342986,-42.219874],[148.342897,-42.211152],[148.348727,-42.207027],[148.355722,-42.193119],[148.349605,-42.179932],[148.338795,-42.181123],[148.334861,-42.176679],[148.315592,-42.169199],[148.309968,-42.175565],[148.301286,-42.172741],[148.297735,-42.166374],[148.299188,-42.161696],[148.31345,-42.160206],[148.324203,-42.149314],[148.319607,-42.132453],[148.325972,-42.130705],[148.33809,-42.133001],[148.334397,-42.127459],[148.344028,-42.123163],[148.345388,-42.118468],[148.340163,-42.111335],[148.342918,-42.108726],[148.340522,-42.102683],[148.333105,-42.10552],[148.323629,-42.09194],[148.324633,-42.083019],[148.317101,-42.077456],[148.317794,-42.072583],[148.312837,-42.06924],[148.30961,-42.057028],[148.297974,-42.05708],[148.288276,-42.04725],[148.283447,-42.032806],[148.283754,-42.003786],[148.28613,-41.992802],[148.290681,-41.987477],[148.289377,-41.982665],[148.29353,-41.971533],[148.297936,-41.965853],[148.3098,-41.961411],[148.306924,-41.954124],[148.302505,-41.949813],[148.302524,-41.9369],[148.306511,-41.931273],[148.314457,-41.929034],[148.319679,-41.925063],[148.32359,-41.917201],[148.304019,-41.8913],[148.307379,-41.888253],[148.303872,-41.882737],[148.309039,-41.88041],[148.310938,-41.873282],[148.303967,-41.868975],[148.296101,-41.869104],[148.287446,-41.865809],[148.286479,-41.860883],[148.277189,-41.855732],[148.272561,-41.848887],[148.267856,-41.836327],[148.267251,-41.823402],[148.264479,-41.810011],[148.266786,-41.793376],[148.284295,-41.757798],[148.292448,-41.749725],[148.30477,-41.748176],[148.302147,-41.740755],[148.29675,-41.74063],[148.289322,-41.734822],[148.284073,-41.719999],[148.287896,-41.701127],[148.29523,-41.693173],[148.289053,-41.684514],[148.289697,-41.671587],[148.293183,-41.658961],[148.30149,-41.645818],[148.312096,-41.639165],[148.315352,-41.628312],[148.320296,-41.621392],[148.318301,-41.599878],[148.314586,-41.571299],[148.305033,-41.568491],[148.299263,-41.558037],[148.294726,-41.559529],[148.286169,-41.552486],[148.283244,-41.544395],[148.285881,-41.541538],[148.282085,-41.535661],[148.278979,-41.515844],[148.27526,-41.510786],[148.275621,-41.503499],[148.271,-41.502425],[148.266246,-41.485072],[148.266477,-41.462171],[148.270582,-41.445717],[148.274441,-41.438046],[148.279182,-41.416605],[148.284045,-41.406324],[148.290054,-41.398553],[148.290825,-41.386289],[148.295684,-41.371856],[148.286844,-41.376209],[148.283457,-41.372367],[148.30134,-41.366183],[148.314344,-41.344693],[148.320964,-41.319962],[148.327304,-41.306454],[148.342571,-41.290382],[148.358946,-41.281473],[148.356402,-41.27395],[148.348022,-41.276287],[148.339386,-41.282044],[148.331816,-41.283025],[148.326849,-41.294725],[148.32349,-41.298533],[148.313922,-41.303134],[148.309474,-41.316973],[148.299535,-41.323262],[148.291494,-41.32468],[148.27158,-41.339573],[148.259818,-41.337527],[148.255911,-41.330395],[148.248517,-41.327998],[148.252002,-41.323734],[148.258927,-41.3251],[148.261583,-41.321405],[148.268654,-41.322005],[148.276992,-41.315201],[148.271225,-41.307471],[148.274993,-41.301735],[148.27445,-41.291279],[148.283161,-41.281764],[148.295442,-41.282706],[148.296917,-41.290775],[148.291184,-41.297494],[148.290613,-41.304037],[148.301659,-41.304376],[148.312539,-41.298949],[148.309885,-41.288513],[148.324329,-41.280048],[148.333317,-41.271103],[148.334569,-41.262144],[148.338153,-41.254367],[148.329249,-41.248583],[148.325208,-41.25221],[148.309908,-41.248364],[148.299865,-41.250687],[148.292372,-41.243215],[148.290834,-41.238154],[148.283663,-41.227757],[148.280639,-41.212937],[148.275632,-41.207706],[148.270575,-41.193623],[148.269566,-41.182875],[148.2849,-41.168601],[148.27696,-41.157642],[148.270192,-41.142119],[148.269515,-41.126026],[148.273676,-41.110275],[148.282989,-41.097912],[148.284871,-41.089782],[148.288491,-41.086297],[148.292553,-41.071333],[148.298152,-41.063829],[148.289712,-41.060361],[148.286848,-41.054343],[148.27575,-41.053899],[148.267258,-41.049715],[148.26204,-41.051786],[148.259992,-41.045274],[148.262419,-41.042172],[148.276206,-41.034389],[148.292614,-41.034531],[148.286325,-41.048437],[148.294041,-41.047377],[148.297119,-41.036492],[148.320125,-41.008941],[148.330583,-41.000004],[148.340252,-40.994089],[148.323833,-40.987847],[148.316658,-40.978924],[148.316639,-40.971309],[148.305803,-40.964518],[148.301018,-40.949993],[148.301975,-40.941664],[148.283933,-40.930908],[148.274334,-40.920672],[148.268098,-40.910613],[148.267382,-40.900505],[148.259933,-40.90023],[148.257859,-40.90417],[148.251467,-40.902796],[148.237293,-40.911026],[148.228859,-40.913641],[148.225053,-40.919702],[148.213499,-40.922157],[148.217268,-40.933036],[148.212412,-40.937587],[148.186348,-40.931127],[148.185517,-40.933766],[148.124181,-40.925468],[148.116759,-40.923553],[148.112013,-40.942224],[148.102748,-40.940256],[148.090397,-40.935621],[148.08689,-40.939136],[148.085861,-40.949061],[148.082908,-40.952519],[148.085713,-40.960642],[148.081228,-40.963331],[148.078008,-40.981413],[148.080475,-40.988431],[148.074218,-40.995412],[148.078675,-40.998295],[148.07845,-41.01529],[148.074096,-41.023333],[148.071229,-41.038518],[148.073732,-41.048472],[148.080537,-41.052399],[148.082096,-41.060249],[148.07138,-41.067486],[148.071025,-41.073431],[148.062331,-41.087321],[148.068311,-41.095743],[148.062763,-41.104883],[148.06522,-41.112936],[148.074253,-41.121922],[148.08246,-41.124759],[148.082295,-41.132139],[148.005136,-41.153403],[147.954886,-41.163747],[147.934817,-41.16847],[147.889529,-41.164957],[147.883447,-41.186369],[147.858678,-41.27658],[147.840706,-41.332997],[147.835459,-41.366796],[147.833771,-41.372416],[147.827566,-41.37165],[147.590413,-41.380709],[147.601776,-41.393133],[147.608713,-41.397738],[147.606351,-41.407449],[147.619255,-41.409226],[147.615828,-41.426402],[147.628729,-41.428175],[147.627361,-41.451475],[147.63402,-41.45917],[147.637627,-41.457382],[147.643613,-41.464363],[147.64593,-41.470742],[147.639867,-41.473806],[147.647934,-41.478488],[147.578908,-41.513592],[147.571934,-41.506031],[147.56215,-41.511211],[147.53993,-41.507451],[147.525885,-41.514713],[147.526153,-41.520515],[147.506536,-41.530441],[147.498728,-41.522016],[147.486359,-41.528639],[147.476144,-41.518051],[147.468755,-41.521809],[147.460395,-41.522064],[147.428113,-41.538732],[147.432005,-41.543015],[147.406452,-41.556178],[147.400819,-41.549793],[147.387993,-41.556073],[147.367865,-41.536326],[147.346759,-41.512041],[147.336644,-41.517826],[147.312785,-41.529397],[147.302824,-41.520428],[147.285846,-41.529689],[147.278146,-41.521684],[147.261082,-41.530936],[147.255272,-41.524463],[147.248515,-41.528177],[147.233123,-41.512407],[147.227085,-41.499246],[147.221105,-41.495251],[147.207173,-41.505146],[147.198025,-41.51016],[147.193715,-41.50536],[147.188033,-41.508309],[147.179382,-41.499945],[147.17414,-41.502013],[147.169363,-41.492893],[147.153974,-41.50105],[147.147726,-41.495126],[147.136352,-41.501281],[147.126007,-41.490514],[147.140091,-41.48302],[147.133646,-41.476367],[147.120682,-41.470839],[147.115043,-41.473286],[147.100022,-41.462866],[147.098511,-41.456097],[147.087908,-41.451183],[147.085876,-41.446709],[147.076192,-41.446506],[147.074512,-41.451912],[147.065524,-41.458888],[147.031841,-41.437337],[147.029765,-41.427888],[147.007986,-41.445219],[146.994,-41.443436],[146.996138,-41.43181],[146.972002,-41.429042],[146.966042,-41.424887],[146.949981,-41.417848],[146.934304,-41.408496],[146.9378,-41.405165],[146.931334,-41.399374],[146.92671,-41.388419],[146.918376,-41.38507],[146.910166,-41.377818],[146.89999,-41.386532],[146.872828,-41.39122],[146.825424,-41.383748],[146.819578,-41.379539],[146.809632,-41.378312],[146.802887,-41.37434],[146.798571,-41.380382],[146.770949,-41.375503],[146.697505,-41.35525],[146.703586,-41.33269],[146.654646,-41.328772],[146.619945,-41.324477],[146.617472,-41.3379],[146.589574,-41.334794],[146.586998,-41.347593],[146.583073,-41.353196],[146.589915,-41.356439],[146.589922,-41.361746],[146.557269,-41.357945],[146.548216,-41.355006],[146.54558,-41.367394],[146.528035,-41.365072],[146.510988,-41.37164],[146.494373,-41.37673],[146.484519,-41.375631],[146.480116,-41.368685],[146.479025,-41.360698],[146.46856,-41.354709],[146.459497,-41.344207],[146.46206,-41.336042],[146.459757,-41.319725],[146.447,-41.315195],[146.448011,-41.309263],[146.444449,-41.297836],[146.41424,-41.293029],[146.400508,-41.295266],[146.398708,-41.288963],[146.358921,-41.284202],[146.362314,-41.277834],[146.357527,-41.272633],[146.370102,-41.266802],[146.362813,-41.256351],[146.349472,-41.242148],[146.323461,-41.254969],[146.32034,-41.258932],[146.322816,-41.265269],[146.321033,-41.271849],[146.281762,-41.267869],[146.265684,-41.265593],[146.251022,-41.272052],[146.248055,-41.277936],[146.232486,-41.2777],[146.226703,-41.271646],[146.216538,-41.275955],[146.203298,-41.287246],[146.201961,-41.294663],[146.196917,-41.295633],[146.194183,-41.302788],[146.203097,-41.303968],[146.205314,-41.310799],[146.200302,-41.316092],[146.185555,-41.320484],[146.180359,-41.332834],[146.175481,-41.337573],[146.176291,-41.341565],[146.167161,-41.346229],[146.153993,-41.357323],[146.148413,-41.358076],[146.143265,-41.362914],[146.135696,-41.362233],[146.128718,-41.368729],[146.123187,-41.36793],[146.11467,-41.37119],[146.112479,-41.385429],[146.104264,-41.395873],[146.102339,-41.402284],[146.092996,-41.406962],[146.092994,-41.415681],[146.084909,-41.42764],[146.090306,-41.429678],[146.092537,-41.443355],[146.087203,-41.458146],[146.082866,-41.456594],[145.954065,-41.451806],[145.852831,-41.465863],[145.852023,-41.510296],[145.852912,-41.518264],[145.853526,-41.582863],[145.951331,-41.684662],[145.964646,-41.725521],[146.014045,-41.866885],[146.036418,-41.930915],[146.050484,-41.974556],[146.014916,-42.005321],[146.023422,-42.039447],[145.999753,-42.0669],[146.075328,-42.21047],[146.09069,-42.283916],[146.089817,-42.29065],[146.09617,-42.293608],[146.10695,-42.305306],[146.102667,-42.326899],[146.099859,-42.329125],[146.096186,-42.341178],[146.098938,-42.354029],[146.097117,-42.358517],[146.099125,-42.369677],[146.110305,-42.375474],[146.11245,-42.388647],[146.1059,-42.391786],[146.10645,-42.397938],[146.099548,-42.402409],[146.105573,-42.407766],[146.118229,-42.404357],[146.129849,-42.407313],[146.133106,-42.4136],[146.129915,-42.417921],[146.134305,-42.424539],[146.128348,-42.425265],[146.124075,-42.431623],[146.12571,-42.436789],[146.108732,-42.445467],[146.109093,-42.450845],[146.104433,-42.457699],[146.09998,-42.458382],[146.093617,-42.467809],[146.080732,-42.477066],[146.075373,-42.477746],[146.08183,-42.487353],[146.089743,-42.489986],[146.081515,-42.502654],[146.073442,-42.503596],[146.073511,-42.511211],[146.067131,-42.517105],[146.059467,-42.520712],[146.053361,-42.528553],[146.042004,-42.530639],[146.029295,-42.538241],[146.032682,-42.547628],[146.029757,-42.554138],[146.023001,-42.556275],[146.016433,-42.566126],[146.018229,-42.572246],[146.00694,-42.580351],[146.001261,-42.579748],[146.000577,-42.589827],[145.995856,-42.591912],[145.99276,-42.59866],[145.996678,-42.601022],[145.995532,-42.608562],[145.98845,-42.612069],[145.983849,-42.620564],[145.984821,-42.626306],[145.979887,-42.627636],[145.971429,-42.624975],[145.972019,-42.633094],[145.963868,-42.635821],[145.960544,-42.643339],[145.967088,-42.648574],[145.954701,-42.665621],[145.940405,-42.669274],[145.934281,-42.669417],[145.928044,-42.682029],[145.909128,-42.681768],[145.902245,-42.693196],[145.887098,-42.699675],[145.881375,-42.697873],[145.869925,-42.690263],[145.866864,-42.698597],[145.873548,-42.713155],[145.871603,-42.716095],[145.858025,-42.713874],[145.844064,-42.719136],[145.841327,-42.716321],[145.832634,-42.717249],[145.842663,-42.72503],[145.849554,-42.733218],[145.854263,-42.742966],[145.947531,-42.902228],[145.939426,-42.903732],[145.933796,-42.907494],[145.93481,-42.917641],[145.939764,-42.922399],[145.94052,-42.930574],[145.951378,-42.938445],[145.961426,-42.950561],[145.969483,-42.954991],[145.977021,-42.96246],[145.988974,-42.978725],[145.992963,-42.978703],[145.993015,-42.99217],[145.989863,-42.996503],[145.991437,-43.004516],[145.988436,-43.009364],[145.978159,-43.017499],[145.979878,-43.026822],[145.974812,-43.036237],[145.978141,-43.039171],[146.08907,-43.053903],[146.222191,-43.118804],[146.458808,-43.087277],[146.560453,-42.998515],[146.648406,-42.921704],[146.651855,-42.909752],[146.658083,-42.903404],[146.658159,-42.897366],[146.653597,-42.893372],[146.652731,-42.876296],[146.649061,-42.874087],[146.646037,-42.865036],[146.647289,-42.853658],[146.65657,-42.847634],[146.662079,-42.847187],[146.665308,-42.851992],[146.675126,-42.849611],[146.68526,-42.853269],[146.698446,-42.8513],[146.697394,-42.857529],[146.723042,-42.858121],[146.739431,-42.871195],[146.74953,-42.871447],[146.755394,-42.874395],[146.765581,-42.874138],[146.776179,-42.88424],[146.775655,-42.889593],[146.780537,-42.898608],[146.788492,-42.903855],[146.797936,-42.903674],[146.805489,-42.894637],[146.832819,-42.903141],[146.846451,-42.908202],[146.846215,-42.913785],[146.852186,-42.919317],[146.849379,-42.923912],[146.855642,-42.932497],[146.855266,-42.939115],[146.864057,-42.94311],[146.873892,-42.95463],[146.880302,-42.948977],[146.881542,-42.939641],[146.879704,-42.935433],[146.896016,-42.935256],[146.902512,-42.940025],[146.913518,-42.939638],[146.916581,-42.933688],[146.927093,-42.929463],[146.937466,-42.928528],[146.941963,-42.922682],[146.934246,-42.919805],[146.934207,-42.915122],[146.929874,-42.902895],[146.924256,-42.900464],[146.925991,-42.895278],[146.940581,-42.885867],[146.955489,-42.882079],[146.970537,-42.888752],[146.990529,-42.885838],[146.997633,-42.888193],[147.009243,-42.888143],[147.010492,-42.901107],[147.014395,-42.905951],[147.02279,-42.90777],[147.03231,-42.904188],[147.044641,-42.909126],[147.051271,-42.900384],[147.150368,-42.913351],[147.150353,-42.858481],[147.145094,-42.854765],[147.146491,-42.849228],[147.135393,-42.847832],[147.142437,-42.841558],[147.153641,-42.834332],[147.161877,-42.835438],[147.163036,-42.831005],[147.173858,-42.829746],[147.180042,-42.822379],[147.178795,-42.814609],[147.200835,-42.806465],[147.201103,-42.78666],[147.212892,-42.766963],[147.222971,-42.758555],[147.226904,-42.75042],[147.20834,-42.741108],[147.195448,-42.741044],[147.180365,-42.745175],[147.165986,-42.751435],[147.154535,-42.752804],[147.184099,-42.739253],[147.18397,-42.732291],[147.191446,-42.727361],[147.203873,-42.726579],[147.214594,-42.737002],[147.221951,-42.738273],[147.230667,-42.742828],[147.234957,-42.740915],[147.247779,-42.746509],[147.256084,-42.748636],[147.263649,-42.754279],[147.260522,-42.765294],[147.263192,-42.767843],[147.264187,-42.777529],[147.270837,-42.782239],[147.285786,-42.782488],[147.292566,-42.790883],[147.295125,-42.794347],[147.307333,-42.798078],[147.305827,-42.787789],[147.311656,-42.782187],[147.326189,-42.780478],[147.325339,-42.772059],[147.332586,-42.766641],[147.347579,-42.777447],[147.368526,-42.761214],[147.377841,-42.764918],[147.375254,-42.771226],[147.386872,-42.776617],[147.392172,-42.772515],[147.404646,-42.780066],[147.409174,-42.779656],[147.418517,-42.787745],[147.426405,-42.77521],[147.434128,-42.77554]]],[[[148.011519,-43.221568],[147.992705,-43.215615],[147.98518,-43.207303],[147.972698,-43.203051],[147.96369,-43.191683],[147.963572,-43.18534],[147.969103,-43.177901],[147.979594,-43.168347],[147.983168,-43.156111],[147.99111,-43.152408],[147.997537,-43.146949],[148.000073,-43.140663],[147.991667,-43.141202],[147.982741,-43.135675],[147.972237,-43.13483],[147.967684,-43.141669],[147.963387,-43.142729],[147.954355,-43.136598],[147.959847,-43.130501],[147.968076,-43.126375],[147.977242,-43.118501],[147.981089,-43.107373],[147.970726,-43.102556],[147.966381,-43.09191],[147.962239,-43.088168],[147.966439,-43.084519],[147.959899,-43.080641],[147.954418,-43.068856],[147.955695,-43.064419],[147.946004,-43.060801],[147.949396,-43.054577],[147.954041,-43.05207],[147.949075,-43.04658],[147.953306,-43.041395],[147.947154,-43.035933],[147.935524,-43.034973],[147.929259,-43.029608],[147.926429,-43.021228],[147.927269,-43.014225],[147.935417,-43.006901],[147.942344,-43.008968],[147.943964,-43.003445],[147.95316,-43.001298],[147.955448,-42.992577],[147.964387,-42.982892],[147.976332,-42.983354],[147.989074,-42.975436],[147.986307,-42.9705],[147.994102,-42.968546],[147.99951,-42.964206],[147.996223,-42.954134],[147.988385,-42.948425],[147.983432,-42.94126],[147.995307,-42.929294],[147.998862,-42.914565],[147.995589,-42.909741],[147.984734,-42.900326],[147.98406,-42.890432],[147.972711,-42.888238],[147.973126,-42.883293],[147.960916,-42.88488],[147.958498,-42.877932],[147.965307,-42.877274],[147.973833,-42.870216],[147.968981,-42.866293],[147.960788,-42.867373],[147.957898,-42.871603],[147.946554,-42.873481],[147.939856,-42.877176],[147.928124,-42.870275],[147.920356,-42.861292],[147.923688,-42.856291],[147.918298,-42.848252],[147.905578,-42.843734],[147.891706,-42.842525],[147.890135,-42.850272],[147.883128,-42.850112],[147.87963,-42.853645],[147.885242,-42.861884],[147.873638,-42.863024],[147.871735,-42.87108],[147.881885,-42.876959],[147.89503,-42.877953],[147.903957,-42.882359],[147.904945,-42.893067],[147.899237,-42.901655],[147.895002,-42.894433],[147.884089,-42.894684],[147.876415,-42.888672],[147.868456,-42.893741],[147.861779,-42.890746],[147.843996,-42.890772],[147.824044,-42.894507],[147.816086,-42.8948],[147.811937,-42.889855],[147.802901,-42.893233],[147.809197,-42.899498],[147.815162,-42.899344],[147.821825,-42.907884],[147.822886,-42.918971],[147.817807,-42.926777],[147.818286,-42.933184],[147.833264,-42.934657],[147.834034,-42.945553],[147.837048,-42.947847],[147.848034,-42.943059],[147.850697,-42.939136],[147.857976,-42.940069],[147.865873,-42.947044],[147.853799,-42.945877],[147.847999,-42.951638],[147.854803,-42.958205],[147.841826,-42.957597],[147.830846,-42.965246],[147.818348,-42.96515],[147.818956,-42.969832],[147.825207,-42.976294],[147.83011,-42.970517],[147.835412,-42.973178],[147.836543,-42.980556],[147.851593,-42.983421],[147.853545,-42.986388],[147.841162,-42.993347],[147.842908,-42.998155],[147.838229,-43.002578],[147.850974,-43.007916],[147.84686,-43.013058],[147.861926,-43.014358],[147.87016,-43.010868],[147.883453,-43.017555],[147.894195,-43.019407],[147.897624,-43.017271],[147.909115,-43.016914],[147.924024,-43.014685],[147.923517,-43.018725],[147.908184,-43.019209],[147.8964,-43.022966],[147.880589,-43.024904],[147.872443,-43.023363],[147.869033,-43.031621],[147.863127,-43.035575],[147.86559,-43.041409],[147.863856,-43.049332],[147.856233,-43.048986],[147.857213,-43.042627],[147.849864,-43.035814],[147.843647,-43.035962],[147.835922,-43.041115],[147.842668,-43.04665],[147.845498,-43.054986],[147.840701,-43.0604],[147.828559,-43.058523],[147.826603,-43.055237],[147.813794,-43.06061],[147.808039,-43.054615],[147.806686,-43.046425],[147.792329,-43.051659],[147.784976,-43.047893],[147.773829,-43.054938],[147.762943,-43.034241],[147.759037,-43.044137],[147.749379,-43.043379],[147.744227,-43.031953],[147.745717,-43.023344],[147.741747,-43.01935],[147.733426,-43.019835],[147.721831,-43.01682],[147.719686,-43.008994],[147.709346,-43.010127],[147.708038,-43.003555],[147.714063,-42.991562],[147.717398,-42.990558],[147.729835,-42.970997],[147.726291,-42.964228],[147.72914,-42.956913],[147.725528,-42.949394],[147.713888,-42.955511],[147.705359,-42.95662],[147.699784,-42.9534],[147.699473,-42.944257],[147.693909,-42.940152],[147.682708,-42.937449],[147.678878,-42.934545],[147.666107,-42.938648],[147.665885,-42.94805],[147.675717,-42.956967],[147.668944,-42.963543],[147.676587,-42.967302],[147.683644,-42.974578],[147.683977,-42.983789],[147.679341,-42.991801],[147.66752,-42.999909],[147.658491,-42.99701],[147.652957,-42.992725],[147.640734,-42.99356],[147.627209,-42.998402],[147.619071,-43.006636],[147.618985,-43.017572],[147.625371,-43.020668],[147.621605,-43.024339],[147.625636,-43.029553],[147.622473,-43.035702],[147.628333,-43.040258],[147.622388,-43.051575],[147.624568,-43.053021],[147.622666,-43.065157],[147.627423,-43.069209],[147.627123,-43.073515],[147.635716,-43.073362],[147.641437,-43.075647],[147.650347,-43.083275],[147.65074,-43.089445],[147.656486,-43.089945],[147.661917,-43.086516],[147.669466,-43.087204],[147.676952,-43.091412],[147.675482,-43.095027],[147.682679,-43.098238],[147.684186,-43.102438],[147.700878,-43.097509],[147.708502,-43.102469],[147.723375,-43.095035],[147.730106,-43.094174],[147.740828,-43.096038],[147.741418,-43.104052],[147.733443,-43.104412],[147.730179,-43.100332],[147.719108,-43.102993],[147.727649,-43.109806],[147.734104,-43.110809],[147.735735,-43.118502],[147.731142,-43.124916],[147.726344,-43.126267],[147.717491,-43.120842],[147.703396,-43.122145],[147.693127,-43.132408],[147.689239,-43.140109],[147.698205,-43.150818],[147.701488,-43.160114],[147.694551,-43.167179],[147.701292,-43.176982],[147.707761,-43.179665],[147.715518,-43.178358],[147.711578,-43.194282],[147.717379,-43.198847],[147.722121,-43.193308],[147.72677,-43.197962],[147.73427,-43.200612],[147.746035,-43.197569],[147.743811,-43.204817],[147.750715,-43.209033],[147.761764,-43.206283],[147.776399,-43.213157],[147.782569,-43.220511],[147.781104,-43.232939],[147.79752,-43.239222],[147.800727,-43.230185],[147.796718,-43.220742],[147.800497,-43.2186],[147.807769,-43.208283],[147.819081,-43.205837],[147.822018,-43.197971],[147.830466,-43.199314],[147.833693,-43.19368],[147.844472,-43.187533],[147.848465,-43.189749],[147.849819,-43.196708],[147.85944,-43.201195],[147.867127,-43.208102],[147.875176,-43.203078],[147.866474,-43.197929],[147.872074,-43.190297],[147.865559,-43.182831],[147.856892,-43.185442],[147.852999,-43.179577],[147.856814,-43.172378],[147.865012,-43.169785],[147.87069,-43.164288],[147.87033,-43.15184],[147.86135,-43.164949],[147.855304,-43.159376],[147.845553,-43.154347],[147.85737,-43.145361],[147.855675,-43.134782],[147.860962,-43.130265],[147.850384,-43.124099],[147.853766,-43.117945],[147.859882,-43.11289],[147.865667,-43.116658],[147.863801,-43.121383],[147.86729,-43.129281],[147.871465,-43.13102],[147.883246,-43.122763],[147.886423,-43.123264],[147.888765,-43.138199],[147.888164,-43.142676],[147.893674,-43.148502],[147.891796,-43.158556],[147.893463,-43.170591],[147.896313,-43.178264],[147.894518,-43.188021],[147.89663,-43.190994],[147.906924,-43.187841],[147.916506,-43.189563],[147.93176,-43.198854],[147.936887,-43.195027],[147.94516,-43.19468],[147.950257,-43.20687],[147.948592,-43.211744],[147.95772,-43.217759],[147.962572,-43.21555],[147.971479,-43.216846],[147.979459,-43.222896],[147.993938,-43.221982],[148.001351,-43.227703],[148.011519,-43.221568]]],[[[148.169014,-42.64868],[148.160559,-42.643077],[148.150533,-42.640702],[148.140673,-42.631168],[148.142127,-42.626725],[148.13629,-42.623816],[148.13783,-42.611118],[148.129074,-42.602785],[148.128864,-42.597067],[148.123349,-42.59268],[148.120142,-42.585011],[148.109896,-42.582853],[148.09781,-42.585333],[148.089799,-42.585044],[148.083127,-42.580132],[148.079142,-42.572273],[148.072855,-42.569308],[148.067397,-42.570657],[148.063664,-42.580563],[148.052767,-42.5851],[148.055399,-42.589226],[148.047326,-42.59657],[148.050018,-42.601097],[148.047748,-42.607854],[148.037347,-42.614819],[148.037062,-42.619372],[148.030626,-42.621167],[148.028209,-42.628269],[148.034277,-42.634912],[148.038781,-42.643021],[148.037887,-42.649197],[148.026029,-42.657753],[148.012844,-42.661546],[148.025478,-42.668188],[148.032295,-42.664927],[148.037118,-42.666084],[148.043303,-42.654962],[148.056848,-42.658933],[148.065864,-42.669732],[148.06632,-42.676954],[148.063262,-42.682874],[148.051109,-42.685433],[148.045407,-42.682141],[148.038744,-42.684106],[148.03429,-42.698869],[148.027954,-42.704866],[148.028597,-42.708476],[148.015275,-42.722892],[148.011709,-42.73006],[148.013573,-42.741864],[148.024052,-42.740965],[148.04192,-42.725175],[148.052098,-42.721857],[148.061718,-42.725729],[148.067245,-42.723369],[148.065282,-42.717338],[148.079401,-42.724377],[148.093028,-42.720886],[148.092397,-42.716047],[148.096308,-42.711196],[148.094418,-42.704509],[148.086968,-42.697978],[148.087118,-42.689474],[148.081177,-42.684657],[148.073009,-42.686568],[148.068213,-42.681236],[148.07098,-42.671003],[148.081273,-42.661757],[148.102925,-42.660321],[148.115501,-42.66326],[148.127259,-42.664446],[148.133278,-42.660114],[148.140012,-42.666407],[148.146353,-42.666842],[148.146877,-42.659219],[148.158655,-42.650202],[148.169014,-42.64868]]],[[[148.34606,-42.34138],[148.334883,-42.339985],[148.326331,-42.333767],[148.32512,-42.326354],[148.331715,-42.322622],[148.322599,-42.319266],[148.317633,-42.323332],[148.314394,-42.315349],[148.31933,-42.305872],[148.312906,-42.300265],[148.294424,-42.291862],[148.288545,-42.293726],[148.285008,-42.29974],[148.26807,-42.297104],[148.260103,-42.293564],[148.253975,-42.293475],[148.24941,-42.297503],[148.238925,-42.302294],[148.236136,-42.306489],[148.236565,-42.317678],[148.24222,-42.323253],[148.251987,-42.328576],[148.262837,-42.32963],[148.277068,-42.324644],[148.286632,-42.333194],[148.299569,-42.337508],[148.3015,-42.3398],[148.313913,-42.343485],[148.321502,-42.341697],[148.331585,-42.341984],[148.338861,-42.344402],[148.34606,-42.34138]]],[[[148.009528,-43.23655],[148.003591,-43.231141],[147.998884,-43.2329],[147.996387,-43.240665],[147.999574,-43.245106],[148.007417,-43.243699],[148.009528,-43.23655]]],[[[147.648942,-42.954184],[147.647538,-42.946683],[147.640573,-42.943337],[147.635266,-42.949305],[147.646493,-42.95883],[147.648942,-42.954184]]],[[[147.789687,-42.949128],[147.783893,-42.940695],[147.779926,-42.945502],[147.784463,-42.950491],[147.789687,-42.949128]]]]},"bbox":[145.832634,-43.245106,148.358946,-40.90023]}]}