{"type":"FeatureCollection","features":[
{"properties":{"electorateShortName":"mackellar","electorateName":"Mackellar","area":233.24486,"state":"NSW"},"type":"Feature","geometry":{"type":"Polygon","coordinates":[[[151.299717,-33.756601],[151.288071,-33.79454],[151.297149,-33.799331],[151.301061,-33.818464],[151.290672,-33.828322],[151.280955,-33.832769],[151.28700195002025,-33.848062265588766],[151.3041118021592,-33.84649363437002],[151.32112913841988,-33.84401678992543],[151.33736473471106,-33.83834846522752],[151.35222584245716,-33.829695606256614],[151.36516989455492,-33.81837412194133],[151.36885976329953,-33.81605856643966],[151.38202243132312,-33.80496449172213],[151.39283207928625,-33.791567259386646],[151.400893241792,-33.77635700027007],[151.4041769021087,-33.707200651065826],[151.43272412127203,-33.63181211076407],[151.43244097803537,-33.61430665066994],[151.4287739918111,-33.59718723142655],[151.4246407725845,-33.58756852869663],[151.42328215628194,-33.563719316172744],[151.40892187284427,-33.530545389003784],[151.360156,-33.532518],[151.3352,-33.5822],[151.284798,-33.572214],[151.173041,-33.626718],[151.161505,-33.659605],[151.191417,-33.702699],[151.203599,-33.773133],[151.299717,-33.756601]]]},"bbox":[151.161505,-33.848062265588766,151.43272412127203,-33.530545389003784]}]}