{"type":"FeatureCollection","features":[
{"properties":{"electorateShortName":"macquarie","electorateName":"Macquarie","area":4373.992082,"state":"NSW"},"type":"Feature","geometry":{"type":"Polygon","coordinates":[[[151.135811,-33.10996],[151.104072,-33.076993],[151.052491,-33.07994],[151.03529,-33.119331],[150.972613,-33.130433],[150.87408,-33.115068],[150.850685,-33.043454],[150.80474,-33.006038],[150.745841,-33.021913],[150.718059,-33.068653],[150.610687,-33.066137],[150.604485,-33.1473],[150.527999,-33.194059],[150.53315,-33.240176],[150.580997,-33.351442],[150.475923,-33.399445],[150.4474,-33.481423],[150.402519,-33.476926],[150.335619,-33.511948],[150.256814,-33.494305],[150.236942,-33.593271],[150.266463,-33.622346],[150.214826,-33.674875],[150.177912,-33.778027],[150.186093,-33.88118],[150.232966,-33.884501],[150.280855,-33.85066],[150.326633,-33.85673],[150.404275,-33.940691],[150.470564,-33.963447],[150.612801,-33.861848],[150.588042,-33.844933],[150.64072,-33.781917],[150.644053,-33.721212],[150.681494,-33.625074],[150.708442,-33.61346],[150.782148,-33.637517],[150.812394,-33.677614],[150.851043,-33.650137],[150.87402,-33.656763],[150.904371,-33.611787],[150.93579,-33.564704],[150.889073,-33.555299],[150.926583,-33.508451],[150.887353,-33.437201],[150.943673,-33.424896],[150.988458,-33.379232],[150.999641,-33.351156],[151.090015,-33.324428],[151.099671,-33.144458],[151.135811,-33.10996]]]},"bbox":[150.177912,-33.963447,151.135811,-33.006038]}]}