{"type":"FeatureCollection","features":[
{"properties":{"electorateShortName":"makin","electorateName":"Makin","area":162.4,"state":"SA"},"type":"Feature","geometry":{"type":"Polygon","coordinates":[[[138.78019,-34.767026],[138.755644,-34.744861],[138.680179,-34.755628],[138.647038,-34.791796],[138.607409,-34.767724],[138.550536,-34.786046],[138.56627,-34.825305],[138.564539,-34.849757],[138.63534,-34.846848],[138.747028,-34.840674],[138.78019,-34.767026]]]},"bbox":[138.550536,-34.849757,138.78019,-34.744861]}]}