{"type":"FeatureCollection","features":[
{"properties":{"electorateShortName":"mallee","electorateName":"Mallee","area":81962.21,"state":"VIC"},"type":"Feature","geometry":{"type":"Polygon","coordinates":[[[144.408376,-35.898742],[144.417172,-35.896713],[144.412385,-35.886894],[144.403628,-35.880666],[144.405422,-35.86166],[144.389812,-35.859221],[144.381433,-35.852423],[144.384493,-35.846559],[144.374914,-35.840618],[144.375538,-35.824381],[144.36476,-35.819647],[144.375726,-35.801211],[144.352408,-35.78644],[144.352227,-35.775233],[144.332587,-35.766182],[144.309384,-35.751144],[144.294516,-35.750711],[144.301187,-35.741758],[144.296367,-35.737179],[144.277676,-35.74102],[144.267919,-35.753778],[144.247442,-35.729075],[144.24841,-35.7215],[144.229943,-35.715065],[144.215049,-35.704491],[144.21359,-35.686763],[144.195139,-35.685858],[144.185471,-35.67049],[144.174917,-35.674408],[144.162351,-35.671526],[144.153336,-35.646065],[144.140571,-35.646439],[144.117546,-35.625926],[144.113178,-35.601909],[144.104918,-35.590724],[144.062188,-35.576693],[144.06287,-35.56951],[144.046549,-35.562767],[144.04785,-35.556174],[144.012702,-35.554073],[144.008984,-35.563281],[143.989386,-35.553192],[143.999221,-35.545367],[143.992039,-35.534036],[143.974328,-35.532022],[143.970976,-35.520763],[143.962828,-35.514783],[143.968744,-35.505565],[143.948097,-35.500832],[143.936755,-35.502901],[143.919107,-35.500666],[143.912221,-35.494889],[143.894671,-35.492388],[143.888325,-35.485703],[143.8796,-35.487268],[143.866592,-35.480323],[143.84147,-35.458623],[143.82703,-35.455101],[143.818018,-35.437545],[143.80312,-35.434457],[143.790117,-35.422477],[143.763843,-35.423581],[143.758929,-35.415006],[143.767905,-35.401179],[143.746463,-35.388599],[143.739094,-35.393584],[143.72687,-35.390215],[143.708523,-35.392036],[143.697951,-35.38129],[143.683341,-35.373608],[143.669147,-35.371069],[143.665835,-35.382457],[143.657617,-35.384924],[143.653874,-35.394879],[143.642338,-35.401037],[143.619361,-35.382761],[143.594883,-35.350289],[143.581993,-35.341109],[143.566765,-35.343617],[143.563748,-35.316119],[143.576731,-35.299003],[143.584421,-35.278789],[143.576014,-35.265482],[143.564473,-35.236094],[143.573815,-35.234879],[143.580912,-35.218937],[143.579486,-35.213803],[143.563927,-35.202627],[143.546417,-35.207391],[143.543169,-35.216482],[143.529485,-35.219801],[143.519786,-35.21272],[143.505151,-35.213825],[143.492321,-35.219897],[143.471482,-35.219293],[143.464875,-35.203292],[143.446411,-35.189924],[143.424645,-35.189763],[143.417855,-35.194828],[143.396379,-35.193113],[143.386969,-35.183462],[143.393907,-35.177016],[143.382961,-35.154694],[143.391141,-35.146715],[143.386585,-35.137154],[143.374051,-35.122918],[143.361694,-35.116148],[143.357705,-35.104907],[143.346988,-35.104778],[143.341107,-35.088849],[143.342828,-35.076742],[143.339036,-35.070384],[143.347861,-35.062461],[143.335026,-35.053344],[143.322705,-35.035511],[143.334878,-35.034549],[143.333318,-35.018187],[143.338008,-35.010576],[143.327165,-34.993395],[143.319601,-34.968697],[143.321626,-34.943374],[143.342789,-34.932533],[143.33891,-34.925895],[143.340526,-34.91374],[143.333414,-34.911262],[143.323091,-34.884688],[143.341894,-34.880959],[143.338404,-34.870312],[143.348683,-34.86441],[143.345851,-34.85491],[143.359391,-34.817289],[143.34711,-34.80503],[143.351547,-34.796004],[143.34506,-34.790743],[143.33079,-34.787467],[143.315041,-34.789405],[143.307494,-34.780064],[143.283662,-34.795215],[143.273566,-34.78908],[143.273544,-34.777017],[143.254282,-34.766647],[143.271401,-34.759649],[143.262313,-34.751764],[143.248933,-34.757853],[143.242936,-34.746825],[143.228775,-34.747789],[143.196437,-34.728109],[143.191065,-34.712853],[143.169808,-34.719968],[143.16429,-34.717289],[143.1654,-34.700807],[143.161689,-34.697916],[143.147435,-34.709825],[143.137234,-34.709644],[143.133792,-34.701049],[143.117161,-34.702096],[143.104118,-34.694001],[143.090001,-34.701285],[143.06552,-34.688323],[143.057406,-34.697819],[143.046952,-34.697085],[143.040044,-34.702511],[143.030659,-34.693733],[143.013864,-34.694796],[143.008007,-34.685967],[143.017449,-34.675659],[143.012939,-34.671045],[142.990699,-34.667595],[142.976762,-34.670148],[142.982428,-34.68274],[142.976248,-34.694388],[142.967695,-34.69167],[142.96334,-34.676608],[142.934212,-34.659828],[142.924713,-34.649591],[142.902088,-34.654502],[142.899365,-34.66883],[142.874045,-34.673405],[142.867826,-34.658891],[142.871354,-34.649215],[142.864381,-34.644002],[142.861506,-34.628214],[142.85434,-34.619617],[142.839467,-34.623659],[142.83557,-34.611128],[142.805373,-34.608621],[142.78664,-34.584259],[142.801492,-34.578906],[142.796435,-34.571949],[142.809125,-34.56197],[142.805408,-34.553901],[142.788001,-34.551217],[142.782512,-34.564933],[142.769991,-34.568882],[142.780545,-34.579178],[142.756938,-34.579448],[142.763518,-34.596737],[142.746444,-34.60306],[142.732111,-34.599729],[142.724632,-34.592388],[142.714821,-34.600442],[142.704294,-34.59757],[142.699546,-34.603155],[142.704207,-34.612494],[142.696939,-34.639537],[142.689335,-34.651391],[142.695436,-34.65997],[142.70979,-34.663908],[142.710436,-34.676748],[142.701869,-34.6784],[142.682454,-34.671493],[142.678929,-34.680153],[142.690513,-34.704759],[142.684841,-34.714711],[142.696762,-34.720165],[142.67952,-34.739085],[142.654948,-34.727745],[142.631779,-34.733594],[142.623491,-34.727519],[142.616551,-34.737954],[142.619222,-34.754454],[142.623337,-34.75973],[142.636643,-34.757715],[142.646411,-34.76348],[142.64444,-34.775338],[142.63143,-34.784396],[142.613238,-34.784476],[142.596081,-34.772941],[142.576501,-34.771523],[142.565852,-34.767248],[142.556744,-34.775373],[142.550496,-34.7631],[142.526185,-34.759814],[142.508737,-34.750085],[142.510854,-34.740413],[142.501829,-34.732639],[142.51316,-34.721381],[142.509408,-34.713651],[142.518864,-34.703671],[142.510459,-34.700519],[142.51417,-34.690931],[142.498038,-34.67243],[142.515842,-34.664918],[142.509689,-34.656806],[142.490818,-34.672997],[142.475586,-34.672618],[142.471582,-34.666869],[142.470672,-34.640077],[142.462017,-34.628414],[142.458713,-34.616912],[142.471179,-34.593386],[142.465987,-34.583102],[142.472794,-34.575279],[142.467968,-34.564295],[142.454787,-34.557591],[142.4486,-34.560005],[142.451608,-34.572796],[142.434747,-34.576146],[142.423605,-34.562751],[142.411656,-34.569296],[142.406255,-34.56541],[142.41069,-34.553473],[142.400806,-34.546329],[142.392498,-34.549364],[142.376705,-34.540985],[142.368408,-34.527088],[142.378715,-34.51911],[142.392212,-34.492269],[142.375842,-34.492236],[142.367935,-34.503425],[142.359993,-34.499667],[142.361417,-34.487859],[142.374881,-34.476951],[142.371176,-34.471511],[142.353969,-34.470661],[142.365179,-34.447058],[142.352636,-34.419081],[142.351891,-34.394745],[142.370652,-34.383289],[142.368628,-34.369735],[142.3915,-34.360112],[142.384364,-34.347335],[142.396798,-34.338095],[142.365134,-34.32712],[142.348615,-34.336576],[142.3337,-34.339302],[142.32161,-34.336936],[142.313688,-34.329489],[142.305217,-34.329771],[142.280597,-34.315901],[142.2874,-34.306919],[142.286132,-34.296536],[142.272191,-34.30357],[142.266585,-34.295622],[142.255865,-34.30463],[142.238544,-34.30782],[142.232465,-34.296749],[142.248612,-34.286546],[142.244727,-34.276918],[142.249565,-34.266928],[142.235706,-34.248788],[142.243499,-34.246029],[142.24403,-34.232457],[142.235809,-34.222639],[142.243531,-34.216685],[142.240552,-34.206954],[142.229132,-34.207086],[142.22529,-34.189059],[142.220316,-34.181665],[142.19858,-34.183496],[142.183613,-34.175672],[142.175995,-34.184426],[142.165944,-34.182777],[142.159255,-34.171482],[142.165861,-34.152266],[142.147839,-34.14871],[142.138001,-34.160131],[142.124837,-34.156798],[142.118617,-34.159819],[142.120886,-34.174093],[142.103858,-34.177298],[142.093059,-34.171915],[142.082078,-34.172992],[142.078003,-34.158075],[142.066631,-34.152764],[142.075157,-34.141387],[142.074484,-34.130492],[142.050166,-34.125278],[142.036866,-34.1296],[142.028479,-34.120868],[142.042517,-34.104212],[142.037535,-34.099426],[142.025103,-34.106701],[142.01497,-34.104115],[142.01653,-34.117324],[142.01332,-34.125264],[141.983492,-34.112412],[141.969742,-34.119898],[141.971663,-34.13525],[141.964164,-34.13677],[141.947013,-34.119831],[141.939753,-34.122259],[141.93751,-34.137049],[141.925518,-34.134344],[141.929592,-34.127108],[141.922351,-34.114382],[141.899106,-34.111489],[141.885359,-34.1147],[141.887961,-34.126081],[141.877847,-34.136849],[141.86698,-34.128459],[141.842403,-34.132526],[141.825395,-34.127681],[141.802109,-34.115877],[141.787229,-34.111996],[141.774652,-34.114431],[141.76273,-34.111349],[141.754013,-34.104006],[141.745353,-34.103103],[141.73551,-34.09307],[141.725828,-34.092984],[141.729871,-34.105577],[141.717028,-34.11496],[141.704907,-34.095686],[141.689371,-34.102077],[141.67745,-34.101225],[141.653774,-34.117081],[141.635074,-34.12039],[141.630048,-34.131428],[141.632119,-34.140138],[141.61202,-34.156491],[141.599335,-34.156085],[141.602561,-34.168794],[141.589922,-34.175267],[141.601266,-34.181949],[141.600926,-34.19216],[141.588245,-34.188352],[141.582694,-34.19875],[141.567974,-34.19183],[141.535935,-34.203617],[141.533031,-34.211449],[141.517587,-34.206455],[141.506807,-34.190087],[141.510846,-34.177705],[141.50176,-34.160725],[141.49464,-34.154513],[141.472961,-34.15945],[141.466962,-34.16547],[141.452499,-34.161286],[141.444028,-34.167683],[141.432066,-34.15813],[141.431295,-34.145354],[141.411923,-34.149965],[141.406049,-34.142194],[141.410298,-34.132458],[141.404794,-34.126857],[141.391123,-34.134739],[141.383055,-34.123049],[141.371231,-34.119676],[141.357551,-34.110689],[141.349121,-34.111894],[141.346407,-34.124348],[141.333928,-34.130235],[141.313569,-34.123795],[141.31515,-34.111635],[141.302439,-34.113958],[141.298544,-34.10696],[141.283027,-34.103317],[141.268692,-34.09213],[141.261021,-34.078979],[141.24149,-34.083222],[141.247194,-34.072866],[141.236717,-34.070109],[141.226223,-34.072988],[141.221667,-34.067116],[141.207196,-34.061188],[141.188981,-34.081141],[141.192687,-34.090542],[141.179352,-34.089498],[141.167825,-34.082082],[141.1533,-34.081577],[141.153324,-34.064288],[141.137259,-34.061141],[141.120338,-34.064866],[141.107535,-34.061261],[141.101802,-34.052012],[141.09309,-34.05118],[141.097707,-34.068233],[141.092046,-34.076505],[141.062429,-34.054446],[141.04785,-34.061641],[141.039458,-34.052769],[141.008944,-34.044659],[141.001718,-34.037832],[141.002956,-34.021892],[140.994503,-34.02943],[140.985698,-34.027525],[140.980453,-34.016013],[140.984758,-34.009207],[140.980375,-33.999637],[140.968271,-33.996052],[140.969513,-33.985386],[140.963616,-33.980648],[140.962516,-34.095833],[140.961682,-34.095818],[140.962593,-34.214158],[140.964347,-34.438654],[140.964809,-34.637679],[140.96534,-34.84046],[140.965621,-35.008257],[140.965949,-35.237705],[140.966225,-35.389142],[140.964953,-35.536085],[140.963103,-35.748535],[140.963888,-35.996066],[140.965659,-36.17579],[140.96735,-36.373918],[140.968196,-36.551331],[140.968905,-36.664933],[140.96932,-36.793047],[140.970594,-36.911125],[140.971979,-37.06655],[140.971275,-37.228803],[140.973019,-37.310127],[140.973283,-37.358326],[140.99225,-37.374153],[141.00363,-37.377604],[141.023785,-37.39137],[141.046408,-37.40186],[141.095296,-37.445612],[141.0976,-37.449839],[141.168237,-37.41988],[141.261036,-37.429675],[141.268635,-37.422038],[141.279118,-37.393094],[141.274354,-37.385772],[141.248472,-37.369243],[141.220881,-37.364574],[141.217232,-37.355413],[141.221004,-37.348705],[141.43153,-37.372302],[141.431506,-37.297536],[141.53141,-37.297658],[141.524789,-37.290042],[141.523334,-37.274978],[141.51094,-37.260738],[141.49181,-37.250776],[141.489818,-37.235453],[141.495846,-37.227545],[141.491386,-37.220626],[141.529107,-37.20418],[141.542425,-37.202105],[141.563399,-37.191764],[141.576169,-37.188063],[141.586186,-37.17333],[141.59906,-37.161089],[141.612488,-37.166065],[141.63407,-37.164456],[141.645935,-37.15929],[141.668346,-37.155164],[141.693165,-37.16692],[141.702533,-37.181087],[141.726774,-37.186981],[141.72887,-37.178746],[141.740402,-37.175218],[141.763091,-37.174769],[141.768053,-37.179546],[141.780639,-37.17474],[141.796669,-37.173084],[141.809229,-37.176947],[141.831747,-37.171684],[141.842206,-37.166161],[141.837561,-37.153955],[141.88113,-37.147105],[141.891121,-37.135842],[141.908974,-37.134682],[141.905195,-37.119815],[141.909221,-37.113856],[141.922912,-37.121018],[141.926846,-37.130024],[141.924493,-37.15036],[141.934258,-37.169757],[141.92973,-37.179657],[141.911057,-37.191431],[141.921277,-37.198303],[141.938195,-37.200072],[141.937174,-37.206681],[141.99113,-37.213233],[141.995775,-37.222621],[142.038164,-37.223986],[142.064596,-37.218555],[142.079239,-37.223433],[142.088345,-37.20964],[142.087567,-37.198525],[142.092533,-37.1707],[142.108037,-37.164385],[142.10738,-37.130521],[142.114488,-37.112054],[142.132795,-37.10899],[142.141374,-37.111591],[142.164157,-37.105892],[142.181345,-37.110771],[142.192094,-37.107513],[142.201413,-37.095054],[142.211661,-37.089919],[142.216549,-37.100889],[142.215885,-37.111344],[142.222559,-37.120517],[142.233639,-37.123716],[142.235124,-37.10717],[142.271164,-37.107397],[142.276013,-37.098357],[142.288422,-37.088745],[142.300239,-37.098476],[142.30819,-37.098472],[142.315138,-37.085973],[142.340377,-37.066265],[142.353865,-37.074549],[142.374564,-37.058575],[142.406919,-37.058336],[142.406815,-37.046016],[142.395798,-37.043039],[142.395918,-37.028522],[142.410935,-37.034586],[142.410997,-37.021377],[142.404951,-37.01631],[142.380473,-37.015394],[142.36841,-37.009028],[142.360877,-37.02145],[142.346897,-37.013759],[142.339931,-37.003233],[142.339994,-36.991314],[142.351482,-36.991285],[142.351509,-36.980315],[142.394658,-36.978374],[142.394686,-36.973258],[142.35825,-36.973137],[142.358234,-36.965667],[142.375878,-36.965699],[142.375108,-36.927064],[142.358075,-36.926564],[142.358311,-36.903352],[142.374034,-36.903423],[142.368323,-36.891795],[142.352751,-36.88501],[142.372639,-36.878928],[142.377304,-36.86898],[142.397984,-36.868888],[142.415641,-36.878093],[142.415616,-36.868812],[142.441672,-36.868827],[142.449479,-36.87486],[142.449478,-36.897671],[142.455871,-36.897673],[142.455817,-36.916713],[142.48037,-36.916782],[142.480191,-36.897676],[142.493345,-36.897675],[142.498111,-36.916649],[142.497797,-36.942023],[142.511864,-36.939887],[142.511932,-36.949204],[142.539203,-36.94927],[142.559399,-36.942736],[142.580213,-36.954292],[142.613691,-36.954306],[142.616331,-36.946817],[142.631626,-36.943362],[142.631563,-36.982989],[142.643727,-36.986718],[142.677201,-36.987285],[142.677181,-36.944503],[142.731451,-36.944665],[142.731448,-36.955669],[142.785628,-36.955706],[142.785619,-36.970124],[142.795578,-36.971593],[142.81826,-37.001373],[142.820887,-37.026067],[142.819235,-37.034402],[142.806058,-37.045013],[142.802079,-37.06337],[142.811247,-37.062774],[142.822888,-37.069117],[142.837322,-37.071781],[142.843992,-37.108848],[142.854247,-37.109744],[142.862816,-37.116473],[142.874392,-37.114611],[142.906685,-37.124974],[142.922211,-37.135457],[142.93811,-37.133829],[142.952998,-37.147148],[142.964374,-37.149757],[142.961733,-37.157771],[142.974843,-37.16052],[142.972607,-37.174792],[142.994529,-37.177348],[142.993522,-37.183072],[143.04891,-37.18975],[143.052885,-37.170364],[143.062125,-37.171493],[143.066938,-37.147368],[143.083715,-37.148659],[143.090714,-37.155061],[143.113193,-37.157514],[143.131118,-37.174201],[143.152078,-37.171846],[143.164704,-37.17569],[143.168796,-37.183391],[143.180461,-37.188585],[143.191238,-37.181645],[143.202279,-37.161336],[143.224695,-37.153609],[143.242238,-37.173775],[143.263783,-37.18183],[143.270918,-37.197545],[143.282552,-37.19533],[143.293612,-37.210623],[143.317588,-37.203791],[143.336272,-37.20632],[143.338415,-37.22268],[143.390832,-37.230053],[143.405776,-37.233753],[143.439571,-37.251042],[143.446169,-37.260325],[143.46687,-37.269288],[143.474276,-37.264827],[143.467656,-37.251447],[143.472369,-37.241127],[143.474748,-37.212646],[143.479347,-37.185887],[143.484067,-37.169724],[143.489971,-37.172003],[143.536086,-37.178692],[143.585412,-37.184553],[143.582284,-37.201733],[143.640639,-37.208311],[143.6364,-37.230834],[143.665129,-37.236655],[143.703052,-37.22968],[143.713915,-37.230282],[143.727011,-37.213671],[143.744307,-37.221119],[143.753305,-37.230951],[143.766284,-37.228234],[143.820191,-37.23522],[143.822061,-37.225945],[143.835054,-37.227292],[143.836992,-37.232846],[143.860272,-37.234298],[143.867099,-37.195806],[143.875002,-37.186402],[143.934987,-37.19272],[143.94897,-37.197995],[143.954157,-37.185859],[143.96265,-37.176534],[143.962941,-37.148573],[143.955934,-37.13897],[143.962881,-37.12932],[143.9635,-37.107788],[143.972168,-37.092005],[143.977855,-37.099453],[143.986778,-37.086435],[143.999802,-37.078703],[144.012053,-37.076825],[144.012588,-37.066759],[144.006415,-37.059033],[143.991895,-37.054314],[143.990419,-37.04903],[143.973445,-37.029378],[143.89967,-37.021318],[143.899697,-37.000556],[143.882318,-36.998499],[143.884244,-36.986326],[143.833607,-36.980546],[143.836834,-36.962987],[143.845159,-36.963003],[143.859695,-36.948891],[143.846647,-36.927861],[143.867209,-36.906659],[143.888066,-36.89549],[143.891801,-36.881611],[144.025899,-36.897897],[144.033109,-36.885483],[144.049513,-36.799059],[144.047937,-36.792249],[144.059324,-36.78155],[144.062312,-36.766689],[144.071279,-36.766439],[144.075655,-36.743138],[144.05984,-36.730752],[144.068498,-36.720178],[144.068462,-36.662011],[144.125626,-36.662021],[144.125668,-36.647488],[144.140447,-36.647427],[144.140417,-36.618181],[144.184375,-36.618189],[144.174367,-36.582323],[144.162897,-36.565367],[144.170608,-36.524435],[144.199219,-36.524491],[144.204641,-36.516458],[144.209671,-36.487542],[144.344104,-36.48726],[144.344316,-36.385219],[144.330096,-36.385254],[144.331888,-36.370855],[144.331834,-36.327718],[144.281729,-36.327723],[144.281637,-36.262621],[144.270948,-36.24389],[144.272983,-36.229403],[144.270667,-36.219844],[144.272231,-36.202088],[144.27885,-36.194371],[144.281,-36.174224],[144.288785,-36.167145],[144.285065,-36.158454],[144.28557,-36.145005],[144.291465,-36.125661],[144.302259,-36.125433],[144.309053,-36.10537],[144.317969,-36.091068],[144.312789,-36.07497],[144.306446,-36.07199],[144.303933,-36.061304],[144.313833,-36.050545],[144.309157,-36.03692],[144.280171,-36.013572],[144.27629,-36.003865],[144.278302,-35.992737],[144.291402,-35.984427],[144.280057,-35.969997],[144.267734,-35.960066],[144.26005,-35.949007],[144.266472,-35.929307],[144.288564,-35.923655],[144.306199,-35.934155],[144.335568,-35.934197],[144.35341,-35.919533],[144.353907,-35.908449],[144.342414,-35.90739],[144.343562,-35.894326],[144.365358,-35.885459],[144.381896,-35.88437],[144.408376,-35.898742]]]},"bbox":[140.961682,-37.449839,144.417172,-33.980648]}]}