{"type":"FeatureCollection","features":[
{"properties":{"electorateShortName":"maranoa","electorateName":"Maranoa","area":729896.590691,"state":"QLD"},"type":"Feature","geometry":{"type":"Polygon","coordinates":[[[152.487617,-28.253908],[152.486992,-28.247982],[152.492287,-28.243468],[152.482928,-28.234833],[152.482353,-28.229506],[152.469918,-28.228872],[152.458952,-28.226581],[152.458243,-28.220999],[152.465601,-28.216753],[152.473234,-28.20436],[152.470858,-28.194963],[152.455831,-28.195629],[152.4473,-28.18664],[152.442049,-28.176017],[152.446688,-28.166427],[152.435536,-28.156308],[152.434886,-28.147509],[152.432048,-28.142626],[152.434044,-28.131009],[152.426143,-28.1291],[152.419,-28.118702],[152.411431,-28.112637],[152.411901,-28.107601],[152.408544,-28.100114],[152.409408,-28.095775],[152.418451,-28.088486],[152.414721,-28.078669],[152.41631,-28.069754],[152.402357,-28.065336],[152.389954,-28.059093],[152.395034,-28.04899],[152.394293,-28.043771],[152.388469,-28.03629],[152.390311,-28.030865],[152.382843,-28.024454],[152.374893,-28.012336],[152.377993,-27.99926],[152.378003,-27.990558],[152.383625,-27.983728],[152.382812,-27.978804],[152.38776,-27.971873],[152.382276,-27.965632],[152.365903,-27.964222],[152.357008,-27.962269],[152.347352,-27.965377],[152.343058,-27.961016],[152.327654,-27.96661],[152.316313,-27.965551],[152.308386,-27.962841],[152.298687,-27.956378],[152.293576,-27.961037],[152.28603,-27.962908],[152.276931,-27.969723],[152.270221,-27.968547],[152.256571,-27.960783],[152.254436,-27.956114],[152.235031,-27.951952],[152.2149,-27.945139],[152.216011,-27.938764],[152.209105,-27.937754],[152.210196,-27.931862],[152.203453,-27.927042],[152.199066,-27.929341],[152.188454,-27.924176],[152.184809,-27.912513],[152.178708,-27.909194],[152.175651,-27.904488],[152.175895,-27.887407],[152.171109,-27.887217],[152.168574,-27.882231],[152.164064,-27.88316],[152.160761,-27.878772],[152.151221,-27.876634],[152.152404,-27.872686],[152.148272,-27.862854],[152.144834,-27.866619],[152.133075,-27.858233],[152.11856,-27.85579],[152.073749,-27.849809],[152.071888,-27.860228],[152.054828,-27.85957],[152.0472,-27.857231],[152.041512,-27.850364],[152.037706,-27.850489],[152.030372,-27.845032],[152.023957,-27.844847],[152.017804,-27.84057],[152.020213,-27.836376],[152.013697,-27.834761],[152.006549,-27.839224],[151.99902,-27.840218],[151.993975,-27.835272],[151.983865,-27.83585],[151.977704,-27.850626],[151.965443,-27.845122],[151.958804,-27.847978],[151.942365,-27.845526],[151.941678,-27.849462],[151.909055,-27.845068],[151.906388,-27.849399],[151.894547,-27.848601],[151.8662,-27.832223],[151.857444,-27.832937],[151.849106,-27.838048],[151.83248,-27.842653],[151.826588,-27.832157],[151.808255,-27.829619],[151.800902,-27.822269],[151.794322,-27.827462],[151.760196,-27.822867],[151.759114,-27.82627],[151.741509,-27.823859],[151.739441,-27.829425],[151.728385,-27.826953],[151.719442,-27.833345],[151.711682,-27.842889],[151.704472,-27.846119],[151.701304,-27.844871],[151.693594,-27.84985],[151.682587,-27.845047],[151.673506,-27.846765],[151.672259,-27.852821],[151.65957,-27.858542],[151.656679,-27.875715],[151.640039,-27.87343],[151.641337,-27.878845],[151.648706,-27.881798],[151.652166,-27.887388],[151.623829,-27.906668],[151.602142,-27.907245],[151.573479,-27.903493],[151.579891,-27.859109],[151.568591,-27.851829],[151.557337,-27.851469],[151.552899,-27.846752],[151.548301,-27.848538],[151.53984,-27.84311],[151.53405,-27.846568],[151.532199,-27.842085],[151.524262,-27.836289],[151.519448,-27.825519],[151.510663,-27.825269],[151.505004,-27.819366],[151.496822,-27.820379],[151.494898,-27.812862],[151.487073,-27.808655],[151.479176,-27.799904],[151.473438,-27.796217],[151.471141,-27.790289],[151.461527,-27.790559],[151.45715,-27.800613],[151.449494,-27.801593],[151.447526,-27.794679],[151.433397,-27.791676],[151.429654,-27.784693],[151.425161,-27.786245],[151.416556,-27.778568],[151.412394,-27.771492],[151.416915,-27.76606],[151.411639,-27.755619],[151.404509,-27.750379],[151.408356,-27.747373],[151.405193,-27.742525],[151.396916,-27.737027],[151.384569,-27.735852],[151.382733,-27.728405],[151.374343,-27.72506],[151.379611,-27.719969],[151.369357,-27.715265],[151.361344,-27.709305],[151.362562,-27.703091],[151.356729,-27.699569],[151.362768,-27.694373],[151.356366,-27.682147],[151.348449,-27.67826],[151.350404,-27.670446],[151.343505,-27.668394],[151.333396,-27.669564],[151.329545,-27.655681],[151.323111,-27.641956],[151.318916,-27.640664],[151.326972,-27.633476],[151.327465,-27.629251],[151.319461,-27.621376],[151.320833,-27.61365],[151.310429,-27.603411],[151.296947,-27.601269],[151.294964,-27.595119],[151.287643,-27.584273],[151.286558,-27.578436],[151.274526,-27.566073],[151.27104,-27.559095],[151.273393,-27.55511],[151.268089,-27.552086],[151.259747,-27.540566],[151.26605,-27.530075],[151.263333,-27.523762],[151.259636,-27.524809],[151.250613,-27.519869],[151.24743,-27.521844],[151.240962,-27.518974],[151.242184,-27.514858],[151.23742,-27.511085],[151.230082,-27.509202],[151.225648,-27.502573],[151.226657,-27.491927],[151.221848,-27.486475],[151.210868,-27.489819],[151.204617,-27.493607],[151.203082,-27.50159],[151.204606,-27.506823],[151.201819,-27.510589],[151.132649,-27.500756],[151.127511,-27.502611],[151.120521,-27.498743],[151.08169,-27.493381],[151.077486,-27.481163],[151.076586,-27.451121],[151.080647,-27.420367],[151.087625,-27.376222],[151.107803,-27.37881],[151.112741,-27.377044],[151.165789,-27.383608],[151.177774,-27.381609],[151.197416,-27.384022],[151.192732,-27.398747],[151.220952,-27.402709],[151.308622,-27.413824],[151.311716,-27.33623],[151.312407,-27.330702],[151.317652,-27.33141],[151.325606,-27.282232],[151.333201,-27.232571],[151.33763,-27.207551],[151.450784,-27.278638],[151.456788,-27.242104],[151.453694,-27.241573],[151.460382,-27.202634],[151.450389,-27.201142],[151.453895,-27.181972],[151.452679,-27.178352],[151.458041,-27.145909],[151.467223,-27.147086],[151.469702,-27.136181],[151.466236,-27.122072],[151.463776,-27.118261],[151.464934,-27.110822],[151.483027,-27.113216],[151.481231,-27.124368],[151.496085,-27.126283],[151.49677,-27.121952],[151.525483,-27.125519],[151.526494,-27.119534],[151.539668,-27.121763],[151.546229,-27.115295],[151.557143,-27.116739],[151.556053,-27.12312],[151.568505,-27.124785],[151.570905,-27.110659],[151.567656,-27.110237],[151.569419,-27.098945],[151.576371,-27.09983],[151.578425,-27.088094],[151.576154,-27.087776],[151.58118,-27.055961],[151.59674,-27.058012],[151.600858,-27.030506],[151.608155,-27.028157],[151.623086,-27.03013],[151.627521,-27.002613],[151.636892,-27.003802],[151.638287,-26.996773],[151.656798,-26.993308],[151.664422,-26.99004],[151.6711,-26.98201],[151.681396,-26.981195],[151.686401,-26.977897],[151.69397,-26.969204],[151.70119,-26.967754],[151.716607,-26.968889],[151.726168,-26.971671],[151.738988,-26.973327],[151.74601,-26.971688],[151.753744,-26.973725],[151.758822,-26.983484],[151.772878,-26.989885],[151.768303,-27.017921],[151.773798,-27.023031],[151.779856,-27.025672],[151.777609,-27.030532],[151.770771,-27.036601],[151.768565,-27.042331],[151.762304,-27.05084],[151.760396,-27.060696],[151.763807,-27.06727],[151.761824,-27.074402],[151.765761,-27.083216],[151.773565,-27.082272],[151.778024,-27.090318],[151.783052,-27.094001],[151.785776,-27.10318],[151.792247,-27.108284],[151.794342,-27.113316],[151.790602,-27.117029],[151.794799,-27.12532],[151.792632,-27.132693],[151.802774,-27.146034],[151.813489,-27.154896],[151.823069,-27.158527],[151.838585,-27.162114],[151.844741,-27.167119],[151.852695,-27.168106],[151.856004,-27.175061],[151.861711,-27.180245],[151.861845,-27.190536],[151.86588,-27.194427],[151.873394,-27.19531],[151.87596,-27.207917],[151.881714,-27.223721],[151.881165,-27.227235],[151.891728,-27.228763],[151.900382,-27.241089],[151.905626,-27.24582],[151.913407,-27.246853],[151.915161,-27.252476],[151.922472,-27.255063],[151.931127,-27.252948],[151.9353,-27.24695],[151.94389,-27.247857],[151.949495,-27.245519],[151.949234,-27.24177],[151.958045,-27.240978],[151.951814,-27.271393],[151.945354,-27.269866],[151.932792,-27.276023],[151.928776,-27.289118],[151.923699,-27.296294],[151.915407,-27.316282],[151.917937,-27.321033],[151.933687,-27.322772],[151.944931,-27.320815],[151.943383,-27.330378],[151.947302,-27.330942],[151.947434,-27.339752],[151.945522,-27.350946],[151.948019,-27.356596],[151.958017,-27.362032],[151.962482,-27.367044],[151.974317,-27.363424],[151.977724,-27.355883],[151.989037,-27.355141],[151.992829,-27.346927],[151.990946,-27.340478],[151.992904,-27.334223],[152.000068,-27.33299],[152.001932,-27.319024],[152.015171,-27.316188],[152.022039,-27.312416],[152.028276,-27.300951],[152.036431,-27.297562],[152.050034,-27.311839],[152.062329,-27.32839],[152.070788,-27.345018],[152.068669,-27.358184],[152.07585,-27.370792],[152.079533,-27.381094],[152.073671,-27.384886],[152.074363,-27.392451],[152.070838,-27.402759],[152.083408,-27.404658],[152.083755,-27.399808],[152.093985,-27.401106],[152.093335,-27.404847],[152.100664,-27.405902],[152.099625,-27.411863],[152.107461,-27.414813],[152.11874,-27.416387],[152.117929,-27.420963],[152.136975,-27.423638],[152.13611,-27.429809],[152.14073,-27.43049],[152.141098,-27.441445],[152.147967,-27.437285],[152.156303,-27.438489],[152.155728,-27.445896],[152.16071,-27.444473],[152.164533,-27.425698],[152.177275,-27.420898],[152.179524,-27.407605],[152.196014,-27.406138],[152.197391,-27.399978],[152.191723,-27.386849],[152.190833,-27.382083],[152.198344,-27.377657],[152.201494,-27.359692],[152.19148,-27.365797],[152.195973,-27.340833],[152.199278,-27.341242],[152.201485,-27.322022],[152.1901,-27.320353],[152.192367,-27.311241],[152.203016,-27.299195],[152.206186,-27.292046],[152.199343,-27.28847],[152.194461,-27.275415],[152.196438,-27.272163],[152.184076,-27.270474],[152.182785,-27.273575],[152.170448,-27.286666],[152.161902,-27.28826],[152.162347,-27.282286],[152.158462,-27.276346],[152.154173,-27.274818],[152.151987,-27.269404],[152.158259,-27.259283],[152.165074,-27.256601],[152.178709,-27.260551],[152.172394,-27.253795],[152.182029,-27.252194],[152.188728,-27.254851],[152.190906,-27.242078],[152.200941,-27.243403],[152.201326,-27.240251],[152.208693,-27.235591],[152.218414,-27.232553],[152.225508,-27.228679],[152.232916,-27.222364],[152.236149,-27.203708],[152.220465,-27.201307],[152.215077,-27.208955],[152.186779,-27.205147],[152.179789,-27.205384],[152.174034,-27.211087],[152.166034,-27.207228],[152.158854,-27.206431],[152.161754,-27.189325],[152.169476,-27.187161],[152.185497,-27.176236],[152.188492,-27.169149],[152.141922,-27.146316],[152.134036,-27.141624],[152.140758,-27.133273],[152.141842,-27.126549],[152.148476,-27.121896],[152.157889,-27.111778],[152.174357,-27.097601],[152.181248,-27.08612],[152.185236,-27.061433],[152.191318,-27.072344],[152.214305,-27.075087],[152.214332,-27.069944],[152.221932,-27.066613],[152.227387,-27.060991],[152.194896,-27.056745],[152.199179,-27.027755],[152.192396,-27.027024],[152.193015,-27.022877],[152.219005,-27.026119],[152.220958,-27.022207],[152.205259,-27.014435],[152.198569,-27.0136],[152.198108,-27.008236],[152.186586,-27.006662],[152.188751,-26.993928],[152.175,-26.991992],[152.182749,-26.984912],[152.182664,-26.97723],[152.175243,-26.976058],[152.168667,-26.977794],[152.1641,-26.972712],[152.150392,-26.966065],[152.138717,-26.96477],[152.130703,-26.960417],[152.125438,-26.954225],[152.128066,-26.944418],[152.134697,-26.935478],[152.145223,-26.92669],[152.143012,-26.924869],[152.143715,-26.911229],[152.14987,-26.904617],[152.143172,-26.90062],[152.138715,-26.894653],[152.146979,-26.879117],[152.154591,-26.873643],[152.159683,-26.873673],[152.170568,-26.867411],[152.172641,-26.875258],[152.188641,-26.877413],[152.184226,-26.871014],[152.183441,-26.853411],[152.181029,-26.846573],[152.182543,-26.837268],[152.187702,-26.837936],[152.190081,-26.823612],[152.174117,-26.821439],[152.176386,-26.809059],[152.170741,-26.796468],[152.174557,-26.791989],[152.174165,-26.784712],[152.176618,-26.779782],[152.168249,-26.772971],[152.163952,-26.775587],[152.155782,-26.76882],[152.155643,-26.754269],[152.163898,-26.742123],[152.150971,-26.740517],[152.152989,-26.727605],[152.142926,-26.726944],[152.140862,-26.730749],[152.146295,-26.734692],[152.143562,-26.738355],[152.13311,-26.741272],[152.129985,-26.734437],[152.134298,-26.730599],[152.123683,-26.717402],[152.112249,-26.706196],[152.10431,-26.709541],[152.10099,-26.703282],[152.088977,-26.699799],[152.083102,-26.693998],[152.082892,-26.689309],[152.076002,-26.685856],[152.073393,-26.66841],[152.075016,-26.663425],[152.081061,-26.657986],[152.090124,-26.653923],[152.098647,-26.653751],[152.10729,-26.647757],[152.118975,-26.642662],[152.119629,-26.637398],[152.126748,-26.637973],[152.129998,-26.631667],[152.12831,-26.62712],[152.13585,-26.614219],[152.130321,-26.600406],[152.137788,-26.596578],[152.142607,-26.591691],[152.138635,-26.58951],[152.137204,-26.582683],[152.131749,-26.579017],[152.130947,-26.574919],[152.135963,-26.566372],[152.13004,-26.548448],[152.126421,-26.531617],[152.13184,-26.521801],[152.12739,-26.518582],[152.127697,-26.510913],[152.125717,-26.50656],[152.133912,-26.500414],[152.136728,-26.493722],[152.132775,-26.487651],[152.135867,-26.480062],[152.144722,-26.479577],[152.149888,-26.482675],[152.167652,-26.475419],[152.173777,-26.438091],[152.17112,-26.427302],[152.166972,-26.422337],[152.16719,-26.416696],[152.159427,-26.415523],[152.152972,-26.408905],[152.148731,-26.401357],[152.142535,-26.406768],[152.140217,-26.401569],[152.134343,-26.396983],[152.130484,-26.397607],[152.121249,-26.392641],[152.123319,-26.384578],[152.120144,-26.378695],[152.10745,-26.374935],[152.096439,-26.373543],[152.088317,-26.365849],[152.072527,-26.359419],[152.068957,-26.383207],[152.066278,-26.381612],[152.011798,-26.375274],[152.013422,-26.379282],[152.011059,-26.385124],[152.024788,-26.388057],[152.026143,-26.395239],[152.036555,-26.39955],[152.038536,-26.402151],[152.030218,-26.406111],[152.017899,-26.419201],[152.011405,-26.418496],[152.006256,-26.427111],[151.996828,-26.425945],[151.995889,-26.432648],[151.986949,-26.431624],[151.981949,-26.429183],[151.972949,-26.431256],[151.964121,-26.428438],[151.963203,-26.422662],[151.922648,-26.417634],[151.919049,-26.420942],[151.913282,-26.410399],[151.902167,-26.402367],[151.891556,-26.390819],[151.883259,-26.391988],[151.87052,-26.390943],[151.855269,-26.40113],[151.850877,-26.392317],[151.848178,-26.392242],[151.842765,-26.399389],[151.829004,-26.400354],[151.824243,-26.392736],[151.829064,-26.388592],[151.830478,-26.381047],[151.785529,-26.375273],[151.783287,-26.390141],[151.766939,-26.388021],[151.768169,-26.380314],[151.719493,-26.374012],[151.717181,-26.389136],[151.720954,-26.394337],[151.7062,-26.392379],[151.699503,-26.39734],[151.689134,-26.395779],[151.678422,-26.403054],[151.670864,-26.402061],[151.671495,-26.394187],[151.59271,-26.383575],[151.581996,-26.380862],[151.577556,-26.382069],[151.537849,-26.376519],[151.529666,-26.382224],[151.515538,-26.379025],[151.507509,-26.375876],[151.484065,-26.382817],[151.48591,-26.389125],[151.483858,-26.393493],[151.475737,-26.400622],[151.461314,-26.407844],[151.454801,-26.415278],[151.450339,-26.415019],[151.441376,-26.422229],[151.435133,-26.422745],[151.429954,-26.426842],[151.427375,-26.433828],[151.393602,-26.387028],[151.390164,-26.383228],[151.377236,-26.394571],[151.372146,-26.402645],[151.365461,-26.400957],[151.344316,-26.403247],[151.333441,-26.405346],[151.327382,-26.404182],[151.319517,-26.399944],[151.306596,-26.403988],[151.297865,-26.401194],[151.297415,-26.397532],[151.29149,-26.393484],[151.284892,-26.393278],[151.238761,-26.423762],[151.200782,-26.449264],[151.200421,-26.460622],[151.207727,-26.469191],[151.207725,-26.478767],[151.076653,-26.462794],[151.114728,-26.379598],[151.133333,-26.272512],[151.135653,-26.263126],[151.065901,-26.254601],[151.016714,-26.256222],[151.013243,-26.191929],[151.02286,-26.19499],[151.027041,-26.19348],[151.073262,-26.172779],[151.076422,-26.161856],[151.093036,-26.159469],[151.099823,-26.160292],[151.098696,-26.149895],[151.115863,-26.140878],[151.120577,-26.142982],[151.125689,-26.151452],[151.13928,-26.159197],[151.147012,-26.15788],[151.150042,-26.159662],[151.158776,-26.154547],[151.161997,-26.149537],[151.16069,-26.142006],[151.156537,-26.133744],[151.159527,-26.120812],[151.151719,-26.111116],[151.149868,-26.105434],[151.142901,-26.103999],[151.137375,-26.107726],[151.134437,-26.105301],[151.126275,-26.114524],[151.115413,-26.118721],[151.111163,-26.112685],[151.097814,-26.110762],[151.088106,-26.105195],[151.084656,-26.100251],[151.073864,-26.095345],[151.067346,-26.0854],[151.054264,-26.088892],[151.040198,-26.087752],[151.032555,-26.085226],[151.015886,-26.07722],[151.009113,-26.068061],[151.008271,-26.058981],[151.002058,-26.049567],[151.003024,-26.04327],[150.993893,-26.031208],[150.989194,-26.015251],[150.983413,-26.011491],[150.983982,-26.007806],[150.96216,-26.013861],[150.949807,-26.010038],[150.933085,-26.013221],[150.926842,-26.011795],[150.920428,-26.005017],[150.914066,-26.004091],[150.905964,-26.008324],[150.903927,-26.019397],[150.849566,-26.056405],[150.789811,-26.048923],[150.780915,-26.028494],[150.78598,-26.018657],[150.775761,-26.012212],[150.777398,-26.008593],[150.773554,-25.998309],[150.766563,-25.99098],[150.763333,-25.98145],[150.756645,-25.980545],[150.72529,-25.980871],[150.719396,-25.985094],[150.714149,-25.984854],[150.701622,-25.974081],[150.672548,-25.969765],[150.674705,-25.963125],[150.669787,-25.949214],[150.669187,-25.942882],[150.679619,-25.92866],[150.684773,-25.914505],[150.684554,-25.90198],[150.680442,-25.898065],[150.678524,-25.891504],[150.680602,-25.882853],[150.68972,-25.877431],[150.693544,-25.871996],[150.695092,-25.864531],[150.699243,-25.85574],[150.697017,-25.850809],[150.679684,-25.830882],[150.672574,-25.827494],[150.67117,-25.821439],[150.659397,-25.814732],[150.65064,-25.804629],[150.657653,-25.800906],[150.644419,-25.785264],[150.650464,-25.774524],[150.660423,-25.773318],[150.666477,-25.763333],[150.663702,-25.757407],[150.663331,-25.745293],[150.664613,-25.733239],[150.649808,-25.726643],[150.643073,-25.715981],[150.646661,-25.705599],[150.651427,-25.6991],[150.655517,-25.698028],[150.655717,-25.692727],[150.663587,-25.68464],[150.655598,-25.672033],[150.654161,-25.659782],[150.612419,-25.654608],[150.591014,-25.652642],[150.58512,-25.643812],[150.57042,-25.638485],[150.552945,-25.641724],[150.54642,-25.640509],[150.537597,-25.641505],[150.524548,-25.644978],[150.517546,-25.640297],[150.50416,-25.63594],[150.495408,-25.628432],[150.484028,-25.60619],[150.481752,-25.605272],[150.446097,-25.598841],[150.436743,-25.606392],[150.442553,-25.621755],[150.436464,-25.661415],[150.426595,-25.665307],[150.418493,-25.67516],[150.422787,-25.686855],[150.422019,-25.694231],[150.434148,-25.733632],[150.42959,-25.737068],[150.426022,-25.773976],[150.417908,-25.789101],[150.404484,-25.790466],[150.395108,-25.79596],[150.392823,-25.801231],[150.386739,-25.80581],[150.388757,-25.814523],[150.370517,-25.815421],[150.361141,-25.818391],[150.345436,-25.817684],[150.341134,-25.814928],[150.336669,-25.790407],[150.295095,-25.780245],[150.28193,-25.778848],[150.279111,-25.796265],[150.273033,-25.796255],[150.257854,-25.788433],[150.249602,-25.788184],[150.248505,-25.795479],[150.243311,-25.794533],[150.236742,-25.788791],[150.214283,-25.784401],[150.207462,-25.784615],[150.174418,-25.780444],[150.180601,-25.795146],[150.18076,-25.805691],[150.17397,-25.811863],[150.159005,-25.819161],[150.153179,-25.819375],[150.141622,-25.822944],[150.128784,-25.818328],[150.114818,-25.810922],[150.104469,-25.795509],[150.09695,-25.794654],[150.091005,-25.806508],[150.085198,-25.812072],[150.055946,-25.81313],[150.051829,-25.837825],[150.04538,-25.839283],[150.044503,-25.833933],[150.040135,-25.832728],[150.036271,-25.8365],[150.030907,-25.836421],[150.027026,-25.829668],[150.021739,-25.865207],[150.013432,-25.857475],[149.999673,-25.852258],[149.990059,-25.847095],[149.973521,-25.847656],[149.96783,-25.850586],[149.961425,-25.850654],[149.954308,-25.84129],[149.95037,-25.839685],[149.931975,-25.839416],[149.927651,-25.832033],[149.91875,-25.826482],[149.913995,-25.821465],[149.906387,-25.817171],[149.899329,-25.818643],[149.89291,-25.823855],[149.886195,-25.821038],[149.882488,-25.829441],[149.850809,-25.837479],[149.838505,-25.837059],[149.827116,-25.828797],[149.823579,-25.828294],[149.821545,-25.839978],[149.827678,-25.843082],[149.822804,-25.849289],[149.813292,-25.852539],[149.797982,-25.848834],[149.787085,-25.857877],[149.770882,-25.852357],[149.766316,-25.859459],[149.783034,-25.890701],[149.77134,-25.90605],[149.767274,-25.904813],[149.736105,-25.849599],[149.692287,-25.869086],[149.681889,-25.872281],[149.671961,-25.87939],[149.663522,-25.883613],[149.649194,-25.894488],[149.584433,-25.886328],[149.575487,-25.944165],[149.525451,-25.939004],[149.476835,-25.933506],[149.483531,-25.891873],[149.401643,-25.882506],[149.398148,-25.876256],[149.382728,-25.888896],[149.374624,-25.890518],[149.365015,-25.898102],[149.363258,-25.904752],[149.348584,-25.914866],[149.342262,-25.920837],[149.33567,-25.919475],[149.327807,-25.92525],[149.3028,-25.966084],[149.22596,-25.957228],[149.168422,-25.949034],[149.138019,-25.945806],[149.124564,-25.951124],[149.121267,-25.949521],[149.101998,-25.945631],[149.097295,-25.947899],[149.094392,-25.940361],[149.085523,-25.941109],[149.083743,-25.93234],[149.079935,-25.924558],[149.082976,-25.915618],[149.087791,-25.907824],[149.091086,-25.906677],[149.093618,-25.895215],[149.097673,-25.894069],[149.104766,-25.885127],[149.11034,-25.88375],[149.110591,-25.876186],[149.104513,-25.866319],[149.096658,-25.860132],[149.091338,-25.858529],[149.084498,-25.853487],[149.075631,-25.842944],[149.068032,-25.842485],[149.05461,-25.82896],[149.044221,-25.827595],[149.043739,-25.8218],[149.03147,-25.808222],[149.025279,-25.798982],[149.031609,-25.77551],[149.031379,-25.769672],[149.02135,-25.770085],[149.012135,-25.776826],[149.003682,-25.778126],[148.995957,-25.782225],[148.986605,-25.782246],[148.977436,-25.787133],[148.961161,-25.789761],[148.94469,-25.770998],[148.911223,-25.767597],[148.909561,-25.761169],[148.90072,-25.760089],[148.924079,-25.740139],[148.922109,-25.734556],[148.92186,-25.725384],[148.926418,-25.725161],[148.928446,-25.720579],[148.924649,-25.716904],[148.928704,-25.708197],[148.925668,-25.703836],[148.930226,-25.699945],[148.936809,-25.69835],[148.942382,-25.685517],[148.949467,-25.692864],[148.957567,-25.693105],[148.967691,-25.704123],[148.969716,-25.711692],[148.973513,-25.713302],[148.981868,-25.708496],[148.996296,-25.697735],[149.002018,-25.697823],[149.008598,-25.695076],[149.016196,-25.682242],[149.019484,-25.682014],[149.031884,-25.672849],[149.040483,-25.675832],[149.056927,-25.669416],[149.053383,-25.665666],[149.059655,-25.652623],[149.059276,-25.646668],[149.049901,-25.648835],[149.050497,-25.638531],[149.060299,-25.632182],[149.059057,-25.62579],[149.047453,-25.623382],[149.044744,-25.625197],[149.040868,-25.636566],[149.035539,-25.64176],[149.032951,-25.638381],[149.038265,-25.631533],[149.032667,-25.627058],[149.027865,-25.620187],[149.014798,-25.614784],[149.014703,-25.609639],[149.023861,-25.612384],[149.02556,-25.608162],[149.019693,-25.604013],[148.994982,-25.601044],[148.990127,-25.606755],[148.995205,-25.615985],[148.992975,-25.61896],[148.985648,-25.613453],[148.987691,-25.590989],[148.983717,-25.588673],[149.024318,-25.559799],[148.972217,-25.499426],[148.938047,-25.458588],[148.934775,-25.465162],[148.927728,-25.463258],[148.919056,-25.467506],[148.907111,-25.467278],[148.90043,-25.472469],[148.876847,-25.469783],[148.872855,-25.461246],[148.863728,-25.46478],[148.833436,-25.459963],[148.825646,-25.455565],[148.814899,-25.452006],[148.810919,-25.441037],[148.804526,-25.440825],[148.79808,-25.445424],[148.791201,-25.439115],[148.783801,-25.435894],[148.775942,-25.434953],[148.77485,-25.431725],[148.765573,-25.424289],[148.761774,-25.417387],[148.744135,-25.413272],[148.737181,-25.409787],[148.725886,-25.400862],[148.724895,-25.390365],[148.718974,-25.386964],[148.726672,-25.342565],[148.733186,-25.337751],[148.733507,-25.333648],[148.738904,-25.327597],[148.747376,-25.324187],[148.747048,-25.318666],[148.752558,-25.312877],[148.759154,-25.310734],[148.74525,-25.279734],[148.737941,-25.278105],[148.735459,-25.283627],[148.727484,-25.287947],[148.715213,-25.282492],[148.708365,-25.277527],[148.699852,-25.284574],[148.693169,-25.28479],[148.685636,-25.281566],[148.682278,-25.283279],[148.679855,-25.295357],[148.670802,-25.308451],[148.666599,-25.310976],[148.653065,-25.298329],[148.643114,-25.284136],[148.633166,-25.279437],[148.625675,-25.27997],[148.600075,-25.272868],[148.592818,-25.26283],[148.583935,-25.257212],[148.566588,-25.24953],[148.554345,-25.254106],[148.548906,-25.252439],[148.538315,-25.24569],[148.532421,-25.244113],[148.518532,-25.243475],[148.502911,-25.246491],[148.48796,-25.246968],[148.476272,-25.245362],[148.466017,-25.247246],[148.453218,-25.254457],[148.43528,-25.253542],[148.426564,-25.24958],[148.420843,-25.250882],[148.414813,-25.259553],[148.409583,-25.259148],[148.400128,-25.246001],[148.394614,-25.243055],[148.387503,-25.2442],[148.380386,-25.241719],[148.376371,-25.234822],[148.368356,-25.231382],[148.362356,-25.232814],[148.352036,-25.229107],[148.34773,-25.220138],[148.337082,-25.217801],[148.326226,-25.210295],[148.312501,-25.213037],[148.305572,-25.212303],[148.306379,-25.204066],[148.292904,-25.181889],[148.291807,-25.175292],[148.294549,-25.1661],[148.291115,-25.161208],[148.284621,-25.159044],[148.27605,-25.153144],[148.276734,-25.148899],[148.26864,-25.145192],[148.261051,-25.135671],[148.255568,-25.133557],[148.251888,-25.127659],[148.241979,-25.12053],[148.236228,-25.114301],[148.234682,-25.100669],[148.213308,-25.08643],[148.210095,-25.080258],[148.205997,-25.079255],[148.199152,-25.082006],[148.187859,-25.081314],[148.181264,-25.07952],[148.175078,-25.084523],[148.160584,-25.084169],[148.150139,-25.061389],[148.145176,-25.061298],[148.134456,-25.043304],[148.125046,-25.043916],[148.121614,-25.042014],[148.116388,-25.02281],[148.112801,-25.020967],[148.098979,-25.018357],[148.09577,-25.01653],[148.091481,-25.008837],[148.085083,-25.002144],[148.077062,-24.981113],[148.075886,-24.976045],[148.077734,-24.966632],[148.073043,-24.956188],[148.076491,-24.947928],[148.075298,-24.943078],[148.066023,-24.935653],[148.063111,-24.924548],[148.057673,-24.915533],[148.052006,-24.910867],[148.044644,-24.909362],[148.034721,-24.912171],[148.029651,-24.911364],[148.013503,-24.898707],[148.004223,-24.896809],[147.995082,-24.899475],[147.989917,-24.896577],[147.984231,-24.889771],[147.973222,-24.881534],[147.962701,-24.878915],[147.952765,-24.881346],[147.946917,-24.87422],[147.947705,-24.871031],[147.939056,-24.859309],[147.935376,-24.858549],[147.915622,-24.842755],[147.912877,-24.836464],[147.916196,-24.828906],[147.915253,-24.822824],[147.903776,-24.816302],[147.900084,-24.807224],[147.889132,-24.798736],[147.881843,-24.796108],[147.874873,-24.791028],[147.865763,-24.786751],[147.85908,-24.785911],[147.852788,-24.781262],[147.848125,-24.766079],[147.837354,-24.756915],[147.831799,-24.754696],[147.828371,-24.749721],[147.826238,-24.740545],[147.821369,-24.735648],[147.811541,-24.736225],[147.804709,-24.734488],[147.795901,-24.736286],[147.790322,-24.733721],[147.784249,-24.734415],[147.775095,-24.739011],[147.762347,-24.729086],[147.748493,-24.730953],[147.739404,-24.730018],[147.733282,-24.731673],[147.719694,-24.742257],[147.712052,-24.751736],[147.699461,-24.759817],[147.69005,-24.763101],[147.681902,-24.772074],[147.67791,-24.772717],[147.66884,-24.769896],[147.662489,-24.77164],[147.648828,-24.771342],[147.644387,-24.774714],[147.644605,-24.789652],[147.642127,-24.797774],[147.634397,-24.803417],[147.61782,-24.804653],[147.611467,-24.807107],[147.595826,-24.818643],[147.587065,-24.828069],[147.576793,-24.833525],[147.570587,-24.833201],[147.566163,-24.829848],[147.561963,-24.82131],[147.558219,-24.818967],[147.543749,-24.81937],[147.530184,-24.823421],[147.520939,-24.829447],[147.513955,-24.827927],[147.51001,-24.822186],[147.505664,-24.825257],[147.507875,-24.832739],[147.505086,-24.841111],[147.49628,-24.849419],[147.491734,-24.865696],[147.485925,-24.875806],[147.476435,-24.878219],[147.456279,-24.878709],[147.43427,-24.880898],[147.419719,-24.88137],[147.395858,-24.876538],[147.380706,-24.871307],[147.371912,-24.872273],[147.369188,-24.877165],[147.36056,-24.875584],[147.349652,-24.876141],[147.341116,-24.871829],[147.32752,-24.872919],[147.322085,-24.87119],[147.308683,-24.882558],[147.297574,-24.883012],[147.294986,-24.890748],[147.290593,-24.894532],[147.136624,-24.882882],[147.138836,-24.848994],[147.089424,-24.846467],[147.091547,-24.814128],[147.001883,-24.809328],[146.903382,-24.805192],[146.892546,-24.788315],[146.889122,-24.778912],[146.880282,-24.773406],[146.882273,-24.762487],[146.893944,-24.758234],[146.898204,-24.752973],[146.900543,-24.745328],[146.909466,-24.74383],[146.913451,-24.736688],[146.913179,-24.732301],[146.91991,-24.723405],[146.920875,-24.716637],[146.930346,-24.7105],[146.933092,-24.706992],[146.942012,-24.704363],[146.940097,-24.691954],[146.936395,-24.688066],[146.934754,-24.677537],[146.920908,-24.663993],[146.919144,-24.660678],[146.912528,-24.658513],[146.912703,-24.652465],[146.908935,-24.647888],[146.899302,-24.646346],[146.893173,-24.636972],[146.894756,-24.628826],[146.890277,-24.615411],[146.884384,-24.612304],[146.885795,-24.606947],[146.883106,-24.600802],[146.868483,-24.593368],[146.866123,-24.585866],[146.856902,-24.589878],[146.856982,-24.593744],[146.848677,-24.608736],[146.833941,-24.624339],[146.819052,-24.626023],[146.813623,-24.636531],[146.807024,-24.637142],[146.800113,-24.620586],[146.787417,-24.62629],[146.779787,-24.636176],[146.776705,-24.656893],[146.774156,-24.662766],[146.768061,-24.664303],[146.75791,-24.663359],[146.751829,-24.657782],[146.750486,-24.652368],[146.740507,-24.65034],[146.737139,-24.642757],[146.740203,-24.633794],[146.737509,-24.627758],[146.727358,-24.628049],[146.721442,-24.626028],[146.713536,-24.618884],[146.699274,-24.615734],[146.689504,-24.611584],[146.682499,-24.605848],[146.682175,-24.600126],[146.674742,-24.597017],[146.666809,-24.590814],[146.670035,-24.586105],[146.680792,-24.578937],[146.679623,-24.572827],[146.667476,-24.562208],[146.6615,-24.552607],[146.664048,-24.54805],[146.658324,-24.539146],[146.649392,-24.529151],[146.645882,-24.523343],[146.648209,-24.518063],[146.639924,-24.500211],[146.631819,-24.497795],[146.626085,-24.49376],[146.620081,-24.467147],[146.620278,-24.457946],[146.611238,-24.458387],[146.601117,-24.453644],[146.596051,-24.453012],[146.595735,-24.445898],[146.589662,-24.443562],[146.589085,-24.432009],[146.585785,-24.42644],[146.573966,-24.416709],[146.572458,-24.412847],[146.581126,-24.411553],[146.587183,-24.415166],[146.595864,-24.417187],[146.60924,-24.413188],[146.61781,-24.411821],[146.627134,-24.403218],[146.630008,-24.405202],[146.63847,-24.405101],[146.641718,-24.39916],[146.652209,-24.399946],[146.655893,-24.404079],[146.663448,-24.401214],[146.669372,-24.390463],[146.679657,-24.388242],[146.681967,-24.380232],[146.686173,-24.375129],[146.690512,-24.374888],[146.697223,-24.380997],[146.701234,-24.377986],[146.712721,-24.377528],[146.721926,-24.384701],[146.721313,-24.39688],[146.729701,-24.418552],[146.74717,-24.406922],[146.759519,-24.403674],[146.766685,-24.405286],[146.778052,-24.404992],[146.790866,-24.409955],[146.805026,-24.405198],[146.812185,-24.394305],[146.814357,-24.376709],[146.819203,-24.374014],[146.830811,-24.371698],[146.834678,-24.373214],[146.847672,-24.368715],[146.853612,-24.372299],[146.864237,-24.368793],[146.865341,-24.360267],[146.874662,-24.347985],[146.873699,-24.337689],[146.88475,-24.330746],[146.899735,-24.328556],[146.906656,-24.320113],[146.912529,-24.317536],[146.913001,-24.31269],[146.923093,-24.29469],[146.935123,-24.290589],[146.934852,-24.284256],[146.926852,-24.278986],[146.928097,-24.253624],[146.936993,-24.243344],[146.93809,-24.237827],[146.943701,-24.229177],[146.940287,-24.219268],[146.948903,-24.21413],[146.953418,-24.206858],[146.952601,-24.198957],[146.949867,-24.196825],[146.949734,-24.18836],[146.957122,-24.16999],[146.956372,-24.163594],[146.964777,-24.167453],[146.973663,-24.160118],[146.983299,-24.162628],[146.989859,-24.161312],[146.994507,-24.155355],[146.999866,-24.156502],[147.028548,-24.140537],[147.028623,-24.137561],[147.037304,-24.132195],[147.037413,-24.125697],[147.05046,-24.118549],[147.062049,-24.116189],[147.073689,-24.117696],[147.081085,-24.114289],[147.089536,-24.104416],[147.110288,-24.093341],[147.121788,-24.094461],[147.133039,-24.091512],[147.141514,-24.085622],[147.148813,-24.085938],[147.15635,-24.09253],[147.165563,-24.092446],[147.183316,-24.085741],[147.18275,-24.073443],[147.177616,-24.0692],[147.174172,-24.060048],[147.176102,-24.050369],[147.183188,-24.043424],[147.18663,-24.036053],[147.184912,-24.026744],[147.179174,-24.019096],[147.178747,-24.012955],[147.183679,-24.006618],[147.173364,-23.978058],[147.163928,-23.975614],[147.162999,-23.972891],[147.168786,-23.965833],[147.168985,-23.955351],[147.174456,-23.950506],[147.180954,-23.941598],[147.19466,-23.941582],[147.203283,-23.93982],[147.21063,-23.933804],[147.215018,-23.924264],[147.234311,-23.912074],[147.241147,-23.9032],[147.241019,-23.89811],[147.236434,-23.89174],[147.233507,-23.881347],[147.235712,-23.876362],[147.237332,-23.864324],[147.238932,-23.862297],[147.234793,-23.854725],[147.236497,-23.847964],[147.229673,-23.838765],[147.22769,-23.832112],[147.231077,-23.826314],[147.231367,-23.819022],[147.237201,-23.810399],[147.235897,-23.804855],[147.230148,-23.797974],[147.227572,-23.791094],[147.229553,-23.787489],[147.218838,-23.783996],[147.211315,-23.778207],[147.199777,-23.773309],[147.199053,-23.765659],[147.200177,-23.754928],[147.195132,-23.745572],[147.200876,-23.733861],[147.200708,-23.727129],[147.193689,-23.718214],[147.194062,-23.712227],[147.197611,-23.708672],[147.19521,-23.700256],[147.198606,-23.691448],[147.195719,-23.6845],[147.20953,-23.675934],[147.20509,-23.668349],[147.203364,-23.658251],[147.20057,-23.654615],[147.207205,-23.647283],[147.211324,-23.636607],[147.203296,-23.631319],[147.200722,-23.625658],[147.202127,-23.621217],[147.198288,-23.612572],[147.199904,-23.606229],[147.205549,-23.60195],[147.218235,-23.59567],[147.220467,-23.588366],[147.212164,-23.576067],[147.21837,-23.57016],[147.218867,-23.561479],[147.221399,-23.550461],[147.229028,-23.55272],[147.2344,-23.551871],[147.246346,-23.546341],[147.250363,-23.542932],[147.255698,-23.543867],[147.264012,-23.539036],[147.274621,-23.535167],[147.283772,-23.524784],[147.279757,-23.521555],[147.278297,-23.513459],[147.282114,-23.500569],[147.280316,-23.484984],[147.273294,-23.469267],[147.266079,-23.463297],[147.260362,-23.469494],[147.251142,-23.45896],[147.249395,-23.451392],[147.250642,-23.447251],[147.259839,-23.43807],[147.262059,-23.421795],[147.264544,-23.413066],[147.263044,-23.40458],[147.26576,-23.388763],[147.265016,-23.384165],[147.275442,-23.366037],[147.282898,-23.36259],[147.286615,-23.351236],[147.161732,-23.339787],[147.157764,-23.33175],[147.158239,-23.326392],[147.074733,-23.307149],[147.079057,-23.279834],[147.047729,-23.27505],[146.976317,-23.263559],[146.939911,-23.260153],[146.932611,-23.315527],[146.854617,-23.304626],[146.853436,-23.297922],[146.855179,-23.292957],[146.861421,-23.290364],[146.863481,-23.280875],[146.87495,-23.275315],[146.87919,-23.261755],[146.8777,-23.255205],[146.88095,-23.236565],[146.88081,-23.231705],[146.88446,-23.224925],[146.88212,-23.219505],[146.87417,-23.214895],[146.87147,-23.210385],[146.87424,-23.198635],[146.8698,-23.184525],[146.86293,-23.173925],[146.84666,-23.163575],[146.84104,-23.163815],[146.82808,-23.158315],[146.815011,-23.155065],[146.811331,-23.149305],[146.798861,-23.143125],[146.789791,-23.129925],[146.784621,-23.113225],[146.785341,-23.103735],[146.778111,-23.092115],[146.783951,-23.084545],[146.78625,-23.076065],[146.78368,-23.071215],[146.78439,-23.062515],[146.78169,-23.055065],[146.78765,-23.047155],[146.78604,-23.033826],[146.7782,-23.021756],[146.7727,-23.017586],[146.76155,-22.998456],[146.75474,-22.990256],[146.74911,-22.986316],[146.74496,-22.986556],[146.73491,-22.975516],[146.727951,-22.973846],[146.713521,-22.966096],[146.697041,-22.964685],[146.694941,-22.957006],[146.684901,-22.949126],[146.681581,-22.941906],[146.664201,-22.924106],[146.669181,-22.918326],[146.666831,-22.908396],[146.661821,-22.906146],[146.648721,-22.892516],[146.646871,-22.885966],[146.641811,-22.883376],[146.624072,-22.887046],[146.609782,-22.881316],[146.594432,-22.887576],[146.577053,-22.889976],[146.560753,-22.880536],[146.553413,-22.868696],[146.546013,-22.838656],[146.542103,-22.836406],[146.539163,-22.828946],[146.525953,-22.812137],[146.524223,-22.800287],[146.529443,-22.793157],[146.539913,-22.789057],[146.547815,-22.77856],[146.548767,-22.768926],[146.40076,-22.756239],[146.408313,-22.690146],[146.417928,-22.602164],[146.423746,-22.547344],[146.439324,-22.548865],[146.451774,-22.499313],[146.436728,-22.487078],[146.428595,-22.487942],[146.415891,-22.499352],[146.413661,-22.503222],[146.387628,-22.519329],[146.372382,-22.519444],[146.352293,-22.505341],[146.347122,-22.500006],[146.335271,-22.495551],[146.31923,-22.495435],[146.311092,-22.493311],[146.289756,-22.497751],[146.280611,-22.501345],[146.273866,-22.506364],[146.269482,-22.507225],[146.283188,-22.463379],[146.113263,-22.446842],[146.108921,-22.445663],[146.122071,-22.347422],[146.052132,-22.338502],[146.070664,-22.226622],[146.064585,-22.185761],[146.074055,-22.123377],[146.06606,-22.116209],[146.037758,-22.105799],[146.031455,-22.104814],[146.002047,-22.100217],[145.967611,-22.095669],[145.880312,-22.08468],[145.880557,-22.080412],[145.76961,-22.06659],[145.770078,-22.04853],[145.661171,-22.041156],[145.664423,-21.998634],[145.668263,-21.932034],[145.627197,-21.926724],[145.630165,-21.892921],[145.640624,-21.893986],[145.64578,-21.797513],[145.661823,-21.724312],[145.67378,-21.718742],[145.673239,-21.716015],[145.676583,-21.688569],[145.678477,-21.668189],[145.532833,-21.658254],[145.529402,-21.701941],[145.434731,-21.692052],[145.426842,-21.76873],[145.418234,-21.846247],[145.386047,-21.842348],[145.262042,-21.828722],[145.258353,-21.829973],[145.243999,-21.792608],[145.166068,-21.784894],[145.163383,-21.803768],[145.152964,-21.898926],[145.075195,-21.891442],[145.074247,-21.899753],[145.08434,-21.910258],[145.082206,-21.942606],[144.956305,-21.930311],[144.950454,-21.990601],[144.943048,-22.059149],[144.800893,-22.045529],[144.796083,-22.098446],[144.753115,-22.094049],[144.752102,-22.094483],[144.746299,-22.148137],[144.742046,-22.163815],[144.737391,-22.210655],[144.723526,-22.202108],[144.717224,-22.2038],[144.665017,-22.197876],[144.637413,-22.195466],[144.554086,-22.189885],[144.500514,-22.185662],[144.501776,-22.165143],[144.397776,-22.157051],[144.402806,-22.113301],[144.413307,-22.098162],[144.417213,-22.061724],[144.26849,-22.047868],[144.270074,-22.032609],[144.263322,-21.996823],[144.241375,-21.995295],[144.180328,-21.989558],[144.183246,-21.95491],[144.185983,-21.913747],[144.184296,-21.913318],[144.111406,-21.906335],[144.111734,-21.90185],[144.092446,-21.898958],[144.068478,-21.897879],[144.05743,-21.898341],[144.038846,-21.894713],[144.044621,-21.830302],[143.934226,-21.822113],[143.929446,-21.819981],[143.782066,-21.811122],[143.781834,-21.81408],[143.709006,-21.805498],[143.630837,-21.797422],[143.642348,-21.705214],[143.649256,-21.641178],[143.610029,-21.637729],[143.530333,-21.63021],[143.450086,-21.622855],[143.448393,-21.624526],[143.358027,-21.616028],[143.357717,-21.614168],[143.329875,-21.611515],[143.329214,-21.608703],[143.331812,-21.576881],[143.339756,-21.506428],[143.349812,-21.412674],[143.35953,-21.322011],[143.23664,-21.31119],[143.236447,-21.312997],[143.18803,-21.308656],[143.128829,-21.354537],[143.000105,-21.454505],[142.953327,-21.493758],[142.942412,-21.481655],[142.940518,-21.483426],[142.862092,-21.54506],[142.815399,-21.493135],[142.693958,-21.587863],[142.718468,-21.614949],[142.651366,-21.667494],[142.656514,-21.610361],[142.590191,-21.604772],[142.495176,-21.597057],[142.49559,-21.598003],[142.491224,-21.644184],[142.33155,-21.636171],[142.332856,-21.620501],[142.335189,-21.607104],[142.228163,-21.596278],[142.231842,-21.550869],[142.161278,-21.542844],[142.071999,-21.540753],[142.069713,-21.585994],[142.069154,-21.610388],[142.065725,-21.693617],[142.048748,-21.815048],[141.939312,-21.806561],[141.740814,-21.79098],[141.738616,-21.806277],[141.580015,-21.793194],[141.583156,-21.755977],[141.50783,-21.750468],[141.481129,-21.964069],[141.304782,-21.949605],[141.284543,-21.988843],[141.284196,-22.009975],[141.290838,-22.023905],[141.288602,-22.026298],[141.291378,-22.032404],[141.290221,-22.045083],[141.293705,-22.054019],[141.294338,-22.061885],[141.198634,-22.055173],[141.18285,-22.249626],[141.228483,-22.297977],[141.253487,-22.321365],[141.245778,-22.335434],[141.154704,-22.406495],[141.07972,-22.465648],[141.130519,-22.521403],[141.198923,-22.597559],[141.145629,-22.633357],[141.133889,-22.621264],[141.098951,-22.618307],[141.090848,-22.618233],[141.089639,-22.628174],[141.091918,-22.637249],[141.094922,-22.641932],[141.102775,-22.690069],[141.117252,-22.702695],[141.122864,-22.749199],[141.120369,-22.752244],[141.11446,-22.774505],[141.122257,-22.804494],[141.00055,-22.90027],[140.98674,-22.899036],[140.985717,-22.911558],[141.021423,-22.921876],[141.046356,-22.947653],[140.979163,-22.999813],[140.924565,-23.044439],[140.940216,-23.060003],[140.946999,-23.067769],[140.82219,-23.161545],[140.829373,-23.170192],[140.759621,-23.223156],[140.719362,-23.188629],[140.667108,-23.158375],[140.662341,-23.157725],[140.621458,-23.192128],[140.59792,-23.210599],[140.572649,-23.231406],[140.460068,-23.312445],[140.413234,-23.34621],[140.341912,-23.418267],[140.355569,-23.525775],[140.154496,-23.505643],[140.149356,-23.504839],[140.064409,-23.497836],[139.936208,-23.485855],[139.929379,-23.549112],[139.939169,-23.550016],[139.936229,-23.577092],[139.889422,-23.613962],[139.862623,-23.629454],[139.865377,-23.644234],[139.872131,-23.649772],[139.874933,-23.655038],[139.877508,-23.671806],[139.888662,-23.676735],[139.892609,-23.693644],[139.806772,-23.689021],[139.635934,-23.679174],[139.463728,-23.671293],[139.475759,-23.520779],[139.295422,-23.509979],[139.338996,-23.473871],[139.174868,-23.309969],[139.122701,-23.352076],[139.076354,-23.306816],[138.899454,-23.448333],[138.921104,-23.476494],[138.870578,-23.512372],[138.736465,-23.611343],[138.642334,-23.51223],[138.592055,-23.46253],[138.464389,-23.555056],[138.426734,-23.552348],[137.998246,-23.520895],[137.998423,-23.583187],[137.998444,-23.666517],[137.998486,-23.833178],[137.998519,-23.964688],[137.998569,-24.166498],[137.9986,-24.249828],[137.998745,-24.833129],[137.998797,-24.998509],[137.99894,-25.583107],[137.998971,-25.666437],[137.999033,-25.916427],[137.999054,-25.996867],[138.165712,-25.996835],[138.332371,-25.996804],[138.48863,-25.996773],[138.57196,-25.996763],[138.69781,-25.996743],[138.947799,-25.996713],[139.070739,-25.996693],[139.237398,-25.996652],[139.408747,-25.996619],[139.492076,-25.996598],[139.501269,-25.99679],[139.575405,-25.996587],[139.742062,-25.996555],[139.87258,-25.996524],[140.355301,-25.996521],[140.501229,-25.996481],[140.52201,-25.996146],[140.605287,-25.99646],[140.771946,-25.996409],[140.90964,-25.996316],[140.999394,-25.996376],[140.999425,-26.172187],[140.999435,-26.317537],[140.999446,-26.498488],[140.999427,-26.608668],[140.999439,-26.734048],[140.997943,-26.761622],[140.997507,-26.909189],[140.996764,-27.285229],[140.996906,-27.605864],[140.996891,-27.668511],[140.995702,-28.069183],[140.999071,-28.538648],[140.99931,-28.822833],[140.999475,-28.999095],[141.01619,-28.998999],[141.202522,-28.999102],[141.372663,-28.998982],[141.46978,-28.9991],[141.537022,-28.99887],[141.859439,-28.999099],[141.919945,-28.999098],[142.034374,-28.998359],[142.109102,-28.998544],[142.133841,-28.998988],[142.200593,-28.998988],[142.263125,-28.998705],[142.363938,-28.997796],[142.484375,-28.99783],[142.602575,-28.999048],[142.691973,-28.99846],[142.856697,-28.998612],[143.023009,-28.998852],[143.187899,-28.99905],[143.253411,-28.999085],[143.451899,-28.999084],[143.997837,-28.999079],[144.070361,-28.999079],[144.260857,-28.99908],[144.356013,-28.998775],[144.40849,-28.999086],[144.434006,-28.998922],[144.5784,-28.999083],[144.694392,-28.999078],[144.874157,-28.999071],[145.17023,-28.999068],[145.414241,-28.999066],[145.501196,-28.999064],[145.666844,-28.999081],[145.748711,-28.999103],[145.911733,-28.999027],[146.001189,-28.998615],[146.067784,-28.998645],[146.375389,-28.998781],[146.58314,-28.998873],[146.745786,-28.998946],[146.945013,-28.999094],[147.147011,-28.999058],[147.233259,-28.999059],[147.599628,-28.999057],[147.77231,-28.999056],[147.94549,-28.999055],[148.140571,-28.999055],[148.361055,-28.999043],[148.716016,-28.999052],[148.856631,-28.999052],[148.957893,-28.999051],[148.963818,-28.995784],[148.976618,-28.976309],[148.989309,-28.975829],[148.991398,-28.971643],[148.997895,-28.972839],[149.003913,-28.968097],[149.005775,-28.960245],[149.011119,-28.960323],[149.01672,-28.956773],[149.027847,-28.954529],[149.03127,-28.957064],[149.035682,-28.950154],[149.035062,-28.945749],[149.042373,-28.939312],[149.045403,-28.931806],[149.043389,-28.926466],[149.046904,-28.920679],[149.055182,-28.911819],[149.058652,-28.910358],[149.056187,-28.900266],[149.058088,-28.893417],[149.063475,-28.887528],[149.054828,-28.885574],[149.057388,-28.881111],[149.063957,-28.877815],[149.069922,-28.872098],[149.073934,-28.861529],[149.080157,-28.858186],[149.081108,-28.845866],[149.086065,-28.842577],[149.086989,-28.838376],[149.092499,-28.834273],[149.108745,-28.833448],[149.11879,-28.829457],[149.121205,-28.832766],[149.127867,-28.832281],[149.14239,-28.823873],[149.142466,-28.81548],[149.139175,-28.812137],[149.151035,-28.807744],[149.160775,-28.810405],[149.169073,-28.808112],[149.186797,-28.794288],[149.184324,-28.790786],[149.186373,-28.782338],[149.192314,-28.78014],[149.188805,-28.775118],[149.19392,-28.771459],[149.201837,-28.770665],[149.208266,-28.765903],[149.227815,-28.76018],[149.230408,-28.75137],[149.237119,-28.750356],[149.247182,-28.738815],[149.263889,-28.739934],[149.269404,-28.743253],[149.272215,-28.740224],[149.272167,-28.73356],[149.279917,-28.731434],[149.290852,-28.718805],[149.293978,-28.711683],[149.302018,-28.709098],[149.305889,-28.711453],[149.313974,-28.71206],[149.319586,-28.708302],[149.328147,-28.707439],[149.339402,-28.69568],[149.345872,-28.694837],[149.348262,-28.690989],[149.358975,-28.68433],[149.367922,-28.688879],[149.391403,-28.691734],[149.394167,-28.685725],[149.394119,-28.677104],[149.404855,-28.675513],[149.41208,-28.667232],[149.410694,-28.663466],[149.41741,-28.660456],[149.416943,-28.651587],[149.42627,-28.649695],[149.426309,-28.646952],[149.432649,-28.635445],[149.429699,-28.627981],[149.434675,-28.626518],[149.442589,-28.620811],[149.439052,-28.615531],[149.444233,-28.606455],[149.450648,-28.605189],[149.455597,-28.596022],[149.461772,-28.591551],[149.474862,-28.593894],[149.480875,-28.589708],[149.484809,-28.582563],[149.489865,-28.584564],[149.495463,-28.578765],[149.524574,-28.579434],[149.529213,-28.574282],[149.544491,-28.575399],[149.55662,-28.578552],[149.567962,-28.571309],[149.58389,-28.574322],[149.587511,-28.572882],[149.599526,-28.581341],[149.597205,-28.584244],[149.605716,-28.587469],[149.604841,-28.591064],[149.609868,-28.599693],[149.618393,-28.598606],[149.624832,-28.593436],[149.645675,-28.604052],[149.646218,-28.610025],[149.651171,-28.613529],[149.660926,-28.609536],[149.663735,-28.61711],[149.67277,-28.623563],[149.671085,-28.631934],[149.696606,-28.630759],[149.702712,-28.633629],[149.703151,-28.618877],[149.708894,-28.613076],[149.716991,-28.614285],[149.721169,-28.609183],[149.729713,-28.611102],[149.727794,-28.615673],[149.738773,-28.61598],[149.741585,-28.613086],[149.756417,-28.611907],[149.764244,-28.614094],[149.772194,-28.608872],[149.783895,-28.612174],[149.797277,-28.610244],[149.799654,-28.608081],[149.812191,-28.606157],[149.818185,-28.612818],[149.826509,-28.608765],[149.830077,-28.603846],[149.83914,-28.603501],[149.844852,-28.610477],[149.851357,-28.605283],[149.85839,-28.605603],[149.865366,-28.602713],[149.868058,-28.607214],[149.873229,-28.603448],[149.878226,-28.609867],[149.887304,-28.615159],[149.889815,-28.618768],[149.903163,-28.61966],[149.903232,-28.615107],[149.917404,-28.608056],[149.925115,-28.608895],[149.937246,-28.614581],[149.949102,-28.612535],[149.94996,-28.608341],[149.957355,-28.609874],[149.97158,-28.607665],[149.976841,-28.611116],[149.984654,-28.603087],[149.992715,-28.600555],[149.994799,-28.593672],[150.017933,-28.580389],[150.02093,-28.582711],[150.030222,-28.580345],[150.031806,-28.584102],[150.037923,-28.583674],[150.049319,-28.588994],[150.057701,-28.582964],[150.059394,-28.578451],[150.073281,-28.576562],[150.072567,-28.580124],[150.079036,-28.584309],[150.081008,-28.578056],[150.087386,-28.580732],[150.092923,-28.578618],[150.091024,-28.569217],[150.091932,-28.564239],[150.097152,-28.563369],[150.110908,-28.570297],[150.11282,-28.563591],[150.121475,-28.559734],[150.130734,-28.562688],[150.152262,-28.555528],[150.161356,-28.554497],[150.169679,-28.551113],[150.169825,-28.559393],[150.184067,-28.558642],[150.181437,-28.565038],[150.197123,-28.567147],[150.20322,-28.572507],[150.212287,-28.574181],[150.212304,-28.568484],[150.219983,-28.566728],[150.229074,-28.567687],[150.236053,-28.55381],[150.244011,-28.554447],[150.249043,-28.552242],[150.254795,-28.546105],[150.262192,-28.544869],[150.272191,-28.53933],[150.282523,-28.542639],[150.289648,-28.537157],[150.297166,-28.54121],[150.300536,-28.548467],[150.309109,-28.550592],[150.312722,-28.555132],[150.319715,-28.556537],[150.324473,-28.568359],[150.329605,-28.572074],[150.351573,-28.576053],[150.349452,-28.582527],[150.356447,-28.589807],[150.36322,-28.589415],[150.362879,-28.595387],[150.369605,-28.598407],[150.363809,-28.607244],[150.369432,-28.611233],[150.370045,-28.62068],[150.37595,-28.622436],[150.38011,-28.627067],[150.386103,-28.625195],[150.387879,-28.633924],[150.392281,-28.633355],[150.398146,-28.62834],[150.402446,-28.627563],[150.408798,-28.63389],[150.416115,-28.635317],[150.41641,-28.644149],[150.414296,-28.649864],[150.4305,-28.652129],[150.437262,-28.66121],[150.445551,-28.665141],[150.458353,-28.66487],[150.462976,-28.667695],[150.473599,-28.659949],[150.483443,-28.662131],[150.487084,-28.657421],[150.493143,-28.659391],[150.51481,-28.661759],[150.524353,-28.654328],[150.53778,-28.657312],[150.525931,-28.66545],[150.528256,-28.669675],[150.535145,-28.67203],[150.550566,-28.670145],[150.55276,-28.663446],[150.548167,-28.658494],[150.555607,-28.653605],[150.560718,-28.661519],[150.566591,-28.661475],[150.578002,-28.655994],[150.58306,-28.656108],[150.600597,-28.665576],[150.605224,-28.670584],[150.617553,-28.673514],[150.620514,-28.668632],[150.632541,-28.676572],[150.642047,-28.664574],[150.659699,-28.658327],[150.669788,-28.653762],[150.67304,-28.650346],[150.679629,-28.660859],[150.68757,-28.658178],[150.693642,-28.653288],[150.701819,-28.654709],[150.708625,-28.651951],[150.710955,-28.644391],[150.722056,-28.640928],[150.729851,-28.634142],[150.745636,-28.634678],[150.751597,-28.633424],[150.757903,-28.639112],[150.766042,-28.637605],[150.773597,-28.644144],[150.780674,-28.643881],[150.794955,-28.654823],[150.804297,-28.653216],[150.8136,-28.656884],[150.819536,-28.66675],[150.828718,-28.666774],[150.839158,-28.672034],[150.849411,-28.673736],[150.85282,-28.680266],[150.864038,-28.687486],[150.868525,-28.685373],[150.876977,-28.693009],[150.880567,-28.68859],[150.891146,-28.693705],[150.893584,-28.688408],[150.904256,-28.686987],[150.910931,-28.694366],[150.919746,-28.70017],[150.924705,-28.698808],[150.930908,-28.705519],[150.932496,-28.722916],[150.937708,-28.725427],[150.937874,-28.730447],[150.945211,-28.728717],[150.948417,-28.734381],[150.965696,-28.735773],[150.970383,-28.731625],[150.980466,-28.732397],[150.988298,-28.735574],[151.010299,-28.740641],[151.013319,-28.745301],[151.023655,-28.752042],[151.026719,-28.75579],[151.029475,-28.768914],[151.020575,-28.771066],[151.024953,-28.778351],[151.026409,-28.78718],[151.024702,-28.792749],[151.032633,-28.793671],[151.041903,-28.799153],[151.041637,-28.816214],[151.037822,-28.818657],[151.037362,-28.827649],[151.041577,-28.830764],[151.0458,-28.844768],[151.050612,-28.843534],[151.055809,-28.849073],[151.060546,-28.845743],[151.068211,-28.844366],[151.081783,-28.834939],[151.086516,-28.834071],[151.097089,-28.838124],[151.103478,-28.837047],[151.116497,-28.850708],[151.1254,-28.851756],[151.130196,-28.858089],[151.138824,-28.861706],[151.144698,-28.860955],[151.149958,-28.864343],[151.161334,-28.865471],[151.165338,-28.871771],[151.174247,-28.880048],[151.185828,-28.878832],[151.200196,-28.884349],[151.207035,-28.893711],[151.208099,-28.90085],[151.228409,-28.908511],[151.233348,-28.904681],[151.239037,-28.910465],[151.240702,-28.91966],[151.243581,-28.923979],[151.264784,-28.932983],[151.275161,-28.939412],[151.281944,-28.949959],[151.2804,-28.961006],[151.272148,-28.973172],[151.282435,-28.980375],[151.276695,-28.984841],[151.277003,-28.991597],[151.283879,-29.004948],[151.281662,-29.019431],[151.274179,-29.024376],[151.271294,-29.030954],[151.274837,-29.034575],[151.283358,-29.036334],[151.286752,-29.040848],[151.28865,-29.051751],[151.284284,-29.059148],[151.284484,-29.064533],[151.27542,-29.078376],[151.279484,-29.08972],[151.277816,-29.093175],[151.281159,-29.103695],[151.29001,-29.11145],[151.302964,-29.11603],[151.304585,-29.121888],[151.31566,-29.134865],[151.315953,-29.138596],[151.308844,-29.147526],[151.311694,-29.160306],[151.314762,-29.165531],[151.31996,-29.16636],[151.337204,-29.176624],[151.346581,-29.177125],[151.361895,-29.173024],[151.376561,-29.176842],[151.395282,-29.177187],[151.400984,-29.172049],[151.402782,-29.166084],[151.410638,-29.152566],[151.418887,-29.148815],[151.424112,-29.149114],[151.430062,-29.14597],[151.434385,-29.13903],[151.449346,-29.128957],[151.457638,-29.11712],[151.462463,-29.099701],[151.475234,-29.09216],[151.485145,-29.089277],[151.491621,-29.077398],[151.495813,-29.073117],[151.502799,-29.069884],[151.502679,-29.06637],[151.49181,-29.057406],[151.494831,-29.04543],[151.497026,-29.042502],[151.495335,-29.034907],[151.499374,-29.017755],[151.502443,-29.016393],[151.506963,-29.008443],[151.51679,-28.997378],[151.522036,-28.996096],[151.52467,-28.98876],[151.536094,-28.980619],[151.537499,-28.974039],[151.544415,-28.961929],[151.545415,-28.953148],[151.54908,-28.952484],[151.566806,-28.941731],[151.570471,-28.944128],[151.580528,-28.942411],[151.588361,-28.931922],[151.603426,-28.927418],[151.611953,-28.923521],[151.616835,-28.926122],[151.625809,-28.923689],[151.633143,-28.929686],[151.636751,-28.922061],[151.644389,-28.916839],[151.64994,-28.917429],[151.666316,-28.905359],[151.674758,-28.907595],[151.677736,-28.900162],[151.682837,-28.895627],[151.688425,-28.886915],[151.695686,-28.888407],[151.702131,-28.882271],[151.706536,-28.871784],[151.713612,-28.87537],[151.719293,-28.87331],[151.726628,-28.866876],[151.73386,-28.871578],[151.731799,-28.882695],[151.736957,-28.895653],[151.743342,-28.906626],[151.746738,-28.915188],[151.743502,-28.918587],[151.750976,-28.9228],[151.754586,-28.922326],[151.762362,-28.934138],[151.772735,-28.938251],[151.773175,-28.9474],[151.770227,-28.955846],[151.77828,-28.958047],[151.783631,-28.954495],[151.789909,-28.953663],[151.793825,-28.949658],[151.806394,-28.944636],[151.815,-28.950786],[151.813804,-28.959374],[151.825579,-28.963333],[151.834235,-28.957209],[151.835678,-28.948583],[151.839557,-28.942665],[151.836361,-28.936848],[151.836954,-28.92023],[151.839704,-28.913013],[151.847287,-28.90863],[151.859105,-28.907213],[151.865074,-28.909722],[151.868312,-28.913884],[151.875617,-28.914409],[151.881636,-28.911884],[151.892642,-28.915807],[151.89576,-28.913727],[151.91338,-28.920595],[151.922386,-28.928444],[151.927347,-28.925411],[151.95623,-28.916793],[151.961287,-28.91879],[151.968198,-28.916567],[151.972263,-28.910598],[151.981171,-28.909181],[151.999534,-28.896318],[152.00109,-28.90973],[152.009703,-28.907663],[152.016322,-28.897094],[152.016715,-28.892531],[152.023571,-28.891181],[152.030336,-28.870299],[152.038126,-28.864696],[152.035874,-28.858658],[152.036909,-28.851794],[152.02953,-28.854572],[152.022897,-28.854696],[152.015064,-28.850626],[152.018449,-28.844752],[152.023168,-28.831587],[152.02799,-28.832381],[152.033326,-28.828205],[152.037291,-28.819231],[152.035462,-28.807127],[152.038351,-28.797031],[152.034743,-28.79071],[152.039782,-28.785048],[152.041495,-28.777537],[152.037268,-28.776817],[152.0387,-28.764765],[152.036326,-28.756992],[152.042057,-28.751501],[152.047714,-28.740329],[152.043603,-28.730613],[152.053866,-28.72543],[152.062101,-28.718202],[152.071199,-28.714861],[152.076049,-28.708175],[152.066534,-28.69653],[152.064588,-28.690609],[152.068045,-28.684912],[152.063105,-28.679091],[152.052567,-28.68194],[152.044526,-28.672894],[152.04498,-28.668174],[152.03915,-28.664448],[152.031519,-28.66616],[152.02051,-28.66377],[152.013854,-28.665753],[152.006259,-28.653968],[152.00203,-28.650129],[152.001794,-28.63993],[151.990804,-28.6244],[151.993912,-28.611297],[151.988991,-28.60074],[151.99178,-28.594703],[151.988368,-28.59176],[151.985979,-28.581498],[151.976436,-28.573009],[151.967773,-28.571831],[151.964954,-28.567354],[151.957677,-28.563409],[151.958501,-28.556807],[151.9547,-28.551613],[151.95687,-28.542854],[151.953867,-28.539913],[151.955395,-28.532549],[151.958747,-28.527218],[151.95573,-28.519862],[151.978447,-28.503184],[151.982893,-28.503395],[151.985993,-28.511075],[151.98428,-28.515179],[151.98794,-28.524745],[151.999468,-28.528516],[152.016864,-28.525281],[152.018973,-28.51781],[152.035945,-28.507253],[152.045672,-28.494966],[152.055382,-28.490016],[152.05964,-28.490651],[152.067201,-28.484989],[152.06929,-28.468759],[152.07472,-28.467722],[152.080069,-28.470171],[152.085338,-28.467738],[152.094093,-28.469047],[152.105932,-28.462904],[152.111504,-28.463862],[152.121721,-28.460333],[152.127902,-28.453683],[152.135179,-28.452083],[152.142038,-28.442236],[152.146635,-28.439131],[152.154614,-28.437947],[152.156671,-28.434382],[152.164947,-28.432626],[152.186412,-28.438425],[152.190266,-28.433948],[152.204648,-28.438247],[152.207429,-28.443902],[152.217189,-28.449236],[152.221671,-28.444888],[152.230609,-28.429826],[152.237884,-28.423436],[152.239263,-28.417583],[152.243246,-28.416025],[152.260017,-28.401051],[152.267606,-28.390047],[152.28471,-28.39406],[152.289255,-28.392497],[152.290697,-28.382471],[152.30715,-28.369084],[152.312222,-28.362717],[152.320854,-28.366757],[152.341582,-28.36786],[152.355946,-28.361197],[152.364758,-28.366106],[152.37739,-28.365822],[152.38508,-28.368855],[152.391939,-28.362138],[152.400063,-28.34768],[152.409634,-28.341496],[152.416967,-28.333604],[152.417218,-28.330099],[152.411341,-28.321264],[152.409517,-28.315734],[152.413441,-28.307504],[152.412831,-28.301654],[152.416802,-28.296886],[152.424119,-28.299424],[152.428631,-28.297759],[152.436223,-28.299196],[152.444958,-28.29845],[152.44275,-28.290772],[152.448252,-28.281026],[152.454129,-28.278316],[152.459634,-28.270489],[152.46002,-28.26447],[152.463908,-28.259227],[152.472178,-28.256958],[152.483875,-28.257343],[152.487617,-28.253908]]]},"bbox":[137.998246,-29.177187,152.492287,-21.308656]}]}