{"type":"FeatureCollection","features":[
{"properties":{"electorateShortName":"maribyrnong","electorateName":"Maribyrnong","area":64.15,"state":"VIC"},"type":"Feature","geometry":{"type":"MultiPolygon","coordinates":[[[[144.912924,-37.795161],[144.925246,-37.787702],[144.9382,-37.78898],[144.940362,-37.787619],[144.937074,-37.777774],[144.936339,-37.774116],[144.938447,-37.761167],[144.933071,-37.758974],[144.935023,-37.753258],[144.930326,-37.75359],[144.92689,-37.751854],[144.929201,-37.74545],[144.933056,-37.745302],[144.92856,-37.735286],[144.924233,-37.73187],[144.924412,-37.728788],[144.918213,-37.724139],[144.914588,-37.723818],[144.912465,-37.720926],[144.905617,-37.717251],[144.898013,-37.708841],[144.90376,-37.70422],[144.903008,-37.697249],[144.906973,-37.693889],[144.902407,-37.694686],[144.883711,-37.709545],[144.860167,-37.727555],[144.849892,-37.726394],[144.844355,-37.724103],[144.840307,-37.720577],[144.838326,-37.726587],[144.845034,-37.726899],[144.847642,-37.728497],[144.848173,-37.732499],[144.842825,-37.732627],[144.841755,-37.72884],[144.830456,-37.725289],[144.828643,-37.732573],[144.830502,-37.73459],[144.836308,-37.734309],[144.833678,-37.738884],[144.837214,-37.7414],[144.839455,-37.747046],[144.846761,-37.747919],[144.849607,-37.754715],[144.848295,-37.759738],[144.853852,-37.762433],[144.854092,-37.76538],[144.851212,-37.768458],[144.852653,-37.773229],[144.858377,-37.775978],[144.86594,-37.777933],[144.862115,-37.799158],[144.886614,-37.801959],[144.900531,-37.794463],[144.912924,-37.795161]]],[[[144.819566,-37.872528],[144.81710773245476,-37.877096089969605],[144.83362231096402,-37.88452876004991],[144.8512905826812,-37.88850469546048],[144.87713863620723,-37.89145881832939],[144.89486300685135,-37.891580168738],[144.91226743004862,-37.88822545655607],[144.92227581400334,-37.88413861241945],[144.93843319839326,-37.88156144037464],[144.93875819839326,-37.88146044037464],[144.94580269322418,-37.87894573890197],[144.94715147417978,-37.87839704428306],[144.96214016606385,-37.8757375267561],[144.97489923167083,-37.87089299682],[144.975607,-37.870261],[144.969681,-37.864589],[144.970308,-37.860787],[144.963316,-37.855467],[144.935592,-37.842548],[144.931891,-37.843299],[144.926912,-37.840035],[144.918525,-37.839688],[144.913601,-37.841836],[144.912499,-37.849458],[144.905739,-37.840155],[144.903215,-37.841399],[144.907213,-37.849526],[144.898362,-37.841204],[144.897148,-37.842552],[144.899459,-37.848829],[144.905593,-37.851732],[144.895234,-37.848709],[144.902042,-37.854318],[144.903492,-37.861283],[144.911555,-37.862068],[144.915524,-37.865543],[144.908045,-37.8707],[144.902906,-37.872753],[144.89215,-37.867605],[144.88505,-37.86828],[144.882677,-37.865786],[144.878621,-37.868083],[144.874437,-37.863592],[144.874646,-37.861723],[144.868582,-37.858712],[144.861666,-37.859841],[144.856185,-37.863435],[144.850369,-37.863943],[144.840214,-37.871507],[144.826561,-37.870863],[144.819566,-37.872528]]]]},"bbox":[144.81710773245476,-37.891580168738,144.975607,-37.693889]}]}