{"type":"FeatureCollection","features":[
{"properties":{"electorateShortName":"mcmahon","electorateName":"McMahon","area":168.416907,"state":"NSW"},"type":"Feature","geometry":{"type":"Polygon","coordinates":[[[150.996472,-33.851322],[150.952387,-33.811574],[150.896938,-33.797945],[150.803381,-33.776811],[150.765151,-33.783428],[150.767908,-33.875728],[150.843477,-33.877197],[150.875878,-33.852024],[150.945003,-33.885677],[150.985518,-33.870492],[150.996472,-33.851322]]]},"bbox":[150.765151,-33.885677,150.996472,-33.776811]}]}