{"type":"FeatureCollection","features":[
{"properties":{"electorateShortName":"mcpherson","electorateName":"McPherson","area":229.41645,"state":"QLD"},"type":"Feature","geometry":{"type":"Polygon","coordinates":[[[153.552171,-28.164408],[153.556113,-28.16847],[153.563723,-28.191191],[153.569601,-28.199072],[153.566973,-28.218902],[153.570274,-28.243791],[153.57962363331777,-28.255568729176115],[153.6167450494998,-28.227099244454035],[153.62786029124794,-28.213102262396934],[153.6359903463604,-28.197184777994707],[153.6408145653573,-28.179974577040138],[153.64214268097837,-28.16215043008373],[153.63992231232615,-28.144415321714316],[153.63424103076935,-28.127468724837694],[153.62532290612674,-28.111979013456086],[153.62304590612675,-28.108802013456085],[153.61144420182606,-28.09556843337967],[153.59748894558638,-28.08484565353467],[153.58171375743507,-28.07704369076177],[153.5582100947709,-28.072020144334466],[153.5429797457689,-28.056226737672922],[153.5332932903638,-28.038592772769718],[153.5212866915583,-28.02506279038458],[153.51795790250512,-28.019962055323763],[153.50612729962978,-28.00770655025704],[153.4921994340873,-27.997899658279184],[153.48974792352251,-27.996793291653706],[153.476804589232,-27.976236528078772],[153.46405758835797,-27.964149804032946],[153.4492055507119,-27.954769403870838],[153.42939017109907,-27.946356911736828],[153.431074,-27.998905],[153.437734,-28.040372],[153.447581,-28.076061],[153.424535,-28.072587],[153.406935,-28.047412],[153.408801,-28.03519],[153.395781,-28.030988],[153.37936,-28.035274],[153.368455,-28.046136],[153.355703,-28.0495],[153.354112,-28.070074],[153.350612,-28.080139],[153.353015,-28.087664],[153.363423,-28.086206],[153.370122,-28.106398],[153.363684,-28.113269],[153.360592,-28.125727],[153.365224,-28.132919],[153.358489,-28.157291],[153.348522,-28.160563],[153.348018,-28.168213],[153.337392,-28.173312],[153.326534,-28.185578],[153.319658,-28.187666],[153.317285,-28.207015],[153.294263,-28.230486],[153.296863,-28.234233],[153.304989,-28.239676],[153.330213,-28.237064],[153.331698,-28.245415],[153.33958,-28.250311],[153.356812,-28.249619],[153.389527,-28.234935],[153.394932,-28.222519],[153.40661,-28.210415],[153.436847,-28.186652],[153.457134,-28.18054],[153.468504,-28.162512],[153.485949,-28.157028],[153.531167,-28.175249],[153.552171,-28.164408]]]},"bbox":[153.294263,-28.255568729176115,153.64214268097837,-27.946356911736828]}]}