{"type":"FeatureCollection","features":[
{"properties":{"electorateShortName":"mcpherson","electorateName":"McPherson","area":229.41645,"state":"QLD"},"type":"Feature","geometry":{"type":"Polygon","coordinates":[[[153.552171,-28.164408],[153.552823,-28.168448],[153.556113,-28.16847],[153.558464,-28.17925],[153.563723,-28.191191],[153.569601,-28.199072],[153.566973,-28.218902],[153.567226,-28.231415],[153.570274,-28.243791],[153.575488,-28.252801],[153.57962363331777,-28.255568729176115],[153.59435129766416,-28.24497180863362],[153.5972442823484,-28.241827105759914],[153.60308300639574,-28.238623683010807],[153.6167450494998,-28.227099244454035],[153.62786029124794,-28.213102262396934],[153.6359903463604,-28.197184777994707],[153.6408145653573,-28.179974577040138],[153.64214268097837,-28.16215043008373],[153.63992231232615,-28.144415321714316],[153.63424103076935,-28.127468724837694],[153.62532290612674,-28.111979013456086],[153.62304590612675,-28.108802013456085],[153.61144420182606,-28.09556843337967],[153.59748894558638,-28.08484565353467],[153.58171375743507,-28.07704369076177],[153.56472184781757,-28.07246087592045],[153.5582100947709,-28.072020144334466],[153.55038175780405,-28.062378621350536],[153.5429797457689,-28.056226737672922],[153.5332932903638,-28.038592772769718],[153.5212866915583,-28.02506279038458],[153.51795790250512,-28.019962055323763],[153.50612729962978,-28.00770655025704],[153.4921994340873,-27.997899658279184],[153.48974792352251,-27.996793291653706],[153.48696094779132,-27.990569124154042],[153.476804589232,-27.976236528078772],[153.46405758835797,-27.964149804032946],[153.4492055507119,-27.954769403870838],[153.44710969812445,-27.95429687007854],[153.43482040911115,-27.94790267221077],[153.42939017109907,-27.946356911736828],[153.431074,-27.998905],[153.437734,-28.040372],[153.447581,-28.076061],[153.424535,-28.072587],[153.425429,-28.067996],[153.42115,-28.067279],[153.414021,-28.057097],[153.409229,-28.05324],[153.406935,-28.047412],[153.408801,-28.03519],[153.403146,-28.032165],[153.395781,-28.030988],[153.384365,-28.032873],[153.37936,-28.035274],[153.374925,-28.041139],[153.368455,-28.046136],[153.355703,-28.0495],[153.354437,-28.051343],[153.355743,-28.059406],[153.354361,-28.063424],[153.354112,-28.070074],[153.350612,-28.080139],[153.34409,-28.080921],[153.33826,-28.084667],[153.339545,-28.088116],[153.348923,-28.086145],[153.353015,-28.087664],[153.360375,-28.085423],[153.363423,-28.086206],[153.368958,-28.09674],[153.367083,-28.098251],[153.370122,-28.106398],[153.367009,-28.111599],[153.363684,-28.113269],[153.360592,-28.125727],[153.358115,-28.127555],[153.365224,-28.132919],[153.365198,-28.135507],[153.361995,-28.139638],[153.361652,-28.147692],[153.360091,-28.148253],[153.358489,-28.157291],[153.352407,-28.160071],[153.348522,-28.160563],[153.348018,-28.168213],[153.340592,-28.173369],[153.337392,-28.173312],[153.329567,-28.180981],[153.326534,-28.185578],[153.321594,-28.185691],[153.319658,-28.187666],[153.31954,-28.197365],[153.315303,-28.199882],[153.313149,-28.204046],[153.317285,-28.207015],[153.311844,-28.211353],[153.301409,-28.222594],[153.296474,-28.219145],[153.294263,-28.230486],[153.296863,-28.234233],[153.300823,-28.238346],[153.304989,-28.239676],[153.314307,-28.237362],[153.316484,-28.238649],[153.324189,-28.236483],[153.330213,-28.237064],[153.331698,-28.245415],[153.33958,-28.250311],[153.346223,-28.248172],[153.356812,-28.249619],[153.369669,-28.245229],[153.372359,-28.242801],[153.378468,-28.240432],[153.382862,-28.23721],[153.389527,-28.234935],[153.389655,-28.230025],[153.394932,-28.222519],[153.40661,-28.210415],[153.413933,-28.208334],[153.416685,-28.205956],[153.419196,-28.199681],[153.421973,-28.199364],[153.428865,-28.194275],[153.431159,-28.191044],[153.436847,-28.186652],[153.448719,-28.183433],[153.450629,-28.181801],[153.457134,-28.18054],[153.458678,-28.175157],[153.468504,-28.162512],[153.47247,-28.161953],[153.476931,-28.15702],[153.481498,-28.158373],[153.485949,-28.157028],[153.531167,-28.175249],[153.534058,-28.176929],[153.539506,-28.172062],[153.541487,-28.168967],[153.552171,-28.164408]]]},"bbox":[153.294263,-28.255568729176115,153.64214268097837,-27.946356911736828]}]}