{"type":"FeatureCollection","features":[
{"properties":{"electorateShortName":"mcpherson","electorateName":"McPherson","area":229.41645,"state":"QLD"},"type":"Feature","geometry":{"type":"Polygon","coordinates":[[[153.552171,-28.164408],[153.57962363331777,-28.255568729176115],[153.6167450494998,-28.227099244454035],[153.64214268097837,-28.16215043008373],[153.63424103076935,-28.127468724837694],[153.62532290612674,-28.111979013456086],[153.62304590612675,-28.108802013456085],[153.61144420182606,-28.09556843337967],[153.59748894558638,-28.08484565353467],[153.58171375743507,-28.07704369076177],[153.5582100947709,-28.072020144334466],[153.5332932903638,-28.038592772769718],[153.5212866915583,-28.02506279038458],[153.51795790250512,-28.019962055323763],[153.50612729962978,-28.00770655025704],[153.4921994340873,-27.997899658279184],[153.48974792352251,-27.996793291653706],[153.476804589232,-27.976236528078772],[153.431074,-27.998905],[153.437734,-28.040372],[153.447581,-28.076061],[153.395781,-28.030988],[153.355703,-28.0495],[153.358489,-28.157291],[153.296863,-28.234233],[153.356812,-28.249619],[153.485949,-28.157028],[153.552171,-28.164408]]]},"bbox":[153.296863,-28.255568729176115,153.64214268097837,-27.976236528078772]}]}