{"type":"FeatureCollection","features":[
{"properties":{"electorateShortName":"melbourne","electorateName":"Melbourne","area":40.46,"state":"VIC"},"type":"Feature","geometry":{"type":"MultiPolygon","coordinates":[[[[145.02439,-37.834451],[145.027071,-37.832737],[145.028323,-37.831014],[145.026774,-37.829943],[145.023203,-37.828094],[145.022002,-37.825559],[145.021331,-37.825189],[145.018347,-37.826216],[145.017304,-37.825777],[145.016119,-37.824462],[145.01573,-37.821551],[145.014544,-37.81749],[145.014379,-37.815533],[145.015695,-37.811296],[145.015645,-37.810549],[145.009529,-37.810475],[145.008964,-37.807996],[145.007304,-37.807213],[145.000791,-37.807219],[144.999371,-37.805656],[145.000318,-37.804233],[145.001618,-37.80425],[145.004423,-37.805347],[145.007589,-37.804087],[145.007636,-37.803307],[145.002708,-37.79967],[145.00002,-37.798293],[144.999501,-37.797004],[145.001419,-37.797183],[145.001945,-37.796659],[145.001225,-37.795297],[144.996547,-37.795566],[144.993747,-37.7953],[144.99526,-37.787091],[144.995592,-37.784698],[144.994179,-37.783532],[144.992114,-37.782632],[144.991728,-37.780129],[144.990105,-37.77966],[144.989734,-37.777878],[144.988806,-37.776925],[144.988667,-37.775346],[144.986865,-37.774378],[144.979196,-37.773497],[144.978111,-37.780208],[144.938769,-37.775448],[144.937074,-37.777774],[144.938733,-37.780857],[144.940362,-37.787619],[144.9382,-37.78898],[144.925246,-37.787702],[144.913872,-37.794768],[144.912924,-37.795161],[144.915284,-37.796544],[144.916489,-37.798012],[144.916217,-37.799086],[144.914805,-37.800236],[144.912421,-37.799578],[144.910983,-37.800102],[144.909609,-37.801807],[144.908225,-37.804605],[144.906437,-37.80885],[144.905465,-37.81349],[144.905452,-37.815291],[144.906493,-37.819157],[144.906529,-37.821593],[144.911259,-37.82027],[144.917975,-37.819122],[144.927769,-37.819295],[144.936016,-37.820792],[144.944836,-37.822884],[144.946915,-37.823273],[144.952204,-37.82373],[144.955268,-37.823346],[144.960623,-37.820754],[144.963685,-37.819925],[144.967977,-37.819242],[144.972558,-37.819268],[144.974452,-37.820252],[144.979335,-37.82551],[144.98114,-37.826803],[144.984931,-37.827654],[144.986501,-37.82831],[144.98792,-37.829672],[144.98961,-37.831194],[144.990917,-37.8329],[144.996686,-37.834302],[145.001054,-37.833494],[145.003031,-37.834433],[145.00418,-37.834176],[145.003799,-37.831781],[145.005165,-37.831196],[145.007681,-37.831878],[145.009545,-37.833544],[145.010469,-37.832875],[145.010685,-37.831695],[145.012916,-37.830504],[145.01437,-37.830941],[145.016654,-37.832219],[145.019175,-37.831623],[145.022171,-37.832683],[145.02321,-37.8343],[145.02439,-37.834451]]],[[[144.840214,-37.871507],[144.83159643696663,-37.87110051713224],[144.841558834486,-37.88387363577937],[144.85550412292446,-37.89573112729915],[144.87156014784495,-37.90452176086713],[144.8890627226879,-37.90988189599976],[144.90728782173554,-37.91158980099633],[144.92191767994035,-37.909969526147066],[144.93095328492376,-37.911846267139836],[144.9368318247294,-37.91270638066104],[144.94507465485015,-37.91344718028189],[144.95108001163067,-37.91361563840061],[144.95686118634214,-37.91627300191317],[144.9661436436617,-37.91954443232263],[144.9716936760057,-37.920982719249096],[144.98052323434726,-37.92286340862922],[144.9863085207719,-37.92363625363771],[144.987407,-37.919984],[144.984792,-37.913367],[144.98564,-37.908431],[144.9837,-37.905999],[144.983395,-37.901134],[144.985871,-37.896385],[144.98499,-37.891003],[144.975658,-37.882121],[144.975741,-37.879136],[144.973113,-37.872488],[144.975607,-37.870261],[144.969681,-37.864589],[144.971138,-37.863254],[144.970308,-37.860787],[144.963316,-37.855467],[144.935592,-37.842548],[144.931891,-37.843299],[144.929856,-37.847323],[144.93073,-37.84231],[144.927165,-37.841327],[144.926912,-37.840035],[144.918525,-37.839688],[144.913601,-37.841836],[144.914709,-37.844442],[144.912579,-37.845837],[144.914515,-37.848485],[144.912499,-37.849458],[144.905739,-37.840155],[144.903215,-37.841399],[144.907213,-37.849526],[144.899165,-37.840396],[144.898362,-37.841204],[144.897148,-37.842552],[144.897444,-37.844135],[144.899459,-37.848829],[144.905593,-37.851732],[144.899379,-37.849657],[144.897981,-37.84764],[144.895234,-37.848709],[144.902042,-37.854318],[144.903492,-37.861283],[144.911555,-37.862068],[144.915524,-37.865543],[144.908045,-37.8707],[144.902906,-37.872753],[144.89215,-37.867605],[144.88505,-37.86828],[144.882677,-37.865786],[144.878621,-37.868083],[144.874437,-37.863592],[144.874646,-37.861723],[144.868582,-37.858712],[144.861666,-37.859841],[144.856185,-37.863435],[144.850369,-37.863943],[144.840214,-37.871507]]]]},"bbox":[144.83159643696663,-37.92363625363771,145.028323,-37.773497]}]}