{"type":"FeatureCollection","features":[
{"properties":{"electorateShortName":"moore","electorateName":"Moore","area":90.051132,"state":"WA"},"type":"Feature","geometry":{"type":"Polygon","coordinates":[[[115.796752,-31.845875],[115.795193,-31.841429],[115.792847,-31.836918],[115.785368,-31.825691],[115.783823,-31.822452],[115.783178,-31.817323],[115.799103,-31.821964],[115.803015,-31.821715],[115.807303,-31.820236],[115.811785,-31.820021],[115.811824,-31.818284],[115.810242,-31.813082],[115.810079,-31.809309],[115.807082,-31.803318],[115.816815,-31.799718],[115.808556,-31.783339],[115.803569,-31.781688],[115.799464,-31.778014],[115.796116,-31.776717],[115.799087,-31.770411],[115.795652,-31.762389],[115.789706,-31.756561],[115.787774,-31.751885],[115.792254,-31.742984],[115.774304,-31.723001],[115.773748,-31.717249],[115.770579,-31.718045],[115.768635,-31.717476],[115.755754,-31.721138],[115.74975,-31.722362],[115.748806,-31.714177],[115.748035,-31.71199],[115.707427,-31.711941],[115.70661,-31.712027],[115.709254,-31.71821],[115.718752,-31.7307],[115.725301,-31.75029],[115.727398,-31.759632],[115.725841,-31.760377],[115.729467,-31.7652],[115.732015,-31.775773],[115.732277,-31.794305],[115.727443,-31.806066],[115.736905,-31.820449],[115.732017,-31.823691],[115.7374,-31.826774],[115.742148,-31.826123],[115.743627,-31.827631],[115.748519,-31.835121],[115.751007,-31.8462],[115.759124,-31.846112],[115.769769,-31.844956],[115.778214,-31.84575],[115.796752,-31.845875]]]},"bbox":[115.70661,-31.8462,115.816815,-31.711941]}]}