{"type":"FeatureCollection","features":[
{"properties":{"electorateShortName":"new-england","electorateName":"New England","area":66394.207326,"state":"NSW"},"type":"Feature","geometry":{"type":"Polygon","coordinates":[[[152.428078,-30.418897],[152.424197,-30.417938],[152.416237,-30.406891],[152.396828,-30.392564],[152.394419,-30.387025],[152.387531,-30.383159],[152.389916,-30.374706],[152.385967,-30.370863],[152.38192,-30.362628],[152.364574,-30.360976],[152.365554,-30.354135],[152.35178,-30.355359],[152.354767,-30.34037],[152.349464,-30.33955],[152.351166,-30.333711],[152.345622,-30.33295],[152.347016,-30.325947],[152.342873,-30.324239],[152.344599,-30.315088],[152.342286,-30.313618],[152.344473,-30.301603],[152.347884,-30.292555],[152.342513,-30.287965],[152.339105,-30.278623],[152.34212,-30.26899],[152.337868,-30.262865],[152.337373,-30.258078],[152.348472,-30.236709],[152.344765,-30.228089],[152.339077,-30.225491],[152.338259,-30.219133],[152.331396,-30.220644],[152.323219,-30.212536],[152.315346,-30.208661],[152.31098,-30.195078],[152.314438,-30.187554],[152.303481,-30.178463],[152.311073,-30.173596],[152.30646,-30.167695],[152.309578,-30.160722],[152.304777,-30.157571],[152.309102,-30.147343],[152.303867,-30.141956],[152.297179,-30.138543],[152.296481,-30.132767],[152.302323,-30.131266],[152.297523,-30.122328],[152.298003,-30.115985],[152.286954,-30.109408],[152.286719,-30.105776],[152.280638,-30.101331],[152.283874,-30.095814],[152.279714,-30.087692],[152.294757,-30.085144],[152.291906,-30.077191],[152.295967,-30.075714],[152.293274,-30.065859],[152.293708,-30.05989],[152.299775,-30.05798],[152.29764,-30.053265],[152.299513,-30.046532],[152.295166,-30.044577],[152.297192,-30.038916],[152.30361,-30.039663],[152.30871,-30.03456],[152.315555,-30.034309],[152.313134,-30.027999],[152.315724,-30.019048],[152.312967,-30.012352],[152.317005,-30.006747],[152.316915,-30.000952],[152.308907,-29.995322],[152.307205,-29.982751],[152.304635,-29.978878],[152.291972,-29.977111],[152.282316,-29.965734],[152.275504,-29.96122],[152.272123,-29.95087],[152.273614,-29.946393],[152.269237,-29.932046],[152.279097,-29.929984],[152.283929,-29.925041],[152.277708,-29.921329],[152.272042,-29.928478],[152.269382,-29.921995],[152.275983,-29.920606],[152.277702,-29.916065],[152.269352,-29.915886],[152.271555,-29.910338],[152.277336,-29.911587],[152.28566,-29.907312],[152.281073,-29.899898],[152.280846,-29.895508],[152.284977,-29.884674],[152.280781,-29.877606],[152.286737,-29.876071],[152.286288,-29.871487],[152.27741,-29.867582],[152.276253,-29.86205],[152.281886,-29.85685],[152.27563,-29.852829],[152.27393,-29.846247],[152.268662,-29.847336],[152.26254,-29.852481],[152.257362,-29.860257],[152.251076,-29.865088],[152.243707,-29.862923],[152.227785,-29.865886],[152.222813,-29.870364],[152.217028,-29.871375],[152.21025,-29.868606],[152.200337,-29.868248],[152.197778,-29.875633],[152.193438,-29.875842],[152.168485,-29.869784],[152.170149,-29.862828],[152.169378,-29.855438],[152.175416,-29.84576],[152.1747,-29.827095],[152.17919,-29.807549],[152.18771,-29.804057],[152.190846,-29.792664],[152.202765,-29.787141],[152.201602,-29.78096],[152.206784,-29.776574],[152.205592,-29.77137],[152.210149,-29.768684],[152.216838,-29.760481],[152.224886,-29.7616],[152.230407,-29.754758],[152.235813,-29.757041],[152.241781,-29.754826],[152.246617,-29.757008],[152.252728,-29.752612],[152.25765,-29.758348],[152.264601,-29.750703],[152.258306,-29.744296],[152.259201,-29.739491],[152.255079,-29.73343],[152.265863,-29.725984],[152.262054,-29.715076],[152.268339,-29.703832],[152.261009,-29.700579],[152.261842,-29.697489],[152.270398,-29.691168],[152.271207,-29.685855],[152.276473,-29.68154],[152.276789,-29.672523],[152.280708,-29.665904],[152.289543,-29.676294],[152.293557,-29.669745],[152.30303,-29.66794],[152.304397,-29.662856],[152.312214,-29.663098],[152.310268,-29.655777],[152.315315,-29.65149],[152.322233,-29.655095],[152.325919,-29.649651],[152.336123,-29.640777],[152.3391,-29.623416],[152.354492,-29.545471],[152.358684,-29.540345],[152.363964,-29.538722],[152.378027,-29.531125],[152.38099,-29.531236],[152.389782,-29.52199],[152.400914,-29.51964],[152.40543,-29.516645],[152.412456,-29.50688],[152.388785,-29.445316],[152.394556,-29.446113],[152.397171,-29.431767],[152.404317,-29.432778],[152.410052,-29.400771],[152.421038,-29.397423],[152.429492,-29.391941],[152.444028,-29.370755],[152.447509,-29.360804],[152.451081,-29.358053],[152.420219,-29.353722],[152.331517,-29.341837],[152.335325,-29.340442],[152.336513,-29.334657],[152.331189,-29.32889],[152.319179,-29.324215],[152.310687,-29.32254],[152.303043,-29.31763],[152.298279,-29.307447],[152.300035,-29.304458],[152.308811,-29.304891],[152.314656,-29.298519],[152.311461,-29.29008],[152.306473,-29.283097],[152.320994,-29.277583],[152.32318,-29.269926],[152.328733,-29.268528],[152.33886,-29.261859],[152.340145,-29.257761],[152.351323,-29.249123],[152.357498,-29.250633],[152.36576,-29.246099],[152.374502,-29.244159],[152.379027,-29.245286],[152.387215,-29.240105],[152.394086,-29.24125],[152.399887,-29.236702],[152.412805,-29.230414],[152.411005,-29.219805],[152.405201,-29.212154],[152.410177,-29.200865],[152.418325,-29.190383],[152.421705,-29.180721],[152.424963,-29.178626],[152.418846,-29.168955],[152.414465,-29.165374],[152.41689,-29.153095],[152.429618,-29.150025],[152.435213,-29.14518],[152.444231,-29.144175],[152.449974,-29.116519],[152.451815,-29.101929],[152.455006,-29.089027],[152.421006,-29.084096],[152.418978,-29.081045],[152.43111,-29.071963],[152.430571,-29.064585],[152.436061,-29.056547],[152.441565,-29.052136],[152.443897,-29.039755],[152.424203,-29.036863],[152.429755,-29.03267],[152.437109,-29.032428],[152.446122,-29.02834],[152.456824,-29.033239],[152.459386,-29.029856],[152.454072,-29.024549],[152.455898,-29.019338],[152.46464,-29.008025],[152.472365,-29.003551],[152.464953,-28.998733],[152.46552,-28.99043],[152.476205,-28.990648],[152.473742,-28.981331],[152.464342,-28.979461],[152.467109,-28.973664],[152.477542,-28.972734],[152.488649,-28.977093],[152.486653,-28.969974],[152.509573,-28.973254],[152.508325,-28.980353],[152.516572,-28.983581],[152.534048,-28.985697],[152.558516,-28.990078],[152.560612,-28.98633],[152.553601,-28.955808],[152.550148,-28.954584],[152.549108,-28.94674],[152.544018,-28.935846],[152.548638,-28.932364],[152.560707,-28.930585],[152.567459,-28.926445],[152.577328,-28.932486],[152.580988,-28.928604],[152.580107,-28.911484],[152.567178,-28.904199],[152.563501,-28.909226],[152.555079,-28.912589],[152.549367,-28.910167],[152.554729,-28.902509],[152.557145,-28.89375],[152.564307,-28.887482],[152.573425,-28.863705],[152.567877,-28.858052],[152.561198,-28.857808],[152.544747,-28.85373],[152.537301,-28.84685],[152.556973,-28.824527],[152.55488,-28.817862],[152.544233,-28.817867],[152.539335,-28.815156],[152.537034,-28.803606],[152.543678,-28.787938],[152.54079,-28.781511],[152.530992,-28.781374],[152.521678,-28.793089],[152.517063,-28.794426],[152.514027,-28.789245],[152.51331,-28.780909],[152.508518,-28.780094],[152.503107,-28.785176],[152.496297,-28.785396],[152.480325,-28.780262],[152.479981,-28.77298],[152.490324,-28.768883],[152.492089,-28.764999],[152.488846,-28.758949],[152.48037,-28.753224],[152.48071,-28.749537],[152.493561,-28.749296],[152.499036,-28.741115],[152.493554,-28.735639],[152.484161,-28.738602],[152.477743,-28.746271],[152.471246,-28.742706],[152.474771,-28.735515],[152.473627,-28.731073],[152.464635,-28.735505],[152.450011,-28.730273],[152.440932,-28.729164],[152.435037,-28.725093],[152.426474,-28.724078],[152.421238,-28.718079],[152.414274,-28.722832],[152.407521,-28.723073],[152.404789,-28.710113],[152.385991,-28.701988],[152.378832,-28.703981],[152.375208,-28.699883],[152.376136,-28.69426],[152.373705,-28.687903],[152.378172,-28.684799],[152.384483,-28.686102],[152.389048,-28.681288],[152.386341,-28.676333],[152.391442,-28.669829],[152.390769,-28.664157],[152.398024,-28.662836],[152.402465,-28.659427],[152.403248,-28.652435],[152.399648,-28.645827],[152.407829,-28.642945],[152.408076,-28.636777],[152.413981,-28.632035],[152.408765,-28.628211],[152.416608,-28.618534],[152.417347,-28.612965],[152.422079,-28.606845],[152.434765,-28.602244],[152.439097,-28.598856],[152.441811,-28.592688],[152.43866,-28.582308],[152.447357,-28.576241],[152.441062,-28.574986],[152.45011,-28.567932],[152.451841,-28.562728],[152.447451,-28.555561],[152.442458,-28.556841],[152.446419,-28.539191],[152.442997,-28.532658],[152.447754,-28.527473],[152.454691,-28.527083],[152.460079,-28.52932],[152.466564,-28.526306],[152.469177,-28.520762],[152.475763,-28.519907],[152.476117,-28.52696],[152.501119,-28.528449],[152.500368,-28.517493],[152.502987,-28.511686],[152.512818,-28.513333],[152.518799,-28.510349],[152.524707,-28.512962],[152.533082,-28.513825],[152.536842,-28.506618],[152.536506,-28.499624],[152.527144,-28.497411],[152.535656,-28.48656],[152.543552,-28.479437],[152.550951,-28.479249],[152.553433,-28.475383],[152.548651,-28.470497],[152.55547,-28.466104],[152.562095,-28.465685],[152.561313,-28.457009],[152.566667,-28.450597],[152.566459,-28.438797],[152.577861,-28.435713],[152.580125,-28.425367],[152.583561,-28.41709],[152.594411,-28.408933],[152.593347,-28.400869],[152.597105,-28.394984],[152.605153,-28.391846],[152.603784,-28.378654],[152.611897,-28.374662],[152.610967,-28.369336],[152.614853,-28.365552],[152.612842,-28.357841],[152.618427,-28.34819],[152.626211,-28.347854],[152.631389,-28.338518],[152.627986,-28.327717],[152.622868,-28.327726],[152.617481,-28.320005],[152.607771,-28.320192],[152.597844,-28.314788],[152.592602,-28.323712],[152.585055,-28.329201],[152.578709,-28.33877],[152.572048,-28.325692],[152.568635,-28.323575],[152.556514,-28.323388],[152.55527,-28.319129],[152.54806,-28.320979],[152.544186,-28.318984],[152.541246,-28.313053],[152.53294,-28.31002],[152.525036,-28.303964],[152.528792,-28.299431],[152.529467,-28.285205],[152.533192,-28.279307],[152.532881,-28.272672],[152.536753,-28.265694],[152.529165,-28.261835],[152.521834,-28.260815],[152.515661,-28.25182],[152.507785,-28.249433],[152.501845,-28.252527],[152.487617,-28.253908],[152.483875,-28.257343],[152.472178,-28.256958],[152.463908,-28.259227],[152.46002,-28.26447],[152.459634,-28.270489],[152.454129,-28.278316],[152.448252,-28.281026],[152.44275,-28.290772],[152.444958,-28.29845],[152.436223,-28.299196],[152.428631,-28.297759],[152.424119,-28.299424],[152.416802,-28.296886],[152.412831,-28.301654],[152.413441,-28.307504],[152.409517,-28.315734],[152.411341,-28.321264],[152.417218,-28.330099],[152.416967,-28.333604],[152.409634,-28.341496],[152.400063,-28.34768],[152.391939,-28.362138],[152.38508,-28.368855],[152.37739,-28.365822],[152.364758,-28.366106],[152.355946,-28.361197],[152.341582,-28.36786],[152.320854,-28.366757],[152.312222,-28.362717],[152.30715,-28.369084],[152.290697,-28.382471],[152.289255,-28.392497],[152.28471,-28.39406],[152.267606,-28.390047],[152.260017,-28.401051],[152.243246,-28.416025],[152.239263,-28.417583],[152.237884,-28.423436],[152.230609,-28.429826],[152.221671,-28.444888],[152.217189,-28.449236],[152.207429,-28.443902],[152.204648,-28.438247],[152.190266,-28.433948],[152.186412,-28.438425],[152.164947,-28.432626],[152.156671,-28.434382],[152.154614,-28.437947],[152.146635,-28.439131],[152.142038,-28.442236],[152.135179,-28.452083],[152.127902,-28.453683],[152.121721,-28.460333],[152.111504,-28.463862],[152.105932,-28.462904],[152.094093,-28.469047],[152.085338,-28.467738],[152.080069,-28.470171],[152.07472,-28.467722],[152.06929,-28.468759],[152.067201,-28.484989],[152.05964,-28.490651],[152.055382,-28.490016],[152.045672,-28.494966],[152.035945,-28.507253],[152.018973,-28.51781],[152.016864,-28.525281],[151.999468,-28.528516],[151.98794,-28.524745],[151.98428,-28.515179],[151.985993,-28.511075],[151.982893,-28.503395],[151.978447,-28.503184],[151.95573,-28.519862],[151.958747,-28.527218],[151.955395,-28.532549],[151.953867,-28.539913],[151.95687,-28.542854],[151.9547,-28.551613],[151.958501,-28.556807],[151.957677,-28.563409],[151.964954,-28.567354],[151.967773,-28.571831],[151.976436,-28.573009],[151.985979,-28.581498],[151.988368,-28.59176],[151.99178,-28.594703],[151.988991,-28.60074],[151.993912,-28.611297],[151.990804,-28.6244],[152.001794,-28.63993],[152.00203,-28.650129],[152.006259,-28.653968],[152.013854,-28.665753],[152.02051,-28.66377],[152.031519,-28.66616],[152.03915,-28.664448],[152.04498,-28.668174],[152.044526,-28.672894],[152.052567,-28.68194],[152.063105,-28.679091],[152.068045,-28.684912],[152.064588,-28.690609],[152.066534,-28.69653],[152.076049,-28.708175],[152.071199,-28.714861],[152.062101,-28.718202],[152.053866,-28.72543],[152.043603,-28.730613],[152.047714,-28.740329],[152.042057,-28.751501],[152.036326,-28.756992],[152.0387,-28.764765],[152.037268,-28.776817],[152.041495,-28.777537],[152.039782,-28.785048],[152.034743,-28.79071],[152.038351,-28.797031],[152.035462,-28.807127],[152.037291,-28.819231],[152.033326,-28.828205],[152.02799,-28.832381],[152.023168,-28.831587],[152.018449,-28.844752],[152.015064,-28.850626],[152.022897,-28.854696],[152.02953,-28.854572],[152.036909,-28.851794],[152.035874,-28.858658],[152.038126,-28.864696],[152.030336,-28.870299],[152.023571,-28.891181],[152.016715,-28.892531],[152.016322,-28.897094],[152.009703,-28.907663],[152.00109,-28.90973],[151.999534,-28.896318],[151.981171,-28.909181],[151.972263,-28.910598],[151.968198,-28.916567],[151.961287,-28.91879],[151.95623,-28.916793],[151.927347,-28.925411],[151.922386,-28.928444],[151.91338,-28.920595],[151.89576,-28.913727],[151.892642,-28.915807],[151.881636,-28.911884],[151.875617,-28.914409],[151.868312,-28.913884],[151.865074,-28.909722],[151.859105,-28.907213],[151.847287,-28.90863],[151.839704,-28.913013],[151.836954,-28.92023],[151.836361,-28.936848],[151.839557,-28.942665],[151.835678,-28.948583],[151.834235,-28.957209],[151.825579,-28.963333],[151.813804,-28.959374],[151.815,-28.950786],[151.806394,-28.944636],[151.793825,-28.949658],[151.789909,-28.953663],[151.783631,-28.954495],[151.77828,-28.958047],[151.770227,-28.955846],[151.773175,-28.9474],[151.772735,-28.938251],[151.762362,-28.934138],[151.754586,-28.922326],[151.750976,-28.9228],[151.743502,-28.918587],[151.746738,-28.915188],[151.743342,-28.906626],[151.736957,-28.895653],[151.731799,-28.882695],[151.73386,-28.871578],[151.726628,-28.866876],[151.719293,-28.87331],[151.713612,-28.87537],[151.706536,-28.871784],[151.702131,-28.882271],[151.695686,-28.888407],[151.688425,-28.886915],[151.682837,-28.895627],[151.677736,-28.900162],[151.674758,-28.907595],[151.666316,-28.905359],[151.64994,-28.917429],[151.644389,-28.916839],[151.636751,-28.922061],[151.633143,-28.929686],[151.625809,-28.923689],[151.616835,-28.926122],[151.611953,-28.923521],[151.603426,-28.927418],[151.588361,-28.931922],[151.580528,-28.942411],[151.570471,-28.944128],[151.566806,-28.941731],[151.54908,-28.952484],[151.545415,-28.953148],[151.544415,-28.961929],[151.537499,-28.974039],[151.536094,-28.980619],[151.52467,-28.98876],[151.522036,-28.996096],[151.51679,-28.997378],[151.506963,-29.008443],[151.502443,-29.016393],[151.499374,-29.017755],[151.495335,-29.034907],[151.497026,-29.042502],[151.494831,-29.04543],[151.49181,-29.057406],[151.502679,-29.06637],[151.502799,-29.069884],[151.495813,-29.073117],[151.491621,-29.077398],[151.485145,-29.089277],[151.475234,-29.09216],[151.462463,-29.099701],[151.457638,-29.11712],[151.449346,-29.128957],[151.434385,-29.13903],[151.430062,-29.14597],[151.424112,-29.149114],[151.418887,-29.148815],[151.410638,-29.152566],[151.402782,-29.166084],[151.400984,-29.172049],[151.395282,-29.177187],[151.376561,-29.176842],[151.361895,-29.173024],[151.346581,-29.177125],[151.337204,-29.176624],[151.31996,-29.16636],[151.314762,-29.165531],[151.311694,-29.160306],[151.308844,-29.147526],[151.315953,-29.138596],[151.31566,-29.134865],[151.304585,-29.121888],[151.302964,-29.11603],[151.29001,-29.11145],[151.281159,-29.103695],[151.277816,-29.093175],[151.279484,-29.08972],[151.27542,-29.078376],[151.284484,-29.064533],[151.284284,-29.059148],[151.28865,-29.051751],[151.286752,-29.040848],[151.283358,-29.036334],[151.274837,-29.034575],[151.271294,-29.030954],[151.274179,-29.024376],[151.281662,-29.019431],[151.283879,-29.004948],[151.277003,-28.991597],[151.276695,-28.984841],[151.282435,-28.980375],[151.272148,-28.973172],[151.2804,-28.961006],[151.281944,-28.949959],[151.275161,-28.939412],[151.264784,-28.932983],[151.243581,-28.923979],[151.240702,-28.91966],[151.239037,-28.910465],[151.233348,-28.904681],[151.228409,-28.908511],[151.208099,-28.90085],[151.207035,-28.893711],[151.200196,-28.884349],[151.185828,-28.878832],[151.174247,-28.880048],[151.165338,-28.871771],[151.161334,-28.865471],[151.149958,-28.864343],[151.144698,-28.860955],[151.138824,-28.861706],[151.130196,-28.858089],[151.1254,-28.851756],[151.116497,-28.850708],[151.103478,-28.837047],[151.097089,-28.838124],[151.086516,-28.834071],[151.081783,-28.834939],[151.068211,-28.844366],[151.060546,-28.845743],[151.055809,-28.849073],[151.050612,-28.843534],[151.0458,-28.844768],[151.041577,-28.830764],[151.037362,-28.827649],[151.037822,-28.818657],[151.041637,-28.816214],[151.041903,-28.799153],[151.032633,-28.793671],[151.024702,-28.792749],[151.026409,-28.78718],[151.024953,-28.778351],[151.020575,-28.771066],[151.029475,-28.768914],[151.026719,-28.75579],[151.023655,-28.752042],[151.013319,-28.745301],[151.010299,-28.740641],[150.988298,-28.735574],[150.980466,-28.732397],[150.970383,-28.731625],[150.965696,-28.735773],[150.948417,-28.734381],[150.945211,-28.728717],[150.937874,-28.730447],[150.937708,-28.725427],[150.932496,-28.722916],[150.930908,-28.705519],[150.924705,-28.698808],[150.919746,-28.70017],[150.910931,-28.694366],[150.904256,-28.686987],[150.893584,-28.688408],[150.891146,-28.693705],[150.880567,-28.68859],[150.876977,-28.693009],[150.868525,-28.685373],[150.864038,-28.687486],[150.85282,-28.680266],[150.849411,-28.673736],[150.839158,-28.672034],[150.828718,-28.666774],[150.819536,-28.66675],[150.8136,-28.656884],[150.804297,-28.653216],[150.794955,-28.654823],[150.780674,-28.643881],[150.773597,-28.644144],[150.766042,-28.637605],[150.757903,-28.639112],[150.751597,-28.633424],[150.745636,-28.634678],[150.729851,-28.634142],[150.722056,-28.640928],[150.710955,-28.644391],[150.708625,-28.651951],[150.701819,-28.654709],[150.693642,-28.653288],[150.68757,-28.658178],[150.679629,-28.660859],[150.67304,-28.650346],[150.669788,-28.653762],[150.659699,-28.658327],[150.642047,-28.664574],[150.632541,-28.676572],[150.620514,-28.668632],[150.617553,-28.673514],[150.605224,-28.670584],[150.600597,-28.665576],[150.58306,-28.656108],[150.578002,-28.655994],[150.566591,-28.661475],[150.560718,-28.661519],[150.555607,-28.653605],[150.548167,-28.658494],[150.55276,-28.663446],[150.550566,-28.670145],[150.535145,-28.67203],[150.528256,-28.669675],[150.525931,-28.66545],[150.53778,-28.657312],[150.524353,-28.654328],[150.51481,-28.661759],[150.493143,-28.659391],[150.487084,-28.657421],[150.483443,-28.662131],[150.48542,-28.666146],[150.479525,-28.674646],[150.491895,-28.676197],[150.499677,-28.68259],[150.513623,-28.68366],[150.519232,-28.680655],[150.522626,-28.686348],[150.530981,-28.692831],[150.530325,-28.697594],[150.534191,-28.704122],[150.541723,-28.705507],[150.54407,-28.700036],[150.551624,-28.705952],[150.557956,-28.705187],[150.56821,-28.708326],[150.577271,-28.705986],[150.58333,-28.712237],[150.588098,-28.711296],[150.595946,-28.714767],[150.600465,-28.719659],[150.6055,-28.720606],[150.617615,-28.729688],[150.634183,-28.729637],[150.639141,-28.7366],[150.647871,-28.736246],[150.653272,-28.739006],[150.658856,-28.738141],[150.66986,-28.742085],[150.670942,-28.751936],[150.665282,-28.782079],[150.672435,-28.793873],[150.660569,-28.801981],[150.657154,-28.809777],[150.644473,-28.813123],[150.642519,-28.826596],[150.637382,-28.826564],[150.638157,-28.837803],[150.641147,-28.840729],[150.629724,-28.857291],[150.629461,-28.861419],[150.6182,-28.875056],[150.611815,-28.887005],[150.609654,-28.904175],[150.613687,-28.906874],[150.619076,-28.922044],[150.616145,-28.92594],[150.62135,-28.928898],[150.623428,-28.935121],[150.631169,-28.943126],[150.624394,-28.950144],[150.624748,-28.956824],[150.621552,-28.963558],[150.621479,-28.975168],[150.613429,-28.98399],[150.617528,-28.98947],[150.611552,-29.000026],[150.620824,-29.01153],[150.627567,-29.012195],[150.626384,-29.023432],[150.634166,-29.028971],[150.638753,-29.038034],[150.649891,-29.046327],[150.64891,-29.051343],[150.656011,-29.057253],[150.666668,-29.057575],[150.665035,-29.06368],[150.670184,-29.065031],[150.671319,-29.075524],[150.678621,-29.075871],[150.687814,-29.072692],[150.688006,-29.081351],[150.695404,-29.088463],[150.702024,-29.083907],[150.70525,-29.089871],[150.701825,-29.098413],[150.709683,-29.09509],[150.712878,-29.098559],[150.722301,-29.096583],[150.726148,-29.117111],[150.733682,-29.12015],[150.731399,-29.125254],[150.738966,-29.129899],[150.738836,-29.133711],[150.749121,-29.13476],[150.743958,-29.141682],[150.752278,-29.15097],[150.745102,-29.165621],[150.752315,-29.174021],[150.750129,-29.179468],[150.750719,-29.19171],[150.75815,-29.192418],[150.754768,-29.204697],[150.763679,-29.209513],[150.761037,-29.216336],[150.763324,-29.222242],[150.758755,-29.231158],[150.759735,-29.233825],[150.753265,-29.249081],[150.754767,-29.254038],[150.75098,-29.258824],[150.751241,-29.263237],[150.756532,-29.268109],[150.763848,-29.270258],[150.758917,-29.275904],[150.764503,-29.280575],[150.764667,-29.285389],[150.772049,-29.286993],[150.77437,-29.292466],[150.771431,-29.299172],[150.777802,-29.300375],[150.775484,-29.307798],[150.784633,-29.308971],[150.785158,-29.314817],[150.795123,-29.313725],[150.802741,-29.324269],[150.805525,-29.335301],[150.800886,-29.340002],[150.809716,-29.349858],[150.811421,-29.358741],[150.818844,-29.363667],[150.822838,-29.372062],[150.817675,-29.37705],[150.82386,-29.384785],[150.821715,-29.391475],[150.830182,-29.396522],[150.827929,-29.411862],[150.850265,-29.414715],[150.851655,-29.407877],[150.878722,-29.41158],[150.878056,-29.415147],[150.89041,-29.41715],[150.890605,-29.420644],[150.88343,-29.459179],[150.863628,-29.456517],[150.859924,-29.475912],[150.865916,-29.476709],[150.864235,-29.486344],[150.858467,-29.485476],[150.855832,-29.500475],[150.858838,-29.500892],[150.856784,-29.512519],[150.83414,-29.517945],[150.813498,-29.527107],[150.80968,-29.527091],[150.79743,-29.533904],[150.781368,-29.546082],[150.771915,-29.550261],[150.767796,-29.554631],[150.7594,-29.559413],[150.755306,-29.566086],[150.748532,-29.569203],[150.733308,-29.569273],[150.724725,-29.620843],[150.728484,-29.621458],[150.726065,-29.635481],[150.709195,-29.64829],[150.71193,-29.656824],[150.696459,-29.666506],[150.697206,-29.671498],[150.689007,-29.67782],[150.692402,-29.694161],[150.688362,-29.71169],[150.683087,-29.712465],[150.686602,-29.725213],[150.682526,-29.726049],[150.683362,-29.732577],[150.67952,-29.738763],[150.679877,-29.74526],[150.675499,-29.748894],[150.676472,-29.756124],[150.662732,-29.76446],[150.662162,-29.770535],[150.658319,-29.773993],[150.651497,-29.771412],[150.627965,-29.780895],[150.621443,-29.790912],[150.612074,-29.795893],[150.599641,-29.796922],[150.594135,-29.801406],[150.585374,-29.796436],[150.578438,-29.801969],[150.569512,-29.798929],[150.565085,-29.800027],[150.553719,-29.812168],[150.547449,-29.813302],[150.539751,-29.806379],[150.530825,-29.810712],[150.525355,-29.810999],[150.520859,-29.80637],[150.509532,-29.807136],[150.509293,-29.799972],[150.494735,-29.788766],[150.480289,-29.779089],[150.462626,-29.771564],[150.453672,-29.775867],[150.448701,-29.774823],[150.439801,-29.765404],[150.433273,-29.766584],[150.425027,-29.775174],[150.418598,-29.778563],[150.413941,-29.776688],[150.412372,-29.770495],[150.415073,-29.765222],[150.425223,-29.757331],[150.416526,-29.752124],[150.412538,-29.746103],[150.406833,-29.745087],[150.400192,-29.752484],[150.381113,-29.749611],[150.381499,-29.746991],[150.302421,-29.735565],[150.298058,-29.744221],[150.28796,-29.749832],[150.291971,-29.75543],[150.293233,-29.763954],[150.290127,-29.774071],[150.289255,-29.789468],[150.292227,-29.796397],[150.29072,-29.802698],[150.298251,-29.808285],[150.29936,-29.817174],[150.306484,-29.81985],[150.307027,-29.825922],[150.302375,-29.827035],[150.301779,-29.840026],[150.294081,-29.846606],[150.296765,-29.850213],[150.294258,-29.857041],[150.293831,-29.870525],[150.298382,-29.872632],[150.297078,-29.878627],[150.302342,-29.879261],[150.306053,-29.885274],[150.305017,-29.889455],[150.312409,-29.892556],[150.313714,-29.897114],[150.312038,-29.90691],[150.300511,-29.920914],[150.300885,-29.932541],[150.30252,-29.938875],[150.298682,-29.946048],[150.302223,-29.949311],[150.301924,-29.957239],[150.292466,-29.963772],[150.292859,-29.990531],[150.285923,-29.991851],[150.285121,-29.996387],[150.278474,-29.995908],[150.272628,-29.989392],[150.264322,-29.98866],[150.254329,-29.989891],[150.248852,-29.99348],[150.250879,-30.001988],[150.248841,-30.010267],[150.236102,-30.012698],[150.236992,-30.016169],[150.231681,-30.024417],[150.224954,-30.027031],[150.217425,-30.035421],[150.213702,-30.042997],[150.197512,-30.062574],[150.188487,-30.065706],[150.179171,-30.065514],[150.171956,-30.062964],[150.164022,-30.070652],[150.162812,-30.078139],[150.158003,-30.082769],[150.153588,-30.082015],[150.144869,-30.087298],[150.139505,-30.086488],[150.124153,-30.070046],[150.119478,-30.07208],[150.118096,-30.077794],[150.113319,-30.080521],[150.102979,-30.081962],[150.091529,-30.092626],[150.091593,-30.096286],[150.083633,-30.097049],[150.07566,-30.107363],[150.074464,-30.113683],[150.077205,-30.12205],[150.074876,-30.12775],[150.076534,-30.132673],[150.074402,-30.137122],[150.080728,-30.140085],[150.088669,-30.158066],[150.090429,-30.164582],[150.089365,-30.171677],[150.100706,-30.188012],[150.102263,-30.191946],[150.111106,-30.194335],[150.125231,-30.19599],[150.129844,-30.203072],[150.136509,-30.20072],[150.144859,-30.202355],[150.146369,-30.215644],[150.158769,-30.222448],[150.16293,-30.221816],[150.167062,-30.228544],[150.168487,-30.239443],[150.173049,-30.243568],[150.17393,-30.248429],[150.17117,-30.255697],[150.175503,-30.265359],[150.169542,-30.267385],[150.169036,-30.274894],[150.172995,-30.278854],[150.181347,-30.279575],[150.186723,-30.290665],[150.193656,-30.293246],[150.182964,-30.299506],[150.189526,-30.307726],[150.194998,-30.321087],[150.191254,-30.32616],[150.194135,-30.331729],[150.193704,-30.340276],[150.195547,-30.345626],[150.188295,-30.359725],[150.192199,-30.366188],[150.203418,-30.375046],[150.224023,-30.370921],[150.228799,-30.376523],[150.235857,-30.378521],[150.237671,-30.384604],[150.227391,-30.391036],[150.225751,-30.399298],[150.229654,-30.402077],[150.239201,-30.40157],[150.245546,-30.406038],[150.25277,-30.413992],[150.263307,-30.415754],[150.274604,-30.421448],[150.283241,-30.430848],[150.29346,-30.428206],[150.300528,-30.432724],[150.306453,-30.431809],[150.310606,-30.427866],[150.318873,-30.426358],[150.322965,-30.419373],[150.320222,-30.411142],[150.322216,-30.407071],[150.328624,-30.402452],[150.338779,-30.41508],[150.344603,-30.412213],[150.351488,-30.418184],[150.355686,-30.428051],[150.362791,-30.433258],[150.364082,-30.445719],[150.361079,-30.453865],[150.351613,-30.457539],[150.351667,-30.465195],[150.346325,-30.469477],[150.350862,-30.472987],[150.36321,-30.468485],[150.367582,-30.470081],[150.364197,-30.489071],[150.348388,-30.496715],[150.36257,-30.498579],[150.358849,-30.519138],[150.354745,-30.528235],[150.368537,-30.530077],[150.366127,-30.543415],[150.393759,-30.547065],[150.388654,-30.551035],[150.39169,-30.562965],[150.390702,-30.56932],[150.372742,-30.566742],[150.373754,-30.561229],[150.360449,-30.55944],[150.359985,-30.570019],[150.366634,-30.575504],[150.36502,-30.583433],[150.371989,-30.588984],[150.371693,-30.594562],[150.378269,-30.602705],[150.384609,-30.602017],[150.390829,-30.605231],[150.394623,-30.602644],[150.396077,-30.593689],[150.402578,-30.593862],[150.410649,-30.589852],[150.420946,-30.592643],[150.421935,-30.597152],[150.430031,-30.60087],[150.437868,-30.597427],[150.441236,-30.604886],[150.449033,-30.604869],[150.454351,-30.607517],[150.456351,-30.619198],[150.461953,-30.621007],[150.468508,-30.628335],[150.475413,-30.626218],[150.48611,-30.63214],[150.490168,-30.636809],[150.499184,-30.638655],[150.507405,-30.651059],[150.506386,-30.656015],[150.509647,-30.660088],[150.457961,-30.690158],[150.453462,-30.715383],[150.464497,-30.717095],[150.464447,-30.725508],[150.467057,-30.734025],[150.463847,-30.739544],[150.467178,-30.745206],[150.458334,-30.748598],[150.452613,-30.757233],[150.467416,-30.759534],[150.466331,-30.764641],[150.457808,-30.763312],[150.456319,-30.772761],[150.464437,-30.773983],[150.463393,-30.778957],[150.490387,-30.783325],[150.487268,-30.798984],[150.501624,-30.801019],[150.515322,-30.801635],[150.520149,-30.800458],[150.54384,-30.813422],[150.559266,-30.810814],[150.55599,-30.828422],[150.563202,-30.829941],[150.561702,-30.837589],[150.55754,-30.836976],[150.555997,-30.844956],[150.549465,-30.843992],[150.54661,-30.858757],[150.521061,-30.854963],[150.530401,-30.875117],[150.531694,-30.889384],[150.530215,-30.903012],[150.52454,-30.906436],[150.515505,-30.907365],[150.507019,-30.90615],[150.499366,-30.908822],[150.498687,-30.912981],[150.493029,-30.916593],[150.49177,-30.92138],[150.500552,-30.922243],[150.510418,-30.921303],[150.51357,-30.928452],[150.523233,-30.928141],[150.528592,-30.938181],[150.533062,-30.9405],[150.527741,-30.968574],[150.533144,-30.978633],[150.539871,-30.986252],[150.544419,-30.999412],[150.549726,-31.005414],[150.551811,-31.011416],[150.5579,-31.016074],[150.561927,-31.014672],[150.575263,-31.020065],[150.578,-31.028097],[150.583118,-31.028432],[150.589728,-31.036198],[150.595879,-31.03697],[150.599399,-31.046846],[150.596757,-31.059287],[150.58431,-31.125056],[150.580899,-31.141223],[150.590495,-31.142482],[150.589532,-31.147311],[150.579729,-31.147056],[150.572125,-31.206047],[150.571431,-31.208215],[150.586718,-31.210359],[150.585536,-31.217611],[150.580167,-31.222317],[150.569044,-31.220816],[150.561964,-31.217305],[150.56046,-31.225274],[150.564196,-31.225842],[150.562324,-31.235923],[150.583751,-31.228476],[150.575295,-31.273798],[150.56586,-31.272451],[150.566555,-31.268537],[150.548416,-31.264927],[150.546033,-31.277541],[150.550391,-31.278162],[150.548966,-31.285435],[150.550514,-31.289523],[150.546772,-31.309566],[150.551579,-31.310253],[150.548091,-31.318962],[150.546135,-31.3292],[150.537653,-31.328101],[150.534605,-31.343092],[150.549846,-31.343969],[150.547014,-31.357459],[150.543292,-31.36287],[150.518266,-31.358407],[150.516695,-31.366749],[150.505697,-31.367288],[150.507647,-31.356856],[150.497969,-31.355606],[150.498841,-31.350986],[150.485538,-31.349161],[150.484234,-31.356201],[150.468341,-31.353996],[150.469625,-31.346978],[150.419482,-31.34003],[150.427821,-31.350392],[150.426929,-31.357941],[150.433278,-31.36388],[150.43187,-31.377709],[150.429634,-31.384383],[150.434163,-31.387001],[150.434616,-31.3933],[150.418905,-31.391036],[150.417667,-31.397631],[150.382465,-31.392679],[150.383718,-31.386122],[150.370359,-31.384207],[150.366284,-31.386459],[150.351856,-31.384543],[150.350951,-31.389338],[150.33888,-31.386238],[150.303409,-31.381349],[150.304184,-31.37732],[150.285905,-31.373839],[150.237969,-31.367195],[150.237233,-31.371153],[150.226534,-31.369676],[150.227149,-31.366392],[150.200263,-31.362883],[150.201711,-31.354087],[150.192906,-31.352953],[150.191955,-31.358432],[150.160961,-31.354959],[150.163276,-31.34153],[150.15888,-31.340962],[150.160931,-31.329103],[150.156807,-31.328574],[150.15936,-31.313773],[150.151496,-31.312758],[150.152988,-31.304395],[150.148646,-31.303841],[150.157848,-31.252418],[150.154467,-31.251937],[150.156288,-31.242337],[150.163289,-31.243325],[150.165295,-31.233006],[150.159665,-31.232256],[150.158496,-31.237667],[150.144799,-31.236738],[150.147657,-31.225161],[150.138318,-31.223918],[150.134651,-31.244313],[150.103379,-31.240018],[150.096406,-31.278328],[150.094952,-31.278132],[150.091357,-31.297896],[150.086472,-31.297257],[150.078838,-31.338094],[150.039868,-31.332773],[150.041308,-31.325018],[150.006557,-31.320806],[150.005558,-31.326216],[149.994616,-31.324779],[149.986677,-31.329315],[149.99871,-31.344639],[149.995759,-31.360109],[149.999201,-31.361647],[149.98813,-31.427367],[150.004391,-31.429592],[150.002257,-31.445629],[149.986349,-31.45443],[149.968049,-31.45813],[149.943549,-31.45513],[149.93685,-31.45683],[149.89765,-31.45113],[149.882911,-31.451994],[149.866949,-31.537269],[149.874525,-31.538332],[149.875955,-31.534964],[149.892615,-31.537123],[149.904408,-31.536897],[149.903174,-31.54531],[149.911777,-31.552989],[149.913288,-31.561597],[149.911314,-31.572789],[149.899503,-31.584291],[149.89291,-31.592552],[149.896758,-31.602487],[149.898799,-31.617178],[149.89666,-31.620186],[149.887255,-31.621153],[149.863643,-31.617768],[149.857331,-31.618312],[149.840889,-31.616108],[149.849681,-31.623959],[149.851432,-31.628732],[149.864563,-31.636342],[149.863071,-31.643363],[149.866465,-31.651505],[149.86475,-31.65512],[149.863574,-31.669611],[149.86681,-31.678956],[149.870213,-31.683005],[149.877771,-31.683283],[149.878832,-31.691837],[149.883716,-31.694618],[149.897302,-31.698558],[149.904783,-31.706764],[149.919362,-31.706317],[149.930174,-31.698388],[149.933434,-31.705155],[149.93933,-31.706498],[149.946991,-31.702277],[149.958311,-31.700183],[149.965541,-31.700973],[149.971833,-31.706119],[149.971625,-31.709498],[149.980844,-31.718763],[149.98412,-31.727937],[149.993737,-31.721789],[149.995779,-31.714723],[150.002707,-31.707615],[150.01387,-31.704792],[150.013668,-31.697585],[150.02086,-31.696345],[150.030212,-31.69088],[150.052178,-31.698507],[150.050241,-31.704444],[150.044686,-31.710931],[150.051531,-31.721227],[150.057577,-31.719709],[150.075072,-31.739869],[150.087071,-31.742291],[150.102595,-31.740355],[150.110638,-31.746135],[150.110257,-31.748919],[150.099944,-31.748999],[150.084247,-31.758537],[150.069755,-31.76552],[150.068656,-31.772915],[150.061711,-31.776951],[150.049893,-31.786316],[150.045344,-31.797175],[150.041336,-31.798357],[150.041078,-31.804479],[150.034337,-31.816898],[150.025732,-31.824981],[150.023983,-31.828752],[150.009959,-31.837442],[149.992219,-31.843498],[149.986155,-31.849877],[149.978572,-31.85351],[149.968322,-31.861497],[149.959059,-31.863238],[149.941452,-31.878752],[149.92829,-31.881696],[149.924604,-31.886163],[149.919587,-31.886679],[149.919454,-31.893978],[149.909069,-31.899965],[149.897359,-31.912621],[149.898585,-31.918615],[149.888344,-31.929688],[149.883297,-31.937943],[149.878336,-31.939045],[149.872976,-31.944084],[149.866233,-31.956917],[149.866099,-31.961503],[149.851323,-31.970932],[149.846338,-31.98054],[149.839116,-31.987378],[149.857806,-31.989533],[149.858932,-31.982647],[149.875564,-31.984515],[149.873787,-31.995918],[149.879703,-31.999875],[149.873485,-32.01204],[149.872892,-32.018975],[149.87485,-32.031064],[149.868526,-32.03024],[149.869721,-32.023779],[149.859837,-32.02253],[149.85838,-32.030402],[149.849773,-32.025807],[149.840192,-32.031119],[149.828063,-32.034136],[149.825774,-32.037536],[149.808111,-32.039529],[149.805267,-32.055177],[149.80291,-32.057922],[149.795665,-32.05809],[149.791608,-32.079359],[149.79754,-32.080168],[149.795238,-32.092721],[149.802182,-32.093675],[149.803022,-32.089331],[149.81249,-32.090657],[149.815993,-32.095748],[149.820768,-32.096376],[149.81943,-32.103624],[149.845959,-32.10608],[149.849847,-32.109167],[149.861229,-32.108567],[149.892267,-32.11267],[149.893994,-32.11996],[149.921931,-32.123016],[149.922783,-32.11806],[149.932317,-32.119232],[149.930319,-32.131107],[149.921928,-32.13009],[149.92077,-32.137369],[149.933553,-32.133589],[149.947996,-32.134952],[149.939343,-32.157041],[149.964628,-32.160154],[149.960754,-32.181876],[149.982621,-32.184721],[149.985142,-32.170585],[149.98935,-32.171135],[149.990684,-32.163682],[150.00064,-32.164655],[150.00946,-32.162659],[150.008146,-32.176603],[150.015475,-32.178376],[150.013982,-32.186598],[150.023077,-32.183632],[150.028746,-32.187263],[150.026908,-32.194864],[150.034803,-32.195905],[150.03576,-32.190264],[150.04176,-32.188531],[150.045029,-32.193727],[150.053194,-32.187877],[150.058476,-32.19256],[150.0639,-32.18419],[150.069726,-32.187841],[150.072083,-32.192886],[150.065351,-32.196854],[150.062718,-32.208113],[150.05774,-32.214676],[150.04884,-32.216252],[150.049282,-32.22546],[150.060247,-32.227224],[150.059027,-32.234529],[150.055455,-32.239116],[150.062277,-32.242852],[150.062501,-32.247197],[150.057791,-32.250354],[150.047243,-32.244276],[150.045812,-32.251923],[150.051872,-32.253843],[150.053136,-32.258416],[150.041813,-32.262032],[150.04577,-32.276028],[150.041236,-32.286972],[150.036512,-32.285362],[150.030106,-32.291558],[150.021931,-32.305593],[150.032068,-32.315553],[150.027724,-32.324452],[150.030674,-32.33398],[150.037448,-32.328178],[150.047259,-32.337463],[150.053646,-32.350755],[150.067073,-32.356008],[150.067384,-32.343541],[150.074879,-32.344702],[150.09134,-32.341906],[150.102209,-32.342791],[150.117906,-32.338999],[150.127247,-32.341279],[150.132276,-32.336576],[150.142012,-32.341451],[150.149961,-32.334725],[150.151684,-32.329392],[150.159054,-32.326233],[150.163331,-32.320836],[150.176846,-32.325747],[150.17927,-32.333881],[150.18757,-32.334989],[150.185981,-32.343733],[150.195557,-32.340853],[150.197112,-32.332611],[150.206128,-32.333502],[150.209968,-32.339769],[150.218141,-32.337819],[150.214117,-32.328076],[150.206605,-32.326101],[150.208533,-32.318443],[150.217188,-32.323074],[150.220506,-32.315794],[150.232254,-32.313887],[150.235609,-32.308222],[150.246518,-32.312697],[150.249223,-32.30561],[150.25528,-32.313771],[150.262383,-32.315621],[150.251908,-32.323452],[150.261057,-32.327178],[150.265386,-32.322485],[150.27144,-32.324624],[150.260895,-32.334576],[150.26056,-32.346173],[150.261842,-32.351743],[150.259542,-32.359631],[150.264699,-32.362144],[150.266882,-32.375964],[150.276805,-32.381146],[150.278826,-32.375134],[150.285274,-32.374744],[150.28843,-32.3869],[150.294834,-32.385022],[150.304668,-32.37325],[150.309427,-32.38668],[150.316837,-32.384971],[150.320379,-32.388209],[150.315072,-32.392688],[150.314967,-32.403495],[150.319073,-32.40827],[150.327927,-32.40467],[150.328862,-32.399868],[150.337788,-32.396947],[150.342192,-32.391475],[150.342449,-32.385065],[150.352769,-32.383663],[150.357639,-32.387176],[150.361274,-32.381764],[150.37121,-32.385008],[150.374341,-32.381835],[150.381039,-32.383115],[150.38685,-32.378895],[150.385735,-32.371521],[150.391611,-32.365651],[150.393989,-32.352555],[150.392217,-32.343481],[150.393601,-32.333752],[150.406867,-32.333056],[150.41327,-32.337423],[150.410956,-32.344176],[150.418387,-32.346974],[150.428267,-32.345327],[150.432778,-32.339563],[150.429727,-32.3371],[150.43033,-32.327418],[150.441755,-32.321543],[150.446639,-32.325251],[150.453032,-32.321935],[150.457261,-32.323615],[150.469168,-32.321905],[150.477468,-32.332657],[150.487669,-32.337428],[150.491482,-32.343544],[150.489532,-32.347326],[150.495027,-32.352515],[150.496768,-32.34223],[150.511871,-32.344253],[150.50731,-32.368374],[150.518034,-32.367084],[150.521429,-32.357689],[150.525697,-32.351743],[150.536331,-32.35332],[150.540408,-32.343611],[150.552621,-32.34542],[150.554639,-32.33574],[150.558504,-32.332008],[150.546742,-32.330705],[150.544942,-32.3267],[150.52953,-32.331582],[150.526692,-32.323747],[150.527348,-32.313199],[150.515843,-32.300805],[150.514928,-32.295163],[150.510136,-32.291353],[150.510884,-32.281878],[150.504109,-32.267489],[150.498259,-32.262555],[150.50028,-32.253915],[150.48965,-32.246927],[150.486444,-32.23985],[150.493641,-32.225397],[150.494709,-32.219689],[150.492631,-32.212897],[150.496489,-32.2063],[150.493122,-32.2036],[150.491949,-32.194275],[150.493178,-32.183704],[150.49584,-32.175677],[150.491585,-32.173318],[150.497453,-32.164118],[150.509039,-32.155969],[150.50902,-32.149123],[150.501238,-32.139067],[150.498859,-32.130034],[150.535357,-32.134982],[150.573132,-32.139606],[150.577252,-32.141213],[150.629114,-32.148247],[150.629495,-32.146335],[150.656733,-32.150204],[150.659868,-32.157387],[150.656558,-32.160607],[150.697662,-32.166257],[150.70883,-32.168205],[150.762825,-32.175859],[150.769368,-32.179249],[150.779294,-32.177476],[150.861055,-32.189501],[150.87779,-32.199892],[150.880229,-32.197844],[150.874117,-32.190646],[150.877022,-32.176774],[150.916081,-32.181753],[150.93018,-32.176945],[150.940047,-32.174862],[150.953718,-32.178181],[150.965534,-32.178562],[150.967658,-32.172835],[150.975451,-32.170118],[151.000858,-32.173588],[151.004427,-32.16978],[151.015907,-32.177565],[151.031817,-32.166471],[151.037547,-32.174078],[151.044722,-32.177354],[151.046117,-32.170195],[151.057533,-32.171948],[151.066043,-32.165754],[151.080567,-32.171407],[151.079708,-32.175413],[151.101009,-32.178657],[151.101957,-32.184399],[151.111567,-32.188969],[151.114224,-32.195095],[151.118349,-32.193692],[151.140573,-32.197129],[151.139695,-32.201334],[151.147205,-32.202451],[151.14806,-32.198294],[151.154761,-32.199338],[151.153917,-32.203639],[151.160382,-32.204603],[151.159047,-32.211093],[151.174018,-32.211807],[151.184688,-32.223143],[151.186215,-32.228198],[151.196823,-32.23366],[151.201036,-32.227704],[151.207227,-32.224839],[151.208815,-32.220166],[151.217578,-32.215945],[151.222955,-32.217273],[151.226163,-32.211824],[151.238403,-32.207745],[151.246256,-32.209568],[151.251788,-32.201318],[151.254664,-32.20045],[151.271239,-32.183211],[151.285015,-32.17876],[151.294798,-32.169629],[151.296656,-32.164173],[151.302543,-32.156814],[151.307236,-32.147613],[151.309698,-32.138984],[151.308333,-32.134833],[151.310287,-32.121363],[151.303943,-32.116747],[151.312247,-32.111336],[151.320672,-32.102083],[151.324628,-32.094257],[151.334411,-32.091944],[151.335448,-32.082403],[151.35298,-32.080969],[151.363162,-32.083102],[151.367701,-32.081511],[151.387446,-32.083526],[151.392307,-32.081226],[151.394632,-32.069713],[151.400821,-32.066893],[151.406738,-32.058774],[151.405995,-32.044979],[151.402881,-32.040946],[151.408589,-32.032685],[151.421012,-32.022047],[151.433128,-32.016711],[151.442454,-32.006725],[151.450874,-32.000743],[151.454726,-31.995979],[151.451139,-31.99095],[151.448894,-31.982641],[151.449756,-31.977066],[151.446091,-31.970044],[151.448739,-31.961657],[151.442452,-31.949366],[151.450361,-31.944195],[151.455799,-31.923058],[151.460027,-31.920881],[151.469226,-31.906085],[151.469466,-31.896611],[151.476862,-31.893325],[151.484698,-31.892795],[151.490632,-31.885178],[151.491173,-31.878161],[151.505763,-31.873053],[151.515154,-31.865728],[151.512161,-31.857692],[151.516642,-31.852535],[151.535463,-31.84554],[151.548112,-31.850321],[151.556427,-31.849326],[151.556248,-31.861963],[151.564345,-31.86129],[151.570992,-31.856272],[151.57678,-31.85484],[151.577421,-31.846384],[151.581486,-31.845016],[151.584899,-31.837576],[151.584638,-31.831588],[151.587194,-31.822102],[151.594022,-31.78969],[151.590993,-31.788273],[151.578621,-31.788723],[151.572235,-31.787187],[151.56809,-31.790521],[151.551459,-31.78469],[151.54256,-31.780081],[151.540731,-31.775763],[151.522236,-31.770965],[151.517871,-31.768467],[151.532389,-31.697316],[151.534772,-31.694157],[151.522466,-31.679691],[151.520908,-31.664807],[151.524081,-31.659787],[151.535647,-31.596086],[151.540071,-31.600501],[151.558956,-31.603567],[151.569831,-31.609953],[151.576601,-31.602515],[151.584392,-31.604952],[151.596316,-31.600537],[151.600991,-31.595498],[151.609443,-31.601869],[151.610475,-31.606683],[151.619783,-31.608431],[151.623888,-31.606812],[151.628563,-31.612009],[151.634462,-31.614695],[151.637177,-31.610179],[151.644412,-31.611373],[151.650144,-31.602314],[151.656169,-31.604527],[151.65693,-31.612134],[151.66467,-31.613662],[151.667365,-31.611417],[151.674732,-31.613062],[151.680427,-31.608977],[151.688803,-31.614094],[151.690622,-31.622773],[151.702102,-31.620164],[151.708399,-31.623864],[151.713236,-31.620648],[151.719034,-31.6268],[151.725031,-31.62924],[151.733015,-31.62837],[151.739632,-31.635846],[151.756756,-31.638142],[151.75635,-31.620144],[151.758396,-31.61466],[151.75595,-31.609247],[151.757149,-31.601741],[151.775327,-31.59042],[151.781646,-31.592628],[151.783284,-31.585595],[151.802497,-31.573861],[151.800421,-31.567626],[151.792802,-31.564847],[151.788201,-31.559293],[151.787466,-31.549545],[151.78041,-31.545198],[151.763901,-31.540943],[151.758457,-31.535372],[151.759741,-31.530675],[151.753741,-31.524385],[151.7607,-31.515421],[151.761575,-31.511185],[151.789327,-31.514938],[151.802351,-31.505003],[151.817896,-31.505699],[151.842759,-31.509038],[151.84458,-31.499475],[151.915755,-31.510067],[151.916966,-31.504183],[151.911067,-31.499202],[151.914658,-31.493625],[151.911358,-31.482175],[151.91277,-31.4767],[151.976509,-31.485864],[152.07001,-31.498415],[152.083904,-31.500522],[152.087032,-31.496032],[152.082114,-31.490563],[152.080791,-31.480083],[152.082218,-31.474815],[152.079653,-31.46276],[152.087676,-31.455776],[152.085306,-31.449821],[152.075463,-31.44548],[152.064663,-31.438591],[152.065802,-31.435384],[152.061895,-31.429235],[152.065575,-31.409145],[152.06905,-31.403177],[152.076859,-31.401305],[152.087244,-31.391719],[152.09976,-31.392027],[152.103123,-31.373415],[152.123679,-31.278729],[152.133207,-31.279433],[152.137785,-31.284686],[152.1475,-31.279899],[152.15303,-31.272551],[152.152258,-31.268575],[152.160937,-31.23998],[152.158665,-31.237989],[152.16305,-31.231321],[152.151562,-31.226388],[152.154124,-31.209319],[152.147466,-31.202172],[152.14755,-31.196017],[152.152879,-31.187264],[152.157201,-31.186285],[152.167083,-31.19126],[152.170211,-31.190611],[152.175595,-31.19851],[152.188251,-31.197206],[152.199673,-31.193581],[152.212483,-31.202024],[152.21735,-31.202238],[152.223397,-31.207902],[152.23206,-31.205451],[152.234107,-31.197461],[152.24245,-31.204362],[152.253103,-31.205393],[152.256969,-31.198432],[152.254681,-31.194535],[152.316572,-31.202936],[152.330897,-31.127464],[152.342684,-31.127637],[152.343458,-31.124362],[152.336641,-31.116269],[152.3419,-31.1145],[152.349587,-31.117004],[152.34815,-31.109224],[152.338112,-31.106029],[152.334987,-31.096198],[152.337351,-31.080097],[152.334219,-31.075715],[152.340634,-31.06821],[152.331245,-31.057657],[152.331474,-31.05557],[152.34517,-31.050618],[152.344607,-31.042386],[152.340341,-31.036442],[152.334049,-31.035471],[152.326425,-31.030117],[152.324392,-31.024857],[152.315267,-31.02785],[152.307849,-31.025194],[152.285222,-31.010356],[152.275066,-31.008692],[152.269825,-30.999147],[152.282404,-30.985676],[152.284119,-30.979437],[152.288659,-30.980927],[152.29117,-30.975444],[152.290658,-30.961333],[152.284306,-30.949125],[152.285433,-30.943909],[152.293185,-30.936259],[152.296107,-30.930719],[152.291013,-30.924718],[152.294739,-30.910623],[152.289493,-30.900382],[152.290613,-30.882266],[152.295075,-30.872234],[152.299116,-30.868431],[152.28951,-30.844152],[152.28454,-30.841506],[152.288597,-30.832337],[152.286781,-30.829869],[152.291453,-30.823737],[152.298103,-30.823219],[152.310699,-30.804966],[152.31791,-30.800261],[152.315673,-30.793799],[152.333339,-30.789489],[152.343857,-30.791901],[152.348538,-30.779729],[152.354998,-30.77812],[152.351956,-30.769156],[152.361448,-30.757902],[152.365477,-30.758481],[152.36675,-30.751786],[152.375309,-30.745347],[152.37586,-30.731802],[152.371082,-30.728387],[152.371882,-30.721824],[152.369392,-30.711234],[152.365915,-30.702985],[152.369327,-30.698688],[152.358405,-30.684213],[152.357992,-30.678444],[152.364359,-30.663496],[152.369291,-30.658905],[152.355535,-30.64877],[152.350185,-30.647314],[152.349223,-30.643146],[152.343798,-30.639482],[152.337037,-30.640624],[152.333571,-30.63659],[152.331578,-30.628318],[152.333149,-30.620307],[152.321906,-30.615829],[152.317822,-30.611685],[152.316055,-30.602971],[152.311722,-30.600191],[152.317728,-30.593425],[152.329911,-30.584223],[152.330239,-30.579028],[152.335719,-30.57348],[152.335809,-30.567038],[152.348328,-30.563125],[152.352503,-30.556123],[152.361994,-30.555286],[152.363655,-30.546112],[152.376388,-30.540287],[152.376725,-30.535486],[152.386854,-30.528965],[152.386866,-30.521258],[152.382551,-30.519325],[152.385807,-30.505194],[152.392128,-30.500786],[152.400253,-30.500942],[152.408423,-30.489261],[152.403551,-30.48701],[152.394568,-30.479499],[152.392931,-30.4725],[152.395074,-30.468166],[152.389645,-30.453052],[152.39205,-30.442917],[152.396846,-30.442124],[152.401805,-30.435009],[152.411021,-30.437011],[152.41753,-30.436503],[152.419692,-30.426637],[152.425068,-30.423699],[152.428078,-30.418897]]]},"bbox":[149.791608,-32.40827,152.631389,-28.249433]}]}