{"type":"FeatureCollection","features":[
{"properties":{"electorateShortName":"nicholls","electorateName":"Nicholls","area":14768.97,"state":"VIC"},"type":"Feature","geometry":{"type":"Polygon","coordinates":[[[145.195382,-37.29412],[145.19555,-37.278296],[145.186919,-37.278246],[145.187019,-37.271736],[145.180581,-37.271771],[145.180641,-37.264416],[145.171825,-37.266303],[145.17193,-37.278503],[145.168139,-37.281286],[145.163003,-37.277628],[145.165535,-37.26927],[145.173129,-37.261161],[145.165887,-37.251673],[145.171611,-37.247023],[145.167774,-37.240246],[145.177204,-37.235936],[145.169527,-37.226634],[145.166323,-37.219877],[145.174527,-37.213984],[145.174878,-37.204911],[145.191135,-37.203811],[145.196369,-37.199889],[145.202165,-37.199842],[145.202019,-37.18717],[145.207534,-37.191117],[145.219437,-37.191084],[145.229488,-37.180062],[145.241132,-37.17698],[145.241086,-37.168623],[145.231721,-37.167534],[145.232144,-37.152847],[145.230033,-37.141502],[145.231285,-37.137867],[145.243207,-37.144561],[145.252874,-37.140805],[145.256491,-37.135241],[145.268809,-37.136692],[145.273703,-37.142009],[145.284609,-37.138725],[145.284605,-37.129078],[145.288239,-37.122217],[145.290829,-37.110828],[145.288296,-37.099599],[145.303141,-37.099621],[145.304345,-37.103721],[145.321037,-37.103798],[145.331517,-37.099683],[145.341566,-37.101358],[145.352816,-37.101393],[145.355871,-37.097652],[145.366206,-37.097634],[145.372209,-37.093919],[145.372294,-37.084982],[145.374743,-37.076176],[145.392731,-37.076286],[145.392793,-37.043635],[145.408635,-37.035908],[145.411083,-37.030559],[145.425609,-37.024884],[145.429474,-37.021674],[145.425709,-36.999019],[145.413063,-36.992423],[145.424135,-36.97758],[145.425438,-36.965827],[145.437329,-36.952093],[145.441531,-36.943637],[145.452787,-36.931588],[145.457564,-36.911587],[145.463844,-36.909814],[145.463838,-36.901673],[145.460415,-36.892431],[145.454997,-36.891262],[145.460195,-36.883309],[145.461238,-36.875528],[145.466143,-36.875562],[145.467926,-36.870229],[145.476596,-36.872038],[145.481825,-36.870357],[145.484504,-36.856982],[145.484315,-36.840287],[145.46983,-36.840079],[145.462634,-36.828708],[145.471322,-36.82001],[145.47524,-36.799744],[145.482138,-36.792175],[145.477539,-36.788714],[145.46176,-36.786377],[145.453097,-36.774061],[145.453244,-36.730375],[145.496032,-36.730223],[145.494134,-36.715583],[145.494195,-36.699973],[145.498187,-36.69997],[145.498172,-36.687049],[145.513473,-36.687044],[145.513609,-36.699695],[145.515939,-36.701648],[145.572181,-36.701565],[145.584771,-36.708923],[145.597024,-36.695214],[145.595854,-36.686388],[145.589376,-36.681939],[145.634655,-36.631734],[145.634706,-36.622292],[145.644547,-36.623091],[145.644505,-36.590785],[145.626266,-36.590056],[145.62377,-36.578147],[145.614728,-36.563293],[145.631723,-36.563298],[145.63156,-36.499046],[145.73187,-36.499036],[145.731308,-36.48525],[145.731316,-36.442633],[145.724403,-36.434473],[145.724427,-36.424608],[145.73517,-36.426133],[145.739833,-36.432417],[145.765319,-36.437311],[145.766126,-36.441729],[145.775229,-36.443786],[145.798504,-36.330831],[145.798509,-36.29897],[145.931093,-36.299047],[145.990707,-36.299216],[146.030938,-36.299009],[146.031198,-36.265443],[146.036903,-36.255063],[146.131425,-36.255122],[146.131052,-36.186791],[146.220983,-36.186711],[146.220923,-36.182968],[146.234055,-36.182997],[146.24529,-36.178805],[146.242205,-36.168404],[146.236246,-36.164891],[146.235481,-36.157126],[146.239219,-36.152329],[146.238734,-36.135767],[146.235792,-36.128502],[146.229093,-36.13159],[146.218686,-36.127606],[146.208502,-36.125907],[146.205967,-36.123055],[146.206763,-36.115944],[146.215844,-36.114518],[146.211143,-36.105847],[146.21215,-36.09371],[146.215234,-36.089042],[146.198396,-36.086429],[146.202245,-36.072878],[146.196351,-36.061181],[146.198098,-36.044443],[146.192147,-36.047543],[146.185517,-36.04559],[146.178476,-36.050795],[146.175238,-36.041756],[146.177951,-36.033848],[146.178454,-36.028844],[146.17416,-36.020339],[146.163159,-36.024548],[146.158062,-36.021996],[146.152858,-36.024578],[146.141778,-36.017379],[146.133666,-36.020629],[146.131658,-36.011874],[146.126284,-36.010152],[146.119575,-36.016948],[146.110467,-36.015653],[146.108589,-36.007092],[146.096499,-36.016365],[146.088934,-36.019177],[146.075314,-36.017425],[146.072251,-36.014668],[146.060989,-36.014779],[146.058264,-36.011437],[146.056473,-35.999053],[146.048697,-36.002754],[146.043409,-35.999803],[146.036823,-35.999752],[146.032803,-35.994774],[146.023194,-35.998354],[146.014938,-36.005638],[146.005586,-36.002956],[146.001578,-36.008323],[145.989126,-36.013079],[145.975247,-36.009205],[145.967772,-36.005838],[145.963347,-36.009],[145.958409,-36.003981],[145.965009,-35.997503],[145.952764,-35.991863],[145.952171,-35.983599],[145.946147,-35.978718],[145.951491,-35.976571],[145.945218,-35.969794],[145.943577,-35.962816],[145.934624,-35.972692],[145.925343,-35.972424],[145.928216,-35.967636],[145.924338,-35.964288],[145.914889,-35.964542],[145.915086,-35.968],[145.900756,-35.961529],[145.908792,-35.958404],[145.908007,-35.953565],[145.894427,-35.953249],[145.891406,-35.956479],[145.885268,-35.955358],[145.879855,-35.957725],[145.870564,-35.955475],[145.860028,-35.96069],[145.848997,-35.969258],[145.859313,-35.971565],[145.844261,-35.983005],[145.836835,-35.983011],[145.835552,-35.976742],[145.827294,-35.975554],[145.824936,-35.984672],[145.81891,-35.982489],[145.816673,-35.988409],[145.812159,-35.991838],[145.806732,-35.988554],[145.808444,-35.984416],[145.793445,-35.982817],[145.792543,-35.977135],[145.784551,-35.971989],[145.776883,-35.972441],[145.78139,-35.96379],[145.778211,-35.960243],[145.763966,-35.965349],[145.762958,-35.961448],[145.756865,-35.958347],[145.746964,-35.964157],[145.743807,-35.959058],[145.733785,-35.96035],[145.736799,-35.954819],[145.733499,-35.951097],[145.726182,-35.953832],[145.716211,-35.950137],[145.718787,-35.944233],[145.726354,-35.942402],[145.721456,-35.935382],[145.713028,-35.936986],[145.706457,-35.932092],[145.700168,-35.937028],[145.69617,-35.934082],[145.697709,-35.92474],[145.695629,-35.920472],[145.688437,-35.923107],[145.685362,-35.930691],[145.668354,-35.918415],[145.667159,-35.912325],[145.661528,-35.912416],[145.658834,-35.902649],[145.650365,-35.898903],[145.647712,-35.893338],[145.641602,-35.894901],[145.636779,-35.88931],[145.632214,-35.888654],[145.628254,-35.876105],[145.619259,-35.869105],[145.627327,-35.868241],[145.624984,-35.862165],[145.614021,-35.865881],[145.608492,-35.870432],[145.603134,-35.867783],[145.601134,-35.875008],[145.595681,-35.870265],[145.598046,-35.862972],[145.588695,-35.862565],[145.591998,-35.856167],[145.592459,-35.84886],[145.582401,-35.848499],[145.574532,-35.837714],[145.563703,-35.831634],[145.567528,-35.827668],[145.559486,-35.823614],[145.557993,-35.81742],[145.548315,-35.812769],[145.542635,-35.821364],[145.536897,-35.816138],[145.541896,-35.809094],[145.53239,-35.804859],[145.526667,-35.808511],[145.521322,-35.818651],[145.512749,-35.815381],[145.512348,-35.812563],[145.503544,-35.809894],[145.49456,-35.810199],[145.494301,-35.813982],[145.483759,-35.81379],[145.477656,-35.810841],[145.471521,-35.811322],[145.469149,-35.817293],[145.46021,-35.827213],[145.450332,-35.821679],[145.447562,-35.831261],[145.442293,-35.835642],[145.436677,-35.829864],[145.431947,-35.833395],[145.424978,-35.828741],[145.41278,-35.830545],[145.410912,-35.839245],[145.411,-35.848346],[145.40436,-35.850853],[145.38715,-35.850142],[145.374558,-35.859522],[145.36997,-35.858307],[145.360501,-35.86127],[145.358171,-35.86601],[145.352396,-35.865795],[145.3479,-35.860312],[145.341486,-35.862384],[145.332877,-35.854801],[145.324756,-35.850767],[145.318044,-35.855007],[145.312788,-35.855422],[145.309999,-35.859867],[145.301889,-35.858504],[145.296851,-35.860533],[145.291736,-35.853838],[145.284146,-35.856572],[145.278659,-35.853356],[145.276887,-35.848756],[145.271516,-35.845274],[145.265893,-35.852551],[145.257719,-35.848608],[145.264067,-35.842529],[145.246515,-35.830412],[145.240722,-35.833643],[145.234768,-35.829762],[145.229136,-35.833347],[145.224446,-35.832689],[145.215925,-35.841423],[145.213105,-35.835798],[145.20477,-35.837621],[145.199691,-35.835066],[145.18282,-35.835103],[145.179221,-35.841764],[145.171429,-35.838809],[145.168353,-35.842476],[145.157502,-35.838108],[145.159381,-35.8313],[145.1542,-35.830432],[145.148408,-35.833575],[145.134639,-35.832685],[145.134229,-35.827607],[145.124186,-35.829454],[145.120754,-35.820821],[145.113923,-35.820588],[145.103985,-35.828553],[145.092015,-35.826098],[145.072861,-35.827757],[145.069006,-35.835033],[145.061056,-35.837309],[145.054407,-35.835241],[145.047102,-35.837093],[145.030044,-35.84956],[145.024576,-35.84713],[145.020321,-35.856001],[145.013549,-35.857639],[144.998673,-35.855006],[144.979344,-35.858355],[144.971073,-35.860927],[144.968178,-35.865842],[144.971516,-35.872432],[144.97013,-35.879193],[144.975,-35.883433],[144.97315,-35.887771],[144.964745,-35.895903],[144.967015,-35.90034],[144.960997,-35.911862],[144.952877,-35.916534],[144.949012,-35.931998],[144.950085,-35.940166],[144.955293,-35.946612],[144.95399,-35.952494],[144.956823,-35.961757],[144.945389,-35.963164],[144.941531,-35.966787],[144.930904,-35.968554],[144.926256,-35.97377],[144.923615,-35.988951],[144.931384,-35.992225],[144.936221,-35.999542],[144.943095,-36.002247],[144.947064,-36.007038],[144.946338,-36.012795],[144.962051,-36.019148],[144.962244,-36.026714],[144.965802,-36.028631],[144.965531,-36.036983],[144.967808,-36.042078],[144.982057,-36.048278],[144.985932,-36.056509],[144.986877,-36.064296],[144.982405,-36.071558],[144.964728,-36.079335],[144.953843,-36.079429],[144.946483,-36.082332],[144.936547,-36.075869],[144.937711,-36.069985],[144.932614,-36.067049],[144.913623,-36.063051],[144.888575,-36.063568],[144.874824,-36.057628],[144.86346,-36.059112],[144.863836,-36.068204],[144.849528,-36.076223],[144.85061,-36.081335],[144.84204,-36.082884],[144.843692,-36.09273],[144.840293,-36.100466],[144.835527,-36.09846],[144.830312,-36.102701],[144.824151,-36.102562],[144.814714,-36.110818],[144.80746,-36.107242],[144.810115,-36.11763],[144.805787,-36.123842],[144.801143,-36.119854],[144.793746,-36.118185],[144.788038,-36.121262],[144.786867,-36.12768],[144.777974,-36.12992],[144.77345,-36.125438],[144.773574,-36.120814],[144.768505,-36.115816],[144.764132,-36.119611],[144.757281,-36.118689],[144.754491,-36.122242],[144.747587,-36.121229],[144.743365,-36.108846],[144.740347,-36.107572],[144.731302,-36.112341],[144.726379,-36.117781],[144.717616,-36.112711],[144.719131,-36.10068],[144.725231,-36.099048],[144.715127,-36.08629],[144.711636,-36.091424],[144.70614,-36.092915],[144.701103,-36.088167],[144.698026,-36.093525],[144.69256,-36.091303],[144.684781,-36.091486],[144.682496,-36.084961],[144.68648,-36.075195],[144.692392,-36.069351],[144.687899,-36.0662],[144.689593,-36.062177],[144.678953,-36.062358],[144.678538,-36.069273],[144.665701,-36.071628],[144.664688,-36.076593],[144.652922,-36.073876],[144.654147,-36.067023],[144.652269,-36.062605],[144.653191,-36.05324],[144.646154,-36.051759],[144.641401,-36.055542],[144.637464,-36.04764],[144.624999,-36.052081],[144.627408,-36.058348],[144.627637,-36.066618],[144.620976,-36.071019],[144.616753,-36.07666],[144.610909,-36.070198],[144.608914,-36.064948],[144.611454,-36.055463],[144.616988,-36.048308],[144.613187,-36.042951],[144.618703,-36.039634],[144.610759,-36.032977],[144.606073,-36.036373],[144.603901,-36.042495],[144.597919,-36.03776],[144.592267,-36.043325],[144.589026,-36.038609],[144.583275,-36.039025],[144.581276,-36.030016],[144.586445,-36.027182],[144.578053,-36.021127],[144.55677,-36.013647],[144.553573,-36.002946],[144.547082,-36.000488],[144.536604,-36.000012],[144.529205,-35.994133],[144.51644,-35.995631],[144.512082,-35.988713],[144.516782,-35.98597],[144.516916,-35.977925],[144.506439,-35.97125],[144.493354,-35.968218],[144.481336,-35.957025],[144.481258,-35.952831],[144.475602,-35.947691],[144.466551,-35.944401],[144.464427,-35.941173],[144.466206,-35.933342],[144.453617,-35.937106],[144.439135,-35.931164],[144.439345,-35.924652],[144.427327,-35.919365],[144.422755,-35.910696],[144.415773,-35.909058],[144.415778,-35.90448],[144.408187,-35.904217],[144.408376,-35.898742],[144.400481,-35.893066],[144.394651,-35.891635],[144.381896,-35.88437],[144.365358,-35.885459],[144.343562,-35.894326],[144.342414,-35.90739],[144.348305,-35.910054],[144.353907,-35.908449],[144.35341,-35.919533],[144.346036,-35.928128],[144.338636,-35.925218],[144.330883,-35.927562],[144.335568,-35.934197],[144.306199,-35.934155],[144.301512,-35.928745],[144.288564,-35.923655],[144.266472,-35.929307],[144.260296,-35.941869],[144.26005,-35.949007],[144.267734,-35.960066],[144.280057,-35.969997],[144.291402,-35.984427],[144.288815,-35.988075],[144.281692,-35.988953],[144.278302,-35.992737],[144.27629,-36.003865],[144.279161,-36.00598],[144.280171,-36.013572],[144.284263,-36.017251],[144.292486,-36.020233],[144.293454,-36.024545],[144.309157,-36.03692],[144.31074,-36.043594],[144.316478,-36.044204],[144.313833,-36.050545],[144.307179,-36.055697],[144.303933,-36.061304],[144.307755,-36.064854],[144.306446,-36.07199],[144.312789,-36.07497],[144.313723,-36.085653],[144.317969,-36.091068],[144.318668,-36.101199],[144.314821,-36.100275],[144.309053,-36.10537],[144.308727,-36.113039],[144.302259,-36.125433],[144.295842,-36.122844],[144.291465,-36.125661],[144.28557,-36.145005],[144.285065,-36.158454],[144.288785,-36.167145],[144.281,-36.174224],[144.280668,-36.184823],[144.276744,-36.188162],[144.27885,-36.194371],[144.272231,-36.202088],[144.270667,-36.219844],[144.26686,-36.225875],[144.272983,-36.229403],[144.273511,-36.235441],[144.270948,-36.24389],[144.275274,-36.253716],[144.281637,-36.262621],[144.281729,-36.327723],[144.331834,-36.327718],[144.331888,-36.370855],[144.330096,-36.385254],[144.344316,-36.385219],[144.358321,-36.385183],[144.358997,-36.394424],[144.368371,-36.395673],[144.369399,-36.407849],[144.399754,-36.407523],[144.415702,-36.396324],[144.429245,-36.410901],[144.430099,-36.406686],[144.505004,-36.406867],[144.668178,-36.406593],[144.669052,-36.412704],[144.674261,-36.4255],[144.669259,-36.424317],[144.66145,-36.43274],[144.659184,-36.439144],[144.671931,-36.443104],[144.670074,-36.448936],[144.671547,-36.457118],[144.661307,-36.45919],[144.659235,-36.463762],[144.653515,-36.465458],[144.653526,-36.47121],[144.643089,-36.472459],[144.633859,-36.480634],[144.623823,-36.478574],[144.621537,-36.482321],[144.623922,-36.489731],[144.611792,-36.49749],[144.613027,-36.502672],[144.621608,-36.501844],[144.61953,-36.509057],[144.611411,-36.512855],[144.612913,-36.520727],[144.617862,-36.51983],[144.626439,-36.52491],[144.608767,-36.528789],[144.610066,-36.532648],[144.61631,-36.534518],[144.615127,-36.542677],[144.608044,-36.545225],[144.605353,-36.554595],[144.587219,-36.557899],[144.586842,-36.562048],[144.594014,-36.566828],[144.598159,-36.575156],[144.588799,-36.58401],[144.583412,-36.585238],[144.58989,-36.59418],[144.586818,-36.597962],[144.581281,-36.596831],[144.578967,-36.602489],[144.57109,-36.607929],[144.570091,-36.611967],[144.563269,-36.612817],[144.560386,-36.61692],[144.563645,-36.621058],[144.556664,-36.627784],[144.548672,-36.632869],[144.543758,-36.641761],[144.545924,-36.646431],[144.539702,-36.649121],[144.537795,-36.655182],[144.525123,-36.662608],[144.531031,-36.672308],[144.529942,-36.680088],[144.531425,-36.690656],[144.526191,-36.689271],[144.522547,-36.693033],[144.526528,-36.702414],[144.519957,-36.711034],[144.519165,-36.72529],[144.666165,-36.725853],[144.666159,-36.762612],[144.679141,-36.761229],[144.72295,-36.760988],[144.740896,-36.755786],[144.750316,-36.757557],[144.757416,-36.750121],[144.766927,-36.747257],[144.775124,-36.750609],[144.794685,-36.750723],[144.794741,-36.770671],[144.784806,-36.770658],[144.784767,-36.780526],[144.791703,-36.780037],[144.792005,-36.799704],[144.787314,-36.80533],[144.798547,-36.832621],[144.803618,-36.839857],[144.81108,-36.839844],[144.812177,-36.843414],[144.821439,-36.85549],[144.831189,-36.85547],[144.830215,-36.859699],[144.840617,-36.867501],[144.844182,-36.872213],[144.852979,-36.875031],[144.847871,-36.885142],[144.837236,-36.892729],[144.822386,-36.899709],[144.816576,-36.911633],[144.804267,-36.925888],[144.800207,-36.939435],[144.806316,-36.955643],[144.799017,-36.955789],[144.791267,-36.95203],[144.796573,-36.965539],[144.770973,-36.971261],[144.757877,-36.977602],[144.75089,-36.977909],[144.74307,-36.983881],[144.743035,-36.99772],[144.714611,-36.997883],[144.714624,-37.003326],[144.725916,-37.018769],[144.727101,-37.029653],[144.723715,-37.040781],[144.72297,-37.049033],[144.727657,-37.060316],[144.728304,-37.065894],[144.725294,-37.082571],[144.717095,-37.089982],[144.71371,-37.104874],[144.717061,-37.111068],[144.716263,-37.117971],[144.728005,-37.125614],[144.735218,-37.126514],[144.731133,-37.144451],[144.725709,-37.143886],[144.725513,-37.157879],[144.719255,-37.160505],[144.710247,-37.159705],[144.711807,-37.176441],[144.716091,-37.183585],[144.716098,-37.208796],[144.703932,-37.212984],[144.729458,-37.218127],[144.731378,-37.220546],[144.769623,-37.220669],[144.76957,-37.215122],[144.785721,-37.21308],[144.802629,-37.214751],[144.812352,-37.213926],[144.812948,-37.209145],[144.852212,-37.208949],[144.850129,-37.220251],[144.862076,-37.221399],[144.861056,-37.227057],[144.874257,-37.228397],[144.880954,-37.222362],[144.886867,-37.221072],[144.925424,-37.225426],[144.921301,-37.215605],[144.932312,-37.215416],[144.930818,-37.209661],[144.944801,-37.209692],[144.945502,-37.214308],[144.962655,-37.214355],[144.960791,-37.209675],[144.963638,-37.200891],[144.989886,-37.201097],[144.976699,-37.23414],[144.987744,-37.24255],[145.0016,-37.232783],[145.014252,-37.227777],[145.025451,-37.236154],[145.030554,-37.24512],[145.038625,-37.252124],[145.039302,-37.255946],[145.031007,-37.265853],[145.050639,-37.265942],[145.050918,-37.282646],[145.055219,-37.28652],[145.056073,-37.263703],[145.117602,-37.263218],[145.116645,-37.266895],[145.125056,-37.269033],[145.124901,-37.27639],[145.120911,-37.27641],[145.125267,-37.293897],[145.195382,-37.29412]]]},"bbox":[144.26005,-37.29412,146.24529,-35.804859]}]}