{"type":"FeatureCollection","features":[
{"properties":{"electorateShortName":"nicholls","electorateName":"Nicholls","area":14768.97,"state":"VIC"},"type":"Feature","geometry":{"type":"Polygon","coordinates":[[[145.195382,-37.29412],[145.163003,-37.277628],[145.174878,-37.204911],[145.229488,-37.180062],[145.231285,-37.137867],[145.284609,-37.138725],[145.288296,-37.099599],[145.372209,-37.093919],[145.413063,-36.992423],[145.463844,-36.909814],[145.477539,-36.788714],[145.453244,-36.730375],[145.494195,-36.699973],[145.572181,-36.701565],[145.644547,-36.623091],[145.63156,-36.499046],[145.73187,-36.499036],[145.731316,-36.442633],[145.775229,-36.443786],[145.798509,-36.29897],[146.030938,-36.299009],[146.036903,-36.255063],[146.131425,-36.255122],[146.131052,-36.186791],[146.220983,-36.186711],[146.238734,-36.135767],[146.177951,-36.033848],[146.032803,-35.994774],[145.989126,-36.013079],[145.908007,-35.953565],[145.844261,-35.983005],[145.793445,-35.982817],[145.685362,-35.930691],[145.588695,-35.862565],[145.53239,-35.804859],[145.41278,-35.830545],[145.352396,-35.865795],[145.284146,-35.856572],[145.246515,-35.830412],[145.168353,-35.842476],[145.072861,-35.827757],[144.971073,-35.860927],[144.923615,-35.988951],[144.986877,-36.064296],[144.874824,-36.057628],[144.805787,-36.123842],[144.717616,-36.112711],[144.692392,-36.069351],[144.583275,-36.039025],[144.51644,-35.995631],[144.408376,-35.898742],[144.343562,-35.894326],[144.335568,-35.934197],[144.266472,-35.929307],[144.309157,-36.03692],[144.317969,-36.091068],[144.272231,-36.202088],[144.281729,-36.327723],[144.331834,-36.327718],[144.344316,-36.385219],[144.369399,-36.407849],[144.668178,-36.406593],[144.671931,-36.443104],[144.611792,-36.49749],[144.626439,-36.52491],[144.58989,-36.59418],[144.537795,-36.655182],[144.519165,-36.72529],[144.666165,-36.725853],[144.666159,-36.762612],[144.794685,-36.750723],[144.798547,-36.832621],[144.844182,-36.872213],[144.796573,-36.965539],[144.714611,-36.997883],[144.728304,-37.065894],[144.703932,-37.212984],[144.769623,-37.220669],[144.852212,-37.208949],[144.925424,-37.225426],[145.014252,-37.227777],[145.056073,-37.263703],[145.117602,-37.263218],[145.125267,-37.293897],[145.195382,-37.29412]]]},"bbox":[144.266472,-37.29412,146.238734,-35.804859]}]}