{"type":"FeatureCollection","features":[
{"properties":{"electorateShortName":"north-sydney","electorateName":"North Sydney","area":52.820342,"state":"NSW"},"type":"Feature","geometry":{"type":"MultiPolygon","coordinates":[[[[151.22665,-33.854461],[151.22028,-33.84388],[151.213501,-33.837705],[151.218518,-33.830068],[151.223163,-33.831551],[151.230912,-33.827778],[151.234028,-33.814165],[151.233208,-33.811542],[151.235228,-33.806873],[151.233018,-33.804093],[151.234281,-33.798376],[151.232938,-33.792589],[151.224925,-33.794695],[151.219566,-33.791325],[151.203381,-33.786613],[151.202999,-33.790238],[151.178237,-33.797722],[151.17511,-33.795733],[151.168269,-33.796875],[151.164582,-33.794275],[151.157106,-33.792709],[151.158202,-33.800259],[151.152604,-33.799016],[151.145154,-33.799862],[151.14398,-33.80431],[151.141076,-33.806574],[151.140788,-33.814081],[151.143037,-33.817115],[151.137719,-33.818003],[151.130158,-33.828068],[151.126708,-33.830181],[151.128351,-33.836121],[151.128305,-33.842931],[151.135387,-33.846828],[151.142981,-33.842946],[151.15172,-33.840804],[151.156257,-33.842113],[151.159279,-33.845383],[151.16194,-33.846754],[151.173688,-33.844691],[151.182761,-33.844215],[151.187207,-33.844913],[151.191549,-33.84953],[151.195942,-33.849776],[151.22665,-33.854461]]],[[[151.25946,-33.937314],[151.2677854930286,-33.9345101799664],[151.28320215754974,-33.924474237865915],[151.29625624273294,-33.91151335291033],[151.30640238809562,-33.89616899195653],[151.31321671814956,-33.87908219633191],[151.31641455064593,-33.86096680105257],[151.3162387711916,-33.85511433189016],[151.3192487841443,-33.845000443701274],[151.3195061532116,-33.84368011443565],[151.31979665374266,-33.84218202554323],[151.31992093797098,-33.84174648258379],[151.32076309504762,-33.837993327382044],[151.32180690677154,-33.83234988163393],[151.32339825241385,-33.826057391524294],[151.3247472943902,-33.81616256037096],[151.32497893287396,-33.80018195761082],[151.32336913519725,-33.79041310991469],[151.32195111838237,-33.77803023034573],[151.32060811838235,-33.77224323034573],[151.31447053116239,-33.75447802569795],[151.307883,-33.744221],[151.30129,-33.748421],[151.297485,-33.753217],[151.299717,-33.756601],[151.301848,-33.760243],[151.302525,-33.768177],[151.298518,-33.767561],[151.29314,-33.773274],[151.295954,-33.781772],[151.289885,-33.782404],[151.291345,-33.785715],[151.288595,-33.787268],[151.288071,-33.79454],[151.290332,-33.799121],[151.29413,-33.800895],[151.297149,-33.799331],[151.30214,-33.802652],[151.303564,-33.806415],[151.307595,-33.807763],[151.301061,-33.818464],[151.301529,-33.823317],[151.290672,-33.828322],[151.280955,-33.832769],[151.287848,-33.850202],[151.286273,-33.852492],[151.286331,-33.857691],[151.282829,-33.862556],[151.28462,-33.873529],[151.282691,-33.877446],[151.285816,-33.885969],[151.285699,-33.891955],[151.282233,-33.890967],[151.274326,-33.893627],[151.27637,-33.898681],[151.270437,-33.90047],[151.268401,-33.90374],[151.271398,-33.914235],[151.266539,-33.913935],[151.261402,-33.914886],[151.262888,-33.917735],[151.257682,-33.922042],[151.261377,-33.927516],[151.259779,-33.929651],[151.261772,-33.935191],[151.25946,-33.937314]]]]},"bbox":[151.126708,-33.937314,151.32497893287396,-33.744221]}]}