{"type":"FeatureCollection","features":[
{"properties":{"electorateShortName":"oconnor","electorateName":"O'Connor","area":868575.998191,"state":"WA"},"type":"Feature","geometry":{"type":"MultiPolygon","coordinates":[[[[129.00134,-31.687068],[129.001421,-31.433755],[129.001443,-31.222185],[129.001401,-30.998639],[129.001395,-30.763205],[129.001395,-30.305446],[129.001449,-30.161709],[129.001534,-29.972224],[129.001551,-29.805563],[129.001562,-29.555571],[129.001572,-29.388911],[129.001601,-29.13892],[129.001576,-28.972059],[129.001636,-28.722268],[129.001653,-28.472276],[129.00166,-28.305614],[129.001362,-28.115912],[129.001694,-27.972292],[129.001352,-27.888961],[129.001342,-27.305647],[129.001337,-26.888993],[129.001849,-26.803376],[129.001796,-26.639002],[129.001806,-26.472341],[129.001835,-26.222351],[129.001838,-25.998606],[129.000587,-25.998614],[129.000568,-25.831834],[129.000628,-25.581988],[129.000658,-25.33197],[129.000682,-25.081967],[129.001321,-24.998584],[129.000698,-24.831973],[129.000725,-24.581982],[129.000753,-24.331991],[129.000781,-24.082001],[129.001311,-23.99858],[129.00081,-23.83202],[129.00083,-23.665361],[129.000847,-23.498698],[129.001306,-23.431919],[128.501311,-23.431926],[127.815929,-23.431933],[126.001328,-23.431949],[125.501332,-23.431951],[125.001336,-23.431955],[124.677792,-23.440411],[124.668017,-23.440313],[124.668017,-24.415287],[124.668028,-25.415291],[124.668028,-26.745017],[124.362102,-26.746397],[124.196598,-26.746868],[123.985956,-26.747188],[123.705098,-26.747129],[123.56467,-26.74689],[123.338983,-26.746216],[123.173482,-26.745493],[123.046744,-26.745494],[123.046743,-26.681944],[122.963877,-26.681945],[122.963876,-26.654711],[122.689161,-26.654685],[122.689162,-26.712814],[122.460972,-26.712817],[122.460972,-26.828381],[122.065552,-26.82839],[122.065544,-26.806784],[121.779052,-26.806784],[121.779053,-26.846101],[121.779059,-27.290256],[121.648969,-27.290257],[121.00329,-27.292235],[120.857379,-27.292279],[120.535772,-27.292062],[120.058394,-27.290273],[120.058396,-27.502273],[120.074692,-27.502273],[120.074693,-27.612623],[120.157504,-27.612622],[120.156732,-27.743293],[120.151517,-28.047632],[120.196625,-28.047203],[120.203322,-28.292613],[120.046926,-28.294223],[120.051053,-28.461312],[120.045187,-28.464007],[119.848394,-28.464109],[119.801951,-28.465564],[119.801959,-28.847806],[119.77576,-28.847827],[119.77578,-28.916006],[119.663042,-29.112987],[119.344406,-29.110937],[119.200641,-29.290941],[119.058162,-29.29228],[118.720338,-29.292284],[118.720334,-29.117428],[118.436067,-29.117953],[118.436142,-29.280436],[118.480373,-29.498728],[118.503738,-29.612323],[119.080863,-29.826107],[119.080864,-29.820422],[119.228653,-29.87468],[119.419864,-29.944735],[119.419865,-29.95005],[119.55372,-29.998721],[119.864589,-30.113254],[119.98822,-30.158505],[120.013889,-30.161129],[120.012986,-30.400468],[120.01221,-30.607752],[120.011702,-30.742933],[120.010876,-30.965155],[120.00975,-31.268923],[120.009595,-31.482913],[120.009691,-31.866688],[120.009697,-32.038057],[120.009697,-32.203594],[119.732179,-32.203362],[119.577274,-32.203481],[119.251508,-32.203348],[119.178678,-32.203379],[119.161469,-32.2147],[118.913888,-32.213485],[118.91378,-32.237658],[118.897866,-32.237586],[118.816798,-32.246663],[118.751523,-32.246845],[118.679719,-32.248385],[118.615376,-32.248058],[118.615441,-32.262154],[118.62382,-32.262344],[118.623718,-32.285361],[118.350715,-32.285811],[118.321549,-32.286384],[118.321586,-32.271892],[118.270462,-32.271965],[118.249179,-32.277753],[118.194753,-32.279562],[118.194632,-32.249542],[118.208409,-32.249516],[118.208278,-32.230799],[118.140392,-32.231644],[118.108219,-32.228277],[118.077979,-32.228194],[118.084844,-32.201453],[118.082255,-32.191105],[118.017022,-32.19203],[118.016883,-32.173605],[117.991826,-32.173696],[117.980972,-32.16523],[117.953841,-32.162779],[117.928125,-32.162797],[117.923399,-32.157386],[117.891271,-32.154318],[117.857294,-32.155032],[117.83483,-32.149623],[117.805788,-32.149661],[117.80584,-32.169662],[117.793663,-32.169645],[117.79366,-32.159971],[117.747227,-32.160282],[117.714569,-32.1621],[117.633067,-32.162156],[117.622177,-32.188465],[117.580129,-32.188868],[117.580289,-32.195813],[117.556649,-32.19591],[117.543513,-32.203096],[117.487095,-32.201973],[117.481459,-32.19723],[117.463159,-32.202777],[117.42839,-32.201239],[117.428386,-32.225974],[117.411649,-32.221209],[117.374743,-32.221888],[117.365359,-32.22535],[117.345571,-32.225375],[117.334757,-32.220323],[117.316292,-32.220682],[117.316588,-32.229745],[117.275358,-32.23033],[117.239616,-32.228309],[117.233848,-32.240197],[117.201622,-32.240047],[117.192017,-32.245475],[117.191011,-32.25764],[117.139457,-32.258447],[117.111117,-32.261941],[117.099846,-32.267565],[117.095448,-32.25983],[117.068947,-32.270009],[117.06305,-32.259735],[117.044057,-32.267522],[117.040474,-32.261495],[117.014228,-32.272758],[117.00859,-32.263264],[116.989488,-32.258234],[116.833937,-32.258218],[116.83384,-32.272927],[116.824194,-32.276818],[116.818774,-32.293729],[116.798114,-32.301261],[116.79674,-32.309438],[116.778349,-32.318363],[116.78391,-32.333319],[116.759797,-32.333333],[116.724612,-32.348373],[116.690232,-32.348615],[116.666036,-32.356596],[116.625122,-32.353153],[116.6151,-32.357565],[116.383807,-32.357441],[116.383953,-32.23644],[116.35808,-32.23635],[116.224901,-32.235885],[116.189706,-32.287429],[116.1959,-32.294873],[116.225239,-32.342503],[116.231005,-32.356134],[116.259679,-32.389635],[116.259682,-32.498103],[116.359596,-32.498093],[116.379216,-32.518122],[116.389794,-32.523553],[116.440194,-32.574181],[116.47662,-32.62818],[116.497975,-32.65302],[116.506704,-32.659078],[116.521001,-32.682196],[116.521273,-32.688977],[116.539554,-32.703854],[116.548264,-32.716089],[116.567096,-32.731544],[116.574224,-32.747985],[116.590653,-32.77175],[116.604889,-32.769448],[116.625602,-32.771382],[116.645358,-32.781997],[116.654314,-32.781779],[116.654208,-32.799872],[116.659442,-32.815896],[116.658552,-32.846938],[116.650121,-32.846937],[116.650012,-32.907795],[116.617499,-32.907765],[116.617707,-32.981815],[116.603431,-32.981808],[116.603491,-33.008548],[116.578354,-33.008567],[116.57878,-33.021857],[116.567321,-33.037929],[116.568113,-33.061172],[116.54057,-33.058007],[116.539917,-33.078094],[116.523187,-33.07721],[116.512131,-33.072526],[116.512128,-33.062031],[116.469049,-33.062039],[116.469052,-33.085828],[116.409452,-33.085823],[116.409406,-32.994578],[116.3543,-32.99459],[116.3543,-33.011797],[116.284459,-33.011794],[116.284449,-33.030262],[116.208891,-33.030373],[116.209065,-33.085053],[116.146899,-33.084885],[116.14673,-33.22421],[116.145003,-33.23187],[116.008534,-33.231938],[116.0312,-33.21296],[116.030244,-33.191046],[116.01023,-33.19134],[116.013467,-33.203762],[115.990137,-33.212604],[115.973637,-33.214018],[115.960875,-33.222474],[115.945799,-33.222402],[115.946984,-33.289856],[115.918585,-33.290001],[115.919199,-33.378625],[115.936992,-33.378078],[115.938541,-33.388184],[115.962219,-33.395551],[115.967919,-33.401831],[116.00576,-33.407106],[116.01705,-33.385356],[116.008142,-33.379813],[116.00192,-33.367287],[116.021678,-33.349233],[116.051351,-33.35411],[116.057862,-33.360737],[116.023288,-33.360891],[116.02365,-33.440481],[116.064179,-33.440355],[116.06419,-33.484954],[116.132815,-33.486809],[116.132841,-33.513338],[116.196836,-33.513495],[116.196959,-33.592518],[116.20644,-33.596373],[116.203767,-33.627897],[116.195226,-33.634724],[116.206029,-33.64628],[116.201104,-33.66985],[116.215449,-33.669785],[116.215802,-33.701428],[116.239769,-33.706536],[116.228256,-33.7213],[116.228172,-33.735012],[116.218444,-33.735072],[116.217957,-33.771099],[116.196134,-33.771123],[116.196244,-33.780762],[116.100255,-33.780593],[116.099942,-33.790287],[116.082889,-33.801176],[116.000066,-33.801311],[116.002361,-33.810196],[116.001915,-33.895048],[115.998259,-33.902746],[115.977317,-33.902756],[115.970375,-33.906736],[115.982654,-33.934178],[115.977908,-33.943831],[115.977911,-33.957611],[115.96343,-33.963991],[115.945825,-33.963984],[115.94579,-33.997633],[115.979705,-33.997664],[115.979766,-34.085652],[116.011008,-34.085878],[116.009664,-34.126597],[116.003346,-34.134023],[115.989832,-34.138025],[115.970733,-34.129028],[115.944332,-34.135065],[115.94434,-34.161975],[115.916638,-34.161638],[115.908996,-34.166358],[115.905907,-34.190161],[115.878101,-34.213177],[115.875992,-34.297061],[115.867095,-34.304529],[115.845214,-34.299607],[115.835332,-34.309432],[115.82804,-34.328557],[115.810538,-34.333626],[115.793891,-34.333806],[115.792726,-34.352766],[115.781048,-34.353419],[115.789617,-34.374896],[115.798908,-34.380089],[115.806183,-34.395946],[115.822517,-34.406498],[115.812508,-34.414233],[115.794817,-34.437662],[115.765957,-34.458837],[115.725032,-34.462281],[115.700229,-34.476076],[115.6745,-34.485409],[115.701197,-34.508108],[115.74301,-34.538714],[115.818598,-34.602152],[115.949951,-34.723632],[115.962426,-34.743911],[115.961779,-34.7622],[115.986394,-34.787038],[116.002664,-34.812392],[116.002927,-34.825518],[115.996733,-34.830896],[116.002145,-34.842218],[116.022942,-34.840307],[116.067279,-34.841986],[116.096924,-34.848358],[116.108084,-34.845411],[116.137045,-34.844744],[116.166381,-34.851425],[116.195846,-34.863067],[116.227605,-34.868821],[116.250729,-34.876055],[116.282109,-34.890064],[116.309654,-34.907645],[116.331509,-34.915166],[116.346762,-34.926704],[116.354297,-34.926471],[116.376032,-34.937842],[116.378913,-34.944851],[116.393211,-34.950033],[116.444664,-34.979184],[116.478566,-35.003983],[116.489313,-35.016974],[116.501529,-35.008666],[116.518175,-35.003889],[116.532847,-35.004438],[116.566468,-35.018386],[116.582087,-35.030613],[116.610312,-35.033281],[116.629858,-35.046301],[116.635471,-35.054377],[116.645856,-35.04949],[116.658079,-35.051438],[116.679063,-35.04194],[116.688223,-35.03421],[116.707198,-35.028956],[116.719754,-35.039069],[116.732802,-35.040073],[116.741921,-35.022506],[116.768273,-35.014721],[116.791501,-35.01849],[116.810454,-35.025767],[116.834964,-35.039269],[116.844353,-35.04029],[116.861703,-35.053599],[116.884551,-35.047809],[116.890627,-35.054934],[116.903756,-35.054758],[116.921228,-35.064349],[116.934394,-35.034983],[116.956844,-35.019364],[116.985066,-35.021935],[117.011941,-35.03012],[117.033503,-35.025066],[117.055732,-35.030424],[117.070851,-35.038305],[117.08207,-35.030083],[117.097947,-35.032434],[117.14111,-35.052212],[117.153613,-35.047796],[117.162272,-35.029515],[117.186737,-35.01811],[117.221745,-35.019324],[117.247599,-35.029324],[117.272123,-35.021075],[117.315425,-35.037173],[117.324559,-35.043892],[117.336843,-35.035402],[117.333339,-35.024175],[117.361836,-35.019492],[117.393613,-35.032946],[117.407149,-35.036653],[117.479131,-35.073569],[117.483695,-35.086553],[117.511966,-35.083299],[117.524391,-35.074129],[117.562229,-35.088126],[117.595832,-35.10774],[117.606594,-35.116203],[117.615272,-35.129935],[117.637605,-35.134483],[117.641724,-35.125584],[117.628417,-35.112842],[117.637821,-35.099033],[117.637161,-35.088609],[117.65139,-35.083771],[117.644602,-35.062122],[117.675724,-35.04433],[117.691108,-35.044851],[117.699847,-35.051865],[117.70938,-35.044846],[117.726783,-35.046612],[117.762152,-35.054515],[117.78304,-35.061948],[117.838897,-35.08732],[117.860818,-35.102341],[117.865886,-35.109255],[117.885538,-35.110087],[117.889839,-35.117638],[117.904428,-35.11468],[117.937906,-35.117861],[117.953614,-35.126881],[117.969247,-35.114578],[117.968955,-35.101225],[117.976193,-35.098641],[118.005966,-35.098825],[118.00226,-35.087523],[117.979115,-35.096385],[117.957869,-35.095371],[117.939336,-35.088584],[117.93513,-35.077715],[117.932608,-35.055573],[117.91882,-35.050904],[117.920298,-35.031644],[117.9164,-35.021585],[117.929151,-35.006273],[117.947264,-34.999062],[117.950897,-35.005981],[117.969822,-35.015449],[117.998839,-35.010009],[118.002512,-35.018249],[118.023186,-35.015698],[118.04428,-35.016737],[118.061668,-34.999528],[118.080616,-34.990762],[118.102092,-34.98602],[118.13597,-34.987857],[118.168661,-34.995963],[118.176847,-35.013718],[118.195671,-35.022491],[118.205862,-35.0093],[118.201386,-34.997501],[118.210012,-34.989306],[118.210661,-34.978715],[118.182607,-34.972948],[118.172276,-34.967356],[118.170267,-34.950812],[118.174417,-34.941147],[118.187412,-34.93702],[118.197902,-34.942181],[118.21207,-34.927486],[118.23916,-34.914467],[118.24412,-34.918213],[118.259873,-34.908552],[118.28024,-34.912632],[118.299691,-34.911858],[118.305912,-34.902822],[118.32091,-34.904264],[118.329543,-34.898085],[118.348234,-34.899902],[118.360101,-34.90501],[118.378616,-34.902794],[118.39692,-34.918283],[118.406604,-34.912616],[118.402601,-34.905161],[118.427747,-34.898744],[118.422406,-34.881459],[118.40319,-34.881447],[118.397075,-34.876645],[118.394888,-34.851931],[118.400428,-34.823854],[118.407133,-34.807215],[118.424854,-34.777308],[118.440144,-34.760757],[118.456643,-34.747472],[118.496912,-34.727183],[118.509749,-34.72539],[118.519837,-34.717451],[118.541036,-34.713772],[118.561918,-34.703689],[118.601284,-34.698004],[118.607266,-34.690522],[118.620074,-34.6866],[118.645197,-34.691221],[118.65143,-34.678426],[118.666082,-34.667801],[118.682785,-34.664505],[118.701391,-34.654836],[118.717375,-34.6576],[118.736259,-34.64051],[118.745957,-34.638323],[118.751991,-34.622448],[118.768807,-34.617861],[118.781709,-34.609001],[118.756473,-34.603687],[118.745441,-34.593669],[118.739631,-34.573564],[118.744853,-34.559068],[118.764461,-34.537699],[118.791675,-34.52251],[118.806705,-34.518079],[118.811598,-34.509473],[118.83344,-34.506926],[118.844664,-34.502305],[118.884154,-34.499642],[118.907827,-34.503446],[118.907255,-34.48048],[118.900958,-34.47644],[118.911791,-34.462878],[118.934653,-34.455088],[118.960905,-34.451277],[119.003471,-34.452414],[119.052904,-34.460622],[119.069109,-34.458813],[119.094785,-34.466983],[119.117503,-34.47012],[119.145282,-34.483654],[119.15223,-34.494511],[119.17354,-34.494425],[119.180712,-34.485889],[119.217883,-34.497961],[119.23936,-34.516177],[119.222245,-34.531332],[119.252234,-34.531844],[119.258532,-34.520978],[119.276649,-34.518884],[119.284839,-34.502239],[119.275036,-34.485617],[119.278066,-34.477256],[119.271965,-34.466048],[119.289851,-34.45198],[119.31478,-34.444887],[119.346392,-34.446224],[119.36358,-34.456645],[119.365038,-34.467435],[119.355734,-34.474705],[119.382143,-34.485365],[119.384092,-34.467011],[119.402417,-34.4525],[119.402727,-34.43301],[119.390842,-34.419446],[119.404146,-34.397426],[119.397942,-34.390081],[119.404848,-34.379817],[119.427304,-34.369105],[119.441935,-34.366471],[119.453434,-34.378806],[119.482512,-34.375228],[119.492468,-34.393046],[119.481605,-34.406246],[119.502718,-34.411473],[119.516335,-34.410065],[119.533175,-34.395702],[119.54744,-34.389647],[119.569937,-34.389826],[119.569888,-34.376625],[119.540875,-34.382373],[119.526697,-34.363709],[119.507448,-34.359128],[119.501778,-34.346696],[119.498995,-34.320522],[119.504087,-34.286445],[119.51469,-34.256236],[119.531008,-34.226967],[119.553054,-34.199909],[119.572822,-34.183912],[119.581203,-34.169789],[119.581544,-34.152879],[119.598683,-34.133533],[119.63387,-34.109459],[119.636665,-34.09846],[119.666402,-34.080413],[119.687579,-34.078564],[119.690953,-34.072011],[119.72402,-34.058599],[119.73385,-34.060742],[119.743315,-34.047544],[119.766641,-34.037895],[119.781732,-34.026733],[119.787985,-34.005434],[119.799988,-33.998874],[119.803218,-33.990911],[119.81637,-33.983476],[119.85863,-33.969793],[119.920455,-33.968332],[119.944395,-33.977887],[119.965915,-33.96331],[119.975781,-33.953007],[119.984181,-33.954596],[119.989165,-33.93781],[120.011342,-33.936773],[120.04406,-33.923133],[120.076334,-33.93112],[120.092302,-33.939327],[120.113053,-33.944762],[120.11917,-33.952521],[120.13378,-33.946732],[120.176725,-33.934825],[120.194315,-33.936039],[120.231065,-33.932406],[120.253374,-33.93423],[120.299138,-33.941395],[120.315466,-33.942267],[120.331557,-33.94758],[120.366687,-33.952957],[120.399489,-33.96077],[120.43657,-33.971882],[120.447181,-33.963548],[120.466136,-33.967492],[120.471276,-33.956781],[120.494711,-33.953202],[120.518014,-33.935412],[120.550598,-33.925241],[120.558378,-33.926413],[120.55337,-33.903171],[120.566157,-33.894249],[120.593472,-33.886246],[120.639,-33.891729],[120.648929,-33.88606],[120.683028,-33.88591],[120.705461,-33.892478],[120.733001,-33.89262],[120.779753,-33.885942],[120.810206,-33.88951],[120.824393,-33.877936],[120.840007,-33.873364],[120.841095,-33.865697],[120.868536,-33.85626],[120.906146,-33.861448],[120.916703,-33.865974],[120.939765,-33.862264],[120.980205,-33.868825],[120.986596,-33.866814],[121.008718,-33.870853],[121.013914,-33.860947],[121.048913,-33.856974],[121.079426,-33.8623],[121.083487,-33.851131],[121.099835,-33.848509],[121.123484,-33.850629],[121.172767,-33.867086],[121.187935,-33.862296],[121.193771,-33.847856],[121.210243,-33.842331],[121.255259,-33.846771],[121.265613,-33.850304],[121.2759,-33.842241],[121.296339,-33.840199],[121.298993,-33.825045],[121.318222,-33.821131],[121.348232,-33.827838],[121.361482,-33.815442],[121.399313,-33.818815],[121.426709,-33.826648],[121.435524,-33.82008],[121.459349,-33.825691],[121.467732,-33.822859],[121.500926,-33.835338],[121.526934,-33.833019],[121.531603,-33.825729],[121.546584,-33.82799],[121.585475,-33.844759],[121.627666,-33.86931],[121.651814,-33.888868],[121.662144,-33.883984],[121.676684,-33.863118],[121.695084,-33.86121],[121.730801,-33.873288],[121.763143,-33.886908],[121.783533,-33.906759],[121.803753,-33.899329],[121.823653,-33.897299],[121.835772,-33.887219],[121.857122,-33.890379],[121.874532,-33.876839],[121.887342,-33.882649],[121.900598,-33.876445],[121.905523,-33.868281],[121.893972,-33.863519],[121.903972,-33.844859],[121.915102,-33.838259],[121.933382,-33.834289],[121.956102,-33.833489],[121.979052,-33.837209],[121.986272,-33.829229],[122.001002,-33.829299],[122.017722,-33.836469],[122.040072,-33.853129],[122.046102,-33.862509],[122.059032,-33.871579],[122.085382,-33.902798],[122.100222,-33.939269],[122.113912,-33.964909],[122.118982,-33.980029],[122.109852,-33.992519],[122.113573,-34.017199],[122.136743,-34.006599],[122.144853,-34.014399],[122.156563,-34.013559],[122.158463,-34.005539],[122.193252,-34.017189],[122.188992,-34.008159],[122.197792,-34.000309],[122.209432,-34.000759],[122.227021,-33.988009],[122.247302,-33.997419],[122.264102,-33.995879],[122.272801,-33.984388],[122.268242,-33.968148],[122.287791,-33.949018],[122.326281,-33.928908],[122.341441,-33.926557],[122.354721,-33.916997],[122.375301,-33.911607],[122.399251,-33.911867],[122.444431,-33.919227],[122.4788,-33.932217],[122.49111,-33.938987],[122.50654,-33.940567],[122.5125,-33.953647],[122.52712,-33.939887],[122.54119,-33.934587],[122.55757,-33.936617],[122.56082,-33.944847],[122.57504,-33.948337],[122.59019,-33.942017],[122.58003,-33.924656],[122.58165,-33.916316],[122.59517,-33.911686],[122.59801,-33.902436],[122.61869,-33.892836],[122.669819,-33.888616],[122.695669,-33.892526],[122.716499,-33.890246],[122.723679,-33.895646],[122.734899,-33.891906],[122.742759,-33.896066],[122.754619,-33.881275],[122.773819,-33.877735],[122.793169,-33.881645],[122.812679,-33.889385],[122.829389,-33.909975],[122.838979,-33.904765],[122.867229,-33.899505],[122.874819,-33.902635],[122.905749,-33.889245],[122.943468,-33.885845],[122.970008,-33.890045],[122.986068,-33.884004],[123.005808,-33.881534],[123.004848,-33.870814],[123.016758,-33.857834],[123.042438,-33.858374],[123.083117,-33.871534],[123.114297,-33.889014],[123.133887,-33.904374],[123.139577,-33.916924],[123.161067,-33.945934],[123.162687,-33.957474],[123.159798,-33.978854],[123.172148,-33.989535],[123.167578,-34.006045],[123.181778,-34.011595],[123.223677,-33.994714],[123.227257,-33.988924],[123.246317,-33.991584],[123.251957,-33.997484],[123.275427,-33.975864],[123.292497,-33.974044],[123.308237,-33.952374],[123.330756,-33.928483],[123.330286,-33.918783],[123.344936,-33.913343],[123.354366,-33.900993],[123.371446,-33.895893],[123.412296,-33.893833],[123.448905,-33.899982],[123.474015,-33.906182],[123.504235,-33.918812],[123.512086,-33.942523],[123.527646,-33.941682],[123.546755,-33.934992],[123.556565,-33.922962],[123.560725,-33.902682],[123.569265,-33.899332],[123.573375,-33.887731],[123.590045,-33.881141],[123.609774,-33.882101],[123.619134,-33.876161],[123.641304,-33.87555],[123.641344,-33.86687],[123.656293,-33.84695],[123.675934,-33.836631],[123.693654,-33.831491],[123.707623,-33.81642],[123.717493,-33.8125],[123.742364,-33.809171],[123.755514,-33.79308],[123.746793,-33.77446],[123.750933,-33.74414],[123.756934,-33.723069],[123.774417,-33.698186],[123.810233,-33.664769],[123.853162,-33.640139],[123.872452,-33.633848],[123.869262,-33.606228],[123.875072,-33.599018],[123.892601,-33.591258],[123.930731,-33.586658],[123.935731,-33.576858],[123.95028,-33.575618],[123.97602,-33.558606],[123.98019,-33.549706],[123.98533,-33.510926],[123.98668,-33.479356],[123.998,-33.426375],[124.024492,-33.358036],[124.052691,-33.306736],[124.07911,-33.249225],[124.088749,-33.209644],[124.101189,-33.176154],[124.123398,-33.135103],[124.154307,-33.096063],[124.198166,-33.052832],[124.238655,-33.017591],[124.305384,-32.98091],[124.354414,-32.960069],[124.393573,-32.949078],[124.458263,-32.935577],[124.522832,-32.929417],[124.535792,-32.926586],[124.616501,-32.918855],[124.667391,-32.910475],[124.689991,-32.909245],[124.712761,-32.903954],[124.741,-32.900144],[124.76632,-32.892263],[124.78538,-32.881753],[124.814039,-32.872863],[124.834279,-32.863252],[124.843819,-32.854502],[124.877018,-32.843132],[124.900218,-32.828561],[124.906968,-32.815171],[124.928047,-32.794161],[124.958047,-32.77499],[124.986657,-32.76617],[125.007136,-32.753039],[125.016416,-32.736269],[125.026186,-32.728859],[125.068775,-32.721638],[125.088385,-32.720108],[125.102415,-32.715398],[125.136894,-32.692477],[125.164534,-32.680687],[125.176154,-32.672367],[125.199104,-32.662926],[125.230343,-32.643236],[125.252343,-32.636276],[125.278612,-32.624915],[125.293682,-32.616015],[125.370691,-32.591694],[125.389071,-32.588884],[125.419171,-32.587753],[125.439021,-32.582893],[125.450871,-32.576463],[125.4731,-32.570132],[125.48507,-32.559642],[125.51063,-32.555342],[125.53206,-32.549232],[125.539899,-32.541891],[125.56025,-32.534091],[125.581382,-32.514783],[125.615122,-32.490274],[125.643163,-32.475453],[125.679369,-32.444049],[125.699674,-32.433745],[125.712004,-32.421884],[125.721564,-32.418134],[125.74291,-32.403194],[125.751942,-32.40046],[125.801225,-32.366725],[125.811835,-32.362756],[125.857684,-32.339716],[125.870813,-32.336627],[125.898996,-32.316792],[125.95101,-32.290542],[125.978693,-32.281962],[126.024672,-32.274611],[126.037052,-32.268591],[126.066172,-32.27607],[126.081171,-32.27512],[126.113991,-32.264579],[126.12465,-32.256399],[126.160689,-32.237738],[126.203139,-32.232277],[126.228849,-32.235636],[126.240619,-32.241536],[126.276378,-32.250445],[126.344096,-32.262254],[126.358536,-32.268714],[126.422025,-32.284084],[126.464205,-32.287884],[126.549637,-32.29927],[126.579496,-32.301669],[126.596475,-32.300888],[126.614655,-32.303837],[126.645047,-32.304747],[126.672789,-32.308371],[126.73424,-32.305883],[126.772578,-32.292341],[126.819425,-32.293643],[126.848889,-32.298439],[126.860569,-32.296958],[126.893089,-32.29883],[126.956523,-32.297599],[126.994993,-32.29142],[127.042363,-32.288029],[127.057213,-32.283819],[127.106962,-32.281969],[127.118502,-32.279788],[127.169172,-32.275998],[127.213371,-32.276387],[127.238211,-32.269697],[127.293471,-32.262716],[127.299951,-32.259536],[127.33541,-32.254086],[127.350109,-32.246456],[127.380489,-32.241295],[127.397279,-32.234975],[127.414909,-32.233354],[127.452078,-32.222294],[127.481898,-32.216534],[127.518817,-32.214124],[127.539417,-32.200093],[127.548597,-32.190753],[127.585376,-32.175053],[127.620136,-32.167462],[127.637266,-32.157112],[127.691905,-32.142992],[127.705705,-32.136702],[127.755944,-32.127841],[127.784054,-32.119631],[127.798233,-32.119291],[127.865282,-32.103972],[127.903046,-32.100921],[127.940405,-32.089961],[127.968484,-32.08633],[127.999602,-32.07762],[128.022372,-32.073979],[128.043151,-32.065719],[128.054141,-32.064689],[128.073591,-32.056199],[128.086431,-32.054029],[128.100451,-32.046339],[128.138951,-32.035099],[128.146481,-32.030679],[128.21301,-32.011228],[128.22529,-32.005328],[128.247539,-32.001828],[128.253959,-31.996878],[128.280599,-31.990758],[128.289099,-31.984028],[128.314269,-31.979367],[128.325149,-31.973087],[128.411019,-31.938237],[128.435638,-31.934797],[128.446378,-31.927037],[128.466377,-31.918846],[128.494827,-31.911905],[128.501857,-31.902895],[128.527523,-31.894929],[128.543281,-31.88153],[128.571591,-31.873668],[128.590232,-31.871656],[128.596593,-31.863085],[128.642335,-31.850935],[128.653575,-31.844964],[128.661375,-31.833804],[128.682124,-31.825683],[128.706703,-31.808653],[128.754653,-31.787324],[128.775373,-31.773554],[128.789503,-31.768923],[128.803353,-31.757973],[128.860762,-31.735694],[128.871042,-31.728464],[128.896362,-31.717043],[128.94832,-31.700931],[128.96322,-31.694141],[129.00134,-31.687068]]],[[[123.216508,-34.089815],[123.193738,-34.090785],[123.180978,-34.095715],[123.170288,-34.090396],[123.157479,-34.110326],[123.170619,-34.113736],[123.180809,-34.107556],[123.193819,-34.108595],[123.192979,-34.117396],[123.213869,-34.112805],[123.208069,-34.103895],[123.216508,-34.089815]]],[[[118.486712,-34.921999],[118.456806,-34.904944],[118.438393,-34.90834],[118.462657,-34.933345],[118.477923,-34.936849],[118.486712,-34.921999]]],[[[122.261105,-34.12415],[122.248094,-34.12037],[122.238535,-34.11105],[122.235684,-34.158881],[122.246064,-34.158821],[122.249174,-34.145101],[122.256164,-34.142961],[122.252565,-34.127881],[122.261105,-34.12415]]],[[[123.561957,-34.339146],[123.550957,-34.353586],[123.543077,-34.356416],[123.545267,-34.367686],[123.559537,-34.360006],[123.557477,-34.345126],[123.561957,-34.339146]]],[[[121.616807,-34.018844],[121.607917,-34.013664],[121.603257,-34.039044],[121.612697,-34.034694],[121.608777,-34.025294],[121.616807,-34.018844]]],[[[122.011284,-34.024181],[121.991565,-34.029791],[122.002715,-34.038051],[122.011284,-34.024181]]],[[[122.026873,-33.96346],[122.011353,-33.95494],[122.009783,-33.96767],[122.026873,-33.96346]]],[[[121.689596,-34.005122],[121.679996,-33.994373],[121.669176,-34.002433],[121.689596,-34.005122]]]]},"bbox":[115.6745,-35.134483,129.001849,-23.431919]}]}