{"type":"FeatureCollection","features":[
{"properties":{"electorateShortName":"page","electorateName":"Page","area":19342.197652,"state":"NSW"},"type":"Feature","geometry":{"type":"Polygon","coordinates":[[[153.14942550125318,-30.2407895015836],[153.138258,-30.262552],[153.142791,-30.274485],[153.139025,-30.296585],[153.152929,-30.309492],[153.136083,-30.315935],[153.113451,-30.340617],[153.106312,-30.354371],[153.11416933493638,-30.361384220941634],[153.14559698306635,-30.339042480264215],[153.15327050054785,-30.330433256421223],[153.18586001173503,-30.330732273562546],[153.20315406168933,-30.32837217715933],[153.21966732945558,-30.32271831064747],[153.23477872408412,-30.31398332517335],[153.2479198813619,-30.30249575779577],[153.25274566100086,-30.29625459537532],[153.26808292264928,-30.29759828849022],[153.28570461569345,-30.29565349646492],[153.3026031863824,-30.290292098285903],[153.3181229153433,-30.281722133598446],[153.33386656559668,-30.26886105145461],[153.34472480717346,-30.25540640822207],[153.35280991890073,-30.24012374474307],[153.35782352139248,-30.223577064571217],[153.35958058867953,-30.206377019536287],[153.35801627655493,-30.189158373764],[153.35318831563598,-30.17255657783645],[153.3452748808278,-30.157184317619052],[153.33456801581497,-30.14360890321462],[153.31235931977048,-30.127140961268108],[153.30371347931887,-30.109417858964907],[153.3019305162682,-30.091895756746478],[153.29716720650237,-30.076355092318536],[153.29561341572028,-30.04976320435811],[153.31376005336784,-30.023689985123422],[153.33156562481545,-30.006682114955005],[153.34097572233478,-29.9914840058506],[153.34546838998756,-29.979381329347415],[153.35593212735657,-29.964545688437404],[153.36366460284574,-29.947726783651575],[153.36779253721187,-29.929681648760013],[153.36814130011007,-29.91117367480751],[153.36556916499012,-29.880131306611805],[153.37531607865293,-29.86451778737591],[153.38155434972907,-29.847598487564536],[153.3842944463724,-29.829775171304316],[153.3837603337833,-29.81869286542272],[153.39077706599176,-29.79867468245859],[153.39391932420136,-29.776644376297863],[153.39076502860968,-29.752434510318576],[153.40339028057306,-29.738258216011108],[153.4122097885038,-29.722744487126942],[153.4221947698596,-29.692358182971546],[153.42396756501134,-29.675627223282756],[153.42103533791948,-29.653196726530606],[153.4317514679107,-29.62187473582051],[153.4327131077374,-29.604709504297553],[153.43039322415984,-29.587674597060364],[153.44104384202157,-29.5708312657813],[153.45115338488665,-29.541369455832143],[153.45190110874623,-29.51791095844375],[153.45852172697505,-29.491637945536326],[153.4573669830731,-29.469731341274837],[153.4626879765685,-29.444276058672326],[153.46373120144227,-29.388986068011306],[153.4666794890872,-29.366268278213713],[153.46515599615222,-29.34909290923325],[153.46038502335077,-29.332523294003384],[153.45254169149564,-29.317167628086583],[153.44134658733813,-29.30309717594553],[153.45598150353118,-29.283728921015694],[153.47029868378675,-29.259682745653905],[153.4860197089018,-29.238195074253124],[153.50693594741466,-29.219231048209778],[153.53315338307232,-29.187610503987155],[153.54051708170195,-29.17286854784667],[153.54546547097806,-29.154952089709877],[153.54705467459948,-29.13786998350119],[153.54537362425947,-29.12079667127334],[153.5327698417663,-29.081317631241372],[153.54841408702808,-29.054645460112784],[153.56942801146042,-29.02633103018727],[153.61242804859808,-28.976815720752995],[153.62222384632662,-28.963137397124882],[153.62930271359187,-28.947874899666907],[153.6334172796478,-28.9315615757694],[153.63442376114088,-28.914767493912453],[153.6322869866138,-28.89807952264468],[153.6270816255707,-28.882080822484205],[153.6189895791543,-28.867330467396666],[153.6024023438833,-28.849008370251155],[153.589714,-28.873409],[153.576789,-28.869838],[153.564636,-28.873708],[153.545765,-28.86689],[153.529065,-28.871144],[153.530165,-28.877919],[153.555088,-28.877984],[153.570746,-28.88507],[153.57400700637186,-28.877160071570465],[153.58636216686338,-28.876365658994192],[153.579532,-28.881682],[153.544475,-28.917804],[153.518517,-28.918317],[153.507797,-28.912851],[153.497254,-28.921028],[153.484006,-28.920681],[153.475801,-28.924591],[153.482855,-28.888026],[153.494448,-28.863343],[153.486858,-28.864848],[153.476706,-28.855357],[153.478418,-28.848182],[153.465035,-28.840742],[153.451238,-28.838635],[153.45253,-28.830749],[153.441382,-28.823097],[153.450663,-28.781638],[153.442034,-28.762724],[153.450324,-28.757052],[153.448133,-28.746851],[153.434404,-28.747257],[153.422215,-28.742755],[153.406752,-28.742947],[153.409498,-28.725621],[153.409153,-28.707793],[153.400828,-28.697518],[153.408379,-28.693305],[153.424229,-28.693138],[153.417204,-28.677616],[153.417876,-28.663639],[153.430116,-28.661373],[153.420963,-28.649142],[153.415288,-28.64719],[153.412299,-28.634882],[153.415793,-28.625232],[153.412573,-28.618571],[153.373087,-28.613976],[153.379857,-28.584761],[153.351826,-28.568595],[153.337316,-28.549393],[153.322951,-28.540974],[153.310776,-28.54277],[153.301701,-28.539412],[153.291259,-28.541367],[153.283753,-28.529743],[153.281572,-28.516234],[153.273306,-28.522004],[153.2547,-28.527147],[153.246749,-28.515811],[153.228848,-28.517005],[153.219644,-28.522855],[153.19787,-28.526996],[153.186001,-28.521294],[153.160381,-28.524078],[153.149773,-28.502945],[153.153674,-28.484325],[153.141014,-28.470775],[153.143898,-28.462728],[153.135998,-28.457227],[153.143132,-28.448875],[153.142127,-28.436139],[153.124034,-28.430592],[153.127518,-28.419263],[153.120837,-28.415282],[153.1277,-28.405931],[153.110781,-28.388469],[153.112955,-28.361311],[153.1094,-28.35744],[153.074254,-28.352029],[153.065283,-28.344234],[153.039112,-28.342938],[153.020061,-28.338683],[153.009458,-28.341753],[152.983261,-28.337892],[152.973663,-28.332068],[152.941574,-28.334512],[152.933471,-28.338183],[152.923737,-28.331808],[152.898906,-28.324718],[152.882129,-28.312092],[152.848701,-28.312335],[152.83864,-28.322021],[152.831926,-28.319961],[152.818441,-28.335629],[152.808904,-28.342765],[152.803636,-28.353735],[152.793786,-28.354014],[152.775822,-28.34657],[152.760694,-28.352027],[152.758139,-28.362872],[152.740742,-28.359934],[152.72288,-28.344096],[152.708468,-28.343866],[152.698895,-28.335358],[152.673641,-28.325981],[152.667228,-28.311752],[152.638288,-28.310997],[152.627857,-28.303031],[152.6237,-28.290308],[152.613585,-28.271322],[152.600303,-28.283836],[152.598005,-28.291087],[152.601701,-28.306722],[152.597844,-28.314788],[152.607771,-28.320192],[152.617481,-28.320005],[152.627986,-28.327717],[152.631389,-28.338518],[152.626211,-28.347854],[152.618427,-28.34819],[152.612842,-28.357841],[152.611897,-28.374662],[152.603784,-28.378654],[152.605153,-28.391846],[152.593347,-28.400869],[152.594411,-28.408933],[152.583561,-28.41709],[152.577861,-28.435713],[152.566459,-28.438797],[152.566667,-28.450597],[152.562095,-28.465685],[152.548651,-28.470497],[152.543552,-28.479437],[152.527144,-28.497411],[152.536506,-28.499624],[152.533082,-28.513825],[152.518799,-28.510349],[152.502987,-28.511686],[152.501119,-28.528449],[152.476117,-28.52696],[152.469177,-28.520762],[152.460079,-28.52932],[152.447754,-28.527473],[152.442458,-28.556841],[152.451841,-28.562728],[152.441062,-28.574986],[152.441811,-28.592688],[152.434765,-28.602244],[152.422079,-28.606845],[152.408765,-28.628211],[152.407829,-28.642945],[152.399648,-28.645827],[152.402465,-28.659427],[152.390769,-28.664157],[152.384483,-28.686102],[152.373705,-28.687903],[152.375208,-28.699883],[152.385991,-28.701988],[152.404789,-28.710113],[152.407521,-28.723073],[152.421238,-28.718079],[152.426474,-28.724078],[152.464635,-28.735505],[152.477743,-28.746271],[152.484161,-28.738602],[152.493554,-28.735639],[152.499036,-28.741115],[152.488846,-28.758949],[152.490324,-28.768883],[152.479981,-28.77298],[152.480325,-28.780262],[152.496297,-28.785396],[152.51331,-28.780909],[152.514027,-28.789245],[152.521678,-28.793089],[152.530992,-28.781374],[152.543678,-28.787938],[152.537034,-28.803606],[152.539335,-28.815156],[152.55488,-28.817862],[152.556973,-28.824527],[152.537301,-28.84685],[152.544747,-28.85373],[152.567877,-28.858052],[152.573425,-28.863705],[152.564307,-28.887482],[152.557145,-28.89375],[152.549367,-28.910167],[152.555079,-28.912589],[152.567178,-28.904199],[152.580107,-28.911484],[152.580988,-28.928604],[152.567459,-28.926445],[152.544018,-28.935846],[152.553601,-28.955808],[152.560612,-28.98633],[152.558516,-28.990078],[152.516572,-28.983581],[152.509573,-28.973254],[152.486653,-28.969974],[152.467109,-28.973664],[152.476205,-28.990648],[152.46552,-28.99043],[152.46464,-29.008025],[152.454072,-29.024549],[152.424203,-29.036863],[152.443897,-29.039755],[152.441565,-29.052136],[152.430571,-29.064585],[152.43111,-29.071963],[152.421006,-29.084096],[152.455006,-29.089027],[152.444231,-29.144175],[152.41689,-29.153095],[152.414465,-29.165374],[152.424963,-29.178626],[152.410177,-29.200865],[152.405201,-29.212154],[152.412805,-29.230414],[152.394086,-29.24125],[152.379027,-29.245286],[152.351323,-29.249123],[152.33886,-29.261859],[152.32318,-29.269926],[152.320994,-29.277583],[152.306473,-29.283097],[152.314656,-29.298519],[152.308811,-29.304891],[152.298279,-29.307447],[152.303043,-29.31763],[152.310687,-29.32254],[152.331189,-29.32889],[152.336513,-29.334657],[152.331517,-29.341837],[152.451081,-29.358053],[152.429492,-29.391941],[152.410052,-29.400771],[152.404317,-29.432778],[152.397171,-29.431767],[152.394556,-29.446113],[152.388785,-29.445316],[152.412456,-29.50688],[152.40543,-29.516645],[152.389782,-29.52199],[152.378027,-29.531125],[152.358684,-29.540345],[152.354492,-29.545471],[152.336123,-29.640777],[152.312214,-29.663098],[152.293557,-29.669745],[152.280708,-29.665904],[152.276473,-29.68154],[152.261842,-29.697489],[152.268339,-29.703832],[152.262054,-29.715076],[152.265863,-29.725984],[152.255079,-29.73343],[152.264601,-29.750703],[152.25765,-29.758348],[152.230407,-29.754758],[152.216838,-29.760481],[152.205592,-29.77137],[152.202765,-29.787141],[152.190846,-29.792664],[152.18771,-29.804057],[152.17919,-29.807549],[152.1747,-29.827095],[152.175416,-29.84576],[152.169378,-29.855438],[152.168485,-29.869784],[152.193438,-29.875842],[152.200337,-29.868248],[152.217028,-29.871375],[152.227785,-29.865886],[152.243707,-29.862923],[152.251076,-29.865088],[152.26254,-29.852481],[152.27393,-29.846247],[152.27741,-29.867582],[152.284977,-29.884674],[152.280846,-29.895508],[152.28566,-29.907312],[152.271555,-29.910338],[152.269237,-29.932046],[152.275504,-29.96122],[152.291972,-29.977111],[152.304635,-29.978878],[152.308907,-29.995322],[152.316915,-30.000952],[152.312967,-30.012352],[152.313134,-30.027999],[152.299513,-30.046532],[152.293708,-30.05989],[152.294757,-30.085144],[152.279714,-30.087692],[152.280638,-30.101331],[152.298003,-30.115985],[152.302323,-30.131266],[152.297179,-30.138543],[152.309102,-30.147343],[152.304777,-30.157571],[152.311073,-30.173596],[152.303481,-30.178463],[152.314438,-30.187554],[152.31098,-30.195078],[152.315346,-30.208661],[152.344765,-30.228089],[152.348472,-30.236709],[152.337373,-30.258078],[152.34212,-30.26899],[152.339105,-30.278623],[152.347884,-30.292555],[152.342286,-30.313618],[152.345622,-30.33295],[152.354767,-30.34037],[152.35178,-30.355359],[152.364574,-30.360976],[152.38192,-30.362628],[152.389916,-30.374706],[152.387531,-30.383159],[152.396828,-30.392564],[152.416237,-30.406891],[152.428078,-30.418897],[152.430484,-30.406173],[152.44109,-30.398902],[152.478585,-30.396993],[152.478,-30.37421],[152.474912,-30.356637],[152.480573,-30.333043],[152.490477,-30.337341],[152.501693,-30.329694],[152.506245,-30.320598],[152.517572,-30.317073],[152.527107,-30.309438],[152.529328,-30.301111],[152.547091,-30.28865],[152.55721,-30.262152],[152.551689,-30.259172],[152.559647,-30.243719],[152.586725,-30.24099],[152.603012,-30.252486],[152.610902,-30.249251],[152.615696,-30.257952],[152.625973,-30.258376],[152.635409,-30.25166],[152.655376,-30.255316],[152.663602,-30.251438],[152.670631,-30.239541],[152.697823,-30.223335],[152.694852,-30.209951],[152.698602,-30.200212],[152.692987,-30.189015],[152.750763,-30.196616],[152.755184,-30.180789],[152.767521,-30.184706],[152.803453,-30.189567],[152.80927,-30.200639],[152.82954,-30.222078],[152.868435,-30.210215],[152.873489,-30.220503],[152.891758,-30.225911],[152.911059,-30.228489],[152.927924,-30.227114],[152.937008,-30.218641],[152.952152,-30.215507],[152.966118,-30.222588],[152.982412,-30.213909],[152.98726,-30.222288],[152.99908,-30.221404],[152.99494,-30.24676],[153.010696,-30.248775],[153.020376,-30.267484],[153.046471,-30.271946],[153.047405,-30.280003],[153.063319,-30.287125],[153.069036,-30.279087],[153.084741,-30.272736],[153.082838,-30.257402],[153.09517,-30.239992],[153.111631,-30.232286],[153.120824,-30.236025],[153.147822,-30.234106],[153.148938,-30.240568],[153.14942550125318,-30.2407895015836]]]},"bbox":[152.168485,-30.418897,153.63442376114088,-28.271322]}]}