{"type":"FeatureCollection","features":[
{"properties":{"electorateShortName":"page","electorateName":"Page","area":19342.197652,"state":"NSW"},"type":"Feature","geometry":{"type":"Polygon","coordinates":[[[153.14942550125318,-30.2407895015836],[153.136083,-30.315935],[153.21966732945558,-30.32271831064747],[153.23477872408412,-30.31398332517335],[153.2479198813619,-30.30249575779577],[153.25274566100086,-30.29625459537532],[153.28570461569345,-30.29565349646492],[153.33386656559668,-30.26886105145461],[153.35318831563598,-30.17255657783645],[153.30371347931887,-30.109417858964907],[153.29561341572028,-30.04976320435811],[153.33156562481545,-30.006682114955005],[153.34097572233478,-29.9914840058506],[153.34546838998756,-29.979381329347415],[153.35593212735657,-29.964545688437404],[153.36366460284574,-29.947726783651575],[153.36556916499012,-29.880131306611805],[153.38155434972907,-29.847598487564536],[153.3842944463724,-29.829775171304316],[153.3837603337833,-29.81869286542272],[153.39391932420136,-29.776644376297863],[153.39076502860968,-29.752434510318576],[153.4221947698596,-29.692358182971546],[153.43039322415984,-29.587674597060364],[153.45115338488665,-29.541369455832143],[153.4666794890872,-29.366268278213713],[153.44134658733813,-29.30309717594553],[153.53315338307232,-29.187610503987155],[153.5327698417663,-29.081317631241372],[153.56942801146042,-29.02633103018727],[153.61242804859808,-28.976815720752995],[153.62930271359187,-28.947874899666907],[153.63442376114088,-28.914767493912453],[153.6024023438833,-28.849008370251155],[153.57400700637186,-28.877160071570465],[153.58636216686338,-28.876365658994192],[153.544475,-28.917804],[153.475801,-28.924591],[153.486858,-28.864848],[153.441382,-28.823097],[153.448133,-28.746851],[153.406752,-28.742947],[153.412573,-28.618571],[153.322951,-28.540974],[153.246749,-28.515811],[153.160381,-28.524078],[153.1094,-28.35744],[152.941574,-28.334512],[152.882129,-28.312092],[152.803636,-28.353735],[152.740742,-28.359934],[152.627857,-28.303031],[152.597844,-28.314788],[152.612842,-28.357841],[152.562095,-28.465685],[152.502987,-28.511686],[152.447754,-28.527473],[152.441811,-28.592688],[152.375208,-28.699883],[152.499036,-28.741115],[152.530992,-28.781374],[152.537301,-28.84685],[152.573425,-28.863705],[152.558516,-28.990078],[152.467109,-28.973664],[152.421006,-29.084096],[152.444231,-29.144175],[152.394086,-29.24125],[152.351323,-29.249123],[152.298279,-29.307447],[152.331517,-29.341837],[152.451081,-29.358053],[152.388785,-29.445316],[152.412456,-29.50688],[152.354492,-29.545471],[152.336123,-29.640777],[152.261842,-29.697489],[152.17919,-29.807549],[152.168485,-29.869784],[152.251076,-29.865088],[152.275504,-29.96122],[152.313134,-30.027999],[152.293708,-30.05989],[152.315346,-30.208661],[152.35178,-30.355359],[152.428078,-30.418897],[152.478585,-30.396993],[152.474912,-30.356637],[152.547091,-30.28865],[152.559647,-30.243719],[152.655376,-30.255316],[152.692987,-30.189015],[152.803453,-30.189567],[152.82954,-30.222078],[152.952152,-30.215507],[153.063319,-30.287125],[153.111631,-30.232286],[153.148938,-30.240568],[153.14942550125318,-30.2407895015836]]]},"bbox":[152.168485,-30.418897,153.63442376114088,-28.303031]}]}