{"type":"FeatureCollection","features":[
{"properties":{"electorateShortName":"parkes","electorateName":"Parkes","area":393412.854202,"state":"NSW"},"type":"Feature","geometry":{"type":"Polygon","coordinates":[[[149.795665,-32.05809],[149.879703,-31.999875],[149.866099,-31.961503],[149.897359,-31.912621],[150.023983,-31.828752],[150.075072,-31.739869],[150.030212,-31.69088],[149.904783,-31.706764],[149.863574,-31.669611],[149.911314,-31.572789],[149.866949,-31.537269],[149.882911,-31.451994],[149.968049,-31.45813],[149.98813,-31.427367],[150.006557,-31.320806],[150.078838,-31.338094],[150.103379,-31.240018],[150.158496,-31.237667],[150.160961,-31.354959],[150.417667,-31.397631],[150.433278,-31.36388],[150.543292,-31.36287],[150.599399,-31.046846],[150.527741,-30.968574],[150.530401,-30.875117],[150.559266,-30.810814],[150.487268,-30.798984],[150.457961,-30.690158],[150.509647,-30.660088],[150.454351,-30.607517],[150.36502,-30.583433],[150.351488,-30.418184],[150.300528,-30.432724],[150.25277,-30.413992],[150.194998,-30.321087],[150.167062,-30.228544],[150.102263,-30.191946],[150.07566,-30.107363],[150.124153,-30.070046],[150.197512,-30.062574],[150.248852,-29.99348],[150.292859,-29.990531],[150.312409,-29.892556],[150.28796,-29.749832],[150.406833,-29.745087],[150.525355,-29.810999],[150.612074,-29.795893],[150.676472,-29.756124],[150.689007,-29.67782],[150.726065,-29.635481],[150.733308,-29.569273],[150.856784,-29.512519],[150.863628,-29.456517],[150.827929,-29.411862],[150.795123,-29.313725],[150.751241,-29.263237],[150.752278,-29.15097],[150.702024,-29.083907],[150.611552,-29.000026],[150.611815,-28.887005],[150.665282,-28.782079],[150.66986,-28.742085],[150.534191,-28.704122],[150.483443,-28.662131],[150.414296,-28.649864],[150.289648,-28.537157],[150.169679,-28.551113],[149.97158,-28.607665],[149.830077,-28.603846],[149.696606,-28.630759],[149.587511,-28.572882],[149.461772,-28.591551],[149.391403,-28.691734],[149.358975,-28.68433],[149.272215,-28.740224],[149.188805,-28.775118],[149.14239,-28.823873],[149.081108,-28.845866],[149.042373,-28.939312],[148.957893,-28.999051],[148.361055,-28.999043],[147.94549,-28.999055],[147.233259,-28.999059],[146.58314,-28.998873],[146.067784,-28.998645],[145.666844,-28.999081],[144.874157,-28.999071],[144.356013,-28.998775],[143.451899,-28.999084],[143.023009,-28.998852],[142.363938,-28.997796],[141.537022,-28.99887],[140.999475,-28.999095],[140.999883,-29.472053],[141.00033,-30.050624],[141.000705,-30.757124],[141.000594,-31.199968],[141.001288,-31.817219],[141.00153,-32.21807],[141.001928,-32.723901],[141.002391,-33.31116],[141.002404,-33.328807],[141.348003,-33.366658],[141.401831,-32.98666],[141.573204,-33.005572],[141.560773,-33.096293],[142.038355,-33.143941],[142.022933,-33.0848],[142.105679,-33.11242],[142.268842,-33.12243],[142.289216,-33.081971],[142.384858,-32.999411],[142.547987,-33.01714],[142.515536,-32.847454],[142.94435,-32.890533],[142.964638,-32.748537],[143.271212,-32.780229],[143.432435,-32.808446],[143.416969,-32.907493],[143.499566,-32.918349],[143.505852,-32.876004],[143.591987,-32.885141],[143.585153,-32.93103],[143.671807,-32.940764],[143.653413,-33.012413],[143.57281,-33.012429],[143.55246,-33.140481],[143.637288,-33.149916],[143.66485,-33.178855],[143.720951,-33.140453],[143.898192,-33.161392],[143.905907,-33.115708],[144.251426,-33.15507],[144.236255,-33.249829],[144.262641,-33.272906],[144.546877,-33.300003],[144.645681,-33.222352],[144.733424,-33.231398],[144.742269,-33.170377],[144.777959,-33.163551],[144.798235,-33.036219],[144.913078,-33.049131],[144.979402,-33.083791],[144.991731,-33.033662],[145.108693,-33.034231],[145.164993,-32.71483],[145.249374,-32.724393],[145.257279,-32.671254],[145.34467,-32.682896],[145.330992,-32.767376],[145.41197,-32.776486],[145.467462,-32.722507],[145.504348,-32.770092],[145.671923,-32.805722],[145.668586,-32.935769],[145.645258,-33.080312],[146.03166,-33.093579],[146.093631,-33.189083],[146.058892,-33.211808],[146.094951,-33.27596],[146.067233,-33.356755],[146.053962,-33.475767],[146.095141,-33.603131],[146.440808,-33.520858],[146.445623,-33.563875],[146.80888,-33.607151],[146.830767,-33.532427],[146.986431,-33.563834],[147.242778,-33.591816],[147.32036,-33.567801],[147.35835,-33.525344],[147.403225,-33.530578],[147.426412,-33.43462],[147.4804,-33.441743],[147.514722,-33.263086],[147.442535,-33.230847],[147.29794,-33.19184],[147.308075,-33.104384],[147.388534,-33.139417],[147.405017,-33.038017],[147.554975,-33.048197],[147.604589,-32.762737],[147.568364,-32.735381],[147.545261,-32.551855],[147.561644,-32.456001],[147.696901,-32.368952],[147.764157,-32.408945],[147.884151,-32.440243],[147.965,-32.498077],[148.011645,-32.564876],[148.09149,-32.605068],[148.127704,-32.682974],[148.347143,-32.675763],[148.391421,-32.621925],[148.501184,-32.614117],[148.604781,-32.652036],[148.658853,-32.638707],[148.719957,-32.575391],[148.703837,-32.434946],[148.754109,-32.419051],[148.851192,-32.31338],[148.927247,-32.271664],[148.944185,-32.174016],[149.059438,-32.096086],[149.155107,-32.121617],[149.220284,-32.180113],[149.189159,-32.290575],[149.305892,-32.304507],[149.346378,-32.238059],[149.413277,-32.175537],[149.432506,-32.095033],[149.494803,-32.102092],[149.573383,-32.086081],[149.639956,-32.112853],[149.750811,-32.119822],[149.795665,-32.05809]]]},"bbox":[140.999475,-33.607151,150.863628,-28.537157]}]}