{"type":"FeatureCollection","features":[
{"properties":{"electorateShortName":"pearce","electorateName":"Pearce","area":13250.093995,"state":"WA"},"type":"Feature","geometry":{"type":"MultiPolygon","coordinates":[[[[117.239616,-32.228309],[117.239607,-32.214391],[117.247188,-32.211042],[117.239223,-32.198002],[117.244247,-32.195778],[117.241341,-32.191024],[117.245553,-32.189162],[117.241146,-32.181944],[117.247049,-32.179319],[117.238127,-32.165009],[117.238166,-32.15471],[117.244145,-32.154723],[117.238549,-32.145824],[117.238877,-32.123358],[117.238752,-32.119495],[117.225489,-32.119562],[117.219596,-32.110352],[117.227085,-32.11031],[117.227063,-32.097171],[117.229301,-32.097157],[117.229242,-32.093247],[117.232788,-32.092708],[117.232679,-32.082467],[117.23094,-32.082506],[117.23093,-32.072815],[117.238405,-32.067778],[117.230304,-32.05421],[117.235482,-32.051965],[117.227493,-32.038928],[117.231341,-32.037222],[117.227782,-32.030801],[117.216416,-32.035763],[117.214305,-32.03259],[117.21075,-32.02995],[117.21434,-32.028216],[117.21149,-32.023598],[117.209574,-32.024442],[117.207292,-32.020618],[117.204388,-32.021736],[117.19971,-32.016154],[117.196591,-32.010768],[117.195166,-32.006753],[117.180469,-32.00309],[117.17724,-32.002895],[117.174331,-31.99805],[117.168681,-31.99755],[117.165778,-31.992716],[117.160659,-31.994949],[117.157909,-31.990368],[117.150878,-31.993435],[117.143838,-31.982063],[117.139595,-31.983905],[117.137594,-31.980556],[117.133798,-31.982204],[117.132587,-31.980178],[117.129123,-31.981682],[117.128227,-31.980184],[117.124762,-31.981689],[117.125907,-31.983605],[117.119423,-31.986422],[117.117679,-31.983625],[117.114954,-31.981504],[117.108924,-31.984099],[117.105705,-31.979194],[117.099605,-31.981831],[117.093374,-31.970995],[117.089696,-31.971041],[117.088247,-31.968581],[117.092025,-31.966964],[117.087635,-31.959506],[117.099578,-31.954395],[117.096282,-31.948798],[117.105095,-31.945026],[117.096419,-31.930533],[117.109347,-31.924711],[117.141773,-31.910577],[117.138744,-31.905687],[117.136046,-31.906903],[117.126216,-31.891042],[117.118437,-31.894565],[117.114548,-31.888283],[117.113195,-31.888893],[117.11098,-31.885316],[117.121818,-31.88063],[117.141397,-31.871792],[117.135624,-31.862589],[117.147421,-31.861564],[117.158314,-31.856642],[117.142491,-31.831054],[117.142197,-31.830777],[117.123759,-31.799935],[117.106657,-31.807251],[117.103138,-31.801245],[117.096952,-31.803891],[117.095601,-31.802736],[117.090911,-31.80444],[117.087107,-31.79795],[117.082265,-31.800021],[117.079881,-31.795869],[117.075297,-31.797788],[117.060611,-31.773024],[117.057647,-31.770087],[117.044567,-31.775556],[117.031882,-31.780654],[117.031434,-31.779872],[117.020857,-31.784291],[117.01943,-31.781801],[117.014163,-31.783933],[117.007758,-31.77274],[117.004923,-31.767215],[116.99967,-31.769347],[116.993993,-31.759334],[116.989337,-31.761261],[116.979456,-31.74381],[116.978071,-31.744386],[116.967665,-31.726046],[116.957017,-31.708255],[116.952692,-31.704473],[116.953094,-31.702969],[116.948598,-31.695284],[116.94669,-31.696097],[116.943549,-31.690709],[116.961452,-31.68298],[116.956148,-31.673903],[116.947798,-31.677471],[116.946253,-31.674826],[116.949306,-31.665108],[116.940409,-31.650608],[116.943456,-31.647346],[116.939431,-31.640971],[116.935445,-31.641144],[116.931372,-31.634017],[116.912775,-31.60647],[116.900332,-31.585591],[116.90079,-31.585391],[116.886001,-31.560855],[116.889018,-31.559531],[116.878062,-31.541331],[116.879122,-31.540862],[116.874875,-31.53373],[116.862251,-31.538995],[116.85717,-31.530055],[116.853692,-31.531503],[116.852348,-31.529138],[116.847908,-31.530903],[116.844939,-31.525684],[116.86034,-31.519217],[116.853112,-31.50659],[116.862619,-31.502596],[116.855159,-31.489562],[116.850044,-31.491712],[116.850748,-31.493356],[116.829229,-31.50238],[116.818969,-31.484561],[116.813595,-31.486631],[116.798693,-31.493067],[116.798394,-31.492525],[116.788988,-31.496533],[116.789707,-31.497791],[116.786216,-31.499286],[116.783691,-31.49495],[116.762718,-31.50384],[116.759253,-31.497997],[116.749725,-31.501868],[116.74822,-31.498787],[116.742497,-31.489019],[116.73896,-31.490445],[116.737306,-31.487588],[116.735284,-31.488456],[116.737306,-31.491934],[116.733953,-31.493363],[116.731427,-31.488814],[116.705684,-31.499139],[116.704858,-31.49783],[116.69995,-31.499807],[116.696136,-31.492863],[116.68505,-31.497129],[116.684172,-31.495465],[116.680426,-31.497283],[116.674574,-31.486892],[116.668724,-31.489264],[116.667854,-31.492016],[116.660768,-31.495075],[116.657796,-31.490028],[116.652933,-31.492137],[116.650585,-31.488068],[116.600232,-31.509432],[116.601342,-31.506631],[116.594758,-31.495511],[116.597074,-31.483131],[116.597681,-31.47274],[116.599504,-31.467276],[116.604068,-31.455263],[116.603518,-31.450642],[116.60012,-31.440687],[116.598691,-31.439052],[116.598283,-31.43642],[116.599605,-31.427022],[116.598694,-31.425439],[116.595613,-31.423717],[116.592074,-31.417999],[116.59775,-31.415594],[116.591697,-31.405066],[116.601186,-31.401052],[116.597809,-31.395178],[116.605062,-31.363564],[116.603572,-31.360201],[116.606391,-31.358803],[116.625346,-31.273595],[116.613978,-31.278721],[116.575171,-31.307495],[116.569496,-31.309999],[116.568785,-31.311746],[116.547855,-31.276656],[116.511982,-31.292554],[116.498913,-31.298133],[116.492122,-31.286687],[116.449266,-31.305545],[116.440808,-31.291196],[116.440235,-31.291241],[116.40254,-31.307601],[116.360671,-31.236504],[116.319825,-31.236484],[116.308167,-31.236653],[116.245005,-31.23057],[116.244759,-31.216158],[116.246233,-31.216172],[116.246653,-31.206804],[116.247451,-31.180681],[116.238678,-31.18056],[116.238663,-31.178062],[116.234501,-31.178048],[116.234489,-31.157031],[116.234595,-31.115841],[116.231914,-31.115993],[116.232069,-31.109097],[116.225442,-31.109129],[116.225548,-31.102359],[116.221281,-31.102294],[116.221287,-31.089006],[116.200866,-31.08908],[116.183152,-31.08895],[116.151332,-31.08906],[116.149929,-31.088884],[116.083759,-31.089016],[116.078231,-31.08893],[116.048379,-31.089011],[116.047819,-31.075929],[116.048662,-31.069774],[116.048276,-31.067493],[116.045693,-31.060503],[116.044492,-31.060679],[116.013464,-31.06058],[115.95225,-31.060605],[115.952229,-31.004332],[115.949447,-31.002547],[115.946622,-31.001781],[115.940961,-31.001766],[115.937434,-31.000949],[115.932308,-31.002836],[115.927346,-31.00538],[115.922725,-31.00498],[115.918148,-31.005198],[115.905066,-31.00851],[115.900521,-31.007664],[115.895311,-31.001343],[115.895401,-30.99951],[115.896989,-30.996659],[115.897692,-30.992307],[115.893495,-30.993023],[115.892205,-30.989164],[115.892732,-30.982401],[115.88932,-30.977684],[115.887032,-30.975711],[115.88046,-30.974957],[115.877545,-30.972867],[115.873216,-30.972346],[115.870451,-30.975448],[115.86929,-30.979318],[115.866936,-30.979221],[115.861788,-30.97775],[115.857821,-30.980976],[115.854127,-30.977863],[115.847943,-30.979227],[115.844251,-30.978174],[115.83368,-30.978652],[115.831816,-30.980406],[115.824577,-30.981933],[115.81603,-30.982271],[115.808216,-30.979118],[115.806047,-30.977524],[115.802001,-30.977556],[115.796745,-30.97585],[115.796701,-30.973042],[115.795468,-30.972485],[115.792586,-30.974977],[115.789779,-30.979646],[115.782839,-30.977208],[115.7786,-30.977455],[115.777161,-30.979785],[115.771477,-30.98298],[115.763304,-30.983077],[115.759728,-30.981048],[115.757496,-30.980598],[115.753769,-30.982178],[115.747786,-30.983799],[115.740192,-30.983972],[115.737308,-30.983649],[115.733516,-30.981935],[115.725391,-30.97971],[115.716211,-30.978463],[115.710469,-30.978115],[115.705808,-30.979435],[115.704958,-30.981414],[115.708756,-30.984424],[115.708759,-30.986005],[115.704451,-30.988117],[115.701619,-30.992321],[115.700121,-30.995821],[115.698068,-30.996683],[115.694506,-30.995578],[115.692687,-30.991671],[115.692282,-30.984253],[115.692365,-30.977444],[115.691849,-30.975587],[115.636093,-30.975462],[115.635512,-30.975758],[115.520297,-30.975656],[115.518059,-30.965473],[115.512858,-30.954639],[115.51331,-30.951376],[115.510784,-30.946466],[115.508153,-30.943114],[115.506973,-30.937983],[115.498183,-30.919558],[115.493671,-30.914802],[115.487655,-30.91019],[115.481805,-30.905134],[115.475316,-30.902225],[115.472323,-30.898851],[115.461507,-30.898785],[115.458166,-30.898252],[115.455647,-30.898753],[115.424604,-30.898813],[115.424422,-30.893541],[115.423621,-30.892844],[115.398762,-30.892769],[115.390444,-30.893009],[115.389717,-30.89252],[115.370493,-30.892651],[115.367985,-30.893287],[115.366846,-30.892142],[115.262682,-30.891691],[115.269142,-30.903433],[115.268221,-30.912121],[115.275962,-30.918207],[115.285829,-30.932111],[115.28966,-30.945187],[115.301683,-30.958416],[115.305948,-30.966683],[115.312406,-30.972512],[115.316827,-30.985582],[115.324253,-30.9962],[115.325479,-30.99989],[115.323898,-31.005549],[115.327944,-31.009607],[115.327918,-31.014478],[115.330043,-31.019336],[115.326472,-31.02796],[115.332518,-31.029923],[115.339283,-31.039515],[115.347999,-31.059437],[115.347633,-31.063938],[115.352244,-31.068299],[115.367199,-31.094115],[115.370602,-31.102127],[115.371104,-31.110104],[115.380355,-31.117178],[115.383226,-31.121401],[115.390693,-31.149758],[115.396456,-31.162747],[115.399236,-31.180369],[115.423988,-31.229873],[115.424922,-31.236819],[115.441094,-31.277796],[115.452968,-31.294923],[115.464109,-31.306467],[115.487568,-31.340483],[115.496368,-31.349687],[115.503666,-31.362875],[115.515588,-31.373773],[115.529515,-31.396492],[115.54023,-31.410003],[115.5504,-31.42737],[115.553475,-31.437717],[115.559653,-31.448041],[115.563882,-31.465103],[115.56984,-31.469688],[115.580895,-31.486826],[115.582629,-31.492729],[115.57955,-31.4949],[115.579799,-31.496324],[115.584447,-31.499523],[115.584434,-31.502702],[115.589625,-31.504663],[115.601084,-31.51617],[115.608471,-31.53199],[115.622806,-31.547442],[115.626611,-31.556142],[115.635222,-31.565635],[115.638047,-31.573914],[115.649513,-31.593507],[115.653062,-31.60265],[115.662894,-31.614309],[115.663716,-31.622074],[115.66871,-31.631479],[115.680263,-31.644081],[115.685224,-31.652651],[115.689732,-31.665604],[115.690458,-31.674504],[115.697805,-31.682363],[115.699565,-31.688914],[115.697946,-31.689305],[115.704884,-31.701943],[115.70661,-31.712027],[115.707427,-31.711941],[115.748035,-31.71199],[115.748806,-31.714177],[115.74975,-31.722362],[115.755754,-31.721138],[115.768635,-31.717476],[115.770579,-31.718045],[115.773748,-31.717249],[115.780535,-31.716514],[115.78965,-31.712769],[115.794277,-31.712681],[115.798149,-31.711592],[115.802003,-31.708038],[115.804407,-31.710525],[115.805512,-31.716109],[115.805454,-31.730753],[115.803883,-31.733549],[115.829292,-31.733511],[115.829277,-31.729828],[115.837094,-31.72397],[115.850737,-31.723937],[115.850719,-31.720599],[115.883271,-31.720456],[115.883261,-31.724929],[115.880197,-31.724928],[115.880173,-31.732242],[115.883109,-31.732221],[115.88283,-31.795638],[115.917987,-31.795689],[115.962736,-31.795663],[115.96291,-31.803349],[115.963501,-31.81338],[115.962794,-31.813374],[115.962577,-31.829418],[115.963539,-31.834083],[115.966531,-31.839452],[115.967148,-31.846259],[115.967178,-31.856908],[115.965103,-31.861983],[115.971267,-31.863026],[115.976837,-31.863441],[115.98337,-31.863391],[115.987546,-31.863804],[116.004104,-31.863622],[116.006381,-31.864099],[116.021292,-31.864695],[116.025449,-31.866293],[116.02697,-31.867858],[116.032785,-31.865125],[116.03943,-31.858609],[116.050847,-31.853983],[116.052278,-31.852658],[116.055746,-31.844628],[116.059336,-31.844441],[116.062359,-31.846573],[116.06526,-31.847449],[116.067572,-31.846974],[116.072546,-31.843019],[116.07647,-31.838428],[116.080438,-31.83497],[116.086254,-31.832292],[116.089158,-31.831994],[116.089095,-31.801292],[116.088844,-31.792773],[116.091041,-31.792727],[116.092056,-31.786196],[116.094392,-31.786194],[116.094853,-31.775556],[116.094487,-31.770184],[116.094171,-31.734517],[116.094356,-31.720726],[116.095581,-31.712055],[116.107807,-31.712062],[116.111169,-31.709743],[116.110889,-31.70576],[116.105974,-31.705975],[116.102015,-31.7026],[116.099034,-31.695844],[116.103894,-31.695356],[116.108796,-31.693261],[116.113276,-31.68828],[116.118209,-31.683909],[116.121263,-31.683392],[116.124506,-31.681723],[116.134762,-31.677323],[116.14084,-31.672999],[116.140604,-31.680426],[116.143216,-31.681302],[116.146644,-31.679745],[116.149304,-31.682066],[116.16016,-31.677812],[116.16003,-31.676482],[116.16893,-31.675382],[116.17237,-31.677132],[116.179021,-31.678631],[116.181504,-31.674203],[116.183387,-31.672953],[116.205439,-31.672905],[116.205448,-31.670468],[116.288043,-31.671104],[116.28766,-31.706464],[116.299838,-31.706601],[116.347233,-31.706578],[116.347972,-31.709252],[116.348006,-31.748452],[116.338144,-31.75353],[116.338181,-31.762701],[116.345825,-31.762676],[116.345869,-31.77228],[116.345213,-31.774324],[116.345223,-31.779994],[116.353718,-31.779981],[116.353726,-31.783622],[116.352409,-31.786535],[116.347808,-31.787779],[116.347807,-31.790928],[116.349771,-31.790929],[116.34689,-31.79648],[116.342883,-31.802217],[116.337819,-31.805621],[116.345753,-31.807358],[116.349616,-31.811084],[116.356776,-31.808391],[116.360755,-31.807342],[116.360754,-31.814931],[116.365506,-31.814931],[116.365506,-31.813351],[116.370976,-31.813349],[116.361468,-31.81947],[116.358281,-31.81948],[116.358311,-31.838615],[116.348244,-31.856473],[116.346114,-31.856447],[116.346336,-31.87576],[116.346302,-31.900221],[116.346175,-31.90679],[116.415125,-31.909333],[116.414232,-31.926125],[116.411839,-31.967846],[116.409749,-31.967796],[116.409228,-31.993381],[116.409065,-32.01232],[116.36726,-32.011918],[116.36725,-32.005487],[116.302802,-32.005028],[116.30256,-32.023204],[116.32374,-32.023442],[116.323455,-32.062561],[116.288879,-32.062154],[116.284994,-32.062108],[116.284923,-32.082954],[116.285042,-32.161854],[116.282142,-32.162358],[116.280082,-32.165253],[116.281605,-32.166684],[116.282439,-32.170031],[116.285558,-32.173122],[116.288329,-32.171934],[116.293273,-32.174331],[116.295614,-32.170567],[116.303859,-32.167737],[116.305222,-32.171616],[116.308284,-32.172026],[116.312437,-32.171092],[116.314853,-32.174129],[116.31431,-32.178688],[116.316335,-32.181481],[116.315211,-32.184172],[116.316133,-32.189183],[116.319882,-32.190038],[116.328021,-32.194539],[116.328095,-32.198103],[116.329633,-32.199637],[116.329158,-32.202266],[116.329978,-32.205906],[116.328599,-32.208785],[116.330096,-32.211871],[116.333746,-32.214166],[116.335368,-32.219441],[116.341311,-32.223991],[116.340521,-32.22661],[116.342109,-32.227887],[116.343799,-32.231768],[116.345922,-32.231988],[116.351208,-32.231217],[116.356764,-32.23399],[116.35808,-32.23635],[116.383953,-32.23644],[116.383913,-32.248748],[116.383807,-32.357441],[116.501485,-32.357623],[116.564526,-32.357654],[116.6151,-32.357565],[116.616021,-32.356709],[116.615201,-32.348498],[116.625116,-32.348489],[116.625122,-32.353153],[116.641505,-32.353139],[116.64276,-32.354202],[116.647359,-32.354255],[116.6537,-32.35517],[116.653622,-32.352806],[116.658133,-32.352698],[116.65823,-32.355741],[116.661018,-32.356717],[116.666036,-32.356596],[116.665908,-32.352779],[116.681048,-32.352412],[116.681049,-32.3468],[116.690233,-32.346801],[116.690232,-32.348615],[116.720912,-32.348614],[116.720911,-32.346447],[116.72461,-32.346446],[116.724612,-32.348373],[116.744028,-32.340007],[116.745094,-32.338779],[116.759799,-32.338774],[116.759797,-32.333333],[116.78391,-32.333319],[116.783907,-32.327811],[116.778349,-32.318363],[116.791874,-32.312777],[116.791644,-32.311496],[116.79674,-32.309438],[116.798701,-32.304392],[116.798114,-32.301261],[116.808817,-32.296914],[116.810543,-32.300006],[116.814085,-32.298581],[116.812734,-32.296164],[116.818774,-32.293729],[116.81511,-32.28717],[116.822828,-32.28406],[116.821609,-32.281876],[116.826025,-32.280096],[116.824194,-32.276818],[116.83384,-32.272927],[116.833937,-32.258218],[116.886151,-32.258244],[116.896031,-32.258113],[116.989488,-32.258234],[116.993416,-32.258583],[116.994385,-32.260034],[117.00058,-32.25739],[117.002369,-32.260393],[117.009789,-32.257311],[117.010985,-32.259602],[117.010749,-32.261401],[117.00859,-32.263264],[117.014228,-32.272758],[117.040474,-32.261495],[117.044057,-32.267522],[117.06305,-32.259735],[117.068947,-32.270009],[117.076591,-32.266879],[117.076355,-32.266046],[117.088206,-32.261188],[117.088948,-32.262495],[117.095448,-32.25983],[117.099846,-32.267565],[117.111119,-32.262942],[117.111117,-32.261941],[117.139456,-32.261875],[117.139457,-32.258447],[117.17823,-32.258364],[117.180212,-32.256509],[117.18229,-32.257135],[117.18854,-32.257145],[117.191011,-32.25764],[117.190949,-32.250921],[117.192031,-32.250919],[117.192017,-32.245475],[117.195967,-32.245467],[117.199245,-32.244005],[117.201622,-32.240047],[117.201236,-32.237716],[117.202592,-32.236139],[117.205298,-32.239052],[117.209545,-32.238714],[117.213476,-32.240108],[117.217083,-32.24001],[117.224295,-32.238518],[117.225191,-32.240242],[117.227589,-32.241269],[117.230219,-32.240204],[117.233848,-32.240197],[117.23568,-32.242233],[117.235642,-32.231474],[117.239618,-32.231688],[117.239616,-32.228309]]],[[[115.318405,-31.00712],[115.316087,-31.004237],[115.315643,-31.007987],[115.318405,-31.00712]]]]},"bbox":[115.262682,-32.357654,117.247188,-30.891691]}]}