{"type":"FeatureCollection","features":[
{"properties":{"electorateShortName":"perth","electorateName":"Perth","area":80.395634,"state":"WA"},"type":"Feature","geometry":{"type":"MultiPolygon","coordinates":[[[[115.953364,-31.919948],[115.962268,-31.911077],[115.963064,-31.904327],[115.955944,-31.887658],[115.933427,-31.887497],[115.933392,-31.871782],[115.917385,-31.871875],[115.915478,-31.866122],[115.87829,-31.867862],[115.879575,-31.879538],[115.897523,-31.894817],[115.87749,-31.911693],[115.84592,-31.914091],[115.823045,-31.914195],[115.824917,-31.920735],[115.843977,-31.941431],[115.819685,-31.962606],[115.818139,-31.973694],[115.827252,-31.972849],[115.838086,-31.991159],[115.839354,-31.973109],[115.843248,-31.96489],[115.853216,-31.963464],[115.875517,-31.969503],[115.888287,-31.962772],[115.883047,-31.948088],[115.88635,-31.93882],[115.894734,-31.940679],[115.897878,-31.951591],[115.913123,-31.951321],[115.908454,-31.939952],[115.915346,-31.932542],[115.938077,-31.929154],[115.940185,-31.92099],[115.953364,-31.919948]]],[[[115.75223,-31.867142],[115.74141227425855,-31.876299115157156],[115.73580674137663,-31.89207066425031],[115.73321861571999,-31.908607452489665],[115.73373741568544,-31.92533750348432],[115.73387041568544,-31.926403503484323],[115.73447729228874,-31.930520580246615],[115.73464837096256,-31.931514545275142],[115.73406802626454,-31.932939092970297],[115.73072046072221,-31.943775807495502],[115.72814947191198,-31.961029986024716],[115.72803244867903,-31.974632842129168],[115.72996819761877,-31.992324855693763],[115.73534756826828,-32.009290021161355],[115.74396019770312,-32.02486490742565],[115.749752,-32.026033],[115.750871,-32.021603],[115.751592,-32.001348],[115.749997,-31.996945],[115.754253,-31.973603],[115.754493,-31.894212],[115.750917,-31.876067],[115.75223,-31.867142]]]]},"bbox":[115.72803244867903,-32.026033,115.963064,-31.866122]}]}