{"type":"FeatureCollection","features":[
{"properties":{"electorateShortName":"petrie","electorateName":"Petrie","area":148.665588,"state":"QLD"},"type":"Feature","geometry":{"type":"Polygon","coordinates":[[[153.069523,-27.276801],[153.063699,-27.283303],[153.064933,-27.285593],[153.065041,-27.301931],[153.068126,-27.311149],[153.073538,-27.318831],[153.07839,-27.321893],[153.083676,-27.322248],[153.087776,-27.326976],[153.087822,-27.329247],[153.082686,-27.33078],[153.082602,-27.333821],[153.093608,-27.338916],[153.094306,-27.343033],[153.100543,-27.34296],[153.109327,-27.349004],[153.122436,-27.352404],[153.13580641513104,-27.35963205534337],[153.1396749729359,-27.345775835833834],[153.14142203973043,-27.345173579831513],[153.14569303973042,-27.343204579831514],[153.16045860777567,-27.334611990600493],[153.17333448553416,-27.323384062860235],[153.18385673670758,-27.309925354912014],[153.19164622953105,-27.29472080325978],[153.19421522953104,-27.288258803259776],[153.19901146071155,-27.271750085969455],[153.19902852238744,-27.271564012122607],[153.20375699098858,-27.260630217364167],[153.2074733179389,-27.242550574941955],[153.20743470197007,-27.228336216425166],[153.20898515258392,-27.211018825235673],[153.20728645509118,-27.19469084642373],[153.20600311358896,-27.190331778464476],[153.20344582919094,-27.174528471761224],[153.20167282919093,-27.168042471761222],[153.1952900677721,-27.151392290354405],[153.18574991887903,-27.136327306341578],[153.1734268842179,-27.123438900662453],[153.15637770859797,-27.111875011952975],[153.13884714400805,-27.104380034638154],[153.1201311292578,-27.100746004965913],[153.1049595216521,-27.101056415226687],[153.1008233649863,-27.094898302929877],[153.097734,-27.09328],[153.072155,-27.107072],[153.063807,-27.113975],[153.048431,-27.144569],[153.041492,-27.153787],[153.043144,-27.158446],[153.03715,-27.160916],[153.034908,-27.163521],[153.030614,-27.158517],[153.032094,-27.153008],[153.0236,-27.149419],[153.015906,-27.151282],[153.011881,-27.148453],[153.010563,-27.151414],[153.001138,-27.150828],[152.994728,-27.14954],[152.988342,-27.152564],[152.982296,-27.151348],[152.97767,-27.152091],[152.978741,-27.161834],[152.986548,-27.189522],[152.989739,-27.205922],[152.99163,-27.211176],[152.998285,-27.221755],[153.00531,-27.236046],[153.007286,-27.238928],[153.016188,-27.245951],[153.018277,-27.249316],[153.018917,-27.25336],[153.017541,-27.273253],[153.020339,-27.28244],[153.019237,-27.291221],[153.014596,-27.288503],[153.012388,-27.296162],[153.007163,-27.301165],[152.996983,-27.302554],[152.996709,-27.309206],[153.000415,-27.312065],[153.002537,-27.316819],[152.999947,-27.323049],[152.997396,-27.323889],[152.994741,-27.328581],[152.994092,-27.33396],[152.989038,-27.3361],[152.983133,-27.340067],[152.979151,-27.347755],[152.990465,-27.35243],[152.999425,-27.357035],[153.000811,-27.358731],[153.008877,-27.362769],[153.026437,-27.365258],[153.027858,-27.357873],[153.027237,-27.353668],[153.030845,-27.35381],[153.035136,-27.350982],[153.035283,-27.346783],[153.040426,-27.342409],[153.038857,-27.338967],[153.04653,-27.330501],[153.051177,-27.329583],[153.051442,-27.324293],[153.049167,-27.317382],[153.042375,-27.302863],[153.048373,-27.293732],[153.047422,-27.283838],[153.049898,-27.278044],[153.058885,-27.278048],[153.069523,-27.276801]]]},"bbox":[152.97767,-27.365258,153.20898515258392,-27.09328]}]}