{"type":"FeatureCollection","features":[
{"properties":{"electorateShortName":"riverina","electorateName":"Riverina","area":48988.422154,"state":"NSW"},"type":"Feature","geometry":{"type":"Polygon","coordinates":[[[149.119836,-33.887828],[149.180371,-33.806749],[149.257771,-33.74066],[149.17209,-33.72628],[149.091447,-33.765415],[149.041283,-33.809334],[148.974566,-33.756454],[148.99366,-33.720609],[148.907206,-33.673819],[148.898437,-33.579117],[148.814609,-33.567565],[148.787796,-33.529269],[148.712026,-33.573728],[148.635899,-33.567008],[148.557937,-33.602925],[148.524169,-33.577287],[148.417382,-33.607154],[148.388833,-33.57999],[148.392772,-33.518727],[148.290656,-33.491909],[148.313524,-33.453189],[148.418223,-33.385],[148.397185,-33.269909],[148.495895,-33.190869],[148.486567,-33.123236],[148.505455,-33.062037],[148.481055,-33.016377],[148.381831,-32.93455],[148.3781,-32.833621],[148.328315,-32.798687],[148.329513,-32.701025],[148.347143,-32.675763],[148.127704,-32.682974],[148.09149,-32.605068],[148.011645,-32.564876],[147.965,-32.498077],[147.884151,-32.440243],[147.764157,-32.408945],[147.696901,-32.368952],[147.561644,-32.456001],[147.545261,-32.551855],[147.568364,-32.735381],[147.604589,-32.762737],[147.554975,-33.048197],[147.405017,-33.038017],[147.388534,-33.139417],[147.308075,-33.104384],[147.29794,-33.19184],[147.442535,-33.230847],[147.514722,-33.263086],[147.4804,-33.441743],[147.426412,-33.43462],[147.403225,-33.530578],[147.35835,-33.525344],[147.32036,-33.567801],[147.242778,-33.591816],[146.986431,-33.563834],[146.830767,-33.532427],[146.80888,-33.607151],[146.445623,-33.563875],[146.440808,-33.520858],[146.095141,-33.603131],[146.0703,-33.753534],[146.437173,-33.794594],[146.417149,-33.910601],[146.492733,-33.919648],[146.458028,-34.132912],[146.635404,-34.151187],[146.623872,-34.224735],[146.729043,-34.236768],[146.718745,-34.298111],[146.823028,-34.310851],[146.795492,-34.470798],[146.911568,-34.482591],[146.843266,-34.83723],[146.84358,-34.899125],[146.784477,-34.924058],[146.807657,-34.986944],[146.7942,-35.058208],[146.68864,-35.067993],[146.614742,-35.114432],[146.572021,-35.116577],[146.389251,-35.231731],[146.403804,-35.304452],[146.354226,-35.387797],[146.428237,-35.471405],[146.540285,-35.487197],[146.669769,-35.520279],[146.662323,-35.547763],[146.796881,-35.574699],[146.871365,-35.57586],[147.087341,-35.450465],[147.480995,-35.54516],[147.520095,-35.494156],[147.631217,-35.54716],[147.685594,-35.534198],[147.845391,-35.554599],[147.92309,-35.542743],[147.883819,-35.488498],[147.89795,-35.412611],[147.88534,-35.358071],[147.846795,-35.328457],[147.900025,-35.230347],[147.958622,-35.229068],[147.964299,-35.187705],[148.119788,-35.202562],[148.221527,-35.166189],[148.215651,-35.110415],[148.456831,-35.154524],[148.469226,-35.080143],[148.567022,-35.094995],[148.572175,-35.01861],[148.531103,-34.98869],[148.522239,-34.901612],[148.563403,-34.805531],[148.586709,-34.627441],[148.658767,-34.614207],[148.653642,-34.542419],[148.614761,-34.466248],[148.553622,-34.411429],[148.609878,-34.356317],[148.608096,-34.30067],[148.645351,-34.251831],[148.645477,-34.10725],[148.730955,-34.078698],[148.763135,-34.038251],[148.767364,-33.981956],[148.884141,-33.946849],[148.928353,-33.981549],[148.979466,-33.925907],[149.082078,-33.91288],[149.119836,-33.887828]]]},"bbox":[146.0703,-35.57586,149.257771,-32.368952]}]}