{"type":"FeatureCollection","features":[
{"properties":{"electorateShortName":"ryan","electorateName":"Ryan","area":365.801962,"state":"QLD"},"type":"Feature","geometry":{"type":"Polygon","coordinates":[[[153.021748,-27.500406],[153.003899,-27.47611],[152.992407,-27.412612],[152.976999,-27.400782],[152.897229,-27.41728],[152.775615,-27.401686],[152.748503,-27.318755],[152.736847,-27.373346],[152.748793,-27.495279],[152.842256,-27.495533],[152.860306,-27.598022],[152.927121,-27.530466],[152.965154,-27.543654],[153.021748,-27.500406]]]},"bbox":[152.736847,-27.598022,153.021748,-27.318755]}]}