{"type":"FeatureCollection","features":[
{"properties":{"electorateShortName":"solomon","electorateName":"Solomon","area":190.61,"state":"NT"},"type":"Feature","geometry":{"type":"Polygon","coordinates":[[[130.955869,-12.534051],[131.000654,-12.488903],[130.950965,-12.443354],[130.936876,-12.342998],[130.896927,-12.33006],[130.837721,-12.411611],[130.852739,-12.448424],[130.902178,-12.487761],[130.925858,-12.482971],[130.955869,-12.534051]]]},"bbox":[130.837721,-12.534051,131.000654,-12.33006]}]}