{"type":"FeatureCollection","features":[
{"properties":{"electorateShortName":"solomon","electorateName":"Solomon","area":190.61,"state":"NT"},"type":"Feature","geometry":{"type":"Polygon","coordinates":[[[130.936876,-12.342998],[130.946027,-12.34205],[130.954197,-12.34678],[130.982797,-12.34187],[130.991317,-12.34738],[131.020427,-12.3602],[131.02785270036696,-12.358924882676368],[131.02486655312515,-12.324086031283517],[131.012977,-12.323279],[131.0160414873043,-12.3010887963159],[131.0099604989623,-12.290475090603882],[130.99769085347336,-12.276653794548311],[130.98285667996197,-12.265630196165102],[130.9660835271467,-12.25786915437189],[130.9443326523976,-12.253615742543476],[130.92902799950883,-12.245979527650388],[130.91202192716878,-12.241334901105889],[130.8944366959203,-12.240094460010566],[130.87694701212138,-12.242305797340697],[130.8602239161861,-12.247884068982767],[130.84301961622634,-12.25729572121893],[130.83014619405864,-12.268167512458744],[130.80124018914927,-12.299018500698585],[130.78380164125912,-12.310383655946492],[130.77138420663022,-12.323299151609374],[130.7649263379172,-12.333456021205835],[130.75690451251393,-12.339521769833512],[130.75484451251393,-12.341451769833512],[130.7427883750975,-12.355317191673208],[130.73379938394731,-12.371342122571637],[130.72825219174962,-12.388858658499688],[130.72637800025137,-12.407136726735274],[130.72915257782708,-12.428247591702204],[130.752948,-12.428801],[130.767338,-12.443129],[130.766428,-12.453301],[130.759548,-12.464041],[130.757389,-12.482231],[130.769929,-12.481651],[130.776718,-12.486271],[130.771439,-12.493851],[130.778479,-12.509551],[130.777229,-12.520391],[130.769419,-12.527071],[130.7706592360983,-12.536342267087957],[130.79002912585926,-12.546885982493016],[130.799919,-12.539342],[130.810159,-12.539891],[130.816059,-12.558182],[130.841469,-12.555322],[130.84936032006178,-12.563229212789384],[130.86633394372842,-12.571593599450809],[130.88378147268938,-12.593405735807648],[130.9035654450501,-12.607288601364425],[130.916579,-12.606242],[130.932929,-12.611102],[130.93697949946946,-12.621962616849446],[130.945029,-12.622002],[130.948099,-12.608442],[130.937799,-12.598022],[130.932969,-12.588272],[130.923079,-12.579912],[130.907459,-12.572842],[130.902599,-12.578932],[130.884649,-12.574792],[130.877819,-12.552431],[130.879529,-12.547911],[130.873858,-12.528031],[130.862118,-12.526251],[130.861168,-12.509751],[130.884878,-12.520781],[130.903608,-12.513291],[130.910408,-12.517461],[130.922618,-12.509251],[130.927768,-12.514371],[130.934248,-12.532211],[130.953479,-12.542111],[130.955869,-12.534051],[130.96695,-12.53465],[130.976844,-12.541256],[130.982029,-12.532219],[130.981308,-12.521742],[130.992512,-12.514959],[130.999199,-12.502248],[131.000654,-12.488903],[130.990047,-12.480963],[130.973124,-12.460946],[130.950965,-12.443354],[130.923422,-12.433098],[130.923421,-12.409646],[130.938213,-12.409601],[130.938488,-12.365505],[130.936876,-12.342998]]]},"bbox":[130.72637800025137,-12.622002,131.02785270036696,-12.240094460010566]}]}