{"type":"FeatureCollection","features":[
{"properties":{"electorateShortName":"spence","electorateName":"Spence","area":532.15,"state":"SA"},"type":"Feature","geometry":{"type":"Polygon","coordinates":[[[138.78019,-34.767026],[138.787461,-34.767852],[138.795804,-34.771098],[138.799363,-34.77051],[138.805752,-34.774103],[138.810323,-34.775393],[138.814577,-34.763399],[138.811628,-34.742121],[138.811986,-34.738485],[138.815938,-34.735785],[138.819551,-34.728794],[138.824931,-34.727412],[138.827957,-34.721072],[138.828067,-34.717044],[138.833565,-34.716121],[138.832696,-34.712674],[138.835862,-34.704693],[138.839953,-34.700378],[138.843385,-34.68518],[138.847549,-34.680538],[138.841092,-34.679338],[138.842023,-34.674111],[138.836713,-34.673433],[138.828957,-34.668342],[138.825968,-34.670961],[138.822787,-34.668288],[138.819571,-34.669392],[138.814606,-34.6677],[138.80895,-34.668031],[138.8082,-34.666035],[138.802662,-34.663633],[138.799103,-34.665488],[138.790293,-34.661118],[138.795767,-34.653842],[138.809727,-34.649441],[138.814794,-34.642997],[138.816113,-34.639045],[138.800976,-34.609536],[138.800443,-34.601906],[138.805873,-34.602254],[138.815425,-34.600873],[138.818568,-34.595339],[138.824788,-34.590962],[138.824411,-34.58233],[138.821489,-34.581615],[138.823308,-34.577038],[138.820916,-34.561723],[138.813489,-34.562677],[138.81289,-34.557851],[138.807203,-34.560335],[138.802355,-34.560918],[138.805859,-34.555677],[138.804213,-34.551384],[138.798589,-34.551006],[138.792362,-34.557416],[138.788533,-34.556113],[138.790093,-34.562915],[138.775867,-34.560058],[138.772815,-34.560872],[138.769007,-34.565854],[138.770362,-34.56727],[138.761748,-34.571745],[138.749733,-34.569137],[138.758125,-34.56222],[138.752726,-34.558663],[138.747465,-34.558248],[138.723546,-34.555939],[138.721897,-34.566806],[138.703304,-34.564963],[138.715442,-34.590974],[138.706003,-34.594654],[138.695786,-34.593168],[138.682444,-34.586545],[138.686235,-34.595716],[138.684394,-34.610522],[138.680426,-34.615592],[138.678396,-34.61365],[138.671056,-34.615657],[138.666695,-34.620067],[138.662047,-34.620318],[138.651681,-34.62507],[138.646277,-34.630572],[138.638384,-34.632047],[138.634913,-34.629604],[138.631647,-34.630675],[138.628867,-34.62736],[138.62577,-34.627381],[138.621373,-34.631256],[138.612154,-34.633701],[138.604049,-34.634103],[138.600037,-34.632656],[138.594056,-34.634611],[138.59052,-34.638999],[138.58212,-34.639083],[138.576135,-34.636031],[138.568943,-34.635256],[138.558493,-34.638764],[138.553667,-34.637928],[138.549078,-34.635351],[138.54445,-34.63931],[138.540868,-34.639793],[138.537902,-34.635282],[138.533329,-34.639698],[138.529465,-34.641335],[138.524346,-34.636672],[138.520026,-34.637123],[138.518697,-34.639591],[138.511329,-34.640988],[138.507619,-34.644329],[138.49985,-34.647279],[138.49197,-34.647424],[138.492389,-34.651167],[138.490021,-34.653266],[138.488692,-34.6584],[138.474046,-34.66366],[138.472075,-34.667273],[138.466767,-34.672001],[138.456268,-34.675616],[138.451464,-34.676114],[138.447071,-34.674013],[138.444655,-34.670494],[138.43878392881527,-34.669774159942804],[138.43867713712135,-34.66983942300026],[138.435127,-34.672009],[138.430262,-34.667742],[138.436243,-34.653886],[138.442785,-34.655395],[138.445781,-34.653393],[138.432957,-34.631105],[138.426467,-34.621629],[138.422155,-34.62005],[138.417935,-34.622098],[138.411779,-34.61324],[138.414224,-34.611499],[138.407795,-34.601436],[138.402367,-34.59767],[138.398692,-34.598486],[138.39015448836568,-34.59434015111171],[138.3766670698923,-34.604610888670564],[138.3626302049709,-34.620352594825526],[138.3539581434364,-34.63562764339448],[138.3484182070675,-34.6522962025725],[138.34622141392828,-34.66972336126077],[138.34745144061796,-34.68724531304661],[138.35206143500076,-34.704194640815956],[138.36142580081986,-34.72240473889868],[138.373543980453,-34.737772346224055],[138.38869756769103,-34.75015711212203],[138.39398403662858,-34.753592368402316],[138.39447432642555,-34.75433902708563],[138.40853116268732,-34.76800946597636],[138.4199811466838,-34.77507943807635],[138.42263824255943,-34.77898555279671],[138.4352018736617,-34.79134737643889],[138.44993387463785,-34.80102351500101],[138.45869737330162,-34.80457462351736],[138.4590135177707,-34.80582295406194],[138.46721740599332,-34.82256686098042],[138.47425240599333,-34.833803860980424],[138.47875573696376,-34.83962136707833],[138.488512,-34.819798],[138.490256,-34.810966],[138.488394,-34.797054],[138.481691,-34.795753],[138.485446,-34.790504],[138.477997,-34.78294],[138.487623,-34.77059],[138.496325,-34.764612],[138.507004,-34.763389],[138.51369,-34.766567],[138.515749,-34.771573],[138.510594,-34.790777],[138.510296,-34.801181],[138.512092,-34.807273],[138.511546,-34.818085],[138.506326,-34.82632],[138.505872,-34.838453],[138.508541,-34.835876],[138.509575,-34.828072],[138.51636,-34.816505],[138.51616,-34.810835],[138.533039,-34.815146],[138.540331,-34.815441],[138.540695,-34.813132],[138.545732,-34.81061],[138.558473,-34.825161],[138.561471,-34.826549],[138.56627,-34.825305],[138.558316,-34.822384],[138.547565,-34.809637],[138.549512,-34.801437],[138.553874,-34.797933],[138.551163,-34.793146],[138.550536,-34.786046],[138.572278,-34.786165],[138.575302,-34.788011],[138.585224,-34.78211],[138.592468,-34.779667],[138.591994,-34.773673],[138.596544,-34.769509],[138.607409,-34.767724],[138.647038,-34.791796],[138.676105,-34.758684],[138.680179,-34.755628],[138.690821,-34.755127],[138.695714,-34.753988],[138.701353,-34.755861],[138.705383,-34.752998],[138.711715,-34.755509],[138.720128,-34.755396],[138.722526,-34.751688],[138.722305,-34.746266],[138.72865,-34.740625],[138.730819,-34.736815],[138.736359,-34.735677],[138.739087,-34.742236],[138.744132,-34.741443],[138.750085,-34.743496],[138.751805,-34.749088],[138.756171,-34.748707],[138.755644,-34.744861],[138.765976,-34.743471],[138.767744,-34.738527],[138.771396,-34.734253],[138.775767,-34.734847],[138.771688,-34.739498],[138.77136,-34.745874],[138.768474,-34.753476],[138.769023,-34.756775],[138.778753,-34.76445],[138.78019,-34.767026]],[[138.537055,-34.812005],[138.524303,-34.810078],[138.531174,-34.803385],[138.537721,-34.801407],[138.540294,-34.805248],[138.544082,-34.80611],[138.540391,-34.81075],[138.537055,-34.812005]],[[138.529523,-34.774156],[138.541282,-34.787312],[138.546309,-34.799042],[138.545146,-34.802006],[138.537991,-34.800077],[138.529285,-34.801922],[138.523699,-34.809017],[138.518591,-34.805594],[138.516103,-34.796182],[138.522502,-34.769668],[138.518938,-34.763234],[138.513522,-34.759487],[138.518133,-34.756868],[138.52175,-34.760124],[138.529523,-34.774156]]]},"bbox":[138.34622141392828,-34.83962136707833,138.847549,-34.551006]}]}