{"type":"FeatureCollection","features":[
{"properties":{"electorateShortName":"spence","electorateName":"Spence","area":532.15,"state":"SA"},"type":"Feature","geometry":{"type":"Polygon","coordinates":[[[138.78019,-34.767026],[138.799363,-34.77051],[138.810323,-34.775393],[138.814577,-34.763399],[138.811628,-34.742121],[138.839953,-34.700378],[138.847549,-34.680538],[138.836713,-34.673433],[138.790293,-34.661118],[138.795767,-34.653842],[138.809727,-34.649441],[138.816113,-34.639045],[138.800976,-34.609536],[138.800443,-34.601906],[138.815425,-34.600873],[138.824788,-34.590962],[138.820916,-34.561723],[138.807203,-34.560335],[138.798589,-34.551006],[138.790093,-34.562915],[138.775867,-34.560058],[138.761748,-34.571745],[138.758125,-34.56222],[138.747465,-34.558248],[138.723546,-34.555939],[138.721897,-34.566806],[138.703304,-34.564963],[138.715442,-34.590974],[138.706003,-34.594654],[138.686235,-34.595716],[138.684394,-34.610522],[138.638384,-34.632047],[138.62577,-34.627381],[138.612154,-34.633701],[138.600037,-34.632656],[138.59052,-34.638999],[138.568943,-34.635256],[138.558493,-34.638764],[138.537902,-34.635282],[138.524346,-34.636672],[138.49985,-34.647279],[138.49197,-34.647424],[138.488692,-34.6584],[138.474046,-34.66366],[138.466767,-34.672001],[138.451464,-34.676114],[138.444655,-34.670494],[138.43878392881527,-34.669774159942804],[138.43867713712135,-34.66983942300026],[138.435127,-34.672009],[138.430262,-34.667742],[138.436243,-34.653886],[138.445781,-34.653393],[138.426467,-34.621629],[138.417935,-34.622098],[138.407795,-34.601436],[138.39015448836568,-34.59434015111171],[138.3766670698923,-34.604610888670564],[138.3626302049709,-34.620352594825526],[138.3539581434364,-34.63562764339448],[138.3484182070675,-34.6522962025725],[138.34622141392828,-34.66972336126077],[138.34745144061796,-34.68724531304661],[138.35206143500076,-34.704194640815956],[138.36142580081986,-34.72240473889868],[138.373543980453,-34.737772346224055],[138.38869756769103,-34.75015711212203],[138.39398403662858,-34.753592368402316],[138.39447432642555,-34.75433902708563],[138.40853116268732,-34.76800946597636],[138.4199811466838,-34.77507943807635],[138.4352018736617,-34.79134737643889],[138.44993387463785,-34.80102351500101],[138.45869737330162,-34.80457462351736],[138.4590135177707,-34.80582295406194],[138.46721740599332,-34.82256686098042],[138.47875573696376,-34.83962136707833],[138.488512,-34.819798],[138.490256,-34.810966],[138.485446,-34.790504],[138.477997,-34.78294],[138.496325,-34.764612],[138.507004,-34.763389],[138.515749,-34.771573],[138.510594,-34.790777],[138.512092,-34.807273],[138.51616,-34.810835],[138.540331,-34.815441],[138.545732,-34.81061],[138.558473,-34.825161],[138.56627,-34.825305],[138.558316,-34.822384],[138.547565,-34.809637],[138.553874,-34.797933],[138.550536,-34.786046],[138.575302,-34.788011],[138.592468,-34.779667],[138.596544,-34.769509],[138.607409,-34.767724],[138.647038,-34.791796],[138.680179,-34.755628],[138.705383,-34.752998],[138.720128,-34.755396],[138.722305,-34.746266],[138.730819,-34.736815],[138.755644,-34.744861],[138.77136,-34.745874],[138.769023,-34.756775],[138.78019,-34.767026]],[[138.529523,-34.774156],[138.541282,-34.787312],[138.546309,-34.799042],[138.518591,-34.805594],[138.516103,-34.796182],[138.522502,-34.769668],[138.529523,-34.774156]]]},"bbox":[138.34622141392828,-34.83962136707833,138.847549,-34.551006]}]}