{"type":"FeatureCollection","features":[
{"properties":{"electorateShortName":"swan","electorateName":"Swan","area":133.885941,"state":"WA"},"type":"Feature","geometry":{"type":"MultiPolygon","coordinates":[[[[115.941156,-32.02962],[115.977372,-31.997795],[115.998437,-31.972067],[116.011282,-31.960115],[116.017803,-31.931478],[116.003892,-31.926252],[115.997691,-31.917679],[115.970419,-31.916],[115.953364,-31.919948],[115.940185,-31.92099],[115.938077,-31.929154],[115.915346,-31.932542],[115.908454,-31.939952],[115.913123,-31.951321],[115.897878,-31.951591],[115.894734,-31.940679],[115.88635,-31.93882],[115.883047,-31.948088],[115.888287,-31.962772],[115.875517,-31.969503],[115.853216,-31.963464],[115.843248,-31.96489],[115.839354,-31.973109],[115.838086,-31.991159],[115.848484,-31.99786],[115.856765,-32.02606],[115.863805,-32.034489],[115.874951,-32.031602],[115.880133,-32.023755],[115.894083,-32.019362],[115.901306,-32.028],[115.912331,-32.031424],[115.930786,-32.020988],[115.941156,-32.02962]]],[[[115.754253,-31.973603],[115.7514529672057,-31.95378522102965],[115.749354,-31.973109],[115.749354,-31.979241392139507],[115.74811751986097,-31.988777281823495],[115.74951588796542,-32.00713821319026],[115.751592,-32.001348],[115.749997,-31.996945],[115.754253,-31.973603]]]]},"bbox":[115.74811751986097,-32.034489,116.017803,-31.916]}]}