{"type":"FeatureCollection","features":[
{"properties":{"electorateShortName":"sydney","electorateName":"Sydney","area":43.987546,"state":"NSW"},"type":"Feature","geometry":{"type":"MultiPolygon","coordinates":[[[[151.179039,-33.920542],[151.180834,-33.919165],[151.182005,-33.919457],[151.187447,-33.920163],[151.211162,-33.923502],[151.212279,-33.922829],[151.211269,-33.921103],[151.211284,-33.919806],[151.212955,-33.912213],[151.21317,-33.909323],[151.213949,-33.904603],[151.215031,-33.900896],[151.218198,-33.885041],[151.217643,-33.883947],[151.216993,-33.880587],[151.219205,-33.881626],[151.22137,-33.881371],[151.223325,-33.879795],[151.224787,-33.879028],[151.227838,-33.879056],[151.229422,-33.876931],[151.227324,-33.876267],[151.224443,-33.875994],[151.225734,-33.868378],[151.227567,-33.868049],[151.228845,-33.866495],[151.228364,-33.864189],[151.228883,-33.861091],[151.230842,-33.85917],[151.22665,-33.854461],[151.195942,-33.849776],[151.194129,-33.853752],[151.197663,-33.856925],[151.198714,-33.859146],[151.198189,-33.86109],[151.193246,-33.861],[151.190619,-33.862507],[151.188947,-33.864133],[151.186071,-33.868207],[151.185222,-33.869707],[151.181377,-33.870342],[151.180135,-33.870163],[151.17558,-33.871593],[151.174978,-33.872667],[151.174994,-33.875612],[151.176367,-33.876785],[151.176844,-33.878278],[151.175748,-33.880294],[151.176099,-33.882475],[151.175265,-33.883008],[151.17654,-33.886821],[151.17357,-33.887431],[151.173136,-33.887914],[151.171947,-33.894771],[151.171465,-33.895392],[151.17467,-33.897037],[151.176072,-33.897513],[151.178712,-33.897743],[151.177847,-33.898864],[151.178234,-33.900481],[151.181554,-33.906851],[151.181197,-33.909555],[151.181261,-33.915908],[151.17891,-33.916219],[151.176697,-33.917844],[151.179039,-33.920542]]],[[[158.94976394558378,-31.496391718459954],[158.94782181703312,-31.50409042570681],[158.94710125113576,-31.522822122904444],[158.95027661142998,-31.541296775326565],[158.95183361143,-31.546824775326563],[158.95818029116379,-31.56310283993674],[158.96755249645068,-31.577847923834657],[158.97714120218023,-31.58792375846292],[158.97719960283567,-31.5950935637173],[158.9776506028357,-31.599764563717297],[158.98132027006153,-31.617926024002426],[158.983230688541,-31.62237482694443],[158.9855775216217,-31.630106332890694],[158.99383193757268,-31.645584695711328],[159.00493207473266,-31.659167849002365],[159.01845624423785,-31.670339775313174],[159.02330393426365,-31.67295805987127],[159.0245876896778,-31.673950884485627],[159.04020738396278,-31.681766134341068],[159.05704245511657,-31.68641730184045],[159.0744588798525,-31.687729220007785],[159.09180074060708,-31.685652480874396],[159.0939207406071,-31.685186480874396],[159.11086783305893,-31.67965351187525],[159.12639185431473,-31.670888670030337],[159.13988369220755,-31.65923585926254],[159.1412670837788,-31.657453372230737],[159.14894796523552,-31.650181624805377],[159.1518356685067,-31.646203023366898],[159.160543553505,-31.63962927350128],[159.172145406949,-31.62668331082874],[159.1798514278346,-31.613746940576956],[159.18447625185027,-31.60693930457082],[159.19134432027892,-31.590733558002533],[159.19492692629612,-31.573500986519978],[159.19500247844095,-31.56519640967148],[159.19676447033785,-31.560078598753687],[159.19915021980623,-31.542720911903622],[159.19812767493156,-31.525229900060676],[159.19373558904016,-31.508268453340733],[159.18614041735788,-31.492479391923816],[159.1756300085398,-31.478461103876118],[159.16260269552308,-31.466744866900257],[159.1543270343274,-31.461812541174893],[159.15339422058878,-31.45884297780166],[159.14504715425417,-31.443513277219637],[159.1338979910787,-31.430083109803842],[159.12036609546084,-31.41905763760008],[159.10496045584887,-31.41085157249704],[159.08826053965987,-31.405773577261694],[159.07089449720397,-31.404014655504216],[159.05351553445118,-31.40564096727205],[159.0367773433553,-31.410591340507224],[159.02130951389805,-31.4186795719709],[159.0162523511498,-31.422736196051257],[159.01001808918735,-31.426860817448684],[159.0070147942273,-31.427643313143612],[158.9914381102521,-31.43511241639771],[158.97757538796213,-31.445419963040663],[158.9659373584346,-31.45818620194647],[158.9569527905094,-31.472940798731283],[158.95095269406747,-31.489140163835266],[158.94976394558378,-31.496391718459954]]],[[[151.297149,-33.799331],[151.29807459402525,-33.799337777050624],[151.29386659402525,-33.794611777050626],[151.28843543675487,-33.78948239679102],[151.288071,-33.79454],[151.290332,-33.799121],[151.29413,-33.800895],[151.297349,-33.800874],[151.297149,-33.799331]]],[[[151.24988,-34.001238],[151.23932131695716,-34.01035408253575],[151.2474620818981,-34.007986963552334],[151.26262907179498,-34.00023461349151],[151.27606380085436,-33.98976348322305],[151.28728504618047,-33.976948641541256],[151.29589087036567,-33.96224910739588],[151.30157301861627,-33.94619140814423],[151.30412796023032,-33.929350719697894],[151.30403992054005,-33.9270932357397],[151.3122664106789,-33.91209921888107],[151.31761455557833,-33.89487739631135],[151.31942199990783,-33.87693507284186],[151.31916240329997,-33.874355741728216],[151.3205535668928,-33.86695546691169],[151.3202868042313,-33.84891983030638],[151.31592874660578,-33.82979604923934],[151.31591974660577,-33.829770049239336],[151.30922165549023,-33.814924846909456],[151.30598638233494,-33.81039749917874],[151.301061,-33.818464],[151.301529,-33.823317],[151.290672,-33.828322],[151.280955,-33.832769],[151.287848,-33.850202],[151.286273,-33.852492],[151.286331,-33.857691],[151.282829,-33.862556],[151.28462,-33.873529],[151.282691,-33.877446],[151.285816,-33.885969],[151.285699,-33.891955],[151.283504,-33.893711],[151.282233,-33.890967],[151.279833,-33.890809],[151.274326,-33.893627],[151.274416,-33.896864],[151.27637,-33.898681],[151.270437,-33.90047],[151.268401,-33.90374],[151.271398,-33.914235],[151.266539,-33.913935],[151.268249,-33.915175],[151.266978,-33.916334],[151.261402,-33.914886],[151.262888,-33.917735],[151.257682,-33.922042],[151.261377,-33.927516],[151.259779,-33.929651],[151.261772,-33.935191],[151.25946,-33.937314],[151.265693,-33.941447],[151.261745,-33.945022],[151.258558,-33.945658],[151.256967,-33.951596],[151.265739,-33.958847],[151.262961,-33.961215],[151.265965,-33.96803],[151.260411,-33.967842],[151.256485,-33.964933],[151.251886,-33.964671],[151.257516,-33.971637],[151.258952,-33.975768],[151.251185,-33.978936],[151.253515,-33.980583],[151.254113,-33.983334],[151.252027,-33.98647],[151.253132,-33.991321],[151.249186,-33.998521],[151.24988,-34.001238]]]]},"bbox":[151.171465,-34.01035408253575,159.19915021980623,-31.404014655504216]}]}