{"type":"FeatureCollection","features":[
{"properties":{"electorateShortName":"wannon","electorateName":"Wannon","area":33419.73,"state":"VIC"},"type":"Feature","geometry":{"type":"Polygon","coordinates":[[[143.287111,-38.757535],[143.280146,-38.747288],[143.252428,-38.742049],[143.251448,-38.724726],[143.259327,-38.713133],[143.248905,-38.698555],[143.247298,-38.688258],[143.2777,-38.653747],[143.264309,-38.639796],[143.265235,-38.628625],[143.280165,-38.624218],[143.291639,-38.612237],[143.28146,-38.604697],[143.278911,-38.587479],[143.270704,-38.581105],[143.277853,-38.567044],[143.322564,-38.557165],[143.344627,-38.545621],[143.362114,-38.520856],[143.351116,-38.516751],[143.344665,-38.499482],[143.351479,-38.493894],[143.364312,-38.495939],[143.373465,-38.515259],[143.387792,-38.502908],[143.408425,-38.497988],[143.433291,-38.500873],[143.451531,-38.492607],[143.459722,-38.511419],[143.48755,-38.515148],[143.494794,-38.512811],[143.502968,-38.471012],[143.557956,-38.477516],[143.567631,-38.473923],[143.569878,-38.463678],[143.586203,-38.45687],[143.639794,-38.462162],[143.643873,-38.440825],[143.652886,-38.441883],[143.665785,-38.373727],[143.67403,-38.374632],[143.680464,-38.339245],[143.672193,-38.338346],[143.6757,-38.312004],[143.685642,-38.31189],[143.689734,-38.279444],[143.709347,-38.275866],[143.72408,-38.258332],[143.740241,-38.260434],[143.744359,-38.238835],[143.757597,-38.229145],[143.763024,-38.2005],[143.747421,-38.198583],[143.752719,-38.169867],[143.75958,-38.170576],[143.768767,-38.122981],[143.751815,-38.063326],[143.729862,-38.057857],[143.735576,-38.027397],[143.752317,-38.023704],[143.739365,-38.005477],[143.745882,-37.972929],[143.778925,-37.976885],[143.787175,-37.970538],[143.838206,-37.976385],[143.850183,-37.913518],[143.850758,-37.899745],[143.862524,-37.883446],[143.87298,-37.889219],[143.888627,-37.886646],[143.934949,-37.891921],[143.932881,-37.880555],[143.936793,-37.864347],[143.929252,-37.851796],[143.92276,-37.829647],[143.912694,-37.819612],[143.918605,-37.809731],[143.916364,-37.796949],[143.906745,-37.787615],[143.892573,-37.787295],[143.887797,-37.77308],[143.897361,-37.770236],[143.90261,-37.749229],[143.895383,-37.744187],[143.890057,-37.717462],[143.871019,-37.703718],[143.870844,-37.69321],[143.855533,-37.685365],[143.848894,-37.674916],[143.834628,-37.665216],[143.830104,-37.629881],[143.83196,-37.61873],[143.776224,-37.598492],[143.756956,-37.594469],[143.728376,-37.57953],[143.710005,-37.566938],[143.707238,-37.557878],[143.67999,-37.562394],[143.662188,-37.572407],[143.668559,-37.538443],[143.648814,-37.536221],[143.625409,-37.529479],[143.606051,-37.534925],[143.600794,-37.520378],[143.613246,-37.500982],[143.624668,-37.437169],[143.665129,-37.236655],[143.6364,-37.230834],[143.640639,-37.208311],[143.582284,-37.201733],[143.585412,-37.184553],[143.489971,-37.172003],[143.484067,-37.169724],[143.474748,-37.212646],[143.472369,-37.241127],[143.467656,-37.251447],[143.474276,-37.264827],[143.46687,-37.269288],[143.446169,-37.260325],[143.439571,-37.251042],[143.405776,-37.233753],[143.390832,-37.230053],[143.338415,-37.22268],[143.336272,-37.20632],[143.317588,-37.203791],[143.293612,-37.210623],[143.282552,-37.19533],[143.270918,-37.197545],[143.263783,-37.18183],[143.242238,-37.173775],[143.224695,-37.153609],[143.202279,-37.161336],[143.191238,-37.181645],[143.180461,-37.188585],[143.164704,-37.17569],[143.152078,-37.171846],[143.131118,-37.174201],[143.113193,-37.157514],[143.090714,-37.155061],[143.083715,-37.148659],[143.066938,-37.147368],[143.062125,-37.171493],[143.052885,-37.170364],[143.04891,-37.18975],[142.993522,-37.183072],[142.994529,-37.177348],[142.972607,-37.174792],[142.974843,-37.16052],[142.961733,-37.157771],[142.93811,-37.133829],[142.922211,-37.135457],[142.906685,-37.124974],[142.874392,-37.114611],[142.862816,-37.116473],[142.843992,-37.108848],[142.837322,-37.071781],[142.811247,-37.062774],[142.802079,-37.06337],[142.806058,-37.045013],[142.819235,-37.034402],[142.81826,-37.001373],[142.795578,-36.971593],[142.785619,-36.970124],[142.785628,-36.955706],[142.731448,-36.955669],[142.731451,-36.944665],[142.677181,-36.944503],[142.677201,-36.987285],[142.643727,-36.986718],[142.631563,-36.982989],[142.631626,-36.943362],[142.616331,-36.946817],[142.613691,-36.954306],[142.580213,-36.954292],[142.559399,-36.942736],[142.539203,-36.94927],[142.511932,-36.949204],[142.511864,-36.939887],[142.497797,-36.942023],[142.498111,-36.916649],[142.493345,-36.897675],[142.480191,-36.897676],[142.48037,-36.916782],[142.455817,-36.916713],[142.455871,-36.897673],[142.449478,-36.897671],[142.449479,-36.87486],[142.441672,-36.868827],[142.377304,-36.86898],[142.372639,-36.878928],[142.352751,-36.88501],[142.368323,-36.891795],[142.374034,-36.903423],[142.358311,-36.903352],[142.358075,-36.926564],[142.375108,-36.927064],[142.375878,-36.965699],[142.358234,-36.965667],[142.35825,-36.973137],[142.394686,-36.973258],[142.394658,-36.978374],[142.351509,-36.980315],[142.351482,-36.991285],[142.339994,-36.991314],[142.339931,-37.003233],[142.346897,-37.013759],[142.360877,-37.02145],[142.36841,-37.009028],[142.380473,-37.015394],[142.404951,-37.01631],[142.410997,-37.021377],[142.410935,-37.034586],[142.395918,-37.028522],[142.395798,-37.043039],[142.406815,-37.046016],[142.406919,-37.058336],[142.374564,-37.058575],[142.353865,-37.074549],[142.340377,-37.066265],[142.315138,-37.085973],[142.30819,-37.098472],[142.300239,-37.098476],[142.288422,-37.088745],[142.271164,-37.107397],[142.235124,-37.10717],[142.233639,-37.123716],[142.222559,-37.120517],[142.215885,-37.111344],[142.211661,-37.089919],[142.201413,-37.095054],[142.192094,-37.107513],[142.181345,-37.110771],[142.164157,-37.105892],[142.141374,-37.111591],[142.132795,-37.10899],[142.114488,-37.112054],[142.10738,-37.130521],[142.108037,-37.164385],[142.092533,-37.1707],[142.087567,-37.198525],[142.088345,-37.20964],[142.079239,-37.223433],[142.064596,-37.218555],[142.038164,-37.223986],[141.995775,-37.222621],[141.99113,-37.213233],[141.937174,-37.206681],[141.938195,-37.200072],[141.921277,-37.198303],[141.911057,-37.191431],[141.92973,-37.179657],[141.934258,-37.169757],[141.924493,-37.15036],[141.926846,-37.130024],[141.922912,-37.121018],[141.905195,-37.119815],[141.908974,-37.134682],[141.891121,-37.135842],[141.88113,-37.147105],[141.837561,-37.153955],[141.842206,-37.166161],[141.831747,-37.171684],[141.809229,-37.176947],[141.796669,-37.173084],[141.768053,-37.179546],[141.763091,-37.174769],[141.740402,-37.175218],[141.72887,-37.178746],[141.726774,-37.186981],[141.702533,-37.181087],[141.693165,-37.16692],[141.668346,-37.155164],[141.645935,-37.15929],[141.63407,-37.164456],[141.612488,-37.166065],[141.59906,-37.161089],[141.586186,-37.17333],[141.576169,-37.188063],[141.542425,-37.202105],[141.529107,-37.20418],[141.491386,-37.220626],[141.49181,-37.250776],[141.51094,-37.260738],[141.523334,-37.274978],[141.524789,-37.290042],[141.53141,-37.297658],[141.431506,-37.297536],[141.43153,-37.372302],[141.221004,-37.348705],[141.220881,-37.364574],[141.248472,-37.369243],[141.274354,-37.385772],[141.279118,-37.393094],[141.268635,-37.422038],[141.261036,-37.429675],[141.168237,-37.41988],[141.0976,-37.449839],[141.095296,-37.445612],[141.046408,-37.40186],[141.023785,-37.39137],[141.00363,-37.377604],[140.99225,-37.374153],[140.973283,-37.358326],[140.973872,-37.462093],[140.972393,-37.643462],[140.972925,-37.654266],[140.971091,-37.791453],[140.968887,-37.875991],[140.965735,-38.055989],[140.990804,-38.059799],[141.028512,-38.071588],[141.086916,-38.096975],[141.100559,-38.105497],[141.128368,-38.11625],[141.205664,-38.157202],[141.232691,-38.173934],[141.270838,-38.201233],[141.322372,-38.243226],[141.35744,-38.274598],[141.387304,-38.311209],[141.397801,-38.338351],[141.39014,-38.346881],[141.371639,-38.357118],[141.364091,-38.377011],[141.374319,-38.386757],[141.389162,-38.387271],[141.401186,-38.39501],[141.413158,-38.396301],[141.406722,-38.369341],[141.424386,-38.361892],[141.447151,-38.359656],[141.469217,-38.365149],[141.499203,-38.378465],[141.519235,-38.390029],[141.528466,-38.404854],[141.521222,-38.411026],[141.526249,-38.423141],[141.542787,-38.432968],[141.555861,-38.42627],[141.557894,-38.405684],[141.579269,-38.38784],[141.614846,-38.39302],[141.617244,-38.40025],[141.63523,-38.392164],[141.650257,-38.393048],[141.634154,-38.375386],[141.621082,-38.354187],[141.623594,-38.341701],[141.607931,-38.342272],[141.60981,-38.332772],[141.59922,-38.321074],[141.611232,-38.304841],[141.637442,-38.292845],[141.663604,-38.275561],[141.704748,-38.258015],[141.742014,-38.253109],[141.769645,-38.253559],[141.804004,-38.258812],[141.845274,-38.261408],[141.903504,-38.269872],[141.929505,-38.278215],[141.97036,-38.29455],[142.00267,-38.310335],[142.073813,-38.355897],[142.136453,-38.380713],[142.147231,-38.389581],[142.180334,-38.390286],[142.197634,-38.395125],[142.233573,-38.392431],[142.244905,-38.396468],[142.244323,-38.378032],[142.261528,-38.364586],[142.309371,-38.356322],[142.316959,-38.359978],[142.343942,-38.351327],[142.372205,-38.349418],[142.420745,-38.370795],[142.453288,-38.391484],[142.472772,-38.401661],[142.478862,-38.395027],[142.492181,-38.393871],[142.509026,-38.403355],[142.527525,-38.406023],[142.563319,-38.422004],[142.603201,-38.448286],[142.615115,-38.452688],[142.662901,-38.48374],[142.690181,-38.499983],[142.690559,-38.50341],[142.720624,-38.520696],[142.776154,-38.561504],[142.79147,-38.571292],[142.807602,-38.571536],[142.82519,-38.58473],[142.8399,-38.587402],[142.871848,-38.604997],[142.888778,-38.610824],[142.90065,-38.610166],[142.910988,-38.618392],[142.921447,-38.617274],[142.929846,-38.624073],[142.947884,-38.619768],[142.974874,-38.625363],[142.987085,-38.621868],[143.021214,-38.625906],[143.038226,-38.63681],[143.069975,-38.646625],[143.112149,-38.669307],[143.163109,-38.71053],[143.185605,-38.733816],[143.215322,-38.758393],[143.233065,-38.766477],[143.257632,-38.770702],[143.267387,-38.763093],[143.287111,-38.757535]]]},"bbox":[140.965735,-38.770702,143.936793,-36.868827]}]}