{"type":"FeatureCollection","features":[
{"properties":{"electorateShortName":"warringah","electorateName":"Warringah","area":68.22812,"state":"NSW"},"type":"Feature","geometry":{"type":"Polygon","coordinates":[[[151.290672,-33.828322],[151.301529,-33.823317],[151.301061,-33.818464],[151.307595,-33.807763],[151.303564,-33.806415],[151.30214,-33.802652],[151.298607,-33.79939],[151.297349,-33.800874],[151.29413,-33.800895],[151.290332,-33.799121],[151.288071,-33.79454],[151.288595,-33.787268],[151.291345,-33.785715],[151.289885,-33.782404],[151.292508,-33.780693],[151.295954,-33.781772],[151.29314,-33.773274],[151.298518,-33.767561],[151.30037,-33.766802],[151.302525,-33.768177],[151.301848,-33.760243],[151.299717,-33.756601],[151.284494,-33.754431],[151.28048,-33.758586],[151.278527,-33.75818],[151.274556,-33.755306],[151.266866,-33.754371],[151.263439,-33.755157],[151.258469,-33.7533],[151.247201,-33.751709],[151.239887,-33.753112],[151.228765,-33.751378],[151.227126,-33.751393],[151.221316,-33.755477],[151.218316,-33.760127],[151.216724,-33.760791],[151.2127,-33.759915],[151.209219,-33.76019],[151.20764,-33.761429],[151.204514,-33.765689],[151.205658,-33.769778],[151.203599,-33.773133],[151.209503,-33.777335],[151.212466,-33.778566],[151.213645,-33.782764],[151.216877,-33.782988],[151.222669,-33.785059],[151.230941,-33.784287],[151.232697,-33.785387],[151.234942,-33.788918],[151.232938,-33.792589],[151.232766,-33.794651],[151.234281,-33.798376],[151.233018,-33.804093],[151.235228,-33.806873],[151.233208,-33.811542],[151.234028,-33.814165],[151.229988,-33.815647],[151.232907,-33.818332],[151.230912,-33.827778],[151.227065,-33.830033],[151.223163,-33.831551],[151.218518,-33.830068],[151.215976,-33.831322],[151.216343,-33.833215],[151.213501,-33.837705],[151.217078,-33.841797],[151.22028,-33.84388],[151.22665,-33.854461],[151.250617,-33.85728],[151.261395,-33.846523],[151.268491,-33.838962],[151.275665,-33.82916],[151.281141,-33.823585],[151.284843,-33.824675],[151.290672,-33.828322]]]},"bbox":[151.203599,-33.85728,151.307595,-33.751378]}]}