{"type":"FeatureCollection","features":[
{"properties":{"electorateShortName":"wentworth","electorateName":"Wentworth","area":37.652063,"state":"NSW"},"type":"Feature","geometry":{"type":"Polygon","coordinates":[[[151.266539,-33.913935],[151.261402,-33.914886],[151.257682,-33.922042],[151.25946,-33.937314],[151.258558,-33.945658],[151.256967,-33.951596],[151.256485,-33.964933],[151.251886,-33.964671],[151.251185,-33.978936],[151.24988,-34.001238],[151.28432543326136,-34.00330172481501],[151.3163502138147,-33.992204856182745],[151.33022737966002,-33.98234596893173],[151.34199995430043,-33.97005044632949],[151.3512467798521,-33.95575815445787],[151.35317024405288,-33.95100907009229],[151.35585410134811,-33.94833107431202],[151.366431461054,-33.93173275423734],[151.37314776820836,-33.9132320519302],[151.3756818135413,-33.893713768657854],[151.3757988135413,-33.887727768657854],[151.37474376132036,-33.873340490800466],[151.38062318108362,-33.82535804627908],[151.37832868010616,-33.807918411277235],[151.3726858497423,-33.791258157100955],[151.3523370519727,-33.762767279611595],[151.317705,-33.74201],[151.307883,-33.744221],[151.299717,-33.756601],[151.288071,-33.79454],[151.297149,-33.799331],[151.301061,-33.818464],[151.290672,-33.828322],[151.22665,-33.854461],[151.215031,-33.900896],[151.266539,-33.913935]]]},"bbox":[151.215031,-34.00330172481501,151.38062318108362,-33.74201]}]}