{"type":"FeatureCollection","features":[
{"properties":{"electorateShortName":"whitlam","electorateName":"Whitlam","area":1330.838738,"state":"NSW"},"type":"Feature","geometry":{"type":"Polygon","coordinates":[[[150.860886,-34.627883],[150.868387,-34.554754],[150.89778,-34.500723],[150.850837,-34.450786],[150.747162,-34.461249],[150.689634,-34.441706],[150.745677,-34.337416],[150.634633,-34.319652],[150.529536,-34.406489],[150.382528,-34.447029],[150.32004,-34.476547],[150.254535,-34.566204],[150.257508,-34.597417],[150.340998,-34.592213],[150.416149,-34.662966],[150.398433,-34.705382],[150.548328,-34.650451],[150.590467,-34.658718],[150.666625,-34.611709],[150.758131,-34.613022],[150.803508,-34.643238],[150.860886,-34.627883]]]},"bbox":[150.254535,-34.705382,150.89778,-34.319652]}]}