{"type":"FeatureCollection","features":[
{"properties":{"electorateShortName":"whitlam","electorateName":"Whitlam","area":1330.838738,"state":"NSW"},"type":"Feature","geometry":{"type":"Polygon","coordinates":[[[150.860886,-34.627883],[150.856553,-34.621279],[150.855549,-34.615623],[150.865212,-34.605193],[150.871488,-34.603859],[150.877248,-34.60675],[150.887429,-34.602735],[150.895521,-34.601241],[150.904456,-34.596968],[150.887699,-34.592982],[150.883188,-34.594173],[150.87492,-34.589021],[150.872651,-34.579571],[150.868446,-34.570207],[150.869874,-34.560796],[150.868387,-34.554754],[150.87474,-34.542994],[150.87465,-34.537108],[150.877995,-34.525865],[150.885949,-34.512485],[150.89778,-34.500723],[150.88733,-34.497918],[150.886605,-34.491595],[150.873632,-34.492705],[150.865901,-34.489973],[150.868532,-34.478977],[150.873296,-34.47953],[150.875174,-34.466114],[150.869677,-34.46506],[150.864942,-34.459168],[150.850837,-34.450786],[150.841049,-34.459939],[150.827272,-34.463363],[150.821838,-34.461237],[150.814883,-34.461801],[150.798363,-34.450307],[150.792239,-34.44283],[150.78477,-34.448065],[150.769382,-34.450523],[150.760032,-34.449966],[150.751164,-34.455918],[150.747162,-34.461249],[150.734918,-34.460658],[150.727989,-34.456861],[150.717595,-34.45478],[150.711898,-34.449777],[150.701766,-34.443988],[150.689634,-34.441706],[150.745677,-34.337416],[150.634633,-34.319652],[150.628234,-34.329812],[150.621363,-34.331912],[150.615745,-34.337926],[150.604573,-34.335697],[150.603373,-34.342259],[150.59325,-34.352224],[150.59445,-34.361571],[150.590476,-34.366801],[150.579004,-34.369988],[150.57488,-34.368657],[150.569984,-34.377018],[150.570022,-34.380552],[150.557208,-34.384457],[150.546974,-34.381828],[150.538097,-34.382392],[150.530565,-34.385063],[150.533063,-34.395255],[150.529536,-34.406489],[150.519975,-34.410226],[150.506361,-34.405121],[150.501174,-34.412315],[150.493634,-34.417265],[150.476652,-34.422029],[150.464032,-34.429754],[150.455892,-34.432129],[150.432915,-34.433405],[150.415747,-34.440217],[150.404139,-34.443705],[150.382528,-34.447029],[150.367093,-34.453116],[150.355424,-34.461864],[150.348721,-34.465313],[150.333572,-34.469382],[150.32004,-34.476547],[150.314817,-34.481171],[150.312002,-34.487988],[150.309147,-34.508201],[150.306483,-34.512697],[150.297093,-34.51964],[150.265076,-34.55376],[150.258619,-34.559328],[150.254535,-34.566204],[150.252348,-34.580855],[150.248841,-34.588172],[150.228424,-34.607196],[150.232362,-34.609788],[150.251036,-34.611457],[150.249405,-34.601708],[150.2565,-34.602676],[150.257508,-34.597417],[150.285856,-34.60109],[150.289913,-34.59576],[150.305432,-34.603165],[150.308933,-34.598009],[150.31835,-34.598317],[150.332816,-34.603731],[150.328285,-34.596858],[150.33464,-34.59162],[150.340998,-34.592213],[150.357245,-34.59949],[150.365621,-34.605701],[150.376025,-34.609138],[150.380868,-34.613911],[150.375306,-34.620998],[150.379416,-34.628309],[150.388157,-34.62781],[150.399839,-34.632453],[150.408728,-34.628949],[150.407677,-34.636264],[150.403663,-34.640152],[150.408093,-34.645659],[150.407999,-34.650979],[150.416149,-34.662966],[150.415441,-34.671485],[150.40972,-34.67389],[150.405623,-34.680128],[150.397591,-34.686682],[150.394806,-34.691458],[150.397311,-34.695693],[150.394716,-34.702649],[150.398433,-34.705382],[150.405418,-34.701217],[150.424871,-34.697373],[150.428757,-34.692942],[150.441824,-34.690164],[150.451792,-34.691769],[150.460509,-34.683897],[150.469216,-34.678192],[150.498253,-34.681892],[150.50076,-34.68022],[150.501543,-34.67056],[150.504252,-34.666829],[150.514208,-34.6644],[150.518632,-34.660928],[150.53054,-34.656811],[150.538386,-34.662078],[150.541561,-34.652083],[150.548328,-34.650451],[150.554802,-34.641431],[150.565491,-34.655824],[150.567558,-34.672992],[150.562498,-34.68215],[150.563762,-34.689596],[150.568456,-34.69652],[150.579649,-34.693488],[150.579305,-34.679885],[150.576376,-34.669631],[150.582243,-34.666894],[150.582947,-34.661687],[150.590467,-34.658718],[150.591921,-34.648857],[150.603458,-34.651838],[150.61136,-34.646171],[150.623283,-34.644297],[150.632351,-34.633934],[150.632739,-34.628836],[150.642787,-34.624886],[150.654761,-34.624469],[150.663307,-34.619229],[150.666625,-34.611709],[150.682659,-34.608085],[150.693134,-34.607265],[150.700452,-34.604969],[150.758131,-34.613022],[150.759991,-34.605954],[150.766636,-34.606761],[150.768286,-34.598949],[150.790387,-34.602184],[150.788127,-34.613501],[150.795873,-34.614609],[150.793003,-34.628734],[150.799275,-34.629579],[150.796939,-34.641425],[150.803508,-34.643238],[150.814947,-34.640819],[150.832741,-34.6389],[150.835945,-34.632892],[150.842437,-34.631564],[150.848929,-34.634094],[150.850047,-34.628296],[150.846324,-34.621915],[150.838414,-34.615208],[150.849196,-34.614642],[150.858721,-34.628075],[150.860886,-34.627883]]]},"bbox":[150.228424,-34.705382,150.904456,-34.319652]}]}