{"type":"FeatureCollection","features":[
{"properties":{"electorateShortName":"wills","electorateName":"Wills","area":46.95,"state":"VIC"},"type":"Feature","geometry":{"type":"MultiPolygon","coordinates":[[[[144.986865,-37.774378],[144.986804,-37.773719],[144.984453,-37.771236],[144.984165,-37.770105],[144.984479,-37.767335],[144.985571,-37.766425],[144.983897,-37.764116],[144.981697,-37.763204],[144.98139,-37.762388],[144.983161,-37.761563],[144.982096,-37.760634],[144.980269,-37.75771],[144.979291,-37.754007],[144.981817,-37.752105],[144.980596,-37.749898],[144.981381,-37.748961],[144.98055,-37.747619],[144.980306,-37.746141],[144.982012,-37.745756],[144.981557,-37.74486],[144.980019,-37.74394],[144.978967,-37.742735],[144.979727,-37.740127],[144.97811,-37.738881],[144.977458,-37.737302],[144.976485,-37.736308],[144.976522,-37.735324],[144.975574,-37.733644],[144.973882,-37.733957],[144.972818,-37.734858],[144.970882,-37.734975],[144.968492,-37.733092],[144.966873,-37.732604],[144.96651,-37.731359],[144.967839,-37.730646],[144.966219,-37.728713],[144.968937,-37.726233],[144.967994,-37.724319],[144.968706,-37.723592],[144.969026,-37.721753],[144.971762,-37.721488],[144.972718,-37.720193],[144.975883,-37.719352],[144.9785,-37.719436],[144.978815,-37.718575],[144.97811,-37.716699],[144.980458,-37.716144],[144.980516,-37.714336],[144.9775,-37.713995],[144.977562,-37.713172],[144.979008,-37.712489],[144.978762,-37.711327],[144.977189,-37.710371],[144.978765,-37.708017],[144.980819,-37.707207],[144.978488,-37.704812],[144.980268,-37.703889],[144.981836,-37.703925],[144.982519,-37.702957],[144.979436,-37.699877],[144.980667,-37.698282],[144.980483,-37.697581],[144.978651,-37.697105],[144.978313,-37.696144],[144.978926,-37.694564],[144.977404,-37.694012],[144.97635,-37.695064],[144.974323,-37.693921],[144.973622,-37.692961],[144.970599,-37.692757],[144.97035,-37.692207],[144.972061,-37.690999],[144.971358,-37.69094],[144.959183,-37.692166],[144.94927,-37.69234],[144.94113,-37.692899],[144.932661,-37.693837],[144.919003,-37.694691],[144.912808,-37.69417],[144.906973,-37.693889],[144.903901,-37.695878],[144.903008,-37.697249],[144.904097,-37.699812],[144.904269,-37.701296],[144.903773,-37.702062],[144.90376,-37.70422],[144.901595,-37.705342],[144.901431,-37.706707],[144.89962,-37.707239],[144.898013,-37.708841],[144.898762,-37.71],[144.901209,-37.712314],[144.902964,-37.714741],[144.902223,-37.716461],[144.903381,-37.716965],[144.904322,-37.715813],[144.905617,-37.717251],[144.907883,-37.716999],[144.910201,-37.717904],[144.910442,-37.719062],[144.90932,-37.719406],[144.90953,-37.720868],[144.910691,-37.721926],[144.912465,-37.720926],[144.913295,-37.722559],[144.914588,-37.723818],[144.916477,-37.723632],[144.918213,-37.724139],[144.922146,-37.72722],[144.922419,-37.728642],[144.924412,-37.728788],[144.925435,-37.73046],[144.924233,-37.73187],[144.92856,-37.735286],[144.928856,-37.737518],[144.929969,-37.738182],[144.929977,-37.739978],[144.931536,-37.742065],[144.93349,-37.742445],[144.934728,-37.743922],[144.933056,-37.745302],[144.929201,-37.74545],[144.928329,-37.747069],[144.929266,-37.747513],[144.928406,-37.748798],[144.927382,-37.749285],[144.92689,-37.751854],[144.928426,-37.752627],[144.929034,-37.7519],[144.930326,-37.75359],[144.93268,-37.752649],[144.935023,-37.753258],[144.933682,-37.755371],[144.934567,-37.756612],[144.933671,-37.75738],[144.933071,-37.758974],[144.934399,-37.760592],[144.93667,-37.76019],[144.938447,-37.761167],[144.937642,-37.768885],[144.935632,-37.769742],[144.935687,-37.771032],[144.93772,-37.770987],[144.938442,-37.771558],[144.936339,-37.774116],[144.937074,-37.777774],[144.938769,-37.775448],[144.978111,-37.780208],[144.979196,-37.773497],[144.986865,-37.774378]]],[[[144.911555,-37.862068],[144.91408881511043,-37.86428644482457],[144.92222336187308,-37.86654031425954],[144.9270932813154,-37.86723592530018],[144.94433839841793,-37.86766748023906],[144.94740415959487,-37.86715085043507],[144.9506438042032,-37.867699208981726],[144.95976560238776,-37.868520593532644],[144.96729257997794,-37.86955542183313],[144.97508482603516,-37.86976120743697],[144.969681,-37.864589],[144.971138,-37.863254],[144.970308,-37.860787],[144.963316,-37.855467],[144.935592,-37.842548],[144.931891,-37.843299],[144.929856,-37.847323],[144.93073,-37.84231],[144.927165,-37.841327],[144.926912,-37.840035],[144.918525,-37.839688],[144.913601,-37.841836],[144.914709,-37.844442],[144.912579,-37.845837],[144.914515,-37.848485],[144.912499,-37.849458],[144.905739,-37.840155],[144.903215,-37.841399],[144.907213,-37.849526],[144.899165,-37.840396],[144.898362,-37.841204],[144.897148,-37.842552],[144.897444,-37.844135],[144.899459,-37.848829],[144.905593,-37.851732],[144.899379,-37.849657],[144.897981,-37.84764],[144.895234,-37.848709],[144.902042,-37.854318],[144.90347188684933,-37.86118638752108],[144.911555,-37.862068]]]]},"bbox":[144.895234,-37.86976120743697,144.986865,-37.69094]}]}