{"type":"FeatureCollection","features":[
{"properties":{"electorateShortName":"wills","electorateName":"Wills","area":46.95,"state":"VIC"},"type":"Feature","geometry":{"type":"Polygon","coordinates":[[[144.986865,-37.774378],[144.985571,-37.766425],[144.980269,-37.75771],[144.981817,-37.752105],[144.975574,-37.733644],[144.966873,-37.732604],[144.969026,-37.721753],[144.9785,-37.719436],[144.980516,-37.714336],[144.977189,-37.710371],[144.982519,-37.702957],[144.972061,-37.690999],[144.919003,-37.694691],[144.906973,-37.693889],[144.903008,-37.697249],[144.90376,-37.70422],[144.898013,-37.708841],[144.905617,-37.717251],[144.924412,-37.728788],[144.933056,-37.745302],[144.929201,-37.74545],[144.92689,-37.751854],[144.935023,-37.753258],[144.933071,-37.758974],[144.938447,-37.761167],[144.937074,-37.777774],[144.938769,-37.775448],[144.978111,-37.780208],[144.979196,-37.773497],[144.986865,-37.774378]]]},"bbox":[144.898013,-37.780208,144.986865,-37.690999]}]}