{"type":"FeatureCollection","features":[
{"properties":{"electorateShortName":"wright","electorateName":"Wright","area":7576.982814,"state":"QLD"},"type":"Feature","geometry":{"type":"MultiPolygon","coordinates":[[[[153.296863,-28.234233],[153.358489,-28.157291],[153.355703,-28.0495],[153.324398,-28.013614],[153.344164,-27.9768],[153.292184,-27.903982],[153.180683,-27.895079],[153.18894,-27.855104],[153.158532,-27.76934],[153.0126,-27.777425],[153.030239,-27.725726],[153.016596,-27.678932],[153.019347,-27.657394],[152.940729,-27.628657],[152.927745,-27.685328],[152.882789,-27.747358],[152.757806,-27.767276],[152.52928,-27.717604],[152.519312,-27.761203],[152.451324,-27.802114],[152.440491,-27.859868],[152.40235,-27.863703],[152.411128,-27.681393],[152.454721,-27.66096],[152.497013,-27.582952],[152.499344,-27.511697],[152.373374,-27.40198],[152.191723,-27.386849],[152.136975,-27.423638],[152.070838,-27.402759],[152.029058,-27.416256],[151.966858,-27.473577],[151.955189,-27.514264],[152.000524,-27.55692],[151.985241,-27.64869],[152.010483,-27.699779],[152.131541,-27.771666],[152.148272,-27.862854],[152.188454,-27.924176],[152.276931,-27.969723],[152.382276,-27.965632],[152.374893,-28.012336],[152.442049,-28.176017],[152.487617,-28.253908],[152.525036,-28.303964],[152.597844,-28.314788],[152.627857,-28.303031],[152.740742,-28.359934],[152.803636,-28.353735],[152.882129,-28.312092],[152.941574,-28.334512],[153.1094,-28.35744],[153.184434,-28.246209],[153.296863,-28.234233]]],[[[153.45439,-28.089031],[153.4580883327019,-28.08425866223316],[153.4532160395226,-28.065108010245883],[153.44526461064854,-28.048447761680322],[153.44491305908696,-28.037601875874575],[153.43635570681604,-28.000485603374646],[153.431074,-27.998905],[153.437734,-28.040372],[153.447581,-28.076061],[153.45439,-28.089031]]]]},"bbox":[151.955189,-28.359934,153.4580883327019,-27.386849]}]}