{"type":"FeatureCollection","features":[
{"properties":{"electorateShortName":"bean","electorateName":"Bean","area":1913.969737,"state":"ACT"},"type":"Feature","geometry":{"type":"MultiPolygon","coordinates":[[[[149.176683,-35.386268],[149.190824,-35.368854],[149.20587187584476,-35.34660455068865],[149.216186,-35.342191],[149.206345,-35.345905],[149.069556,-35.34837],[149.033922,-35.265958],[148.961731,-35.218467],[148.810041,-35.307412],[148.80445712626624,-35.37354268934477],[148.80865917616902,-35.38240233366133],[148.80480357778885,-35.38509863567535],[148.80363322575312,-35.38874679053175],[148.79572091053515,-35.39298509670975],[148.79597478384105,-35.40657962591342],[148.7862740567357,-35.41268913414716],[148.79004104223847,-35.41556361864112],[148.78762801307226,-35.42314758199078],[148.78876714953302,-35.42611893870526],[148.77304058650668,-35.44938648801273],[148.7759116845295,-35.45475401545924],[148.76704144553486,-35.46594889117735],[148.77080885438554,-35.47957315137496],[148.77158732356935,-35.481005338689684],[148.77389268930662,-35.48524663125884],[148.7633035552876,-35.49759155576112],[148.76814313569187,-35.508482367876724],[148.76634875304117,-35.510555788886776],[148.77209781786698,-35.530583615882065],[148.77659589839396,-35.55617116007792],[148.77848689471776,-35.56320763553161],[148.7785066704545,-35.563544242329975],[148.77313836030194,-35.568075551774406],[148.78402755761633,-35.58175657955424],[148.7860490139532,-35.582448339135894],[148.78746717791066,-35.58544836074892],[148.78872134396994,-35.58822561182625],[148.76852290098822,-35.603260512446916],[148.77884197692447,-35.61461310165432],[148.77919831709235,-35.61527643777752],[148.78024794946268,-35.619007415997665],[148.77962317319566,-35.62373500878834],[148.78339154547587,-35.62844698467678],[148.77119446307518,-35.643929747415],[148.77135112672065,-35.64574368195033],[148.7675614839882,-35.647387841377096],[148.76893199773727,-35.64872449402434],[148.76995234445337,-35.64965832566002],[148.77277785315698,-35.65004371386218],[148.77221576068965,-35.653622320588035],[148.78373923582876,-35.65645001379581],[148.78623650556068,-35.657706657865525],[148.78652562167497,-35.65832143837208],[148.7874520334893,-35.66029137327467],[148.79842854353467,-35.666578066728945],[148.79816649606926,-35.670711432729675],[148.7975023098824,-35.680421469689996],[148.79140653248143,-35.68960004677136],[148.79138635411402,-35.69145796995219],[148.78844629311484,-35.697800482601295],[148.78846796704545,-35.69784523358494],[148.7956755602953,-35.70845761262713],[148.7980800195432,-35.710418466201446],[148.8039421658606,-35.71416967373412],[148.803349,-35.714606],[148.8039421658606,-35.714169673734126],[148.820684,-35.719515],[148.823575,-35.724213],[148.83765,-35.743509],[148.83863,-35.744237],[148.85578775882064,-35.758793496073665],[148.855670790814,-35.76087283380334],[148.8608883722961,-35.75926724459301],[148.86113865711818,-35.753966582131795],[148.86073772918016,-35.75287111859575],[148.86132827714752,-35.7505375287646],[148.862538321887,-35.74920802988355],[148.86391521533722,-35.748007633125596],[148.8654115712826,-35.74160418809451],[148.86431844249032,-35.73353994195236],[148.86581202151655,-35.73161514810799],[148.86860828517476,-35.73104914163085],[148.86939653496108,-35.72909468639135],[148.87250935263611,-35.721399117416766],[148.88669291273317,-35.71923325011231],[148.8875542290256,-35.720631335322615],[148.892306,-35.728422],[148.8906388586748,-35.7319122031086],[148.88823991093318,-35.73520031964143],[148.888073,-35.737059],[148.90307371441978,-35.75922873289137],[148.89488803763396,-35.77184909021984],[148.89491538217644,-35.776990260501265],[148.89763198155438,-35.79413812167361],[148.89777482138172,-35.794651174822796],[148.89311116112054,-35.79939108276771],[148.88692480512847,-35.809656134316555],[148.90644218267371,-35.82895351352403],[148.90706217755886,-35.82957817137331],[148.90695755667602,-35.83014053650266],[148.90610788537916,-35.83252028068976],[148.90317612814673,-35.835248821571085],[148.90431099286334,-35.83763054423292],[148.92004229238105,-35.85728587104083],[148.919952801646,-35.85863671825737],[148.93072724613256,-35.869137664315275],[148.93243003569194,-35.87299534885047],[148.94056586346068,-35.875825653466165],[148.95080080629913,-35.886076413832136],[148.95837823023533,-35.8917671445938],[148.9586210086767,-35.89287280306202],[148.96784872020112,-35.89398520881752],[148.975656,-35.892176],[148.98757191385135,-35.89552429729962],[148.99717964069458,-35.89638664288008],[148.99764835103693,-35.89667857023487],[148.997398,-35.900995],[149.003487,-35.901203],[149.00882,-35.901306],[149.04836268501046,-35.920300975475094],[149.0549108307289,-35.91382934444265],[149.05616585362216,-35.91033588913843],[149.0518727269916,-35.90218979871267],[149.058578,-35.894666],[149.060433,-35.889338],[149.061711,-35.879879],[149.06768734406091,-35.8708262172937],[149.07430098875813,-35.865786110630836],[149.07679480644285,-35.86064281006541],[149.07971599564888,-35.8589806028083],[149.08216249591464,-35.853192117140544],[149.084513141083,-35.8522268670515],[149.08437415047786,-35.851252041786864],[149.09567847833307,-35.84564038773923],[149.0943752443011,-35.83109982814736],[149.09451836828947,-35.8308368264235],[149.0946005476632,-35.82125448529158],[149.100580463547,-35.814715037528096],[149.0985819136128,-35.8082364842934],[149.09826603523473,-35.80793198891997],[149.10089580764907,-35.8044567296634],[149.1014750726457,-35.80369122766383],[149.10142607289345,-35.80363524268684],[149.09699779385994,-35.79857568445653],[149.0967719950677,-35.79820153299213],[149.09683785772705,-35.79808549006984],[149.10026363359924,-35.79204964142219],[149.10029395448734,-35.791160623507686],[149.09652383640332,-35.78750961629718],[149.0961402401652,-35.787226966437515],[149.0941406384174,-35.787226235054284],[149.09314620116163,-35.78318428848697],[149.0973100291117,-35.77752353090494],[149.0907192230254,-35.76560648681731],[149.09087394496478,-35.76543012169332],[149.09323300979352,-35.7627410605128],[149.09301274759355,-35.75993643810818],[149.0951023743962,-35.75034042884521],[149.09588876574614,-35.7490991680849],[149.0969504053163,-35.7474234483048],[149.09562643764502,-35.74600452961437],[149.10068061078368,-35.73631288048073],[149.09909814391958,-35.729288635856285],[149.1040471304159,-35.725026661153585],[149.1020428998127,-35.720513553214],[149.10595517793118,-35.691181055565366],[149.10379585814243,-35.69073293161737],[149.085926,-35.625371],[149.078148,-35.586417],[149.108345,-35.58398],[149.1211960779789,-35.58671417843172],[149.12554975882222,-35.587477215147295],[149.12601351799265,-35.591627775124095],[149.14142541583482,-35.58882967503234],[149.13290283547826,-35.55943848426971],[149.1315148260096,-35.553847989322584],[149.13785901020594,-35.538995386349775],[149.1507035612932,-35.508924535353096],[149.15129973222972,-35.49858240091288],[149.15150696662204,-35.49294338884814],[149.14514354790415,-35.47709489160337],[149.14461757563004,-35.47584857546797],[149.13986491874044,-35.45138271466751],[149.1424874037575,-35.45077258730747],[149.15486803788127,-35.43662655359973],[149.1550672358324,-35.435965935679405],[149.1530644207616,-35.43408574193946],[149.14071080155344,-35.43409798101443],[149.1395210984464,-35.4319047125085],[149.13826074756375,-35.42931275975108],[149.14115945243404,-35.42669599438661],[149.1441347787106,-35.42401006011702],[149.14600182423732,-35.417830879219984],[149.14746133161285,-35.41409143538375],[149.176683,-35.386268]]],[[[167.82914756990164,-29.03761620986369],[167.85698028875942,-29.15094162022373],[167.93247987763982,-29.221112516789887],[167.99912819946843,-29.20884773723631],[168.0439068720894,-29.16360639736982],[168.08666362691164,-29.013321594575746],[168.04872476902204,-28.953015319262146],[167.9190038618016,-28.905293081763933],[167.8535358886041,-28.93418929071207],[167.82914756990164,-29.03761620986369]]]]},"bbox":[148.7633035552876,-35.920300975475094,168.08666362691164,-28.905293081763933]},
{"properties":{"electorateShortName":"canberra","electorateName":"Canberra","area":312.263142,"state":"ACT"},"type":"Feature","geometry":{"type":"MultiPolygon","coordinates":[[[[149.033922,-35.265958],[149.069556,-35.34837],[149.206345,-35.345905],[149.20587187584476,-35.34660455068865],[149.216186,-35.342191],[149.274513,-35.335999],[149.2832949774836,-35.337965011350875],[149.291264,-35.334205],[149.311959,-35.335847],[149.318915,-35.336781],[149.3474992360392,-35.35021786685693],[149.34891329005026,-35.35059901349064],[149.36647844769996,-35.34025979077041],[149.385354,-35.332516],[149.396428,-35.30968],[149.3945002506582,-35.309165662895616],[149.39493600792377,-35.30426006363548],[149.393416,-35.302924],[149.386579,-35.303418],[149.383697,-35.306471],[149.381897,-35.306266],[149.3739990766516,-35.30484994834338],[149.36989643706795,-35.30825819275128],[149.36584,-35.308526],[149.353713,-35.299731],[149.350421,-35.298166],[149.345034,-35.292206],[149.34321081378837,-35.292047070938786],[149.342838,-35.290187],[149.335757,-35.287382],[149.32543411944545,-35.28346401801312],[149.324581,-35.286388],[149.32127,-35.28522],[149.311697,-35.277525],[149.305417,-35.275532],[149.301643,-35.272894],[149.28752,-35.274128],[149.282976,-35.272059],[149.276381,-35.273082],[149.271808,-35.273485],[149.27236,-35.269429],[149.273461,-35.266102],[149.273179,-35.259179],[149.267703,-35.259439],[149.262261,-35.257395],[149.240728,-35.225046],[149.237105,-35.222363],[149.227037,-35.219844],[149.21378450096995,-35.219606008996514],[149.204986,-35.2291],[149.2024562761942,-35.2246254885253],[149.205028,-35.219863],[149.207621,-35.215875],[149.205895,-35.211567],[149.200702,-35.205411],[149.189542,-35.203324],[149.200699,-35.205565],[149.07339,-35.241107],[149.033922,-35.265958]]],[[[149.127163,-35.12572],[149.149591184939,-35.13862909308309],[149.149612,-35.138406],[149.127163,-35.12572]]]]},"bbox":[149.033922,-35.35059901349064,149.396428,-35.12572]},
{"properties":{"electorateShortName":"fenner","electorateName":"Fenner","area":238.212122,"state":"ACT"},"type":"Feature","geometry":{"type":"MultiPolygon","coordinates":[[[[149.033922,-35.265958],[149.07339,-35.241107],[149.200699,-35.205565],[149.205895,-35.211567],[149.200702,-35.205411],[149.189542,-35.203324],[149.196375,-35.188447],[149.19701290503585,-35.185471076355455],[149.19218489778655,-35.17987590063748],[149.1836545148494,-35.17564375917763],[149.18510895266286,-35.172927398423276],[149.18903339694174,-35.165597964106404],[149.16758607946574,-35.15975064305368],[149.16757833465618,-35.159741458330096],[149.16282463420112,-35.154103950478095],[149.16364242337121,-35.152186761266094],[149.16322366982448,-35.14684166797134],[149.16424706362102,-35.14204171067108],[149.15692418754602,-35.14365298285011],[149.15601378708675,-35.14443275366601],[149.14705222641018,-35.144548776439585],[149.149591184939,-35.13862909308309],[149.149612,-35.138406],[149.127163,-35.12572],[149.127186,-35.125622],[149.118076,-35.126527],[149.113387,-35.127539],[149.09454738577261,-35.138216729333564],[149.09330843140745,-35.13867867442853],[149.0923786451544,-35.14016391216548],[149.091082620419,-35.142234178141976],[148.961731,-35.218467],[149.033922,-35.265958]]],[[[150.5961937197773,-35.17129232763668],[150.593971,-35.185018],[150.539507,-35.216614],[150.53635270566042,-35.25458179148685],[150.58383320168156,-35.27444520528594],[150.63334144724487,-35.265791816246576],[150.63791567709697,-35.26974400555528],[150.6524586286991,-35.27970124018871],[150.68590825246176,-35.29027408189822],[150.72085894202002,-35.287255537367905],[150.80703598624854,-35.244604499027744],[150.84561985897454,-35.1914483257318],[150.84944952770863,-35.175856797906675],[150.84955629240272,-35.17414338924785],[150.85132457111789,-35.16777302900864],[150.85171534378281,-35.16189151440761],[150.86201552240138,-35.13039810342723],[150.85787445391327,-35.08852433969004],[150.799512,-35.09063],[150.785012,-35.030788],[150.67592305808907,-35.02897950969369],[150.701604,-35.122862],[150.66135,-35.11782],[150.66134429654508,-35.11786019027876],[150.6608208880659,-35.12154846921874],[150.66034685931209,-35.124888786273594],[150.63164013926155,-35.14937259599113],[150.6254756468761,-35.14914626001073],[150.62085754718782,-35.14755371099814],[150.61515807884655,-35.148399897272746],[150.593969,-35.143836],[150.59411746439878,-35.14439340911616],[150.59781965466817,-35.1709044248754],[150.596386,-35.171087],[150.5961937197773,-35.17129232763668]]],[[[149.26716,-35.25952],[149.267703,-35.259439],[149.262261,-35.257395],[149.26716,-35.25952]]]]},"bbox":[148.961731,-35.29027408189822,150.86201552240138,-35.02897950969369]}],"bbox":[148.7633035552876,-35.920300975475094,168.08666362691164,-28.905293081763933]}