{"type":"FeatureCollection","features":[
{"properties":{"electorateShortName":"banks","electorateName":"Banks","area":61.16,"state":"NSW"},"type":"Feature","geometry":{"type":"Polygon","coordinates":[[[151.07327,-33.99586],[151.121979,-33.987708],[151.072388,-33.929428],[150.97899,-33.929267],[150.968598,-33.931074],[150.998147,-33.975126],[151.07327,-33.99586]]]},"bbox":[150.968598,-33.99586,151.121979,-33.929267]},
{"properties":{"electorateShortName":"barton","electorateName":"Barton","area":41.86,"state":"NSW"},"type":"Feature","geometry":{"type":"Polygon","coordinates":[[[151.143823,-33.985272],[151.160519,-33.933998],[151.117138,-33.91335],[151.072388,-33.929428],[151.121979,-33.987708],[151.143823,-33.985272]]]},"bbox":[151.072388,-33.987708,151.160519,-33.91335]},
{"properties":{"electorateShortName":"bennelong","electorateName":"Bennelong","area":60.27,"state":"NSW"},"type":"Feature","geometry":{"type":"Polygon","coordinates":[[[151.19826,-33.825088],[151.105367,-33.761185],[151.073789,-33.782273],[151.071641,-33.819693],[151.159279,-33.845383],[151.187207,-33.844913],[151.19826,-33.825088]]]},"bbox":[151.071641,-33.845383,151.19826,-33.761185]},
{"properties":{"electorateShortName":"berowra","electorateName":"Berowra","area":750.67,"state":"NSW"},"type":"Feature","geometry":{"type":"Polygon","coordinates":[[[151.284798,-33.572214],[151.2305,-33.535448],[151.158792,-33.517262],[151.103296,-33.482514],[151.032748,-33.406351],[150.988457,-33.379232],[150.943673,-33.424896],[150.887353,-33.437201],[150.926583,-33.508451],[150.935653,-33.564909],[150.904352,-33.611808],[150.932899,-33.659754],[151.048939,-33.758638],[151.073789,-33.782273],[151.105367,-33.761185],[151.123726,-33.688952],[151.161505,-33.659605],[151.175919,-33.627211],[151.284798,-33.572214]]]},"bbox":[150.887353,-33.782273,151.284798,-33.379232]},
{"properties":{"electorateShortName":"blaxland","electorateName":"Blaxland","area":59.4,"state":"NSW"},"type":"Feature","geometry":{"type":"Polygon","coordinates":[[[151.068876,-33.884497],[151.02999,-33.835206],[150.963514,-33.816181],[150.961326,-33.86758],[150.973326,-33.889429],[151.001676,-33.903873],[151.068876,-33.884497]]]},"bbox":[150.961326,-33.903873,151.068876,-33.816181]},
{"properties":{"electorateShortName":"bradfield","electorateName":"Bradfield","area":104.92,"state":"NSW"},"type":"Feature","geometry":{"type":"Polygon","coordinates":[[[151.19826,-33.825088],[151.230948,-33.784291],[151.18035,-33.740095],[151.191417,-33.702699],[151.161505,-33.659605],[151.123726,-33.688952],[151.105367,-33.761185],[151.19826,-33.825088]]]},"bbox":[151.105367,-33.825088,151.230948,-33.659605]},
{"properties":{"electorateShortName":"calare","electorateName":"Calare","area":32647.93,"state":"NSW"},"type":"Feature","geometry":{"type":"Polygon","coordinates":[[[150.186093,-33.88118],[150.177912,-33.778027],[150.214826,-33.674875],[150.266463,-33.622346],[150.236942,-33.593271],[150.256814,-33.494305],[150.335619,-33.511948],[150.402519,-33.476926],[150.4474,-33.481423],[150.475923,-33.399445],[150.580997,-33.351442],[150.53315,-33.240176],[150.527999,-33.194059],[150.604485,-33.1473],[150.610687,-33.066137],[150.488448,-33.048124],[150.371672,-33.015457],[150.366455,-32.936634],[150.340685,-32.87098],[150.362598,-32.845913],[150.337975,-32.790387],[150.288566,-32.765054],[150.311343,-32.646919],[150.236447,-32.608444],[150.246977,-32.460298],[150.279603,-32.422298],[150.26078,-32.317813],[150.217873,-32.336569],[150.164314,-32.320185],[150.054166,-32.351038],[150.021827,-32.305597],[150.063026,-32.245722],[150.034803,-32.195905],[149.947996,-32.134952],[149.81943,-32.103624],[149.795665,-32.05809],[149.750811,-32.119822],[149.638067,-32.112778],[149.573847,-32.086985],[149.494803,-32.102092],[149.432506,-32.095033],[149.413277,-32.175537],[149.346378,-32.238059],[149.305892,-32.304507],[149.189159,-32.290575],[149.220152,-32.180984],[149.193756,-32.104421],[149.100358,-32.115175],[149.059265,-32.096665],[148.944185,-32.174016],[148.927247,-32.271664],[148.851192,-32.31338],[148.754109,-32.419051],[148.703837,-32.434946],[148.700407,-32.496936],[148.719957,-32.575391],[148.669562,-32.624041],[148.605154,-32.652179],[148.501184,-32.614117],[148.391421,-32.621925],[148.349499,-32.636824],[148.329513,-32.701025],[148.328315,-32.798687],[148.378164,-32.833103],[148.381831,-32.93455],[148.430165,-32.969942],[148.505455,-33.062037],[148.486567,-33.123236],[148.495895,-33.190869],[148.397185,-33.269909],[148.418223,-33.385],[148.365145,-33.435299],[148.313524,-33.453189],[148.290651,-33.491909],[148.392772,-33.518727],[148.388833,-33.57999],[148.413815,-33.604347],[148.524169,-33.577287],[148.557937,-33.602925],[148.635899,-33.567008],[148.712026,-33.573728],[148.738927,-33.53792],[148.787796,-33.529269],[148.82321,-33.56568],[148.922397,-33.599333],[148.907469,-33.673053],[148.99366,-33.720609],[148.974557,-33.756454],[149.041283,-33.809334],[149.091447,-33.765415],[149.17209,-33.72628],[149.257743,-33.740656],[149.174789,-33.844937],[149.118462,-33.872095],[149.155178,-33.92836],[149.152632,-33.967033],[149.197738,-33.984896],[149.279321,-33.948523],[149.347778,-33.953299],[149.434733,-34.022927],[149.480219,-34.015379],[149.547501,-34.085569],[149.629447,-34.114099],[149.681688,-34.191454],[149.804704,-34.20262],[149.920374,-34.181677],[149.949395,-34.124609],[150.007292,-34.085287],[150.037434,-34.121378],[150.105241,-34.138496],[150.115857,-34.080292],[150.2412,-33.952033],[150.175556,-33.945178],[150.186093,-33.88118]]]},"bbox":[148.290651,-34.20262,150.610687,-32.05809]},
{"properties":{"electorateShortName":"chifley","electorateName":"Chifley","area":112.67,"state":"NSW"},"type":"Feature","geometry":{"type":"Polygon","coordinates":[[[150.904637,-33.76798],[150.851042,-33.650138],[150.812394,-33.677614],[150.765994,-33.705777],[150.803381,-33.776811],[150.856452,-33.789224],[150.904637,-33.76798]]]},"bbox":[150.765994,-33.789224,150.904637,-33.650138]},
{"properties":{"electorateShortName":"cook","electorateName":"Cook","area":67.17,"state":"NSW"},"type":"Feature","geometry":{"type":"Polygon","coordinates":[[[151.231926,-34.016739],[151.143823,-33.985272],[151.121979,-33.987708],[151.07327,-33.99586],[151.072235,-34.063154],[151.162586,-34.072444],[151.231926,-34.016739]]]},"bbox":[151.072235,-34.072444,151.231926,-33.985272]},
{"properties":{"electorateShortName":"cowper","electorateName":"Cowper","area":7271.18,"state":"NSW"},"type":"Feature","geometry":{"type":"Polygon","coordinates":[[[152.915196,-31.492814],[152.938449,-31.472927],[152.917846,-31.398803],[152.971419,-31.320303],[152.961352,-31.228513],[152.989217,-31.146896],[153.04925,-31.079172],[153.039757,-30.999138],[153.089288,-30.923973],[153.076483,-30.889125],[153.022509,-30.872758],[153.00502,-30.838266],[152.988718,-30.717562],[153.019183,-30.649375],[153.010114,-30.615465],[153.036029,-30.485721],[153.13202,-30.319282],[153.138428,-30.262793],[153.063319,-30.287125],[152.952152,-30.215507],[152.911059,-30.228489],[152.82954,-30.222078],[152.803453,-30.189567],[152.692987,-30.189015],[152.697823,-30.223335],[152.655376,-30.255316],[152.559647,-30.243719],[152.547091,-30.28865],[152.474912,-30.356637],[152.478585,-30.396994],[152.428078,-30.418897],[152.389645,-30.453052],[152.386854,-30.528965],[152.316055,-30.602971],[152.369291,-30.658905],[152.375309,-30.745347],[152.315673,-30.793799],[152.28951,-30.844152],[152.29117,-30.975444],[152.269825,-30.999147],[152.34517,-31.050618],[152.349587,-31.117004],[152.385897,-31.166653],[152.455832,-31.155831],[152.539697,-31.162886],[152.597606,-31.123699],[152.64048,-31.14974],[152.706943,-31.151512],[152.705219,-31.207461],[152.679693,-31.227203],[152.736674,-31.340141],[152.785939,-31.343094],[152.824844,-31.413747],[152.81498,-31.476781],[152.915196,-31.492814]]]},"bbox":[152.269825,-31.492814,153.138428,-30.189015]},
{"properties":{"electorateShortName":"cunningham","electorateName":"Cunningham","area":535.54,"state":"NSW"},"type":"Feature","geometry":{"type":"Polygon","coordinates":[[[151.066158,-34.172329],[150.922732,-34.130009],[150.899355,-34.189613],[150.859526,-34.181048],[150.890517,-34.214076],[150.876359,-34.25966],[150.81676,-34.306375],[150.750861,-34.301926],[150.745677,-34.337416],[150.689634,-34.441706],[150.747162,-34.461249],[150.798363,-34.450307],[150.873367,-34.499017],[150.874841,-34.542305],[150.913644,-34.4648],[150.903812,-34.401143],[150.92639,-34.319425],[150.977149,-34.245157],[151.066158,-34.172329]]]},"bbox":[150.689634,-34.542305,151.066158,-34.130009]},
{"properties":{"electorateShortName":"dobell","electorateName":"Dobell","area":675,"state":"NSW"},"type":"Feature","geometry":{"type":"Polygon","coordinates":[[[151.449605,-33.429352],[151.485003,-33.398629],[151.509143,-33.331355],[151.570336,-33.289529],[151.565085,-33.247326],[151.527986,-33.244476],[151.51218,-33.194307],[151.455115,-33.202843],[151.398625,-33.185747],[151.37894,-33.099711],[151.315283,-33.048252],[151.266703,-33.058556],[151.207311,-33.13327],[151.208269,-33.203652],[151.258392,-33.219318],[151.252651,-33.258596],[151.302527,-33.328444],[151.302593,-33.36238],[151.376638,-33.371292],[151.34508,-33.412419],[151.449605,-33.429352]]]},"bbox":[151.207311,-33.429352,151.570336,-33.048252]},
{"properties":{"electorateShortName":"eden-monaro","electorateName":"Eden-Monaro","area":31913.08,"state":"NSW"},"type":"Feature","geometry":{"type":"Polygon","coordinates":[[[150.33353,-34.752388],[150.301885,-34.733907],[150.194342,-34.751262],[150.092571,-34.680435],[150.082942,-34.582311],[150.063435,-34.616134],[149.984211,-34.631041],[149.751725,-34.596673],[149.69959,-34.548699],[149.660748,-34.558604],[149.622309,-34.620513],[149.557194,-34.604548],[149.520353,-34.645136],[149.525556,-34.695678],[149.489413,-34.848722],[149.536311,-34.875744],[149.521342,-34.907129],[149.455029,-34.911692],[149.38799,-34.979272],[149.376162,-35.095307],[149.294466,-35.175134],[149.200702,-35.205411],[149.205895,-35.211567],[149.207621,-35.215875],[149.205028,-35.219863],[149.204986,-35.2291],[149.227037,-35.219844],[149.237105,-35.222363],[149.240728,-35.225046],[149.262261,-35.257395],[149.273179,-35.259179],[149.273461,-35.266102],[149.27236,-35.269429],[149.271808,-35.273485],[149.276381,-35.273082],[149.282976,-35.272059],[149.28752,-35.274128],[149.301643,-35.272894],[149.305417,-35.275532],[149.311697,-35.277525],[149.32127,-35.28522],[149.324581,-35.286388],[149.335757,-35.287382],[149.342838,-35.290187],[149.345034,-35.292206],[149.350421,-35.298166],[149.353713,-35.299731],[149.36584,-35.308526],[149.381897,-35.306266],[149.383697,-35.306471],[149.386579,-35.303418],[149.393416,-35.302924],[149.396428,-35.30968],[149.385354,-35.332516],[149.318915,-35.336781],[149.311959,-35.335847],[149.291264,-35.334205],[149.274513,-35.335999],[149.216186,-35.342191],[149.190824,-35.368854],[149.176683,-35.386268],[149.135092,-35.454034],[149.138601,-35.468311],[149.144669,-35.475913],[149.15161,-35.4932],[149.150652,-35.509819],[149.131454,-35.553603],[149.108345,-35.58398],[149.078148,-35.586417],[149.085926,-35.625371],[149.109418,-35.696586],[149.09071,-35.765617],[149.093142,-35.78319],[149.093476,-35.78723],[149.096124,-35.787215],[149.100323,-35.790309],[149.100195,-35.794062],[149.096759,-35.79818],[149.099832,-35.803272],[149.101504,-35.803653],[149.098263,-35.807936],[149.100478,-35.810023],[149.1006,-35.814703],[149.095921,-35.817586],[149.093572,-35.824112],[149.094558,-35.830764],[149.092046,-35.83538],[149.095687,-35.845637],[149.084204,-35.850202],[149.061711,-35.879879],[149.060433,-35.889338],[149.058578,-35.894666],[149.00882,-35.901306],[149.003487,-35.901203],[148.997398,-35.900995],[148.975656,-35.892176],[148.909446,-35.853074],[148.896604,-35.817905],[148.886679,-35.810064],[148.893154,-35.79932],[148.897777,-35.794659],[148.894994,-35.784663],[148.894863,-35.771878],[148.902299,-35.763292],[148.90332,-35.757937],[148.894098,-35.751339],[148.890913,-35.740678],[148.888073,-35.737059],[148.888375,-35.733696],[148.892473,-35.730467],[148.892306,-35.728422],[148.886705,-35.719239],[148.877714,-35.714962],[148.872486,-35.721428],[148.86073,-35.75285],[148.83863,-35.744237],[148.83765,-35.743509],[148.823575,-35.724213],[148.820684,-35.719515],[148.804147,-35.714019],[148.719968,-35.667395],[148.6447,-35.652666],[148.609707,-35.616867],[148.530082,-35.72118],[148.452427,-35.842814],[148.444844,-35.904969],[148.538488,-35.999434],[148.55342,-36.083223],[148.454005,-36.125948],[148.425739,-36.204249],[148.428411,-36.260512],[148.328746,-36.383258],[148.289314,-36.410161],[148.247015,-36.510224],[148.303837,-36.599133],[148.249953,-36.625519],[148.254457,-36.69157],[148.200705,-36.798637],[148.992556,-37.118474],[149.592094,-37.355679],[149.976192,-37.505159],[149.97541,-37.44545],[149.951181,-37.366104],[149.972162,-37.328523],[149.942936,-37.282524],[150.021337,-37.218882],[150.004599,-37.14645],[149.938309,-37.09858],[149.872514,-37.083208],[149.939397,-37.038901],[149.908606,-36.939094],[149.940621,-36.811683],[149.967162,-36.78743],[149.999881,-36.665002],[150.058028,-36.579313],[150.055037,-36.495297],[150.082699,-36.422783],[150.068941,-36.393006],[150.136439,-36.305905],[150.147542,-36.237994],[150.124334,-36.141924],[150.14129,-36.050883],[150.074777,-36.008335],[150.052638,-36.041306],[149.966665,-36.010489],[149.855705,-35.809015],[149.817232,-35.753041],[149.856847,-35.719476],[149.934096,-35.61165],[149.929853,-35.565592],[149.964045,-35.500787],[149.998742,-35.478744],[150.038056,-35.406213],[150.03804,-35.331635],[150.197489,-35.230222],[150.204326,-35.177566],[150.141643,-35.14446],[150.129401,-35.09779],[150.071681,-35.049501],[150.05552,-34.965285],[150.088242,-34.924887],[150.037447,-34.843872],[150.040306,-34.79555],[150.07422,-34.768097],[150.127115,-34.817387],[150.209564,-34.814495],[150.28782,-34.764691],[150.33353,-34.752388]]]},"bbox":[148.200705,-37.505159,150.33353,-34.548699]},
{"properties":{"electorateShortName":"farrer","electorateName":"Farrer","area":126562.92,"state":"NSW"},"type":"Feature","geometry":{"type":"Polygon","coordinates":[[[147.68933,-35.937725],[147.714259,-35.838507],[147.760588,-35.839756],[147.819657,-35.744114],[147.801663,-35.678005],[147.833648,-35.641585],[147.89396,-35.62422],[147.855324,-35.559898],[147.685594,-35.534198],[147.607787,-35.539571],[147.525087,-35.483406],[147.480995,-35.54516],[147.283199,-35.500123],[147.226524,-35.473668],[147.087341,-35.450465],[146.871365,-35.57586],[146.796881,-35.574699],[146.662323,-35.547763],[146.669769,-35.520279],[146.540094,-35.487174],[146.428237,-35.471405],[146.354226,-35.387797],[146.364032,-35.337739],[146.403804,-35.304452],[146.389251,-35.231731],[146.563727,-35.119126],[146.615161,-35.114348],[146.688478,-35.067979],[146.761524,-35.076441],[146.7942,-35.058208],[146.807657,-34.986944],[146.784477,-34.924058],[146.84358,-34.899125],[146.843266,-34.83723],[146.911568,-34.482591],[146.795492,-34.470798],[146.823028,-34.310851],[146.718745,-34.298111],[146.729043,-34.236768],[146.623872,-34.224735],[146.635404,-34.151187],[146.458206,-34.13293],[146.492809,-33.919657],[146.417433,-33.910635],[146.437185,-33.794499],[146.0703,-33.753534],[146.095141,-33.603131],[146.053962,-33.475767],[146.066897,-33.359114],[146.095088,-33.276178],[146.058892,-33.211808],[146.093631,-33.189083],[146.03166,-33.093579],[145.645258,-33.080312],[145.668529,-32.935871],[145.671923,-32.805722],[145.586515,-32.796236],[145.504348,-32.770092],[145.467462,-32.722507],[145.412631,-32.775949],[145.330563,-32.766674],[145.344278,-32.682486],[145.257279,-32.671254],[145.249374,-32.724393],[145.164993,-32.71483],[145.127254,-32.954686],[145.107556,-33.033712],[145.027698,-33.021923],[144.991731,-33.033662],[144.979402,-33.083791],[144.913078,-33.049131],[144.798235,-33.036219],[144.777974,-33.163461],[144.741889,-33.173591],[144.733424,-33.231398],[144.645681,-33.222352],[144.546947,-33.300011],[144.262641,-33.272906],[144.236255,-33.249829],[144.251426,-33.15507],[143.905907,-33.115708],[143.898192,-33.161392],[143.720951,-33.140453],[143.66485,-33.178855],[143.637288,-33.149916],[143.55246,-33.140481],[143.57281,-33.012429],[143.653413,-33.012413],[143.671807,-32.940764],[143.585153,-32.93103],[143.591987,-32.885141],[143.505852,-32.876004],[143.499566,-32.918349],[143.416969,-32.907493],[143.432435,-32.808446],[143.271212,-32.780229],[142.964638,-32.748537],[142.94435,-32.890533],[142.515536,-32.847454],[142.547987,-33.01714],[142.382492,-33.005539],[142.28965,-33.081676],[142.27428,-33.123423],[142.105679,-33.11242],[142.022933,-33.0848],[142.038355,-33.143941],[141.560773,-33.096293],[141.573204,-33.005572],[141.40258,-32.98766],[141.348003,-33.366658],[141.263992,-33.355755],[141.167885,-33.345854],[141.002405,-33.329023],[141.00254,-33.498505],[141.002956,-34.021892],[141.008944,-34.044659],[141.097716,-34.068773],[141.207196,-34.061189],[141.283027,-34.103317],[141.403364,-34.127205],[141.4525,-34.161286],[141.49464,-34.154513],[141.517339,-34.206709],[141.567974,-34.19183],[141.635073,-34.12039],[141.704908,-34.095686],[141.842404,-34.132526],[141.903691,-34.111366],[142.013312,-34.105381],[142.074484,-34.130491],[142.082079,-34.172992],[142.220316,-34.181665],[142.272191,-34.30357],[142.32161,-34.336936],[142.396798,-34.338096],[142.351891,-34.394745],[142.368408,-34.527088],[142.428641,-34.572575],[142.471582,-34.666869],[142.518898,-34.704022],[142.526373,-34.759805],[142.631431,-34.784395],[142.616551,-34.737954],[142.696762,-34.720164],[142.678929,-34.680153],[142.699545,-34.603155],[142.787947,-34.5907],[142.854341,-34.619617],[142.899365,-34.66883],[143.012939,-34.671045],[143.040044,-34.702511],[143.133792,-34.701049],[143.242936,-34.746825],[143.35939,-34.817289],[143.319738,-34.948405],[143.341107,-35.088849],[143.391141,-35.146715],[143.39638,-35.193114],[143.471481,-35.219294],[143.563927,-35.202627],[143.59086,-35.281659],[143.562883,-35.318016],[143.642339,-35.401037],[143.676871,-35.371752],[143.746463,-35.388599],[143.867954,-35.481485],[143.958981,-35.50448],[143.989386,-35.553193],[144.04785,-35.556174],[144.105766,-35.591691],[144.16235,-35.671526],[144.353145,-35.778209],[144.408538,-35.898891],[144.583275,-36.039025],[144.692392,-36.069351],[144.718402,-36.113565],[144.805787,-36.123842],[144.874824,-36.057628],[144.986877,-36.064296],[144.946451,-36.005122],[144.949012,-35.931999],[144.979344,-35.858355],[145.072862,-35.827757],[145.246515,-35.830412],[145.284146,-35.856572],[145.352396,-35.865795],[145.471522,-35.811322],[145.555842,-35.814555],[145.588695,-35.862565],[145.793445,-35.982817],[145.870564,-35.955476],[145.950694,-35.974942],[145.986695,-36.013257],[146.141672,-36.016598],[146.177275,-36.034041],[146.288234,-36.015356],[146.306049,-36.042575],[146.380858,-36.012572],[146.436366,-35.966703],[146.488434,-35.989957],[146.607993,-35.974706],[146.656852,-36.026428],[146.716628,-36.026506],[146.76021,-36.058168],[146.872952,-36.073681],[146.945682,-36.115517],[147.137173,-36.028625],[147.204328,-36.049889],[147.352244,-36.032293],[147.360761,-35.988997],[147.404264,-35.943562],[147.498602,-35.946642],[147.555245,-36.003209],[147.68933,-35.937725]]]},"bbox":[141.002405,-36.123842,147.89396,-32.671254]},
{"properties":{"electorateShortName":"fowler","electorateName":"Fowler","area":62.45,"state":"NSW"},"type":"Feature","geometry":{"type":"Polygon","coordinates":[[[150.973326,-33.889429],[150.961326,-33.86758],[150.918341,-33.848264],[150.842448,-33.876249],[150.881878,-33.888583],[150.918369,-33.939036],[150.968598,-33.931074],[150.97899,-33.929267],[150.973326,-33.889429]]]},"bbox":[150.842448,-33.939036,150.97899,-33.848264]},
{"properties":{"electorateShortName":"gilmore","electorateName":"Gilmore","area":6322.13,"state":"NSW"},"type":"Feature","geometry":{"type":"Polygon","coordinates":[[[150.14129,-36.050883],[150.160261,-36.013824],[150.149676,-35.895409],[150.187121,-35.832865],[150.227112,-35.822133],[150.234944,-35.771762],[150.199194,-35.719221],[150.262428,-35.717863],[150.313561,-35.635562],[150.407619,-35.529497],[150.392847,-35.464609],[150.474882,-35.356554],[150.478024,-35.291824],[150.541494,-35.245711],[150.539507,-35.216614],[150.593971,-35.185018],[150.592407,-35.175336],[150.6016,-35.170423],[150.606165,-35.155343],[150.603545,-35.151969],[150.596026,-35.151559],[150.593969,-35.143836],[150.599637,-35.146319],[150.608059,-35.143609],[150.613394,-35.147384],[150.615391,-35.144781],[150.614989,-35.148425],[150.621482,-35.147461],[150.627577,-35.150033],[150.633225,-35.149115],[150.638248,-35.145859],[150.651131,-35.131817],[150.65729,-35.129457],[150.660214,-35.125825],[150.66135,-35.11782],[150.701604,-35.122862],[150.678123,-35.025228],[150.753894,-34.991007],[150.78001,-34.934466],[150.750217,-34.887528],[150.762336,-34.817197],[150.822899,-34.773159],[150.858825,-34.686322],[150.860886,-34.627883],[150.796952,-34.641328],[150.758131,-34.613022],[150.666625,-34.611709],[150.576376,-34.669631],[150.548328,-34.650451],[150.433291,-34.68976],[150.33353,-34.752388],[150.28782,-34.764691],[150.209564,-34.814495],[150.127115,-34.817387],[150.07422,-34.768097],[150.040306,-34.79555],[150.037447,-34.843872],[150.088242,-34.924887],[150.05552,-34.965285],[150.071681,-35.049501],[150.129401,-35.09779],[150.141643,-35.14446],[150.204326,-35.177566],[150.197489,-35.230222],[150.03804,-35.331635],[150.038056,-35.406213],[149.998742,-35.478744],[149.964045,-35.500787],[149.929853,-35.565592],[149.934096,-35.61165],[149.856847,-35.719476],[149.817232,-35.753041],[149.855705,-35.809015],[149.966665,-36.010489],[150.052638,-36.041306],[150.074777,-36.008335],[150.14129,-36.050883]]]},"bbox":[149.817232,-36.050883,150.860886,-34.611709]},
{"properties":{"electorateShortName":"grayndler","electorateName":"Grayndler","area":34.21,"state":"NSW"},"type":"Feature","geometry":{"type":"Polygon","coordinates":[[[151.180834,-33.919165],[151.142072,-33.870421],[151.091508,-33.887654],[151.117138,-33.91335],[151.160519,-33.933998],[151.180834,-33.919165]]]},"bbox":[151.091508,-33.933998,151.180834,-33.870421]},
{"properties":{"electorateShortName":"greenway","electorateName":"Greenway","area":89.62,"state":"NSW"},"type":"Feature","geometry":{"type":"Polygon","coordinates":[[[150.958354,-33.765616],[150.927492,-33.696814],[150.932899,-33.659754],[150.904352,-33.611808],[150.851042,-33.650138],[150.904637,-33.76798],[150.935266,-33.774243],[150.958354,-33.765616]]]},"bbox":[150.851042,-33.774243,150.958354,-33.611808]},
{"properties":{"electorateShortName":"hughes","electorateName":"Hughes","area":379.92,"state":"NSW"},"type":"Feature","geometry":{"type":"Polygon","coordinates":[[[151.066158,-34.172329],[151.127882,-34.137919],[151.162586,-34.072444],[151.072235,-34.063154],[151.07327,-33.99586],[150.998147,-33.975126],[150.968598,-33.931074],[150.918369,-33.939036],[150.856473,-33.97473],[150.828677,-34.010694],[150.940791,-34.040033],[150.922732,-34.130009],[151.066158,-34.172329]]]},"bbox":[150.828677,-34.172329,151.162586,-33.931074]},
{"properties":{"electorateShortName":"hume","electorateName":"Hume","area":2673.89,"state":"NSW"},"type":"Feature","geometry":{"type":"Polygon","coordinates":[[[150.745677,-34.337416],[150.750861,-34.301926],[150.81676,-34.306375],[150.876359,-34.25966],[150.890517,-34.214076],[150.859526,-34.181048],[150.752063,-34.163864],[150.745626,-34.036846],[150.822564,-33.951998],[150.758915,-33.944075],[150.767908,-33.875728],[150.672337,-33.842403],[150.612793,-33.861847],[150.470564,-33.963447],[150.404275,-33.940691],[150.326633,-33.85673],[150.280855,-33.85066],[150.232966,-33.884501],[150.186093,-33.88118],[150.175556,-33.945178],[150.2412,-33.952033],[150.115857,-34.080292],[150.105241,-34.138496],[150.037434,-34.121378],[150.066039,-34.195339],[150.059231,-34.267018],[150.156949,-34.305789],[150.197015,-34.304104],[150.232692,-34.229037],[150.271555,-34.2227],[150.551371,-34.2669],[150.601549,-34.314359],[150.745677,-34.337416]]]},"bbox":[150.037434,-34.337416,150.890517,-33.842403]},
{"properties":{"electorateShortName":"hunter","electorateName":"Hunter","area":7252.97,"state":"NSW"},"type":"Feature","geometry":{"type":"Polygon","coordinates":[[[151.640251,-32.919863],[151.600846,-32.88926],[151.565617,-32.875075],[151.434447,-32.758971],[151.407184,-32.679147],[151.434772,-32.613621],[151.470816,-32.618177],[151.500727,-32.504188],[151.456798,-32.472384],[151.446149,-32.407075],[151.371487,-32.291598],[151.339229,-32.262123],[151.341902,-32.175586],[151.309698,-32.138984],[151.246256,-32.209568],[151.109563,-32.281652],[151.099023,-32.335295],[151.028602,-32.344626],[151.017862,-32.402065],[150.898029,-32.397086],[150.883068,-32.470205],[150.778138,-32.473783],[150.744565,-32.641325],[150.681978,-32.632525],[150.67129,-32.698479],[150.603086,-32.71812],[150.556609,-32.758462],[150.492341,-32.765301],[150.362598,-32.845913],[150.340685,-32.87098],[150.366455,-32.936634],[150.371672,-33.015457],[150.488448,-33.048124],[150.610687,-33.066137],[150.718059,-33.068653],[150.745841,-33.021913],[150.804787,-33.006045],[150.855141,-33.056316],[150.848251,-33.092812],[150.973962,-33.129606],[151.035356,-33.117464],[151.052491,-33.07994],[151.103972,-33.076969],[151.135527,-33.110401],[151.207311,-33.13327],[151.266703,-33.058556],[151.315283,-33.048252],[151.37894,-33.099711],[151.398625,-33.185747],[151.455115,-33.202843],[151.51218,-33.194307],[151.532684,-33.140792],[151.613877,-33.090566],[151.633277,-33.041009],[151.615194,-32.966738],[151.640251,-32.919863]]]},"bbox":[150.340685,-33.202843,151.640251,-32.138984]},
{"properties":{"electorateShortName":"kingsford-smith","electorateName":"Kingsford Smith","area":60.99,"state":"NSW"},"type":"Feature","geometry":{"type":"Polygon","coordinates":[[[151.231926,-34.016739],[151.262961,-33.961215],[151.262396,-33.916745],[151.215031,-33.900896],[151.180834,-33.919165],[151.160519,-33.933998],[151.143823,-33.985272],[151.231926,-34.016739]]]},"bbox":[151.143823,-34.016739,151.262961,-33.900896]},
{"properties":{"electorateShortName":"lindsay","electorateName":"Lindsay","area":325.19,"state":"NSW"},"type":"Feature","geometry":{"type":"Polygon","coordinates":[[[150.812394,-33.677614],[150.782148,-33.637517],[150.708442,-33.61346],[150.657889,-33.677031],[150.64244,-33.778703],[150.588042,-33.844933],[150.612793,-33.861847],[150.672337,-33.842403],[150.767908,-33.875728],[150.765151,-33.783428],[150.803381,-33.776811],[150.765994,-33.705777],[150.812394,-33.677614]]]},"bbox":[150.588042,-33.875728,150.812394,-33.61346]},
{"properties":{"electorateShortName":"lyne","electorateName":"Lyne","area":16040.73,"state":"NSW"},"type":"Feature","geometry":{"type":"Polygon","coordinates":[[[152.915196,-31.492814],[152.81498,-31.476781],[152.824844,-31.413747],[152.785939,-31.343094],[152.736674,-31.340141],[152.679693,-31.227203],[152.705219,-31.207461],[152.706943,-31.151512],[152.64048,-31.14974],[152.597606,-31.123699],[152.539697,-31.162886],[152.455832,-31.155831],[152.385897,-31.166653],[152.349587,-31.117004],[152.316572,-31.202936],[152.14755,-31.196017],[152.160941,-31.240885],[152.123679,-31.278729],[152.09976,-31.392027],[152.065575,-31.409145],[152.083657,-31.500485],[151.91277,-31.4767],[151.761575,-31.511185],[151.802497,-31.573861],[151.757149,-31.601741],[151.756867,-31.638158],[151.659977,-31.61219],[151.536255,-31.598101],[151.517871,-31.768467],[151.594022,-31.78969],[151.57678,-31.85484],[151.535463,-31.84554],[151.491173,-31.878161],[151.442452,-31.949366],[151.454726,-31.995979],[151.408589,-32.032685],[151.387447,-32.083526],[151.335448,-32.082403],[151.309698,-32.138984],[151.341902,-32.175586],[151.339229,-32.262123],[151.371487,-32.291598],[151.446149,-32.407075],[151.456798,-32.472384],[151.500727,-32.504188],[151.470816,-32.618177],[151.434772,-32.613621],[151.407184,-32.679147],[151.496875,-32.638999],[151.509915,-32.687487],[151.569049,-32.697386],[151.727015,-32.751268],[151.756003,-32.678348],[151.809842,-32.686222],[151.844219,-32.661604],[151.932013,-32.661416],[151.976222,-32.684583],[152.194486,-32.707671],[152.18698,-32.669451],[152.214414,-32.627575],[152.285026,-32.594775],[152.33563,-32.527079],[152.418854,-32.482549],[152.533347,-32.44304],[152.516316,-32.408505],[152.545767,-32.3371],[152.526786,-32.280044],[152.56751,-32.211487],[152.506396,-32.165553],[152.508752,-32.129038],[152.548008,-32.073271],[152.54381,-32.036093],[152.608795,-31.94714],[152.745085,-31.845878],[152.747952,-31.789103],[152.797657,-31.733566],[152.793334,-31.705666],[152.842205,-31.642064],[152.844584,-31.574441],[152.915196,-31.492814]]]},"bbox":[151.309698,-32.751268,152.915196,-31.117004]},
{"properties":{"electorateShortName":"macarthur","electorateName":"Macarthur","area":306.87,"state":"NSW"},"type":"Feature","geometry":{"type":"Polygon","coordinates":[[[150.922732,-34.130009],[150.940791,-34.040033],[150.828677,-34.010694],[150.856473,-33.97473],[150.822564,-33.951998],[150.745626,-34.036846],[150.752063,-34.163864],[150.859526,-34.181048],[150.899355,-34.189613],[150.922732,-34.130009]]]},"bbox":[150.745626,-34.189613,150.940791,-33.951998]},
{"properties":{"electorateShortName":"mackellar","electorateName":"Mackellar","area":221.56,"state":"NSW"},"type":"Feature","geometry":{"type":"Polygon","coordinates":[[[151.299538,-33.767132],[151.300238,-33.717914],[151.331914,-33.636464],[151.3352,-33.5822],[151.284798,-33.572214],[151.175919,-33.627211],[151.161505,-33.659605],[151.191417,-33.702699],[151.18035,-33.740095],[151.230948,-33.784291],[151.299538,-33.767132]]]},"bbox":[151.161505,-33.784291,151.3352,-33.572214]},
{"properties":{"electorateShortName":"macquarie","electorateName":"Macquarie","area":4387.29,"state":"NSW"},"type":"Feature","geometry":{"type":"Polygon","coordinates":[[[151.135527,-33.110401],[151.103972,-33.076969],[151.052491,-33.07994],[151.035356,-33.117464],[150.973962,-33.129606],[150.848251,-33.092812],[150.855141,-33.056316],[150.804787,-33.006045],[150.745841,-33.021913],[150.718059,-33.068653],[150.610687,-33.066137],[150.604485,-33.1473],[150.527999,-33.194059],[150.53315,-33.240176],[150.580997,-33.351442],[150.475923,-33.399445],[150.4474,-33.481423],[150.402519,-33.476926],[150.335619,-33.511948],[150.256814,-33.494305],[150.236942,-33.593271],[150.266463,-33.622346],[150.214826,-33.674875],[150.177912,-33.778027],[150.186093,-33.88118],[150.232966,-33.884501],[150.280855,-33.85066],[150.326633,-33.85673],[150.404275,-33.940691],[150.470564,-33.963447],[150.612793,-33.861847],[150.588042,-33.844933],[150.64244,-33.778703],[150.657889,-33.677031],[150.708442,-33.61346],[150.782148,-33.637517],[150.812394,-33.677614],[150.851042,-33.650138],[150.904352,-33.611808],[150.935653,-33.564909],[150.926583,-33.508451],[150.887353,-33.437201],[150.943673,-33.424896],[150.988457,-33.379232],[150.999641,-33.351156],[151.090244,-33.324986],[151.099671,-33.144458],[151.135527,-33.110401]]]},"bbox":[150.177912,-33.963447,151.135527,-33.006045]},
{"properties":{"electorateShortName":"mcmahon","electorateName":"McMahon","area":178.57,"state":"NSW"},"type":"Feature","geometry":{"type":"Polygon","coordinates":[[[150.842448,-33.876249],[150.918341,-33.848264],[150.961326,-33.86758],[150.963514,-33.816181],[150.935266,-33.774243],[150.904637,-33.76798],[150.856452,-33.789224],[150.803381,-33.776811],[150.765151,-33.783428],[150.767908,-33.875728],[150.842448,-33.876249]]]},"bbox":[150.765151,-33.876249,150.963514,-33.76798]},
{"properties":{"electorateShortName":"mitchell","electorateName":"Mitchell","area":79.39,"state":"NSW"},"type":"Feature","geometry":{"type":"Polygon","coordinates":[[[151.048939,-33.758638],[150.932899,-33.659754],[150.927492,-33.696814],[150.958354,-33.765616],[150.987451,-33.796571],[151.048939,-33.758638]]]},"bbox":[150.927492,-33.796571,151.048939,-33.659754]},
{"properties":{"electorateShortName":"new-england","electorateName":"New England","area":75236.55,"state":"NSW"},"type":"Feature","geometry":{"type":"Polygon","coordinates":[[[152.428078,-30.418897],[152.35178,-30.355359],[152.309672,-30.147907],[152.280721,-30.087436],[152.313319,-30.030123],[152.308005,-29.980175],[152.275042,-29.960416],[152.285582,-29.907048],[152.267689,-29.847868],[152.197742,-29.875924],[152.17596,-29.817476],[152.205433,-29.771754],[152.264365,-29.750938],[152.280708,-29.665904],[152.336123,-29.640777],[152.354492,-29.545471],[152.412456,-29.50688],[152.388785,-29.445316],[152.451081,-29.358053],[152.331517,-29.341837],[152.298279,-29.307447],[152.351323,-29.249123],[152.394086,-29.24125],[152.444231,-29.144175],[152.421006,-29.084096],[152.46464,-29.008025],[152.467109,-28.973664],[152.558516,-28.990078],[152.548638,-28.932364],[152.573306,-28.86365],[152.556973,-28.824527],[152.480325,-28.780262],[152.498235,-28.74483],[152.375208,-28.699883],[152.441811,-28.592688],[152.447754,-28.527473],[152.500138,-28.528526],[152.577038,-28.437617],[152.627861,-28.327548],[152.597846,-28.314779],[152.597642,-28.314618],[152.597572,-28.314551],[152.585233,-28.328411],[152.579506,-28.339198],[152.57462,-28.334094],[152.572299,-28.326754],[152.564036,-28.323534],[152.556799,-28.324022],[152.554675,-28.325536],[152.554946,-28.31897],[152.549056,-28.321269],[152.547013,-28.320487],[152.544048,-28.31894],[152.543248,-28.315922],[152.538879,-28.311349],[152.533545,-28.310727],[152.525919,-28.305978],[152.525593,-28.301795],[152.529298,-28.297945],[152.528879,-28.286644],[152.532802,-28.279583],[152.533975,-28.262694],[152.521699,-28.260734],[152.516065,-28.256825],[152.515812,-28.251799],[152.507531,-28.249],[152.497194,-28.25335],[152.487893,-28.253199],[152.482866,-28.258017],[152.468237,-28.257757],[152.461331,-28.260935],[152.459494,-28.266686],[152.461228,-28.269753],[152.457959,-28.27238],[152.455141,-28.278408],[152.449262,-28.280688],[152.443162,-28.288923],[152.444181,-28.297245],[152.440457,-28.2976],[152.435654,-28.299493],[152.425391,-28.299614],[152.416744,-28.296816],[152.415173,-28.298073],[152.413216,-28.301582],[152.413889,-28.307139],[152.4107,-28.310447],[152.410571,-28.320408],[152.417299,-28.329874],[152.416362,-28.335003],[152.41024,-28.341494],[152.401119,-28.347069],[152.387971,-28.367464],[152.383425,-28.368848],[152.365173,-28.366149],[152.356632,-28.361187],[152.341853,-28.36797],[152.33194,-28.36829],[152.320358,-28.36695],[152.312827,-28.362494],[152.268244,-28.389531],[152.266677,-28.390742],[152.26038,-28.40077],[152.252449,-28.40728],[152.252075,-28.410599],[152.239161,-28.417868],[152.238062,-28.423477],[152.230983,-28.429585],[152.228676,-28.437025],[152.225691,-28.43724],[152.219625,-28.447797],[152.217235,-28.449114],[152.213976,-28.44599],[152.207271,-28.44523],[152.204702,-28.438071],[152.190219,-28.43404],[152.184266,-28.439044],[152.164688,-28.432592],[152.156414,-28.434585],[152.154493,-28.438027],[152.141966,-28.442435],[152.121239,-28.462649],[152.093821,-28.469739],[152.079795,-28.470625],[152.07408,-28.46803],[152.069682,-28.468535],[152.016708,-28.525233],[152.000453,-28.528124],[151.991759,-28.524752],[151.988794,-28.525617],[151.984457,-28.516901],[151.985591,-28.509941],[151.982626,-28.503328],[151.977801,-28.503068],[151.964092,-28.514544],[151.958186,-28.515945],[151.955352,-28.519191],[151.953223,-28.539938],[151.957333,-28.564747],[151.976088,-28.573541],[151.985938,-28.582131],[151.988309,-28.591981],[151.992118,-28.594874],[151.994006,-28.611945],[151.990987,-28.624585],[152.002412,-28.640299],[152.002042,-28.65064],[152.005934,-28.651735],[152.008903,-28.659218],[152.011596,-28.661847],[152.010495,-28.664987],[152.014193,-28.665777],[152.039056,-28.664577],[152.052543,-28.682229],[152.062002,-28.679389],[152.066446,-28.681191],[152.068052,-28.685124],[152.06466,-28.690654],[152.066075,-28.697586],[152.076035,-28.708345],[152.071329,-28.714959],[152.062127,-28.718238],[152.053881,-28.725549],[152.042291,-28.731828],[152.036073,-28.757271],[152.033967,-28.791124],[152.035223,-28.803652],[152.036498,-28.810729],[152.034593,-28.815157],[152.036603,-28.817792],[152.034126,-28.820023],[152.03338,-28.82807],[152.037562,-28.851641],[152.024364,-28.889636],[151.922854,-28.928165],[151.916316,-28.929342],[151.915588,-28.926812],[151.917058,-28.924821],[151.913691,-28.92012],[151.89558,-28.913451],[151.859768,-28.90681],[151.849775,-28.907624],[151.841344,-28.911473],[151.838224,-28.916363],[151.839903,-28.942779],[151.835554,-28.956773],[151.825738,-28.963974],[151.8069,-28.945298],[151.793431,-28.949471],[151.777397,-28.957172],[151.773339,-28.938076],[151.726416,-28.866955],[151.72262,-28.868464],[151.722611,-28.870168],[151.716492,-28.874952],[151.713207,-28.875476],[151.71104,-28.871185],[151.706368,-28.871719],[151.702067,-28.882137],[151.69565,-28.884453],[151.695847,-28.888458],[151.688609,-28.88696],[151.674772,-28.907749],[151.588469,-28.932062],[151.57894,-28.94412],[151.572047,-28.944727],[151.566706,-28.941837],[151.548109,-28.952947],[151.544829,-28.953286],[151.50607,-29.006767],[151.50278,-29.015802],[151.500164,-29.016937],[151.497799,-29.02088],[151.490092,-29.056575],[151.502375,-29.065521],[151.502776,-29.069867],[151.499897,-29.072683],[151.496739,-29.070394],[151.493429,-29.071771],[151.494431,-29.074631],[151.485341,-29.089335],[151.452744,-29.126252],[151.409894,-29.153933],[151.394116,-29.178028],[151.338428,-29.179266],[151.312067,-29.161927],[151.309311,-29.146588],[151.318009,-29.138057],[151.30426,-29.121138],[151.303493,-29.116651],[151.301073,-29.114013],[151.297829,-29.112604],[151.290347,-29.113887],[151.28647,-29.107269],[151.280468,-29.102157],[151.28551,-29.065447],[151.285421,-29.058162],[151.290545,-29.051096],[151.285791,-29.047397],[151.28651,-29.036742],[151.283694,-29.035391],[151.276381,-29.03571],[151.271676,-29.030392],[151.273984,-29.024654],[151.283506,-29.017495],[151.284103,-29.006822],[151.283161,-29.002701],[151.278693,-28.99686],[151.276392,-28.987063],[151.276623,-28.984709],[151.282087,-28.98096],[151.271939,-28.972733],[151.273318,-28.967698],[151.280424,-28.964971],[151.281528,-28.958492],[151.281613,-28.949009],[151.275861,-28.942717],[151.274167,-28.937912],[151.266156,-28.935446],[151.264264,-28.93211],[151.257813,-28.932061],[151.25014,-28.92619],[151.242318,-28.923373],[151.238629,-28.909303],[151.234642,-28.904803],[151.229385,-28.908803],[151.214966,-28.904299],[151.207008,-28.898337],[151.19959,-28.884255],[151.131898,-28.860063],[151.115349,-28.850528],[151.108624,-28.842729],[151.104492,-28.844069],[151.103329,-28.836584],[151.099626,-28.836498],[151.09684,-28.838391],[151.090408,-28.835299],[151.082664,-28.834515],[151.07217,-28.840705],[151.071491,-28.844912],[151.058844,-28.846251],[151.053691,-28.849818],[151.053018,-28.844923],[151.050248,-28.843548],[151.046884,-28.845351],[151.044403,-28.843892],[151.038916,-28.838305],[151.03922,-28.83653],[151.042683,-28.835243],[151.042994,-28.833079],[151.03657,-28.825693],[151.037586,-28.818435],[151.04226,-28.815764],[151.042704,-28.801597],[151.041089,-28.797634],[151.037699,-28.797602],[151.033281,-28.793931],[151.024087,-28.793484],[151.024567,-28.753062],[151.012,-28.744525],[151.009923,-28.740947],[151.002891,-28.740702],[150.989548,-28.73607],[150.98342,-28.736168],[150.97949,-28.732628],[150.970428,-28.732074],[150.963344,-28.737839],[150.95244,-28.736701],[150.94746,-28.733797],[150.94592,-28.728823],[150.943014,-28.728642],[150.938421,-28.731247],[150.938182,-28.725656],[150.932405,-28.722346],[150.930615,-28.705109],[150.924764,-28.699019],[150.919848,-28.700701],[150.915416,-28.698518],[150.911384,-28.695399],[150.874065,-28.694394],[150.870051,-28.686264],[150.863498,-28.688262],[150.852186,-28.680187],[150.849048,-28.673719],[150.839294,-28.672514],[150.828523,-28.667188],[150.818775,-28.666694],[150.81635,-28.662485],[150.818978,-28.659848],[150.804498,-28.653704],[150.796334,-28.656128],[150.782486,-28.645526],[150.751259,-28.63425],[150.63223,-28.67709],[150.580625,-28.655833],[150.55442,-28.664272],[150.551024,-28.6716],[150.537986,-28.670896],[150.534972,-28.672449],[150.527466,-28.669331],[150.513845,-28.662307],[150.483832,-28.662259],[150.420939,-28.751976],[150.343964,-28.827542],[150.169218,-28.876344],[150.148546,-28.889263],[150.259498,-29.013903],[150.24578,-29.116176],[150.169228,-29.495984],[150.219462,-29.497948],[150.194619,-29.620235],[150.262893,-29.679026],[150.287829,-29.721939],[150.293831,-29.870525],[150.312409,-29.892556],[150.292859,-29.990531],[150.248852,-29.99348],[150.197512,-30.062574],[150.124153,-30.070046],[150.07566,-30.107363],[150.102263,-30.191946],[150.167062,-30.228544],[150.194998,-30.321087],[150.188295,-30.359725],[150.283241,-30.430848],[150.351488,-30.418184],[150.358849,-30.519138],[150.388654,-30.551035],[150.36502,-30.583433],[150.454351,-30.607517],[150.509647,-30.660088],[150.457961,-30.690158],[150.487268,-30.798984],[150.559266,-30.810814],[150.530401,-30.875117],[150.527741,-30.968574],[150.599399,-31.046846],[150.572125,-31.206047],[150.575295,-31.273798],[150.550514,-31.289523],[150.543292,-31.36287],[150.433278,-31.36388],[150.417667,-31.397631],[150.160961,-31.354959],[150.148646,-31.303841],[150.158496,-31.237667],[150.103379,-31.240018],[150.078838,-31.338094],[150.006557,-31.320806],[149.98813,-31.427367],[149.968049,-31.45813],[149.882911,-31.451994],[149.866949,-31.537269],[149.911314,-31.572789],[149.863574,-31.669611],[149.904783,-31.706764],[150.030212,-31.69088],[150.075072,-31.739869],[150.023983,-31.828752],[149.919454,-31.893978],[149.873155,-31.943996],[149.869721,-32.023779],[149.795665,-32.05809],[149.81943,-32.103624],[149.947996,-32.134952],[150.034803,-32.195905],[150.063026,-32.245722],[150.021827,-32.305597],[150.054166,-32.351038],[150.164314,-32.320185],[150.217873,-32.336569],[150.26078,-32.317813],[150.279603,-32.422298],[150.246977,-32.460298],[150.236447,-32.608444],[150.311343,-32.646919],[150.288566,-32.765054],[150.337975,-32.790387],[150.362598,-32.845913],[150.492341,-32.765301],[150.556609,-32.758462],[150.603086,-32.71812],[150.67129,-32.698479],[150.681978,-32.632525],[150.744565,-32.641325],[150.778138,-32.473783],[150.883068,-32.470205],[150.898029,-32.397086],[151.017862,-32.402065],[151.028602,-32.344626],[151.099023,-32.335295],[151.109563,-32.281652],[151.246256,-32.209568],[151.309698,-32.138984],[151.335448,-32.082403],[151.387447,-32.083526],[151.408589,-32.032685],[151.454726,-31.995979],[151.442452,-31.949366],[151.491173,-31.878161],[151.535463,-31.84554],[151.57678,-31.85484],[151.594022,-31.78969],[151.517871,-31.768467],[151.536255,-31.598101],[151.659977,-31.61219],[151.756867,-31.638158],[151.757149,-31.601741],[151.802497,-31.573861],[151.761575,-31.511185],[151.91277,-31.4767],[152.083657,-31.500485],[152.065575,-31.409145],[152.09976,-31.392027],[152.123679,-31.278729],[152.160941,-31.240885],[152.14755,-31.196017],[152.316572,-31.202936],[152.349587,-31.117004],[152.34517,-31.050618],[152.269825,-30.999147],[152.29117,-30.975444],[152.28951,-30.844152],[152.315673,-30.793799],[152.375309,-30.745347],[152.369291,-30.658905],[152.316055,-30.602971],[152.386854,-30.528965],[152.389645,-30.453052],[152.428078,-30.418897]]]},"bbox":[149.795665,-32.845913,152.627861,-28.249]},
{"properties":{"electorateShortName":"newcastle","electorateName":"Newcastle","area":159.36,"state":"NSW"},"type":"Feature","geometry":{"type":"Polygon","coordinates":[[[151.81011,-32.87822],[151.72725,-32.837075],[151.672974,-32.829504],[151.600846,-32.88926],[151.640251,-32.919863],[151.737915,-32.962947],[151.792983,-32.922815],[151.81011,-32.87822]]]},"bbox":[151.600846,-32.962947,151.81011,-32.829504]},
{"properties":{"electorateShortName":"page","electorateName":"Page","area":19335.11,"state":"NSW"},"type":"Feature","geometry":{"type":"Polygon","coordinates":[[[153.544475,-28.917804],[153.475801,-28.924591],[153.486858,-28.864848],[153.441382,-28.823097],[153.448133,-28.746851],[153.40682,-28.742889],[153.412627,-28.618563],[153.32783,-28.542733],[153.247732,-28.515887],[153.160263,-28.524129],[153.124034,-28.430592],[153.1094,-28.35744],[153.108548,-28.356328],[153.107655,-28.358494],[153.098334,-28.356964],[153.089175,-28.353318],[153.080675,-28.354407],[153.074175,-28.352198],[153.065302,-28.344239],[153.053254,-28.343149],[153.044902,-28.339012],[152.97318,-28.331822],[152.950745,-28.333643],[152.945141,-28.335669],[152.939167,-28.334753],[152.934266,-28.337655],[152.923368,-28.331594],[152.908531,-28.326342],[152.899915,-28.325378],[152.893429,-28.317929],[152.882688,-28.313321],[152.865772,-28.313577],[152.859596,-28.31147],[152.849424,-28.311186],[152.831369,-28.31967],[152.80931,-28.34208],[152.809072,-28.350635],[152.804259,-28.35357],[152.793378,-28.354043],[152.781735,-28.346686],[152.777385,-28.345967],[152.759798,-28.35246],[152.758216,-28.355079],[152.761853,-28.358278],[152.761045,-28.360161],[152.756969,-28.363596],[152.750949,-28.36388],[152.746532,-28.360675],[152.740324,-28.359187],[152.734097,-28.353385],[152.731107,-28.353949],[152.723053,-28.344132],[152.712855,-28.341368],[152.707637,-28.344287],[152.698575,-28.335668],[152.692407,-28.336801],[152.688397,-28.334837],[152.686374,-28.329145],[152.679494,-28.330585],[152.673962,-28.326287],[152.673551,-28.317971],[152.667517,-28.311703],[152.659116,-28.309879],[152.648477,-28.313376],[152.639747,-28.312186],[152.628435,-28.303561],[152.62695,-28.300108],[152.624124,-28.298298],[152.622146,-28.293183],[152.623511,-28.288885],[152.617525,-28.282572],[152.597572,-28.314551],[152.597642,-28.314618],[152.597846,-28.314779],[152.627861,-28.327548],[152.577038,-28.437617],[152.500138,-28.528526],[152.447754,-28.527473],[152.441811,-28.592688],[152.375208,-28.699883],[152.498235,-28.74483],[152.480325,-28.780262],[152.556973,-28.824527],[152.573306,-28.86365],[152.548638,-28.932364],[152.558516,-28.990078],[152.467109,-28.973664],[152.46464,-29.008025],[152.421006,-29.084096],[152.444231,-29.144175],[152.394086,-29.24125],[152.351323,-29.249123],[152.298279,-29.307447],[152.331517,-29.341837],[152.451081,-29.358053],[152.388785,-29.445316],[152.412456,-29.50688],[152.354492,-29.545471],[152.336123,-29.640777],[152.280708,-29.665904],[152.264365,-29.750938],[152.205433,-29.771754],[152.17596,-29.817476],[152.197742,-29.875924],[152.267689,-29.847868],[152.285582,-29.907048],[152.275042,-29.960416],[152.308005,-29.980175],[152.313319,-30.030123],[152.280721,-30.087436],[152.309672,-30.147907],[152.35178,-30.355359],[152.428078,-30.418897],[152.478585,-30.396994],[152.474912,-30.356637],[152.547091,-30.28865],[152.559647,-30.243719],[152.655376,-30.255316],[152.697823,-30.223335],[152.692987,-30.189015],[152.803453,-30.189567],[152.82954,-30.222078],[152.911059,-30.228489],[152.952152,-30.215507],[153.063319,-30.287125],[153.138428,-30.262793],[153.20109,-30.157596],[153.197084,-30.040577],[153.261773,-29.939942],[153.267648,-29.86525],[153.302914,-29.779179],[153.29201,-29.755913],[153.333974,-29.674551],[153.322947,-29.644035],[153.358717,-29.524101],[153.375511,-29.366632],[153.340263,-29.320414],[153.358856,-29.264965],[153.453325,-29.141867],[153.433862,-29.091555],[153.452966,-29.039249],[153.544475,-28.917804]]]},"bbox":[152.17596,-30.418897,153.544475,-28.282572]},
{"properties":{"electorateShortName":"parkes","electorateName":"Parkes","area":406754.54,"state":"NSW"},"type":"Feature","geometry":{"type":"Polygon","coordinates":[[[149.795665,-32.05809],[149.869721,-32.023779],[149.873155,-31.943996],[149.919454,-31.893978],[150.023983,-31.828752],[150.075072,-31.739869],[150.030212,-31.69088],[149.904783,-31.706764],[149.863574,-31.669611],[149.911314,-31.572789],[149.866949,-31.537269],[149.882911,-31.451994],[149.968049,-31.45813],[149.98813,-31.427367],[150.006557,-31.320806],[150.078838,-31.338094],[150.103379,-31.240018],[150.158496,-31.237667],[150.148646,-31.303841],[150.160961,-31.354959],[150.417667,-31.397631],[150.433278,-31.36388],[150.543292,-31.36287],[150.550514,-31.289523],[150.575295,-31.273798],[150.572125,-31.206047],[150.599399,-31.046846],[150.527741,-30.968574],[150.530401,-30.875117],[150.559266,-30.810814],[150.487268,-30.798984],[150.457961,-30.690158],[150.509647,-30.660088],[150.454351,-30.607517],[150.36502,-30.583433],[150.388654,-30.551035],[150.358849,-30.519138],[150.351488,-30.418184],[150.283241,-30.430848],[150.188295,-30.359725],[150.194998,-30.321087],[150.167062,-30.228544],[150.102263,-30.191946],[150.07566,-30.107363],[150.124153,-30.070046],[150.197512,-30.062574],[150.248852,-29.99348],[150.292859,-29.990531],[150.312409,-29.892556],[150.293831,-29.870525],[150.287829,-29.721939],[150.262893,-29.679026],[150.194619,-29.620235],[150.219462,-29.497948],[150.169228,-29.495984],[150.24578,-29.116176],[150.259498,-29.013903],[150.148546,-28.889263],[150.169218,-28.876344],[150.343964,-28.827542],[150.420939,-28.751976],[150.483832,-28.662259],[150.473288,-28.660699],[150.465757,-28.666289],[150.458926,-28.66896],[150.452329,-28.665985],[150.440447,-28.663651],[150.432853,-28.655719],[150.424627,-28.650626],[150.41438,-28.651998],[150.411972,-28.648226],[150.415814,-28.64542],[150.415311,-28.634621],[150.40885,-28.634023],[150.401606,-28.627177],[150.396891,-28.62897],[150.391682,-28.634032],[150.387518,-28.633807],[150.384826,-28.631648],[150.370146,-28.621136],[150.363306,-28.607381],[150.368229,-28.598276],[150.341635,-28.574991],[150.327873,-28.571109],[150.320157,-28.556956],[150.300532,-28.548497],[150.295781,-28.539665],[150.287965,-28.537777],[150.282112,-28.542814],[150.270252,-28.539584],[150.26127,-28.544867],[150.253851,-28.546443],[150.248469,-28.552635],[150.243965,-28.554772],[150.242312,-28.552446],[150.239523,-28.554185],[150.235621,-28.553926],[150.23543,-28.555693],[150.239287,-28.557668],[150.238577,-28.559976],[150.229938,-28.555735],[150.229767,-28.558779],[150.233721,-28.56078],[150.228453,-28.567761],[150.226628,-28.568653],[150.2195,-28.566645],[150.217802,-28.56878],[150.213728,-28.567235],[150.212442,-28.568305],[150.213646,-28.572902],[150.212587,-28.574299],[150.208204,-28.572604],[150.203548,-28.573248],[150.186775,-28.568911],[150.185844,-28.565108],[150.183333,-28.56567],[150.177311,-28.563382],[150.180278,-28.56249],[150.183149,-28.558453],[150.182573,-28.556472],[150.176544,-28.559231],[150.173951,-28.557932],[150.171806,-28.559841],[150.172095,-28.562856],[150.170488,-28.563512],[150.16919,-28.556643],[150.167098,-28.555428],[150.169907,-28.554185],[150.168652,-28.550595],[150.16633,-28.551211],[150.163255,-28.555763],[150.157861,-28.554321],[150.154083,-28.555321],[150.151551,-28.555451],[150.152322,-28.553445],[150.154311,-28.553094],[150.152532,-28.550196],[150.147392,-28.553069],[150.097069,-28.563309],[150.091014,-28.568655],[150.092764,-28.578428],[150.089806,-28.578709],[150.088003,-28.577282],[150.087383,-28.580379],[150.085231,-28.580909],[150.08089,-28.577459],[150.079789,-28.581724],[150.080043,-28.58428],[150.076975,-28.58349],[150.074732,-28.580026],[150.07222,-28.58011],[150.069684,-28.578239],[150.070272,-28.580237],[150.06904,-28.581107],[150.068358,-28.578408],[150.066369,-28.577707],[150.065042,-28.579193],[150.063818,-28.577508],[150.058099,-28.578983],[150.057374,-28.583848],[150.055415,-28.584488],[150.056537,-28.586496],[150.051166,-28.585278],[150.048832,-28.589445],[150.044204,-28.586495],[150.036198,-28.586162],[150.034167,-28.583417],[150.031024,-28.583784],[150.029771,-28.582243],[150.030624,-28.58028],[150.026874,-28.579017],[150.021861,-28.582714],[150.012934,-28.583572],[149.994972,-28.593909],[149.97725,-28.613565],[149.972243,-28.608123],[149.970692,-28.608492],[149.970876,-28.61024],[149.968361,-28.608686],[149.96471,-28.610892],[149.962715,-28.610402],[149.962734,-28.612542],[149.957024,-28.610074],[149.953113,-28.609948],[149.950915,-28.608329],[149.948619,-28.610785],[149.949592,-28.613036],[149.943264,-28.613889],[149.942093,-28.618388],[149.925011,-28.609009],[149.917332,-28.608143],[149.889547,-28.618929],[149.88219,-28.609823],[149.860646,-28.607161],[149.854427,-28.604385],[149.844939,-28.61059],[149.839253,-28.603942],[149.831406,-28.60381],[149.827069,-28.609037],[149.822192,-28.609092],[149.819376,-28.616828],[149.81167,-28.606068],[149.809935,-28.607682],[149.803312,-28.607651],[149.801649,-28.609878],[149.800061,-28.608053],[149.793807,-28.611516],[149.786583,-28.611808],[149.783758,-28.614428],[149.780866,-28.612519],[149.779795,-28.610189],[149.775672,-28.613288],[149.772584,-28.614518],[149.735192,-28.617645],[149.718572,-28.611655],[149.71388,-28.616725],[149.709827,-28.613055],[149.707112,-28.614763],[149.685364,-28.629482],[149.683352,-28.631496],[149.680564,-28.630619],[149.679993,-28.633222],[149.676842,-28.631406],[149.674166,-28.631738],[149.672618,-28.633954],[149.671612,-28.632564],[149.669511,-28.633162],[149.66673,-28.632132],[149.666161,-28.630709],[149.669413,-28.630681],[149.671582,-28.628621],[149.670928,-28.627333],[149.668352,-28.628234],[149.668313,-28.626364],[149.672845,-28.62675],[149.671009,-28.621139],[149.663492,-28.617642],[149.660087,-28.609521],[149.647561,-28.612296],[149.64544,-28.603921],[149.642088,-28.599199],[149.640617,-28.60057],[149.639627,-28.598189],[149.635904,-28.599546],[149.634869,-28.595452],[149.630944,-28.598158],[149.630674,-28.595248],[149.627171,-28.596274],[149.624261,-28.595223],[149.619682,-28.596178],[149.618628,-28.598878],[149.610963,-28.60109],[149.609483,-28.599521],[149.610312,-28.597418],[149.606573,-28.593968],[149.602303,-28.587792],[149.597739,-28.588888],[149.598328,-28.579849],[149.568366,-28.571592],[149.567167,-28.574017],[149.562258,-28.574109],[149.55768,-28.576673],[149.552909,-28.577613],[149.529446,-28.574401],[149.52514,-28.579551],[149.521947,-28.579243],[149.519534,-28.581348],[149.517626,-28.579005],[149.513758,-28.581936],[149.510146,-28.57757],[149.503651,-28.574286],[149.502852,-28.580725],[149.499169,-28.577737],[149.493236,-28.580226],[149.485971,-28.582255],[149.481209,-28.582722],[149.482573,-28.586592],[149.480888,-28.589871],[149.479448,-28.591402],[149.475353,-28.593775],[149.471512,-28.59236],[149.466846,-28.593984],[149.461821,-28.591436],[149.4588,-28.594257],[149.455797,-28.592705],[149.455552,-28.595991],[149.452485,-28.594856],[149.453998,-28.599057],[149.452215,-28.60021],[149.451813,-28.604213],[149.443994,-28.60625],[149.439033,-28.61166],[149.430148,-28.626187],[149.428238,-28.643509],[149.416816,-28.651332],[149.416011,-28.658265],[149.417529,-28.659846],[149.416147,-28.662882],[149.412971,-28.662271],[149.41019,-28.663928],[149.410709,-28.667537],[149.413565,-28.665015],[149.414264,-28.667085],[149.404307,-28.673428],[149.40538,-28.675405],[149.401874,-28.676202],[149.398962,-28.674705],[149.396417,-28.677693],[149.393821,-28.67749],[149.394339,-28.680296],[149.39281,-28.682265],[149.393951,-28.686572],[149.387492,-28.696172],[149.385337,-28.694909],[149.38543,-28.692707],[149.385178,-28.691387],[149.380923,-28.689793],[149.368946,-28.687418],[149.363324,-28.689239],[149.36162,-28.684442],[149.358576,-28.684066],[149.354766,-28.687947],[149.352122,-28.688473],[149.351271,-28.692667],[149.347687,-28.690926],[149.345572,-28.694212],[149.340124,-28.694955],[149.32284,-28.707807],[149.315492,-28.710209],[149.311285,-28.710537],[149.310139,-28.712231],[149.300751,-28.710096],[149.29675,-28.709748],[149.29368,-28.711283],[149.290603,-28.71704],[149.280448,-28.730658],[149.275552,-28.73345],[149.269319,-28.743262],[149.266331,-28.743257],[149.265348,-28.740135],[149.262936,-28.740187],[149.264586,-28.738911],[149.262088,-28.734125],[149.251905,-28.739649],[149.249665,-28.739906],[149.249399,-28.741596],[149.247271,-28.739796],[149.244645,-28.743247],[149.240749,-28.745643],[149.243188,-28.747131],[149.240561,-28.746318],[149.239413,-28.748793],[149.236604,-28.748554],[149.236356,-28.750759],[149.232797,-28.748946],[149.230422,-28.750691],[149.231786,-28.755627],[149.230606,-28.756469],[149.228569,-28.755074],[149.228668,-28.757575],[149.227702,-28.759039],[149.22861,-28.761886],[149.225481,-28.761007],[149.214203,-28.763417],[149.211885,-28.765024],[149.210203,-28.7684],[149.207484,-28.76942],[149.204939,-28.768584],[149.194536,-28.770931],[149.193588,-28.773917],[149.188619,-28.775114],[149.188412,-28.777057],[149.186095,-28.782011],[149.186962,-28.786312],[149.183988,-28.790512],[149.186842,-28.79405],[149.179582,-28.79867],[149.179194,-28.803031],[149.17564,-28.802486],[149.169399,-28.808044],[149.138949,-28.827954],[149.13105,-28.82941],[149.127799,-28.831619],[149.127874,-28.835535],[149.124346,-28.833041],[149.123034,-28.832932],[149.12142,-28.831567],[149.119252,-28.829472],[149.113179,-28.832026],[149.111933,-28.83426],[149.109049,-28.83316],[149.103224,-28.83859],[149.102694,-28.833399],[149.099154,-28.834158],[149.096781,-28.831563],[149.09626,-28.834329],[149.093379,-28.833639],[149.090224,-28.8372],[149.086855,-28.83838],[149.086113,-28.841992],[149.082328,-28.843134],[149.080529,-28.841999],[149.081171,-28.846955],[149.079115,-28.851735],[149.080039,-28.858173],[149.075324,-28.85925],[149.072317,-28.863821],[149.070576,-28.871627],[149.063535,-28.878467],[149.059173,-28.879373],[149.055021,-28.884385],[149.05487,-28.886445],[149.063383,-28.886992],[149.064032,-28.889114],[149.060819,-28.890085],[149.057663,-28.893636],[149.060615,-28.894384],[149.055697,-28.901436],[149.054976,-28.911932],[149.050778,-28.91771],[149.048533,-28.916188],[149.047516,-28.919861],[149.047264,-28.924545],[149.042621,-28.9269],[149.043459,-28.934563],[149.043016,-28.939452],[149.040124,-28.942368],[149.034631,-28.945538],[149.027802,-28.954488],[149.004707,-28.960608],[149.004036,-28.967285],[148.997125,-28.972752],[148.991226,-28.971384],[148.990723,-28.975903],[148.986356,-28.974135],[148.983865,-28.976567],[148.97797,-28.975475],[148.971717,-28.978291],[148.958089,-28.999064],[144.41535,-28.99909],[140.999265,-28.9991],[140.999596,-29.204811],[141.000084,-29.732442],[141.000568,-30.475266],[141.000634,-30.969827],[141.001129,-31.683869],[141.00142,-32.079475],[141.002405,-33.329023],[141.167885,-33.345854],[141.263992,-33.355755],[141.348003,-33.366658],[141.40258,-32.98766],[141.573204,-33.005572],[141.560773,-33.096293],[142.038355,-33.143941],[142.022933,-33.0848],[142.105679,-33.11242],[142.27428,-33.123423],[142.28965,-33.081676],[142.382492,-33.005539],[142.547987,-33.01714],[142.515536,-32.847454],[142.94435,-32.890533],[142.964638,-32.748537],[143.271212,-32.780229],[143.432435,-32.808446],[143.416969,-32.907493],[143.499566,-32.918349],[143.505852,-32.876004],[143.591987,-32.885141],[143.585153,-32.93103],[143.671807,-32.940764],[143.653413,-33.012413],[143.57281,-33.012429],[143.55246,-33.140481],[143.637288,-33.149916],[143.66485,-33.178855],[143.720951,-33.140453],[143.898192,-33.161392],[143.905907,-33.115708],[144.251426,-33.15507],[144.236255,-33.249829],[144.262641,-33.272906],[144.546947,-33.300011],[144.645681,-33.222352],[144.733424,-33.231398],[144.741889,-33.173591],[144.777974,-33.163461],[144.798235,-33.036219],[144.913078,-33.049131],[144.979402,-33.083791],[144.991731,-33.033662],[145.027698,-33.021923],[145.107556,-33.033712],[145.127254,-32.954686],[145.164993,-32.71483],[145.249374,-32.724393],[145.257279,-32.671254],[145.344278,-32.682486],[145.330563,-32.766674],[145.412631,-32.775949],[145.467462,-32.722507],[145.504348,-32.770092],[145.586515,-32.796236],[145.671923,-32.805722],[145.668529,-32.935871],[145.645258,-33.080312],[146.03166,-33.093579],[146.093631,-33.189083],[146.058892,-33.211808],[146.095088,-33.276178],[146.066897,-33.359114],[146.053962,-33.475767],[146.095141,-33.603131],[146.0703,-33.753534],[146.437185,-33.794499],[146.417433,-33.910635],[146.492809,-33.919657],[146.458206,-34.13293],[146.635404,-34.151187],[146.623872,-34.224735],[146.729043,-34.236768],[146.718745,-34.298111],[146.823028,-34.310851],[147.047915,-34.296523],[147.107655,-34.317224],[147.129354,-34.276486],[147.254958,-34.291339],[147.264839,-34.23541],[147.300877,-34.176171],[147.47044,-34.20871],[147.495931,-34.107059],[147.584001,-34.117906],[147.70093,-34.159032],[147.766896,-34.131704],[147.727229,-33.954542],[147.696658,-33.926578],[147.540159,-33.905203],[147.554304,-33.832184],[147.508482,-33.712764],[147.60177,-33.613927],[147.682629,-33.623918],[147.670084,-33.695592],[147.764118,-33.707129],[147.802751,-33.693765],[147.947962,-33.700864],[148.079989,-33.719824],[148.100875,-33.648375],[148.151775,-33.654747],[148.237355,-33.636004],[148.324099,-33.655588],[148.345418,-33.613523],[148.413815,-33.604347],[148.388833,-33.57999],[148.392772,-33.518727],[148.290651,-33.491909],[148.313524,-33.453189],[148.365145,-33.435299],[148.418223,-33.385],[148.397185,-33.269909],[148.495895,-33.190869],[148.486567,-33.123236],[148.505455,-33.062037],[148.430165,-32.969942],[148.381831,-32.93455],[148.378164,-32.833103],[148.328315,-32.798687],[148.329513,-32.701025],[148.349499,-32.636824],[148.391421,-32.621925],[148.501184,-32.614117],[148.605154,-32.652179],[148.669562,-32.624041],[148.719957,-32.575391],[148.700407,-32.496936],[148.703837,-32.434946],[148.754109,-32.419051],[148.851192,-32.31338],[148.927247,-32.271664],[148.944185,-32.174016],[149.059265,-32.096665],[149.100358,-32.115175],[149.193756,-32.104421],[149.220152,-32.180984],[149.189159,-32.290575],[149.305892,-32.304507],[149.346378,-32.238059],[149.413277,-32.175537],[149.432506,-32.095033],[149.494803,-32.102092],[149.573847,-32.086985],[149.638067,-32.112778],[149.750811,-32.119822],[149.795665,-32.05809]]]},"bbox":[140.999265,-34.317224,150.599399,-28.537777]},
{"properties":{"electorateShortName":"parramatta","electorateName":"Parramatta","area":65.58,"state":"NSW"},"type":"Feature","geometry":{"type":"Polygon","coordinates":[[[151.071641,-33.819693],[151.073789,-33.782273],[151.048939,-33.758638],[150.987451,-33.796571],[150.958354,-33.765616],[150.935266,-33.774243],[150.963514,-33.816181],[151.02999,-33.835206],[151.071641,-33.819693]]]},"bbox":[150.935266,-33.835206,151.073789,-33.758638]},
{"properties":{"electorateShortName":"paterson","electorateName":"Paterson","area":947.81,"state":"NSW"},"type":"Feature","geometry":{"type":"Polygon","coordinates":[[[152.194486,-32.707671],[151.976222,-32.684583],[151.932013,-32.661416],[151.844219,-32.661604],[151.809842,-32.686222],[151.756003,-32.678348],[151.727015,-32.751268],[151.569049,-32.697386],[151.509915,-32.687487],[151.496875,-32.638999],[151.407184,-32.679147],[151.434447,-32.758971],[151.565617,-32.875075],[151.600846,-32.88926],[151.672974,-32.829504],[151.72725,-32.837075],[151.81011,-32.87822],[151.951335,-32.812927],[152.176033,-32.754788],[152.194486,-32.707671]]]},"bbox":[151.407184,-32.88926,152.194486,-32.638999]},
{"properties":{"electorateShortName":"reid","electorateName":"Reid","area":49.19,"state":"NSW"},"type":"Feature","geometry":{"type":"Polygon","coordinates":[[[151.142072,-33.870421],[151.159279,-33.845383],[151.071641,-33.819693],[151.02999,-33.835206],[151.068876,-33.884497],[151.091508,-33.887654],[151.142072,-33.870421]]]},"bbox":[151.02999,-33.887654,151.159279,-33.819693]},
{"properties":{"electorateShortName":"richmond","electorateName":"Richmond","area":2133.19,"state":"NSW"},"type":"Feature","geometry":{"type":"Polygon","coordinates":[[[153.544475,-28.917804],[153.605627,-28.84396],[153.595813,-28.775189],[153.627162,-28.654618],[153.568497,-28.589701],[153.553822,-28.464425],[153.575982,-28.368206],[153.586296,-28.258206],[153.552171,-28.164408],[153.534649,-28.177643],[153.485857,-28.157036],[153.476947,-28.156892],[153.46845,-28.162432],[153.45705,-28.180518],[153.435757,-28.187173],[153.405714,-28.211023],[153.390906,-28.227887],[153.389724,-28.234832],[153.364723,-28.247354],[153.357284,-28.249274],[153.34585,-28.248454],[153.339104,-28.250546],[153.33189,-28.246127],[153.329766,-28.236874],[153.325717,-28.235936],[153.321862,-28.237802],[153.312036,-28.237321],[153.304761,-28.239695],[153.300367,-28.238027],[153.296189,-28.233808],[153.279598,-28.233493],[153.274236,-28.238009],[153.269054,-28.238611],[153.264006,-28.243478],[153.243925,-28.2473],[153.23624,-28.25558],[153.232838,-28.265076],[153.218217,-28.263224],[153.207378,-28.252962],[153.188167,-28.247512],[153.17978,-28.250254],[153.176667,-28.249603],[153.171483,-28.259186],[153.175172,-28.274206],[153.169175,-28.293105],[153.164377,-28.297889],[153.155146,-28.296121],[153.152918,-28.301918],[153.142489,-28.305321],[153.143282,-28.312204],[153.135755,-28.312119],[153.132961,-28.317536],[153.125005,-28.317764],[153.124831,-28.323929],[153.13024,-28.330279],[153.125197,-28.336741],[153.125302,-28.33931],[153.120507,-28.342001],[153.116734,-28.341503],[153.11319,-28.352903],[153.108548,-28.356328],[153.1094,-28.35744],[153.124034,-28.430592],[153.160263,-28.524129],[153.247732,-28.515887],[153.32783,-28.542733],[153.412627,-28.618563],[153.40682,-28.742889],[153.448133,-28.746851],[153.441382,-28.823097],[153.486858,-28.864848],[153.475801,-28.924591],[153.544475,-28.917804]]]},"bbox":[153.108548,-28.924591,153.627162,-28.156892]},
{"properties":{"electorateShortName":"riverina","electorateName":"Riverina","area":52410.21,"state":"NSW"},"type":"Feature","geometry":{"type":"Polygon","coordinates":[[[150.082942,-34.582311],[150.092955,-34.510536],[150.058462,-34.471926],[150.115681,-34.410168],[150.088824,-34.346653],[150.018796,-34.367449],[149.967914,-34.325623],[149.997166,-34.259263],[150.059231,-34.267018],[150.066039,-34.195339],[150.037434,-34.121378],[150.007292,-34.085287],[149.949395,-34.124609],[149.920374,-34.181677],[149.804704,-34.20262],[149.681688,-34.191454],[149.629447,-34.114099],[149.547501,-34.085569],[149.480219,-34.015379],[149.434733,-34.022927],[149.347778,-33.953299],[149.279321,-33.948523],[149.197738,-33.984896],[149.152632,-33.967033],[149.155178,-33.92836],[149.118462,-33.872095],[149.174789,-33.844937],[149.257743,-33.740656],[149.17209,-33.72628],[149.091447,-33.765415],[149.041283,-33.809334],[148.974557,-33.756454],[148.99366,-33.720609],[148.907469,-33.673053],[148.922397,-33.599333],[148.82321,-33.56568],[148.787796,-33.529269],[148.738927,-33.53792],[148.712026,-33.573728],[148.635899,-33.567008],[148.557937,-33.602925],[148.524169,-33.577287],[148.413815,-33.604347],[148.345418,-33.613523],[148.324099,-33.655588],[148.237355,-33.636004],[148.151775,-33.654747],[148.100875,-33.648375],[148.079989,-33.719824],[147.947962,-33.700864],[147.802751,-33.693765],[147.764118,-33.707129],[147.670084,-33.695592],[147.682629,-33.623918],[147.60177,-33.613927],[147.508482,-33.712764],[147.554304,-33.832184],[147.540159,-33.905203],[147.696658,-33.926578],[147.727229,-33.954542],[147.766896,-34.131704],[147.70093,-34.159032],[147.584001,-34.117906],[147.495931,-34.107059],[147.47044,-34.20871],[147.300877,-34.176171],[147.264839,-34.23541],[147.254958,-34.291339],[147.129354,-34.276486],[147.107655,-34.317224],[147.047915,-34.296523],[146.823028,-34.310851],[146.795492,-34.470798],[146.911568,-34.482591],[146.843266,-34.83723],[146.84358,-34.899125],[146.784477,-34.924058],[146.807657,-34.986944],[146.7942,-35.058208],[146.761524,-35.076441],[146.688478,-35.067979],[146.615161,-35.114348],[146.563727,-35.119126],[146.389251,-35.231731],[146.403804,-35.304452],[146.364032,-35.337739],[146.354226,-35.387797],[146.428237,-35.471405],[146.540094,-35.487174],[146.669769,-35.520279],[146.662323,-35.547763],[146.796881,-35.574699],[146.871365,-35.57586],[147.087341,-35.450465],[147.226524,-35.473668],[147.283199,-35.500123],[147.480995,-35.54516],[147.525087,-35.483406],[147.607787,-35.539571],[147.685594,-35.534198],[147.855324,-35.559898],[147.89396,-35.62422],[147.833648,-35.641585],[147.801663,-35.678005],[147.819657,-35.744114],[147.760588,-35.839756],[147.714259,-35.838507],[147.68933,-35.937725],[147.884694,-35.998792],[147.92337,-36.041852],[147.996108,-36.047982],[147.990779,-36.12067],[148.033504,-36.142742],[148.02547,-36.186007],[148.038261,-36.365556],[148.087713,-36.451949],[148.121358,-36.46131],[148.139815,-36.525604],[148.124448,-36.550981],[148.217444,-36.598853],[148.185114,-36.692218],[148.134465,-36.743739],[148.108821,-36.797001],[148.200705,-36.798637],[148.254457,-36.69157],[148.249953,-36.625519],[148.303837,-36.599133],[148.247015,-36.510224],[148.289314,-36.410161],[148.328746,-36.383258],[148.428411,-36.260512],[148.425739,-36.204249],[148.454005,-36.125948],[148.55342,-36.083223],[148.538488,-35.999434],[148.444844,-35.904969],[148.452427,-35.842814],[148.530082,-35.72118],[148.609707,-35.616867],[148.6447,-35.652666],[148.719968,-35.667395],[148.804147,-35.714019],[148.768434,-35.603306],[148.77294,-35.567798],[148.777949,-35.55852],[148.769407,-35.543692],[148.76279,-35.495499],[148.80866,-35.382455],[148.808632,-35.380665],[148.805298,-35.378914],[148.804064,-35.376204],[148.805696,-35.365156],[148.793547,-35.339122],[148.810133,-35.307449],[149.091338,-35.142084],[149.093152,-35.138737],[149.102574,-35.135224],[149.113387,-35.127539],[149.118076,-35.126527],[149.127186,-35.125622],[149.127163,-35.12572],[149.196375,-35.188447],[149.189542,-35.203324],[149.200702,-35.205411],[149.294466,-35.175134],[149.376162,-35.095307],[149.38799,-34.979272],[149.455029,-34.911692],[149.521342,-34.907129],[149.536311,-34.875744],[149.489413,-34.848722],[149.525556,-34.695678],[149.520353,-34.645136],[149.557194,-34.604548],[149.622309,-34.620513],[149.660748,-34.558604],[149.69959,-34.548699],[149.751725,-34.596673],[149.984211,-34.631041],[150.063435,-34.616134],[150.082942,-34.582311]]]},"bbox":[146.354226,-36.798637,150.115681,-33.529269]},
{"properties":{"electorateShortName":"robertson","electorateName":"Robertson","area":938.68,"state":"NSW"},"type":"Feature","geometry":{"type":"Polygon","coordinates":[[[151.3352,-33.5822],[151.348535,-33.539918],[151.404889,-33.528724],[151.442572,-33.481745],[151.449605,-33.429352],[151.34508,-33.412419],[151.376638,-33.371292],[151.302593,-33.36238],[151.302527,-33.328444],[151.252651,-33.258596],[151.258392,-33.219318],[151.208269,-33.203652],[151.207311,-33.13327],[151.135527,-33.110401],[151.099671,-33.144458],[151.090244,-33.324986],[150.999641,-33.351156],[150.988457,-33.379232],[151.032748,-33.406351],[151.103296,-33.482514],[151.158792,-33.517262],[151.2305,-33.535448],[151.284798,-33.572214],[151.3352,-33.5822]]]},"bbox":[150.988457,-33.5822,151.449605,-33.110401]},
{"properties":{"electorateShortName":"shortland","electorateName":"Shortland","area":204.13,"state":"NSW"},"type":"Feature","geometry":{"type":"Polygon","coordinates":[[[151.565085,-33.247326],[151.629258,-33.187147],[151.657554,-33.073647],[151.730916,-33.005938],[151.737915,-32.962947],[151.640251,-32.919863],[151.615194,-32.966738],[151.633277,-33.041009],[151.613877,-33.090566],[151.532684,-33.140792],[151.51218,-33.194307],[151.527986,-33.244476],[151.565085,-33.247326]]]},"bbox":[151.51218,-33.247326,151.737915,-32.919863]},
{"properties":{"electorateShortName":"sydney","electorateName":"Sydney","area":44.69,"state":"NSW"},"type":"Feature","geometry":{"type":"Polygon","coordinates":[[[151.215031,-33.900896],[151.22665,-33.854461],[151.187207,-33.844913],[151.159279,-33.845383],[151.142072,-33.870421],[151.180834,-33.919165],[151.215031,-33.900896]]]},"bbox":[151.142072,-33.919165,151.22665,-33.844913]},
{"properties":{"electorateShortName":"warringah","electorateName":"Warringah","area":51.49,"state":"NSW"},"type":"Feature","geometry":{"type":"Polygon","coordinates":[[[151.290672,-33.828322],[151.299538,-33.767132],[151.230948,-33.784291],[151.19826,-33.825088],[151.187207,-33.844913],[151.22665,-33.854461],[151.290672,-33.828322]]]},"bbox":[151.187207,-33.854461,151.299538,-33.767132]},
{"properties":{"electorateShortName":"watson","electorateName":"Watson","area":50.5,"state":"NSW"},"type":"Feature","geometry":{"type":"Polygon","coordinates":[[[151.117138,-33.91335],[151.091508,-33.887654],[151.068876,-33.884497],[151.001676,-33.903873],[150.973326,-33.889429],[150.97899,-33.929267],[151.072388,-33.929428],[151.117138,-33.91335]]]},"bbox":[150.973326,-33.929428,151.117138,-33.884497]},
{"properties":{"electorateShortName":"wentworth","electorateName":"Wentworth","area":31.23,"state":"NSW"},"type":"Feature","geometry":{"type":"Polygon","coordinates":[[[151.290672,-33.828322],[151.22665,-33.854461],[151.215031,-33.900896],[151.262396,-33.916745],[151.290672,-33.828322]]]},"bbox":[151.215031,-33.916745,151.290672,-33.828322]},
{"properties":{"electorateShortName":"werriwa","electorateName":"Werriwa","area":110.83,"state":"NSW"},"type":"Feature","geometry":{"type":"Polygon","coordinates":[[[150.918369,-33.939036],[150.881878,-33.888583],[150.842448,-33.876249],[150.767908,-33.875728],[150.758915,-33.944075],[150.822564,-33.951998],[150.856473,-33.97473],[150.918369,-33.939036]]]},"bbox":[150.758915,-33.97473,150.918369,-33.875728]},
{"properties":{"electorateShortName":"whitlam","electorateName":"Whitlam","area":2995.61,"state":"NSW"},"type":"Feature","geometry":{"type":"Polygon","coordinates":[[[150.860886,-34.627883],[150.874841,-34.542305],[150.873367,-34.499017],[150.798363,-34.450307],[150.747162,-34.461249],[150.689634,-34.441706],[150.745677,-34.337416],[150.601549,-34.314359],[150.551371,-34.2669],[150.271555,-34.2227],[150.232692,-34.229037],[150.197015,-34.304104],[150.156949,-34.305789],[150.059231,-34.267018],[149.997166,-34.259263],[149.967914,-34.325623],[150.018796,-34.367449],[150.088824,-34.346653],[150.115681,-34.410168],[150.058462,-34.471926],[150.092955,-34.510536],[150.082942,-34.582311],[150.092571,-34.680435],[150.194342,-34.751262],[150.301885,-34.733907],[150.33353,-34.752388],[150.433291,-34.68976],[150.548328,-34.650451],[150.576376,-34.669631],[150.666625,-34.611709],[150.758131,-34.613022],[150.796952,-34.641328],[150.860886,-34.627883]]]},"bbox":[149.967914,-34.752388,150.874841,-34.2227]}],"bbox":[140.999265,-37.505159,153.627162,-28.156892]}