{"type":"FeatureCollection","features":[
{"properties":{"electorateShortName":"bass","electorateName":"Bass","area":7975.955582,"state":"TAS"},"type":"Feature","geometry":{"type":"MultiPolygon","coordinates":[[[[148.257859,-40.90417],[148.210738,-40.845054],[148.121531,-40.819072],[148.079273,-40.769059],[147.959868,-40.746371],[147.947832,-40.791051],[147.882618,-40.868134],[147.83533,-40.88709],[147.70646,-40.860312],[147.661333,-40.824983],[147.603366,-40.847136],[147.554179,-40.918525],[147.490728,-40.979349],[147.396413,-41.004884],[147.345618,-40.939475],[147.249447,-40.953479],[147.22475,-40.989143],[147.147848,-41.01295],[146.999437,-40.98382],[146.952901,-41.023293],[146.881962,-41.019687],[146.804018,-41.079451],[146.719432,-41.070753],[146.661412,-41.096121],[146.76206,-41.287177],[146.703586,-41.33269],[146.697505,-41.35525],[146.934304,-41.408496],[147.007986,-41.445219],[147.076192,-41.446506],[147.248515,-41.528177],[147.346759,-41.512041],[147.387993,-41.556073],[147.476144,-41.518051],[147.578908,-41.513592],[147.647934,-41.478488],[147.590413,-41.380709],[147.827566,-41.37165],[147.889529,-41.164957],[147.934817,-41.16847],[148.082295,-41.132139],[148.062331,-41.087321],[148.090397,-40.935621],[148.212412,-40.937587],[148.257859,-40.90417]]],[[[148.334277,-40.208333],[148.29315,-40.110254],[148.279886,-40.022501],[148.291135,-39.965118],[148.179146,-39.945591],[147.941776,-39.719554],[147.878659,-39.76185],[147.840603,-39.835572],[147.802097,-39.836611],[147.752753,-39.881706],[147.804546,-39.916577],[147.860751,-39.89781],[147.899184,-39.942768],[147.903232,-39.991984],[147.955338,-40.082301],[148.007019,-40.105369],[148.017627,-40.17056],[148.065749,-40.258004],[148.148806,-40.265808],[148.210283,-40.210695],[148.334277,-40.208333]]],[[[148.481887,-40.43493],[148.336009,-40.298025],[148.199362,-40.351866],[148.143798,-40.336171],[148.032538,-40.361528],[147.987266,-40.387096],[148.055042,-40.450563],[148.196204,-40.437096],[148.226774,-40.466084],[148.309927,-40.426733],[148.352394,-40.488913],[148.389101,-40.487401],[148.437309,-40.439959],[148.481887,-40.43493]]],[[[148.248434,-40.487913],[148.13113,-40.502107],[148.113324,-40.564875],[148.178286,-40.594185],[148.2259,-40.544683],[148.248434,-40.487913]]]]},"bbox":[146.661412,-41.556073,148.481887,-39.719554]},
{"properties":{"electorateShortName":"braddon","electorateName":"Braddon","area":21369.238842,"state":"TAS"},"type":"Feature","geometry":{"type":"MultiPolygon","coordinates":[[[[146.703586,-41.33269],[146.76206,-41.287177],[146.661412,-41.096121],[146.633798,-41.125396],[146.541777,-41.155056],[146.391576,-41.172903],[146.323329,-41.154069],[146.169161,-41.150208],[145.899106,-41.043754],[145.818685,-41.033613],[145.724572,-40.968982],[145.560472,-40.916817],[145.511598,-40.853572],[145.446049,-40.87123],[145.343865,-40.851039],[145.241827,-40.801644],[145.070136,-40.809455],[144.995262,-40.755355],[144.881322,-40.749565],[144.832949,-40.717588],[144.771719,-40.709213],[144.728141,-40.656078],[144.692601,-40.663244],[144.68453,-40.741482],[144.708624,-40.754869],[144.713019,-40.835521],[144.698604,-40.888437],[144.618358,-40.933251],[144.618488,-41.022064],[144.677442,-41.097726],[144.673137,-41.162217],[144.719749,-41.301484],[144.773686,-41.359147],[144.78528,-41.445714],[144.889072,-41.589755],[144.897118,-41.639508],[145.02365,-41.804546],[145.124435,-41.900499],[145.187506,-41.941154],[145.251857,-42.060057],[145.256775,-42.178151],[145.336301,-42.167103],[145.360632,-42.235355],[145.432466,-42.314304],[145.49946,-42.332343],[145.543189,-42.375001],[145.486287,-42.422586],[145.412657,-42.371697],[145.310036,-42.320457],[145.289586,-42.282895],[145.213811,-42.298368],[145.25389,-42.443508],[145.236012,-42.472303],[145.330967,-42.646163],[145.36621,-42.656512],[145.382637,-42.768704],[145.493596,-42.973962],[145.577077,-42.971065],[145.686897,-43.05841],[145.70107,-43.120427],[145.804714,-43.208901],[145.808494,-43.246715],[145.860012,-43.318133],[145.920475,-43.295251],[145.92673,-43.24774],[145.916801,-43.20475],[145.910036,-43.194087],[145.92572,-43.183331],[145.920472,-43.161382],[145.940454,-43.150439],[145.979595,-43.128207],[145.978141,-43.039171],[145.992963,-42.978703],[145.94052,-42.930574],[145.947531,-42.902228],[145.842663,-42.72503],[145.866864,-42.698597],[145.954701,-42.665621],[145.99276,-42.59866],[146.12571,-42.436789],[146.099125,-42.369677],[146.10695,-42.305306],[146.075328,-42.21047],[145.999753,-42.0669],[146.014916,-42.005321],[146.050484,-41.974556],[145.951331,-41.684662],[145.853526,-41.582863],[145.852831,-41.465863],[145.954065,-41.451806],[146.082866,-41.456594],[146.11467,-41.37119],[146.265684,-41.265593],[146.444449,-41.297836],[146.494373,-41.37673],[146.583073,-41.353196],[146.619945,-41.324477],[146.703586,-41.33269]]],[[[144.13823,-39.933889],[144.106584,-39.866197],[144.127918,-39.822138],[144.100803,-39.737075],[144.109657,-39.669979],[144.004207,-39.59817],[143.940558,-39.584475],[143.932529,-39.649732],[143.891328,-39.698318],[143.84424,-39.715568],[143.867172,-39.833486],[143.833303,-39.915546],[143.884299,-39.975596],[143.904426,-40.121394],[144.028889,-40.090442],[144.128013,-39.993243],[144.13823,-39.933889]]],[[[145.067883,-40.714494],[145.044316,-40.689174],[144.915109,-40.640646],[144.87183,-40.678599],[144.872801,-40.724955],[144.943067,-40.731348],[144.976938,-40.707686],[145.067883,-40.714494]]],[[[144.792726,-40.417558],[144.755862,-40.485733],[144.710873,-40.492503],[144.733166,-40.550062],[144.776273,-40.575666],[144.792726,-40.417558]]],[[[144.969887,-40.426313],[144.959055,-40.400055],[144.881221,-40.393372],[144.843007,-40.436048],[144.858052,-40.468834],[144.932322,-40.470307],[144.969887,-40.426313]]]]},"bbox":[143.833303,-43.318133,146.76206,-39.584475]},
{"properties":{"electorateShortName":"clark","electorateName":"Clark","area":292.264918,"state":"TAS"},"type":"Feature","geometry":{"type":"Polygon","coordinates":[[[147.316069,-42.973681],[147.35585,-42.951108],[147.327849,-42.84461],[147.226904,-42.75042],[147.200835,-42.806465],[147.153641,-42.834332],[147.150368,-42.913351],[147.146155,-42.974447],[147.316069,-42.973681]]]},"bbox":[147.146155,-42.974447,147.35585,-42.75042]},
{"properties":{"electorateShortName":"franklin","electorateName":"Franklin","area":10009.231126,"state":"TAS"},"type":"Feature","geometry":{"type":"MultiPolygon","coordinates":[[[[145.940454,-43.150439],[145.921338,-43.163191],[145.927708,-43.185034],[145.915252,-43.194875],[145.946408,-43.230004],[145.975954,-43.234805],[145.96079,-43.295028],[146.010186,-43.335244],[146.136408,-43.345624],[146.176098,-43.298348],[146.227774,-43.355492],[145.975078,-43.349155],[146.041914,-43.513972],[146.038025,-43.547711],[146.224921,-43.491321],[146.26229,-43.492538],[146.295381,-43.54399],[146.338237,-43.51663],[146.459469,-43.542578],[146.552587,-43.512421],[146.705755,-43.629264],[146.8004,-43.601745],[146.863376,-43.632027],[146.92155,-43.599235],[146.887947,-43.549413],[146.956025,-43.528157],[146.942028,-43.478121],[147.012442,-43.42207],[147.097614,-43.280188],[147.219485,-43.281036],[147.260974,-43.223517],[147.238584,-43.154448],[147.345149,-43.049127],[147.316069,-42.973681],[147.146155,-42.974447],[147.150368,-42.913351],[146.955489,-42.882079],[146.937466,-42.928528],[146.855266,-42.939115],[146.846451,-42.908202],[146.723042,-42.858121],[146.647289,-42.853658],[146.648406,-42.921704],[146.458808,-43.087277],[146.222191,-43.118804],[146.08907,-43.053903],[145.978141,-43.039171],[145.979595,-43.128207],[145.940454,-43.150439]]],[[[147.433271,-43.231656],[147.367631,-43.071824],[147.326107,-43.08662],[147.290289,-43.14288],[147.346782,-43.186081],[147.357883,-43.255799],[147.334419,-43.283915],[147.271597,-43.276041],[147.222336,-43.339846],[147.212788,-43.382357],[147.301558,-43.510403],[147.381457,-43.378401],[147.320304,-43.343992],[147.362154,-43.260594],[147.433271,-43.231656]]],[[[147.292566,-42.790883],[147.354622,-42.857453],[147.458487,-42.911718],[147.449326,-42.970179],[147.5288,-43.006036],[147.494968,-42.911283],[147.529161,-42.847302],[147.434128,-42.77554],[147.368526,-42.761214],[147.292566,-42.790883]]]]},"bbox":[145.915252,-43.632027,147.529161,-42.761214]},
{"properties":{"electorateShortName":"lyons","electorateName":"Lyons","area":35721.830094,"state":"TAS"},"type":"Feature","geometry":{"type":"MultiPolygon","coordinates":[[[[147.434128,-42.77554],[147.587838,-42.797638],[147.610119,-42.865916],[147.680151,-42.900145],[147.814782,-42.88853],[147.853259,-42.842873],[147.88239,-42.763832],[147.938087,-42.734406],[147.962992,-42.669542],[147.945698,-42.610174],[147.881807,-42.566941],[147.955031,-42.551446],[148.007543,-42.458225],[147.980503,-42.405351],[148.02459,-42.342416],[148.000346,-42.309933],[148.013583,-42.23935],[148.065971,-42.192517],[148.072993,-42.112401],[148.09735,-42.09738],[148.241674,-42.091033],[148.291519,-42.190358],[148.257732,-42.252078],[148.324086,-42.25347],[148.355722,-42.193119],[148.315592,-42.169199],[148.345388,-42.118468],[148.283447,-42.032806],[148.302524,-41.9369],[148.32359,-41.917201],[148.267856,-41.836327],[148.266786,-41.793376],[148.302147,-41.740755],[148.293183,-41.658961],[148.320296,-41.621392],[148.286169,-41.552486],[148.266477,-41.462171],[148.295684,-41.371856],[148.27158,-41.339573],[148.309885,-41.288513],[148.269566,-41.182875],[148.273676,-41.110275],[148.323833,-40.987847],[148.257859,-40.90417],[148.212412,-40.937587],[148.090397,-40.935621],[148.062331,-41.087321],[148.082295,-41.132139],[147.934817,-41.16847],[147.889529,-41.164957],[147.827566,-41.37165],[147.590413,-41.380709],[147.647934,-41.478488],[147.578908,-41.513592],[147.476144,-41.518051],[147.387993,-41.556073],[147.346759,-41.512041],[147.248515,-41.528177],[147.076192,-41.446506],[147.007986,-41.445219],[146.934304,-41.408496],[146.697505,-41.35525],[146.703586,-41.33269],[146.619945,-41.324477],[146.583073,-41.353196],[146.494373,-41.37673],[146.444449,-41.297836],[146.265684,-41.265593],[146.11467,-41.37119],[146.082866,-41.456594],[145.954065,-41.451806],[145.852831,-41.465863],[145.853526,-41.582863],[145.951331,-41.684662],[146.050484,-41.974556],[146.014916,-42.005321],[145.999753,-42.0669],[146.075328,-42.21047],[146.10695,-42.305306],[146.099125,-42.369677],[146.12571,-42.436789],[145.99276,-42.59866],[145.954701,-42.665621],[145.866864,-42.698597],[145.842663,-42.72503],[145.947531,-42.902228],[145.94052,-42.930574],[145.992963,-42.978703],[145.978141,-43.039171],[146.08907,-43.053903],[146.222191,-43.118804],[146.458808,-43.087277],[146.648406,-42.921704],[146.647289,-42.853658],[146.723042,-42.858121],[146.846451,-42.908202],[146.855266,-42.939115],[146.937466,-42.928528],[146.955489,-42.882079],[147.150368,-42.913351],[147.153641,-42.834332],[147.200835,-42.806465],[147.226904,-42.75042],[147.292566,-42.790883],[147.368526,-42.761214],[147.434128,-42.77554]]],[[[148.011519,-43.221568],[147.963572,-43.18534],[147.983168,-43.156111],[147.953306,-43.041395],[147.927269,-43.014225],[147.99951,-42.964206],[147.98406,-42.890432],[147.891706,-42.842525],[147.876415,-42.888672],[147.816086,-42.8948],[147.838229,-43.002578],[147.773829,-43.054938],[147.679341,-42.991801],[147.627209,-42.998402],[147.627123,-43.073515],[147.734104,-43.110809],[147.689239,-43.140109],[147.711578,-43.194282],[147.796718,-43.220742],[147.844472,-43.187533],[148.011519,-43.221568]]],[[[148.169014,-42.64868],[148.120142,-42.585011],[148.079142,-42.572273],[148.028209,-42.628269],[148.081273,-42.661757],[148.169014,-42.64868]]]]},"bbox":[145.842663,-43.221568,148.355722,-40.90417]}],"bbox":[143.833303,-43.632027,148.481887,-39.584475]}