{"type":"FeatureCollection","features":[
{"properties":{"electorateShortName":"bean","electorateName":"Bean","area":1913.969737,"state":"ACT"},"type":"Feature","geometry":{"type":"MultiPolygon","coordinates":[[[[149.206345,-35.345905],[149.176195,-35.337632],[149.147553,-35.34524],[149.124797,-35.347758],[149.114291,-35.345143],[149.100461,-35.350697],[149.088741,-35.336927],[149.084113,-35.34887],[149.069556,-35.34837],[149.063437,-35.331451],[149.062358,-35.306344],[149.086357,-35.280492],[149.051275,-35.269336],[149.033922,-35.265958],[149.023894,-35.276838],[149.007625,-35.272079],[149.002417,-35.261831],[148.979653,-35.25937],[148.962525,-35.243979],[148.976254,-35.238837],[148.961731,-35.218467],[148.810041,-35.307412],[148.793247,-35.339156],[148.79859,-35.348352],[148.796395,-35.358616],[148.805565,-35.365361],[148.808702,-35.382373],[148.795719,-35.39292],[148.796119,-35.406549],[148.785764,-35.408748],[148.788868,-35.426382],[148.774822,-35.44174],[148.77594,-35.454683],[148.766886,-35.471056],[148.774462,-35.484882],[148.762675,-35.495505],[148.768588,-35.507999],[148.768105,-35.524448],[148.772364,-35.529329],[148.769231,-35.544096],[148.778231,-35.558852],[148.773018,-35.567911],[148.788758,-35.588179],[148.768473,-35.603186],[148.780439,-35.617586],[148.783462,-35.628342],[148.770818,-35.639938],[148.773636,-35.655457],[148.790554,-35.659235],[148.798519,-35.666869],[148.796589,-35.682524],[148.788417,-35.69774],[148.796565,-35.709449],[148.827871,-35.726148],[148.834726,-35.740511],[148.847093,-35.750469],[148.860737,-35.752874],[148.867477,-35.738702],[148.86407,-35.733869],[148.877693,-35.714936],[148.889403,-35.722723],[148.888368,-35.733671],[148.894087,-35.751288],[148.903348,-35.757798],[148.895221,-35.770611],[148.897776,-35.79465],[148.886623,-35.810063],[148.907065,-35.829563],[148.903936,-35.842505],[148.912654,-35.85546],[148.940614,-35.875839],[148.958406,-35.891788],[148.977311,-35.892423],[149.012198,-35.899697],[149.048811,-35.92041],[149.057133,-35.907397],[149.051698,-35.903534],[149.061738,-35.891448],[149.061711,-35.879879],[149.086574,-35.848248],[149.101088,-35.805063],[149.100232,-35.789757],[149.090716,-35.7656],[149.096198,-35.743805],[149.104194,-35.72427],[149.099371,-35.716218],[149.109483,-35.69664],[149.095037,-35.676784],[149.097495,-35.647313],[149.087612,-35.639697],[149.084525,-35.614644],[149.079234,-35.607749],[149.078148,-35.586417],[149.084614,-35.580814],[149.140486,-35.588292],[149.131546,-35.556102],[149.132384,-35.549458],[149.150195,-35.510604],[149.150948,-35.48986],[149.139986,-35.470084],[149.135821,-35.453436],[149.151478,-35.443994],[149.152273,-35.433434],[149.140435,-35.433999],[149.147175,-35.414151],[149.156562,-35.408065],[149.182191,-35.380848],[149.206345,-35.345905]]],[[[167.998035,-29.028973],[167.970925,-29.021446],[167.957325,-29.007057],[167.942405,-29.002631],[167.918881,-29.001287],[167.92157,-29.0301],[167.919545,-29.041256],[167.936713,-29.063232],[167.947805,-29.056371],[167.967753,-29.061647],[167.983315,-29.057334],[167.983187,-29.04919],[167.994762,-29.046094],[167.998035,-29.028973]]]]},"bbox":[148.762675,-35.92041,167.998035,-29.001287]},
{"properties":{"electorateShortName":"canberra","electorateName":"Canberra","area":312.263142,"state":"ACT"},"type":"Feature","geometry":{"type":"Polygon","coordinates":[[[149.033922,-35.265958],[149.051275,-35.269336],[149.086357,-35.280492],[149.062358,-35.306344],[149.063437,-35.331451],[149.069556,-35.34837],[149.084113,-35.34887],[149.088741,-35.336927],[149.100461,-35.350697],[149.114291,-35.345143],[149.124797,-35.347758],[149.147553,-35.34524],[149.176195,-35.337632],[149.206345,-35.345905],[149.217912,-35.341563],[149.230915,-35.342577],[149.249308,-35.330127],[149.281563,-35.338002],[149.299606,-35.333082],[149.336346,-35.339884],[149.347266,-35.350155],[149.365039,-35.346888],[149.365567,-35.341154],[149.390633,-35.33081],[149.39718,-35.324254],[149.39479,-35.303157],[149.383697,-35.306471],[149.350553,-35.299358],[149.347872,-35.291587],[149.316202,-35.281775],[149.315286,-35.276286],[149.298462,-35.272156],[149.271628,-35.270805],[149.273179,-35.259179],[149.257329,-35.257203],[149.250324,-35.247987],[149.23455,-35.24047],[149.246794,-35.22915],[149.238697,-35.222227],[149.213064,-35.220272],[149.200699,-35.205565],[149.179534,-35.219513],[149.151283,-35.230968],[149.142117,-35.225562],[149.12512,-35.231391],[149.119028,-35.219613],[149.095138,-35.201506],[149.074179,-35.225857],[149.080283,-35.231015],[149.07339,-35.241107],[149.057919,-35.243969],[149.030149,-35.239596],[149.026108,-35.253528],[149.033922,-35.265958]]]},"bbox":[149.026108,-35.350697,149.39718,-35.201506]},
{"properties":{"electorateShortName":"fenner","electorateName":"Fenner","area":238.212122,"state":"ACT"},"type":"Feature","geometry":{"type":"MultiPolygon","coordinates":[[[[149.200699,-35.205565],[149.190287,-35.194353],[149.197037,-35.185499],[149.183629,-35.175618],[149.189097,-35.165677],[149.17941,-35.158805],[149.162773,-35.154332],[149.164312,-35.142046],[149.149637,-35.138669],[149.139966,-35.130832],[149.120902,-35.124517],[148.961731,-35.218467],[148.976254,-35.238837],[148.962525,-35.243979],[148.979653,-35.25937],[149.002417,-35.261831],[149.007625,-35.272079],[149.023894,-35.276838],[149.033922,-35.265958],[149.026108,-35.253528],[149.030149,-35.239596],[149.057919,-35.243969],[149.07339,-35.241107],[149.080283,-35.231015],[149.074179,-35.225857],[149.095138,-35.201506],[149.119028,-35.219613],[149.12512,-35.231391],[149.142117,-35.225562],[149.151283,-35.230968],[149.179534,-35.219513],[149.200699,-35.205565]]],[[[150.593971,-35.185018],[150.608899,-35.173671],[150.632623,-35.166422],[150.654952,-35.163097],[150.682616,-35.165393],[150.691355,-35.172352],[150.695731,-35.190068],[150.707739,-35.19126],[150.724869,-35.172951],[150.737443,-35.180084],[150.760481,-35.16227],[150.765777,-35.127982],[150.753012,-35.124258],[150.7455,-35.13599],[150.721866,-35.135675],[150.708691,-35.122433],[150.701604,-35.122862],[150.661053,-35.117824],[150.66032,-35.125394],[150.637259,-35.146881],[150.627903,-35.149976],[150.607504,-35.143847],[150.59343,-35.146914],[150.604696,-35.1579],[150.601698,-35.168886],[150.591249,-35.172472],[150.593971,-35.185018]]]]},"bbox":[148.961731,-35.276838,150.765777,-35.117824]}],"bbox":[148.762675,-35.92041,167.998035,-29.001287]}