{"type":"FeatureCollection","features":[
{"properties":{"electorateShortName":"lingiari","electorateName":"Lingiari","area":1348157.94,"state":"NT"},"type":"Feature","geometry":{"type":"MultiPolygon","coordinates":[[[[137.998246,-23.520895],[137.998372,-23.416527],[137.998262,-22.999868],[137.99812,-22.767528],[137.998004,-22.579239],[137.997914,-22.418519],[137.997667,-22.001867],[137.997568,-21.839646],[137.997472,-21.681956],[137.997305,-21.422996],[137.997153,-21.173006],[137.997011,-20.939976],[137.996893,-20.745111],[137.996748,-20.506366],[137.996578,-20.224427],[137.996436,-20.006387],[137.996355,-19.852127],[137.996233,-19.602172],[137.996076,-19.293339],[137.995957,-18.998506],[137.996616,-18.868219],[138.001197,-18.646506],[138.001197,-18.562506],[138.001197,-18.181635],[138.001196,-17.998507],[138.001196,-17.611364],[138.001198,-17.396508],[138.001197,-17.152509],[138.001185,-16.66651],[138.00118,-16.544509],[137.98072,-16.52539],[137.96822,-16.51881],[137.95642,-16.50793],[137.936721,-16.48179],[137.885701,-16.44515],[137.862021,-16.42271],[137.847821,-16.402671],[137.838531,-16.383671],[137.829801,-16.371781],[137.814061,-16.358171],[137.804541,-16.340291],[137.789851,-16.326001],[137.768851,-16.285721],[137.749411,-16.264971],[137.740891,-16.261771],[137.739551,-16.247541],[137.729671,-16.232252],[137.680621,-16.222322],[137.653442,-16.207632],[137.620892,-16.195612],[137.604922,-16.186392],[137.573772,-16.174823],[137.551472,-16.168953],[137.545692,-16.175003],[137.507313,-16.164763],[137.500594,-16.168367],[137.454084,-16.146537],[137.425724,-16.139258],[137.409194,-16.144318],[137.388394,-16.126618],[137.371094,-16.127638],[137.354344,-16.114999],[137.337084,-16.108339],[137.308455,-16.090089],[137.307804,-16.08161],[137.277404,-16.05046],[137.266444,-16.03387],[137.267274,-16.02735],[137.254414,-16.01235],[137.245564,-16.008],[137.204085,-15.999341],[137.157935,-15.969461],[137.119525,-15.953432],[137.110166,-15.955162],[137.083575,-15.944162],[137.045755,-15.918412],[137.021845,-15.891633],[137.000606,-15.878973],[136.987306,-15.875133],[136.987776,-15.865643],[136.981836,-15.853553],[136.972266,-15.852533],[136.966306,-15.861563],[136.970386,-15.874893],[136.955676,-15.873973],[136.930926,-15.885134],[136.912706,-15.899684],[136.918756,-15.917084],[136.940686,-15.934044],[136.918737,-15.935824],[136.896917,-15.929025],[136.887817,-15.922355],[136.871707,-15.923575],[136.868097,-15.914655],[136.853517,-15.906505],[136.835187,-15.908286],[136.822947,-15.899236],[136.808937,-15.900236],[136.783597,-15.906746],[136.769497,-15.889666],[136.759207,-15.899247],[136.737567,-15.925637],[136.729497,-15.932397],[136.715947,-15.934518],[136.706377,-15.931228],[136.690797,-15.903408],[136.698527,-15.890098],[136.709977,-15.886057],[136.714657,-15.877257],[136.713767,-15.856807],[136.695617,-15.831587],[136.676867,-15.814837],[136.678637,-15.805237],[136.670497,-15.794147],[136.660467,-15.790407],[136.648027,-15.772307],[136.682667,-15.777916],[136.689117,-15.759406],[136.713917,-15.726366],[136.724127,-15.696345],[136.704537,-15.696756],[136.701877,-15.687715],[136.691977,-15.682606],[136.668787,-15.676576],[136.648957,-15.676186],[136.644067,-15.672446],[136.630717,-15.697717],[136.606537,-15.709407],[136.584917,-15.725048],[136.575947,-15.722768],[136.559367,-15.727578],[136.563997,-15.741938],[136.543698,-15.741088],[136.536848,-15.730118],[136.511938,-15.712988],[136.509968,-15.708458],[136.468909,-15.666438],[136.453899,-15.654568],[136.434599,-15.646568],[136.42307,-15.632528],[136.41207,-15.626158],[136.39132,-15.627088],[136.37608,-15.615778],[136.36627,-15.613128],[136.356031,-15.616368],[136.338281,-15.611399],[136.320761,-15.601689],[136.317261,-15.589609],[136.290291,-15.572359],[136.277072,-15.552359],[136.264582,-15.517519],[136.263172,-15.496728],[136.253762,-15.483798],[136.241542,-15.448618],[136.239712,-15.416088],[136.215172,-15.402558],[136.201012,-15.391119],[136.183303,-15.390879],[136.170283,-15.394569],[136.145733,-15.378889],[136.129694,-15.36429],[136.097865,-15.35297],[136.071565,-15.33917],[136.053636,-15.32592],[136.049786,-15.31679],[136.032416,-15.312021],[135.994817,-15.291191],[135.981527,-15.286991],[135.966667,-15.272451],[135.925168,-15.249212],[135.912719,-15.235752],[135.899599,-15.215802],[135.883229,-15.198812],[135.86279,-15.182743],[135.799711,-15.150783],[135.760761,-15.127434],[135.748971,-15.116514],[135.738602,-15.113384],[135.724142,-15.116294],[135.716812,-15.103634],[135.703882,-15.096674],[135.701872,-15.087524],[135.687292,-15.076845],[135.669832,-15.071585],[135.667113,-15.060185],[135.655923,-15.051745],[135.639733,-15.044445],[135.612313,-15.051995],[135.579954,-15.045305],[135.575634,-15.037865],[135.547554,-15.020085],[135.530984,-15.017185],[135.502914,-14.988426],[135.484425,-14.975536],[135.470465,-14.970226],[135.450355,-14.939806],[135.440235,-14.919336],[135.431135,-14.910706],[135.433035,-14.901357],[135.409095,-14.862457],[135.412815,-14.850807],[135.396215,-14.810997],[135.393785,-14.771877],[135.386935,-14.751518],[135.382075,-14.725738],[135.393335,-14.719188],[135.405295,-14.736597],[135.416335,-14.735027],[135.426095,-14.726317],[135.447695,-14.693427],[135.465005,-14.675787],[135.484865,-14.667087],[135.494494,-14.674997],[135.516674,-14.656007],[135.524804,-14.652727],[135.534674,-14.657807],[135.541054,-14.652717],[135.539544,-14.642547],[135.527444,-14.640947],[135.518414,-14.625477],[135.521664,-14.622197],[135.526294,-14.588727],[135.536614,-14.561138],[135.555184,-14.536258],[135.568524,-14.533768],[135.563874,-14.522238],[135.575244,-14.509228],[135.589514,-14.505147],[135.588904,-14.488148],[135.598653,-14.456868],[135.607923,-14.440238],[135.618363,-14.428708],[135.656283,-14.418397],[135.666843,-14.427547],[135.672513,-14.414657],[135.667743,-14.399167],[135.677593,-14.388867],[135.681643,-14.377787],[135.712562,-14.334907],[135.713362,-14.323717],[135.730142,-14.296677],[135.721432,-14.282328],[135.736252,-14.281947],[135.748271,-14.276852],[135.758272,-14.264647],[135.766152,-14.260687],[135.776792,-14.241787],[135.783621,-14.234997],[135.802961,-14.227737],[135.815821,-14.228967],[135.829831,-14.218997],[135.835501,-14.210967],[135.86594,-14.189097],[135.88145,-14.181277],[135.87877,-14.166827],[135.88364,-14.154827],[135.8921,-14.113417],[135.89114,-14.094317],[135.90524,-14.074617],[135.9103,-14.058097],[135.91533,-14.022587],[135.91496,-14.008567],[135.908819,-13.998558],[135.917549,-13.977928],[135.938809,-13.958597],[135.955749,-13.949297],[135.956259,-13.939587],[135.963579,-13.931597],[135.969909,-13.913667],[135.989078,-13.896127],[135.993668,-13.876947],[135.991678,-13.857847],[135.999708,-13.846247],[136.013758,-13.833197],[136.015538,-13.821347],[136.006418,-13.791598],[136.013418,-13.777398],[136.013488,-13.762818],[136.019947,-13.752768],[136.035167,-13.746757],[136.037887,-13.732088],[136.034257,-13.716478],[136.044377,-13.702407],[136.055387,-13.694657],[136.054867,-13.680647],[136.069126,-13.669857],[136.078846,-13.666737],[136.075996,-13.657457],[136.065616,-13.649697],[136.051416,-13.644778],[136.031607,-13.660548],[136.029477,-13.672628],[136.033597,-13.682478],[136.020037,-13.691338],[136.009047,-13.707448],[135.988247,-13.717468],[135.978168,-13.731618],[135.956238,-13.743358],[135.931828,-13.746078],[135.916338,-13.745099],[135.899098,-13.737929],[135.889348,-13.728269],[135.879388,-13.712039],[135.877828,-13.700399],[135.889108,-13.688029],[135.906368,-13.678289],[135.914018,-13.682939],[135.921638,-13.675979],[135.913468,-13.669849],[135.907398,-13.658179],[135.892898,-13.669459],[135.880628,-13.669089],[135.871228,-13.656649],[135.871198,-13.640379],[135.865167,-13.622269],[135.843037,-13.612979],[135.841257,-13.597189],[135.835287,-13.59083],[135.841227,-13.58148],[135.839737,-13.56636],[135.854867,-13.566789],[135.869277,-13.561739],[135.865957,-13.555739],[135.866737,-13.537999],[135.855046,-13.51998],[135.862336,-13.49449],[135.857666,-13.48226],[135.864086,-13.46885],[135.857576,-13.45537],[135.862895,-13.43517],[135.882835,-13.42468],[135.894325,-13.42517],[135.897275,-13.43557],[135.912706,-13.44401],[135.919546,-13.462459],[135.931246,-13.466819],[135.935726,-13.458239],[135.927336,-13.450179],[135.936645,-13.436549],[135.949575,-13.436949],[135.951826,-13.448149],[135.961075,-13.445589],[135.969155,-13.421339],[135.965165,-13.410479],[135.926455,-13.417749],[135.919085,-13.40444],[135.925635,-13.39628],[135.915785,-13.38013],[135.905755,-13.37902],[135.879975,-13.36307],[135.879574,-13.35015],[135.886634,-13.32368],[135.895704,-13.31005],[135.913314,-13.29507],[135.908604,-13.28678],[135.918654,-13.26843],[135.940594,-13.25542],[135.948314,-13.25344],[135.958254,-13.28373],[135.969074,-13.26442],[135.974983,-13.23576],[135.982643,-13.22416],[136.003593,-13.21265],[136.018883,-13.22082],[136.023883,-13.237219],[136.030433,-13.243239],[136.032663,-13.260649],[136.041734,-13.291749],[136.036874,-13.299189],[136.044214,-13.310739],[136.053714,-13.301629],[136.052413,-13.282539],[136.062073,-13.263149],[136.049353,-13.243769],[136.058413,-13.228109],[136.064193,-13.226329],[136.081223,-13.234869],[136.085303,-13.225509],[136.077753,-13.209549],[136.088073,-13.197619],[136.106432,-13.169349],[136.099082,-13.158579],[136.107302,-13.149799],[136.120352,-13.144769],[136.127212,-13.131869],[136.142342,-13.125089],[136.149172,-13.131929],[136.153092,-13.145699],[136.148272,-13.170979],[136.150192,-13.183528],[136.137042,-13.194379],[136.135422,-13.211148],[136.147752,-13.218888],[136.146043,-13.236948],[136.152353,-13.246568],[136.153103,-13.260588],[136.160443,-13.271118],[136.169093,-13.272058],[136.174943,-13.281458],[136.183853,-13.274708],[136.167163,-13.264708],[136.159373,-13.251688],[136.161943,-13.242088],[136.174902,-13.232988],[136.186422,-13.244938],[136.201372,-13.246988],[136.213422,-13.233248],[136.210792,-13.226468],[136.214432,-13.208968],[136.224152,-13.202228],[136.238092,-13.205778],[136.235272,-13.187578],[136.235802,-13.169738],[136.231242,-13.155148],[136.224102,-13.153538],[136.218042,-13.138268],[136.225282,-13.135518],[136.236002,-13.145108],[136.250232,-13.132398],[136.254542,-13.151508],[136.273782,-13.158577],[136.283082,-13.168097],[136.310191,-13.165707],[136.315631,-13.159627],[136.306681,-13.144797],[136.319881,-13.128347],[136.321181,-13.120107],[136.311651,-13.108887],[136.291481,-13.107577],[136.296701,-13.098107],[136.306511,-13.093507],[136.308781,-13.071487],[136.331261,-13.047407],[136.34125,-13.045957],[136.34688,-13.051627],[136.36392,-13.056307],[136.37143,-13.070447],[136.37013,-13.081127],[136.36265,-13.092567],[136.36959,-13.103647],[136.358201,-13.116837],[136.371401,-13.135967],[136.370851,-13.140827],[136.356031,-13.147107],[136.369801,-13.166577],[136.370221,-13.182166],[136.366131,-13.196836],[136.380341,-13.205726],[136.381521,-13.217666],[136.388071,-13.227066],[136.381801,-13.240716],[136.372601,-13.249886],[136.358462,-13.254196],[136.350642,-13.246036],[136.330542,-13.250707],[136.327542,-13.256357],[136.338452,-13.271416],[136.329912,-13.292166],[136.320382,-13.294847],[136.322992,-13.308526],[136.343012,-13.325876],[136.358172,-13.309886],[136.363052,-13.299166],[136.373462,-13.291296],[136.392371,-13.253396],[136.399901,-13.243256],[136.420581,-13.232696],[136.434771,-13.231946],[136.439651,-13.217386],[136.454161,-13.224436],[136.446831,-13.248476],[136.461471,-13.252455],[136.47559,-13.234315],[136.47218,-13.215895],[136.47918,-13.186546],[136.47931,-13.169676],[136.49115,-13.150886],[136.50087,-13.141846],[136.51102,-13.139305],[136.52773,-13.152245],[136.534959,-13.132985],[136.538979,-13.110765],[136.549779,-13.086465],[136.566709,-13.058835],[136.549219,-13.055275],[136.539979,-13.057786],[136.532889,-13.051946],[136.530159,-13.036666],[136.533029,-13.026076],[136.518389,-13.014966],[136.508389,-13.012046],[136.507099,-12.996606],[136.496269,-12.994256],[136.480049,-12.998556],[136.452719,-12.991357],[136.451889,-12.984017],[136.462329,-12.973127],[136.491889,-12.992466],[136.501339,-12.981936],[136.515789,-12.977206],[136.524519,-12.986376],[136.541479,-12.976256],[136.552919,-12.964756],[136.564399,-12.981386],[136.560569,-12.990636],[136.569089,-12.997825],[136.563189,-13.006595],[136.565979,-13.015665],[136.579538,-13.007995],[136.580068,-13.001335],[136.598128,-12.989925],[136.600858,-12.975115],[136.613038,-12.968505],[136.623638,-12.969655],[136.635168,-13.001605],[136.633438,-13.012465],[136.654497,-13.015825],[136.665217,-13.003384],[136.655037,-12.993315],[136.644898,-12.990475],[136.640198,-12.980185],[136.634497,-12.952625],[136.625398,-12.952945],[136.611388,-12.937555],[136.604358,-12.937995],[136.572378,-12.920086],[136.550158,-12.919356],[136.543388,-12.909636],[136.542838,-12.896306],[136.552458,-12.874196],[136.538848,-12.881616],[136.526438,-12.874246],[136.518258,-12.875466],[136.509178,-12.867096],[136.505878,-12.851836],[136.483418,-12.844657],[136.477148,-12.830437],[136.478268,-12.822187],[136.486968,-12.808697],[136.485558,-12.799327],[136.468038,-12.793507],[136.467178,-12.776327],[136.483378,-12.768027],[136.509278,-12.791547],[136.517748,-12.807146],[136.530078,-12.804696],[136.534948,-12.792176],[136.526237,-12.775286],[136.525477,-12.758276],[136.532077,-12.745416],[136.549817,-12.740376],[136.553357,-12.751116],[136.562897,-12.754406],[136.567477,-12.763796],[136.581977,-12.767096],[136.586077,-12.782806],[136.580617,-12.804026],[136.587287,-12.821586],[136.602667,-12.825976],[136.608447,-12.814925],[136.615767,-12.788965],[136.624777,-12.773965],[136.621127,-12.759505],[136.605837,-12.751006],[136.601037,-12.740266],[136.604746,-12.726156],[136.619406,-12.707106],[136.633466,-12.699575],[136.648186,-12.702875],[136.652776,-12.711355],[136.668776,-12.706415],[136.681786,-12.705995],[136.693856,-12.711095],[136.694345,-12.697885],[136.681015,-12.687585],[136.678645,-12.669065],[136.690575,-12.632275],[136.703965,-12.609715],[136.718724,-12.593365],[136.735424,-12.579174],[136.752114,-12.573774],[136.755463,-12.567804],[136.747443,-12.551644],[136.739014,-12.568674],[136.715774,-12.571905],[136.697144,-12.569165],[136.700494,-12.562955],[136.714294,-12.566265],[136.720064,-12.553845],[136.737894,-12.554444],[136.744483,-12.535934],[136.733443,-12.536144],[136.726903,-12.529024],[136.739343,-12.520464],[136.737633,-12.509504],[136.726843,-12.503725],[136.721803,-12.491295],[136.729533,-12.478324],[136.735403,-12.478564],[136.759103,-12.467424],[136.777872,-12.450524],[136.788682,-12.449184],[136.795902,-12.460144],[136.795842,-12.492214],[136.789973,-12.497284],[136.775953,-12.496134],[136.774543,-12.509564],[136.760713,-12.525694],[136.762873,-12.538684],[136.768273,-12.542644],[136.779003,-12.525274],[136.789593,-12.514564],[136.805132,-12.506344],[136.808252,-12.497764],[136.844202,-12.452543],[136.863311,-12.431343],[136.88989,-12.413653],[136.89151,-12.404503],[136.89969,-12.392433],[136.913609,-12.383083],[136.926249,-12.379932],[136.945459,-12.369792],[136.962688,-12.374552],[136.961778,-12.363822],[136.970748,-12.358082],[136.978238,-12.343182],[136.965258,-12.340802],[136.964208,-12.350282],[136.954438,-12.357272],[136.944319,-12.357942],[136.928479,-12.349452],[136.914919,-12.351473],[136.910529,-12.367723],[136.89513,-12.366573],[136.917919,-12.342212],[136.925849,-12.341992],[136.933899,-12.333872],[136.935289,-12.324732],[136.928109,-12.282722],[136.914919,-12.275713],[136.911689,-12.283273],[136.899979,-12.277153],[136.901819,-12.247999],[136.891175,-12.24769],[136.881889,-12.239763],[136.873198,-12.219653],[136.846679,-12.210243],[136.841739,-12.214183],[136.828879,-12.209533],[136.818199,-12.211553],[136.788828,-12.180718],[136.786708,-12.164184],[136.782358,-12.159094],[136.763738,-12.165274],[136.751339,-12.164234],[136.741799,-12.171104],[136.727099,-12.172425],[136.725999,-12.181366],[136.711348,-12.186767],[136.684929,-12.183065],[136.683169,-12.195935],[136.698689,-12.190325],[136.716579,-12.200755],[136.722409,-12.212505],[136.73147,-12.220085],[136.748359,-12.217184],[136.7512,-12.232994],[136.76141,-12.237644],[136.76358,-12.245104],[136.75415,-12.249714],[136.74825,-12.266534],[136.74227,-12.271824],[136.72629,-12.276085],[136.71883,-12.273925],[136.710871,-12.286895],[136.698581,-12.285745],[136.691251,-12.276015],[136.681591,-12.281185],[136.647501,-12.269716],[136.64644,-12.235496],[136.62453,-12.224156],[136.59931,-12.202296],[136.596609,-12.184786],[136.585739,-12.168276],[136.577748,-12.146067],[136.581138,-12.131106],[136.587008,-12.125586],[136.581198,-12.107786],[136.587438,-12.095886],[136.581838,-12.087516],[136.565658,-12.082397],[136.555267,-12.064757],[136.547757,-12.039777],[136.535787,-12.013877],[136.531076,-11.991437],[136.512256,-11.987997],[136.496017,-12.009547],[136.501657,-12.016247],[136.494107,-12.023907],[136.477457,-12.018198],[136.470407,-12.004658],[136.455837,-12.005718],[136.448947,-11.987458],[136.456057,-11.978868],[136.463627,-11.982018],[136.472096,-11.960318],[136.491926,-11.959167],[136.511206,-11.951937],[136.534186,-11.947257],[136.554986,-11.937147],[136.558086,-11.931787],[136.580405,-11.915526],[136.581815,-11.902866],[136.573785,-11.902057],[136.561355,-11.917507],[136.548246,-11.923347],[136.544475,-11.917007],[136.533346,-11.918557],[136.523796,-11.927007],[136.523296,-11.939207],[136.492406,-11.952617],[136.474956,-11.949808],[136.468306,-11.951968],[136.451656,-11.939668],[136.445696,-11.954128],[136.430797,-11.971088],[136.426086,-11.958438],[136.414836,-11.958678],[136.406817,-11.972578],[136.399357,-11.977439],[136.382387,-11.997449],[136.384927,-12.009659],[136.369947,-12.027669],[136.358467,-12.025899],[136.348048,-12.034969],[136.339388,-12.059179],[136.331808,-12.059089],[136.325128,-12.049499],[136.311818,-12.05258],[136.302978,-12.04853],[136.267088,-12.06501],[136.266878,-12.07259],[136.247308,-12.09931],[136.246869,-12.11051],[136.231739,-12.118451],[136.211019,-12.150721],[136.197269,-12.162051],[136.172919,-12.158261],[136.176039,-12.168771],[136.16894,-12.178161],[136.17218,-12.192061],[136.19056,-12.195531],[136.20823,-12.184751],[136.21891,-12.187331],[136.22767,-12.200761],[136.22827,-12.213191],[136.24137,-12.21395],[136.28821,-12.20536],[136.31544,-12.21072],[136.32564,-12.20255],[136.34115,-12.204999],[136.35128,-12.214119],[136.35914,-12.230379],[136.362771,-12.257499],[136.346581,-12.259579],[136.342921,-12.265239],[136.354211,-12.276169],[136.346222,-12.296769],[136.325702,-12.310499],[136.333752,-12.315569],[136.333092,-12.326649],[136.325902,-12.342939],[136.304473,-12.3655],[136.303813,-12.37635],[136.314173,-12.381859],[136.304793,-12.39907],[136.280833,-12.42366],[136.233664,-12.45656],[136.223334,-12.46201],[136.196444,-12.467841],[136.188164,-12.464581],[136.175634,-12.466981],[136.160104,-12.461251],[136.159603,-12.444401],[136.151423,-12.435491],[136.133743,-12.445482],[136.114553,-12.447322],[136.104903,-12.453112],[136.085823,-12.457442],[136.076623,-12.452712],[136.075783,-12.434962],[136.063023,-12.434422],[136.050973,-12.447212],[136.046274,-12.457062],[136.046304,-12.470852],[136.033654,-12.473472],[136.021374,-12.486152],[136.014474,-12.484922],[136.018234,-12.461852],[136.005234,-12.454862],[135.993254,-12.440983],[136.000363,-12.425932],[136.007593,-12.420612],[136.012613,-12.395842],[135.996073,-12.400053],[135.983533,-12.393623],[135.975603,-12.395113],[135.972473,-12.377133],[135.985213,-12.360503],[135.995323,-12.359803],[136.001972,-12.350643],[136.008152,-12.331183],[136.015722,-12.320772],[136.019372,-12.308442],[136.010522,-12.300433],[136.009012,-12.290823],[136.017962,-12.287872],[136.024182,-12.295212],[136.032891,-12.279822],[136.033911,-12.271002],[136.054001,-12.262942],[136.060641,-12.245862],[136.049241,-12.231752],[136.028121,-12.240032],[136.013531,-12.238703],[136.001161,-12.268113],[135.989221,-12.271413],[135.965442,-12.272233],[135.954511,-12.261053],[135.956221,-12.249633],[135.933111,-12.237233],[135.928041,-12.222093],[135.94226,-12.199343],[135.95535,-12.196843],[135.9535,-12.187683],[135.96211,-12.181343],[135.97348,-12.185283],[135.97747,-12.163693],[136.002689,-12.128383],[136.011979,-12.123393],[136.019659,-12.110833],[136.031549,-12.076222],[136.011119,-12.079193],[135.996789,-12.093113],[136.001039,-12.101473],[136.002099,-12.116853],[135.982129,-12.127393],[135.977429,-12.133953],[135.963089,-12.140763],[135.95908,-12.151953],[135.94817,-12.150273],[135.92843,-12.161943],[135.92027,-12.150193],[135.90064,-12.165484],[135.894921,-12.184934],[135.881591,-12.177374],[135.88341,-12.161204],[135.87835,-12.153864],[135.864361,-12.174224],[135.836241,-12.189734],[135.817861,-12.190774],[135.810291,-12.202194],[135.778252,-12.224944],[135.780222,-12.245404],[135.776322,-12.259084],[135.762072,-12.253784],[135.745192,-12.263405],[135.730263,-12.293485],[135.710733,-12.310005],[135.721533,-12.287275],[135.720723,-12.281165],[135.708302,-12.261045],[135.690952,-12.253705],[135.676822,-12.241725],[135.665102,-12.226355],[135.652002,-12.201705],[135.649362,-12.188935],[135.650052,-12.168475],[135.659231,-12.149925],[135.668421,-12.149925],[135.686451,-12.132625],[135.700451,-12.126055],[135.713651,-12.103965],[135.72961,-12.098345],[135.73123,-12.090315],[135.74304,-12.090995],[135.75326,-12.078205],[135.77276,-12.043944],[135.799609,-12.030134],[135.800319,-12.024244],[135.814409,-12.017234],[135.831679,-11.984284],[135.847529,-11.980464],[135.860039,-11.981494],[135.869689,-11.975744],[135.877479,-11.986144],[135.911248,-11.959963],[135.909888,-11.952393],[135.886568,-11.965704],[135.863498,-11.967484],[135.835589,-11.977964],[135.808389,-11.981314],[135.782079,-11.991894],[135.754489,-12.007775],[135.727399,-12.009145],[135.70663,-12.022605],[135.694,-12.024195],[135.68425,-12.034595],[135.65355,-12.039505],[135.64306,-12.054625],[135.609401,-12.073056],[135.596651,-12.084246],[135.570011,-12.100746],[135.544871,-12.087636],[135.537411,-12.070896],[135.538441,-12.064456],[135.519391,-12.063426],[135.507861,-12.085906],[135.469641,-12.109537],[135.454371,-12.114057],[135.415332,-12.113917],[135.407762,-12.103287],[135.410401,-12.094467],[135.422581,-12.083057],[135.396871,-12.082027],[135.395941,-12.088917],[135.376882,-12.091727],[135.366211,-12.084717],[135.356552,-12.094087],[135.352982,-12.105957],[135.326792,-12.112717],[135.305992,-12.124338],[135.304252,-12.135758],[135.317222,-12.145048],[135.306412,-12.160298],[135.291473,-12.166618],[135.284473,-12.164008],[135.269053,-12.179708],[135.235163,-12.182598],[135.229403,-12.194018],[135.243303,-12.194938],[135.249843,-12.204898],[135.272583,-12.208198],[135.287373,-12.227328],[135.312173,-12.241598],[135.331243,-12.239808],[135.346073,-12.231457],[135.342493,-12.246377],[135.313414,-12.257088],[135.296524,-12.257528],[135.283324,-12.252878],[135.267043,-12.224928],[135.251993,-12.224118],[135.236244,-12.229638],[135.207484,-12.234528],[135.175254,-12.225258],[135.170644,-12.230679],[135.186824,-12.246078],[135.183244,-12.253538],[135.200354,-12.262948],[135.218924,-12.288638],[135.213054,-12.295298],[135.182514,-12.275918],[135.174954,-12.267428],[135.164264,-12.264819],[135.160154,-12.249769],[135.144674,-12.236739],[135.137764,-12.242839],[135.124104,-12.237389],[135.115014,-12.244489],[135.095594,-12.247059],[135.084654,-12.256429],[135.068914,-12.256849],[135.056034,-12.261689],[135.044924,-12.24651],[135.026804,-12.23053],[135.012474,-12.22112],[134.997284,-12.20094],[134.985164,-12.17154],[134.971594,-12.15839],[134.948614,-12.14566],[134.927224,-12.14315],[134.907454,-12.153281],[134.885214,-12.134271],[134.856814,-12.131031],[134.841944,-12.112171],[134.840543,-12.085391],[134.844363,-12.076421],[134.844233,-12.061611],[134.838083,-12.055451],[134.822353,-12.055591],[134.810813,-12.048232],[134.798173,-12.047782],[134.790343,-12.032812],[134.779523,-12.003402],[134.769193,-12.004172],[134.761403,-11.992872],[134.769493,-11.978652],[134.765482,-11.969972],[134.770812,-11.959782],[134.758162,-11.951682],[134.744952,-11.949682],[134.744402,-11.956922],[134.729372,-11.961033],[134.719062,-11.959763],[134.703333,-11.967083],[134.686803,-11.967693],[134.655863,-12.015103],[134.641953,-12.025733],[134.605064,-12.048994],[134.569864,-12.054594],[134.543064,-12.063284],[134.481144,-12.073835],[134.464544,-12.065605],[134.442165,-12.067015],[134.416195,-12.064506],[134.398925,-12.058416],[134.396355,-12.052446],[134.373705,-12.048206],[134.348035,-12.039126],[134.327934,-12.022537],[134.306484,-12.008447],[134.286654,-11.983797],[134.258994,-11.989258],[134.251754,-11.988248],[134.249165,-12.002528],[134.253495,-12.014138],[134.253515,-12.034148],[134.242415,-12.038858],[134.228395,-12.036468],[134.222568,-12.047541],[134.208555,-12.057298],[134.205625,-12.065118],[134.193755,-12.074468],[134.193176,-12.090298],[134.188036,-12.105348],[134.168416,-12.114769],[134.162236,-12.100449],[134.179135,-12.069589],[134.180745,-12.052059],[134.194245,-12.028678],[134.187095,-12.024428],[134.178715,-12.007419],[134.156365,-11.993749],[134.149925,-11.982789],[134.152555,-11.967309],[134.168545,-11.972499],[134.168855,-11.956459],[134.150474,-11.939069],[134.136004,-11.920439],[134.132314,-11.902029],[134.104514,-11.912889],[134.101685,-11.924519],[134.085855,-11.92623],[134.071625,-11.93346],[134.068515,-11.91595],[134.080104,-11.90431],[134.063914,-11.89223],[134.061044,-11.88545],[134.063564,-11.86952],[134.055414,-11.86275],[134.044514,-11.86173],[134.030774,-11.85497],[134.023054,-11.86061],[134.004474,-11.86378],[134.002754,-11.87134],[133.992215,-11.881291],[133.984055,-11.894961],[133.939525,-11.912361],[133.930915,-11.918451],[133.922285,-11.916151],[133.913585,-11.922181],[133.911185,-11.908961],[133.902115,-11.907272],[133.895355,-11.913812],[133.876015,-11.910522],[133.877905,-11.902512],[133.858295,-11.877992],[133.842115,-11.879912],[133.835805,-11.872122],[133.831005,-11.852952],[133.823085,-11.838102],[133.833875,-11.832462],[133.846505,-11.813482],[133.860725,-11.806032],[133.878595,-11.807322],[133.889865,-11.812372],[133.900304,-11.803221],[133.905464,-11.785031],[133.916254,-11.772381],[133.927604,-11.764141],[133.919124,-11.744821],[133.899394,-11.754191],[133.867534,-11.753922],[133.853404,-11.749092],[133.843094,-11.738252],[133.839214,-11.725072],[133.799335,-11.733022],[133.793785,-11.727492],[133.776915,-11.741043],[133.778975,-11.754033],[133.773585,-11.761143],[133.738465,-11.782583],[133.690646,-11.782773],[133.679636,-11.780163],[133.678026,-11.788633],[133.667916,-11.802064],[133.655866,-11.809054],[133.663126,-11.818904],[133.650106,-11.825434],[133.638866,-11.825084],[133.630976,-11.835954],[133.613506,-11.837704],[133.598826,-11.833394],[133.606986,-11.816344],[133.602136,-11.809164],[133.565596,-11.806804],[133.549167,-11.826994],[133.542167,-11.825514],[133.530127,-11.812984],[133.534177,-11.803364],[133.528917,-11.791094],[133.539506,-11.770284],[133.533786,-11.760334],[133.501157,-11.781224],[133.485517,-11.779274],[133.478737,-11.788534],[133.459107,-11.801975],[133.448097,-11.790435],[133.450287,-11.781515],[133.438477,-11.774045],[133.410367,-11.779555],[133.398677,-11.767785],[133.398797,-11.757505],[133.413257,-11.758655],[133.410057,-11.748135],[133.415567,-11.739444],[133.402837,-11.732084],[133.389288,-11.748345],[133.369208,-11.757705],[133.376418,-11.767425],[133.369628,-11.776115],[133.359888,-11.777015],[133.353138,-11.764685],[133.320889,-11.769845],[133.311049,-11.753786],[133.308089,-11.738986],[133.319689,-11.724306],[133.340569,-11.727155],[133.345619,-11.719145],[133.354458,-11.717905],[133.351149,-11.702195],[133.336019,-11.692805],[133.30263,-11.703836],[133.29552,-11.702806],[133.28392,-11.717706],[133.26325,-11.728756],[133.252311,-11.731906],[133.231021,-11.732547],[133.194101,-11.724807],[133.165221,-11.713787],[133.149872,-11.702237],[133.145202,-11.688447],[133.131241,-11.671247],[133.130571,-11.662996],[133.105631,-11.633116],[133.103151,-11.612556],[133.094121,-11.599766],[133.091741,-11.589936],[133.081791,-11.575446],[133.069591,-11.548306],[133.076861,-11.520985],[133.070571,-11.514755],[133.059121,-11.513156],[133.045962,-11.502846],[133.031242,-11.477166],[133.024262,-11.469126],[133.007852,-11.432825],[132.977182,-11.418525],[132.968132,-11.416805],[132.960732,-11.400635],[132.949082,-11.384905],[132.945232,-11.367605],[132.933332,-11.363625],[132.924693,-11.338185],[132.917953,-11.331725],[132.897893,-11.339925],[132.889773,-11.333125],[132.872033,-11.329806],[132.865023,-11.340066],[132.880463,-11.347456],[132.890513,-11.358326],[132.893573,-11.371206],[132.901583,-11.374166],[132.907053,-11.383786],[132.899893,-11.406816],[132.903643,-11.417216],[132.896403,-11.425896],[132.880363,-11.427776],[132.873063,-11.416906],[132.863443,-11.415986],[132.848154,-11.392786],[132.823154,-11.404687],[132.825514,-11.420737],[132.811374,-11.438097],[132.803224,-11.443827],[132.783854,-11.446377],[132.778174,-11.470077],[132.766455,-11.479867],[132.762985,-11.488557],[132.751755,-11.492247],[132.732875,-11.519077],[132.709255,-11.522497],[132.694625,-11.514207],[132.682925,-11.518347],[132.669005,-11.515587],[132.655125,-11.504137],[132.637815,-11.477527],[132.633646,-11.457857],[132.635436,-11.436637],[132.622016,-11.410267],[132.602226,-11.406017],[132.585446,-11.394547],[132.570286,-11.372807],[132.559196,-11.367916],[132.547046,-11.342006],[132.533536,-11.339696],[132.520477,-11.344046],[132.512507,-11.330916],[132.501877,-11.329936],[132.507107,-11.306386],[132.511257,-11.300526],[132.495847,-11.288836],[132.506787,-11.272276],[132.476747,-11.258415],[132.473117,-11.247865],[132.451037,-11.218075],[132.433207,-11.213935],[132.419998,-11.225635],[132.413648,-11.237915],[132.421727,-11.249915],[132.422247,-11.262235],[132.414087,-11.269995],[132.402178,-11.271865],[132.403138,-11.288915],[132.395888,-11.297815],[132.377698,-11.295585],[132.372338,-11.289915],[132.379408,-11.269285],[132.375898,-11.260685],[132.379738,-11.247605],[132.379118,-11.231445],[132.382308,-11.207975],[132.364908,-11.193765],[132.358868,-11.177605],[132.351358,-11.141665],[132.341328,-11.133945],[132.331188,-11.150835],[132.319498,-11.155875],[132.322198,-11.165595],[132.305688,-11.173205],[132.287879,-11.164874],[132.281559,-11.171064],[132.265069,-11.175394],[132.268759,-11.192574],[132.273989,-11.199374],[132.264658,-11.213554],[132.280028,-11.229734],[132.282618,-11.240334],[132.279468,-11.251904],[132.287428,-11.262554],[132.283548,-11.276724],[132.274368,-11.266454],[132.265338,-11.263814],[132.245849,-11.223404],[132.239809,-11.218524],[132.243459,-11.197424],[132.230869,-11.196804],[132.225079,-11.188874],[132.206019,-11.178394],[132.193189,-11.160034],[132.193039,-11.143104],[132.18681,-11.130314],[132.17539,-11.127664],[132.1636,-11.129864],[132.15059,-11.123024],[132.1403,-11.123764],[132.14409,-11.142304],[132.14125,-11.153674],[132.15626,-11.155684],[132.163629,-11.169154],[132.160809,-11.183704],[132.169379,-11.185104],[132.184739,-11.203134],[132.197609,-11.214264],[132.199039,-11.225784],[132.188669,-11.241543],[132.189859,-11.254303],[132.197679,-11.269363],[132.191329,-11.280733],[132.195539,-11.285723],[132.192619,-11.297453],[132.210999,-11.307813],[132.214158,-11.315063],[132.226728,-11.321453],[132.236468,-11.339893],[132.230808,-11.350143],[132.231338,-11.363003],[132.222128,-11.369643],[132.190289,-11.350963],[132.182889,-11.365383],[132.188419,-11.380093],[132.199969,-11.382513],[132.197839,-11.397523],[132.206189,-11.398133],[132.208129,-11.413403],[132.199109,-11.417433],[132.194119,-11.408793],[132.178689,-11.402513],[132.180799,-11.416293],[132.170359,-11.420423],[132.156409,-11.395393],[132.157959,-11.382533],[132.144679,-11.382353],[132.153609,-11.360153],[132.145389,-11.356383],[132.149129,-11.332533],[132.155869,-11.322683],[132.140919,-11.315043],[132.139729,-11.301823],[132.131719,-11.300883],[132.125019,-11.313043],[132.122489,-11.336283],[132.113199,-11.339853],[132.108799,-11.328533],[132.100469,-11.323183],[132.107269,-11.315323],[132.098289,-11.302853],[132.104429,-11.290123],[132.113249,-11.288023],[132.116389,-11.278893],[132.096179,-11.269763],[132.095759,-11.262083],[132.104839,-11.255803],[132.113879,-11.234173],[132.102739,-11.220223],[132.098559,-11.231943],[132.084489,-11.231533],[132.08181,-11.218993],[132.07083,-11.197033],[132.06072,-11.184334],[132.04611,-11.199493],[132.03461,-11.189613],[132.03305,-11.182384],[132.01629,-11.150674],[132.01069,-11.129874],[131.992971,-11.124244],[131.970311,-11.134234],[131.98786,-11.156634],[131.98243,-11.180094],[131.96998,-11.170814],[131.96139,-11.179144],[131.97131,-11.191354],[131.97014,-11.199823],[131.97985,-11.205483],[131.98645,-11.218593],[131.97417,-11.235163],[131.964,-11.233893],[131.96443,-11.245073],[131.93512,-11.254933],[131.93149,-11.243293],[131.915641,-11.226553],[131.915091,-11.218763],[131.900951,-11.202013],[131.902341,-11.195694],[131.888871,-11.185724],[131.877201,-11.186934],[131.878761,-11.203193],[131.886181,-11.207283],[131.875931,-11.234563],[131.867961,-11.219313],[131.856411,-11.219613],[131.840041,-11.226563],[131.821801,-11.206423],[131.814801,-11.211703],[131.817981,-11.221653],[131.829841,-11.233763],[131.836891,-11.247673],[131.848311,-11.253013],[131.846801,-11.262153],[131.856261,-11.272783],[131.845371,-11.282692],[131.824791,-11.278682],[131.809611,-11.266223],[131.794391,-11.268323],[131.804191,-11.278392],[131.806211,-11.291272],[131.799331,-11.297802],[131.779901,-11.291302],[131.772892,-11.302232],[131.759282,-11.299712],[131.768942,-11.322772],[131.790101,-11.323962],[131.821121,-11.318292],[131.842081,-11.312602],[131.850471,-11.298392],[131.859751,-11.292782],[131.884091,-11.302782],[131.891391,-11.312052],[131.899851,-11.312412],[131.914691,-11.324762],[131.9306,-11.324462],[131.93325,-11.316342],[131.94354,-11.319862],[131.9261,-11.336982],[131.916901,-11.357502],[131.92295,-11.363381],[131.93759,-11.350812],[131.9517,-11.351492],[131.95549,-11.344272],[131.96591,-11.342492],[131.97561,-11.351772],[131.96483,-11.360772],[131.97464,-11.374682],[131.97737,-11.384282],[131.95987,-11.380631],[131.93981,-11.392321],[131.96243,-11.411111],[131.98476,-11.402251],[131.99425,-11.405881],[131.98598,-11.422791],[131.99146,-11.428561],[132.00922,-11.430741],[132.04122,-11.420422],[132.06094,-11.434862],[132.05095,-11.460212],[132.03632,-11.456292],[132.03024,-11.458862],[132.03388,-11.482132],[132.04093,-11.490532],[132.05541,-11.496502],[132.06043,-11.506102],[132.05889,-11.515012],[132.06788,-11.525002],[132.08068,-11.530152],[132.09809,-11.529532],[132.108609,-11.532562],[132.113829,-11.539922],[132.128169,-11.515162],[132.142119,-11.519302],[132.150229,-11.503232],[132.160319,-11.500312],[132.167279,-11.491592],[132.193809,-11.490203],[132.210069,-11.469233],[132.233258,-11.456863],[132.252958,-11.455383],[132.270788,-11.462803],[132.301928,-11.465094],[132.336828,-11.446854],[132.353457,-11.441274],[132.399207,-11.454915],[132.415707,-11.451935],[132.457147,-11.457755],[132.480517,-11.484055],[132.494157,-11.482506],[132.499046,-11.488306],[132.495246,-11.498686],[132.499766,-11.509546],[132.515756,-11.520786],[132.528919,-11.517692],[132.529226,-11.532926],[132.524826,-11.544996],[132.537736,-11.554076],[132.554216,-11.559566],[132.545436,-11.577486],[132.536256,-11.580276],[132.551025,-11.611395],[132.567885,-11.618706],[132.594465,-11.639686],[132.607075,-11.639956],[132.616644,-11.654786],[132.598305,-11.653706],[132.583625,-11.657486],[132.574235,-11.654965],[132.557685,-11.636375],[132.531205,-11.638425],[132.504506,-11.637525],[132.500916,-11.645185],[132.502075,-11.670715],[132.499845,-11.682115],[132.518965,-11.687615],[132.532055,-11.710035],[132.540155,-11.718195],[132.594684,-11.730045],[132.623144,-11.724165],[132.630954,-11.720466],[132.637984,-11.708856],[132.643004,-11.681586],[132.654704,-11.685646],[132.648944,-11.722446],[132.623054,-11.747315],[132.620604,-11.758145],[132.596714,-11.767885],[132.580704,-11.786005],[132.594944,-11.805325],[132.619493,-11.808295],[132.636523,-11.822025],[132.647873,-11.858235],[132.645613,-11.875145],[132.655323,-11.889815],[132.640803,-11.901335],[132.638322,-11.919505],[132.638692,-11.942775],[132.630672,-11.967485],[132.623362,-12.005265],[132.618962,-12.016715],[132.626351,-12.054165],[132.623261,-12.072635],[132.629281,-12.085415],[132.578382,-12.105474],[132.567442,-12.097084],[132.555852,-12.095144],[132.533102,-12.113074],[132.513032,-12.124144],[132.482782,-12.137503],[132.442013,-12.146473],[132.433253,-12.166903],[132.417583,-12.195333],[132.417113,-12.222413],[132.389393,-12.236413],[132.368963,-12.219403],[132.353164,-12.198823],[132.333983,-12.201602],[132.315123,-12.211052],[132.291923,-12.217772],[132.278463,-12.224211],[132.264283,-12.203021],[132.264913,-12.182931],[132.261723,-12.173431],[132.232442,-12.176181],[132.224352,-12.194571],[132.196652,-12.20884],[132.173223,-12.21171],[132.168253,-12.22197],[132.147633,-12.24585],[132.130823,-12.25924],[132.111384,-12.27081],[132.073894,-12.28898],[132.069714,-12.30354],[132.049975,-12.29952],[132.021165,-12.29672],[131.996546,-12.2865],[131.967707,-12.282371],[131.939408,-12.272931],[131.917488,-12.255891],[131.915819,-12.244501],[131.903589,-12.232831],[131.904229,-12.224351],[131.891779,-12.215281],[131.871229,-12.216401],[131.864719,-12.222311],[131.830519,-12.245061],[131.8154,-12.251921],[131.78754,-12.259391],[131.77277,-12.267711],[131.75454,-12.273901],[131.71012,-12.277501],[131.70108,-12.281391],[131.66066,-12.285521],[131.64022,-12.283712],[131.60162,-12.283412],[131.548072,-12.278212],[131.504454,-12.283702],[131.472295,-12.283712],[131.445176,-12.280312],[131.426776,-12.275411],[131.396175,-12.264111],[131.366815,-12.24502],[131.343075,-12.222279],[131.322765,-12.193429],[131.314055,-12.165679],[131.322835,-12.147239],[131.312905,-12.132449],[131.321835,-12.122619],[131.313885,-12.112699],[131.315785,-12.098689],[131.320925,-12.089869],[131.299506,-12.070169],[131.298436,-12.058869],[131.303356,-12.052989],[131.297126,-12.042609],[131.288306,-12.049299],[131.266356,-12.076929],[131.270696,-12.107419],[131.250816,-12.135939],[131.255805,-12.153209],[131.246235,-12.178989],[131.232735,-12.195069],[131.231075,-12.214389],[131.246815,-12.215239],[131.245765,-12.224359],[131.222045,-12.227179],[131.208006,-12.219879],[131.202696,-12.211189],[131.175956,-12.192099],[131.169535,-12.183609],[131.170085,-12.174009],[131.157555,-12.168839],[131.148286,-12.180389],[131.137726,-12.184029],[131.125436,-12.182589],[131.116446,-12.171319],[131.113196,-12.155059],[131.087576,-12.153769],[131.065336,-12.166809],[131.051766,-12.158259],[131.045296,-12.142679],[131.030606,-12.146439],[131.004567,-12.159489],[130.995967,-12.168649],[130.994627,-12.186059],[131.004677,-12.209079],[131.011927,-12.215729],[131.021577,-12.216269],[131.029187,-12.226759],[131.031167,-12.238509],[131.027437,-12.265059],[131.014887,-12.304739],[131.012507,-12.316539],[131.017117,-12.324399],[131.029767,-12.325609],[131.024957,-12.335219],[131.040177,-12.357769],[131.020427,-12.3602],[130.982797,-12.34187],[130.954197,-12.34678],[130.936876,-12.342998],[130.938488,-12.365505],[130.938213,-12.409601],[130.923421,-12.409646],[130.923422,-12.433098],[130.950965,-12.443354],[130.973124,-12.460946],[130.990047,-12.480963],[131.000654,-12.488903],[130.999199,-12.502248],[130.992512,-12.514959],[130.981308,-12.521742],[130.982029,-12.532219],[130.976844,-12.541256],[130.96695,-12.53465],[130.955869,-12.534051],[130.953479,-12.542111],[130.934248,-12.532211],[130.927768,-12.514371],[130.922618,-12.509251],[130.910408,-12.517461],[130.903608,-12.513291],[130.884878,-12.520781],[130.861168,-12.509751],[130.862118,-12.526251],[130.873858,-12.528031],[130.879529,-12.547911],[130.877819,-12.552431],[130.884649,-12.574792],[130.902599,-12.578932],[130.907459,-12.572842],[130.923079,-12.579912],[130.932969,-12.588272],[130.937799,-12.598022],[130.956169,-12.619542],[130.954699,-12.636982],[130.945289,-12.637862],[130.932929,-12.611102],[130.916579,-12.606242],[130.882289,-12.606202],[130.882789,-12.624612],[130.870469,-12.620912],[130.868019,-12.601482],[130.859819,-12.586242],[130.849799,-12.578922],[130.842759,-12.567292],[130.841469,-12.555322],[130.816059,-12.558182],[130.810159,-12.539891],[130.799919,-12.539342],[130.786829,-12.554162],[130.794449,-12.572342],[130.782869,-12.593032],[130.780979,-12.561972],[130.767629,-12.559612],[130.774039,-12.542202],[130.769419,-12.527071],[130.777229,-12.520391],[130.778479,-12.509551],[130.771439,-12.493851],[130.777048,-12.479041],[130.757389,-12.482231],[130.759548,-12.464041],[130.766428,-12.453301],[130.767338,-12.443129],[130.752948,-12.428801],[130.726038,-12.427931],[130.711659,-12.423421],[130.705669,-12.414051],[130.683829,-12.416111],[130.654259,-12.393992],[130.63827,-12.389032],[130.61735,-12.387023],[130.6116,-12.393123],[130.59149,-12.403873],[130.5785,-12.405353],[130.58725,-12.425232],[130.61221,-12.431772],[130.61763,-12.443742],[130.58096,-12.462642],[130.59109,-12.479922],[130.6041,-12.487932],[130.60576,-12.501452],[130.5887,-12.501273],[130.58284,-12.512803],[130.57803,-12.534843],[130.565861,-12.566713],[130.566791,-12.581523],[130.572321,-12.596543],[130.584511,-12.590653],[130.605931,-12.604993],[130.604671,-12.614483],[130.582821,-12.622974],[130.559572,-12.626494],[130.551072,-12.635544],[130.573402,-12.652244],[130.573303,-12.663544],[130.585863,-12.684445],[130.597243,-12.670764],[130.612103,-12.676624],[130.622452,-12.672324],[130.633402,-12.686324],[130.655392,-12.692284],[130.679132,-12.713504],[130.695252,-12.719814],[130.706062,-12.710984],[130.708182,-12.722674],[130.687143,-12.727954],[130.669133,-12.724025],[130.660603,-12.714655],[130.641143,-12.712415],[130.622154,-12.718305],[130.636324,-12.727105],[130.639344,-12.743715],[130.630934,-12.745305],[130.629534,-12.727795],[130.618714,-12.726675],[130.604544,-12.718215],[130.580735,-12.733936],[130.583254,-12.719245],[130.572654,-12.707725],[130.554504,-12.702495],[130.542215,-12.713146],[130.535885,-12.713406],[130.520625,-12.703496],[130.501186,-12.717966],[130.518305,-12.691376],[130.518415,-12.680875],[130.508854,-12.664375],[130.492105,-12.667286],[130.490945,-12.661976],[130.471715,-12.650466],[130.460885,-12.639176],[130.446616,-12.643026],[130.440046,-12.634216],[130.420267,-12.645427],[130.412797,-12.655607],[130.393578,-12.662287],[130.396468,-12.680147],[130.407248,-12.693027],[130.404108,-12.701477],[130.389678,-12.685017],[130.378858,-12.677677],[130.364698,-12.677677],[130.352719,-12.669547],[130.347669,-12.688547],[130.346309,-12.715227],[130.356219,-12.734777],[130.351979,-12.763157],[130.356009,-12.775357],[130.352799,-12.795377],[130.358339,-12.807237],[130.34754,-12.848167],[130.33316,-12.881077],[130.33824,-12.890117],[130.31451,-12.902457],[130.302881,-12.916587],[130.279501,-12.932537],[130.260832,-12.941927],[130.245622,-12.946457],[130.221412,-12.949348],[130.203333,-12.940808],[130.192613,-12.927808],[130.186053,-12.914347],[130.175793,-12.910277],[130.159093,-12.929228],[130.141114,-12.933458],[130.139264,-12.950408],[130.129694,-12.965338],[130.128314,-12.979129],[130.137994,-12.985349],[130.141194,-13.000669],[130.130194,-13.028719],[130.128395,-13.04964],[130.122085,-13.06796],[130.120285,-13.089769],[130.133935,-13.104549],[130.128195,-13.120039],[130.118885,-13.133399],[130.116176,-13.164139],[130.130515,-13.176539],[130.160275,-13.175109],[130.198585,-13.219088],[130.211584,-13.231418],[130.225204,-13.249197],[130.230564,-13.269747],[130.248044,-13.288457],[130.284054,-13.305756],[130.277914,-13.334866],[130.250244,-13.334106],[130.235484,-13.339676],[130.224665,-13.350896],[130.214435,-13.368216],[130.198365,-13.374207],[130.182226,-13.408637],[130.157506,-13.442717],[130.141607,-13.457117],[130.125227,-13.466197],[130.117257,-13.465877],[130.106367,-13.456308],[130.071958,-13.490378],[130.064148,-13.503698],[130.058688,-13.499448],[130.042429,-13.515528],[130.019269,-13.528828],[129.99533,-13.535439],[129.97671,-13.533289],[129.95684,-13.535809],[129.928631,-13.528279],[129.924111,-13.521279],[129.909891,-13.51434],[129.900511,-13.4986],[129.901471,-13.47021],[129.891541,-13.44313],[129.878391,-13.46021],[129.869401,-13.47977],[129.873241,-13.49909],[129.854411,-13.50759],[129.831192,-13.51147],[129.827732,-13.51814],[129.832282,-13.55667],[129.828032,-13.57962],[129.814313,-13.61614],[129.790163,-13.66691],[129.785833,-13.69291],[129.784003,-13.72015],[129.791423,-13.73178],[129.785094,-13.768179],[129.794013,-13.779239],[129.773894,-13.796099],[129.762344,-13.811369],[129.740024,-13.82687],[129.722565,-13.84791],[129.715525,-13.87888],[129.715075,-13.89346],[129.719355,-13.89764],[129.735105,-13.8972],[129.747495,-13.920669],[129.745905,-13.946999],[129.752395,-13.952199],[129.740025,-13.982609],[129.731586,-13.99233],[129.718866,-14.0149],[129.707286,-14.01454],[129.680886,-14.02974],[129.665447,-14.03549],[129.655587,-14.04304],[129.640877,-14.0472],[129.628717,-14.04593],[129.596098,-14.025971],[129.590638,-14.032861],[129.611678,-14.053581],[129.609288,-14.069591],[129.594868,-14.091231],[129.572492,-14.081499],[129.558792,-14.095489],[129.554812,-14.111869],[129.556712,-14.142159],[129.541991,-14.144528],[129.529963,-14.134409],[129.530482,-14.114189],[129.536542,-14.097919],[129.541532,-14.095109],[129.535072,-14.081419],[129.538582,-14.070459],[129.533862,-14.056889],[129.514142,-14.070399],[129.498062,-14.060639],[129.486482,-14.05835],[129.490153,-14.075659],[129.501482,-14.083139],[129.502473,-14.102019],[129.496383,-14.127889],[129.487893,-14.141879],[129.463853,-14.19368],[129.448803,-14.1975],[129.441804,-14.2132],[129.422164,-14.2327],[129.409294,-14.23594],[129.412574,-14.26364],[129.410524,-14.28827],[129.393515,-14.31682],[129.381905,-14.32176],[129.366655,-14.33968],[129.373895,-14.35473],[129.370225,-14.36667],[129.360725,-14.3825],[129.361715,-14.39833],[129.355625,-14.41877],[129.388565,-14.42158],[129.406855,-14.43271],[129.420725,-14.44993],[129.418155,-14.45874],[129.434455,-14.47879],[129.443155,-14.47859],[129.451605,-14.48731],[129.453185,-14.50506],[129.474455,-14.49099],[129.482675,-14.50095],[129.494495,-14.507649],[129.496675,-14.514659],[129.514285,-14.530079],[129.521435,-14.546819],[129.552161,-14.551439],[129.566761,-14.562549],[129.594491,-14.567689],[129.610161,-14.568059],[129.65379,-14.579699],[129.66934,-14.580489],[129.70106,-14.563589],[129.762609,-14.544579],[129.773869,-14.547569],[129.7412,-14.579129],[129.73029,-14.577869],[129.71891,-14.582829],[129.71298,-14.592089],[129.69238,-14.612789],[129.63678,-14.610609],[129.607751,-14.615079],[129.585135,-14.613829],[129.580675,-14.637929],[129.589191,-14.661259],[129.597761,-14.674389],[129.619276,-14.679653],[129.636721,-14.705318],[129.653771,-14.722418],[129.664664,-14.72606],[129.662211,-14.746158],[129.672401,-14.763468],[129.709901,-14.778788],[129.724641,-14.791468],[129.734401,-14.793968],[129.751491,-14.787438],[129.77473,-14.783058],[129.77603,-14.771298],[129.79823,-14.757318],[129.79147,-14.774488],[129.77681,-14.795378],[129.754141,-14.803038],[129.748901,-14.814328],[129.758411,-14.824628],[129.768981,-14.828028],[129.784561,-14.827108],[129.800841,-14.818908],[129.821181,-14.818248],[129.835941,-14.813298],[129.83734,-14.804258],[129.86835,-14.776208],[129.88989,-14.770278],[129.90283,-14.773218],[129.90231,-14.781138],[129.89232,-14.785538],[129.87627,-14.806888],[129.885561,-14.813898],[129.846151,-14.829688],[129.853461,-14.841108],[129.843701,-14.843178],[129.821491,-14.853518],[129.802541,-14.858017],[129.763501,-14.844297],[129.743621,-14.850037],[129.71096,-14.852357],[129.684911,-14.848817],[129.658331,-14.836347],[129.648571,-14.834407],[129.643711,-14.841787],[129.632051,-14.843867],[129.617561,-14.825537],[129.582886,-14.799559],[129.574046,-14.806769],[129.586151,-14.839377],[129.599371,-14.856127],[129.617131,-14.869497],[129.618031,-14.881587],[129.592117,-14.891009],[129.570007,-14.847559],[129.533837,-14.806799],[129.506217,-14.788769],[129.499707,-14.790109],[129.500257,-14.803219],[129.514397,-14.819979],[129.536277,-14.855859],[129.536477,-14.869029],[129.545527,-14.878709],[129.570557,-14.918089],[129.583877,-14.942079],[129.590227,-14.962089],[129.608492,-14.947687],[129.623012,-14.953257],[129.624612,-14.971457],[129.621082,-14.998587],[129.640532,-15.042167],[129.641612,-15.079027],[129.652392,-15.099347],[129.668893,-15.117897],[129.685663,-15.131027],[129.684983,-15.142667],[129.670853,-15.148547],[129.656723,-15.139507],[129.640443,-15.136556],[129.626233,-15.138026],[129.611663,-15.153736],[129.578933,-15.155626],[129.563584,-15.179916],[129.557244,-15.170536],[129.560193,-15.155136],[129.585803,-15.142006],[129.602213,-15.128906],[129.603903,-15.108006],[129.571103,-15.064226],[129.556113,-15.048727],[129.537622,-15.033877],[129.524778,-15.028089],[129.522298,-15.005689],[129.506338,-14.978979],[129.496138,-14.96652],[129.482478,-14.94106],[129.474928,-14.93663],[129.431247,-14.921831],[129.401617,-14.916662],[129.392217,-14.909062],[129.380477,-14.909032],[129.367257,-14.903172],[129.359967,-14.885352],[129.350127,-14.873682],[129.317387,-14.859452],[129.290197,-14.857332],[129.26709,-14.864886],[129.257278,-14.865012],[129.262907,-14.850112],[129.243858,-14.845302],[129.237728,-14.839182],[129.225278,-14.840603],[129.221738,-14.855403],[129.228898,-14.869663],[129.232048,-14.896353],[129.241818,-14.910693],[129.234888,-14.914103],[129.232989,-14.957163],[129.240819,-14.980353],[129.238349,-14.998733],[129.232839,-15.003773],[129.236349,-15.013633],[129.251139,-15.019113],[129.265129,-15.032903],[129.254119,-15.039693],[129.251469,-15.055972],[129.236489,-15.06779],[129.247269,-15.095585],[129.235149,-15.108587],[129.238089,-15.128741],[129.227429,-15.134632],[129.215479,-15.153844],[129.226919,-15.161754],[129.2256,-15.177233],[129.20622,-15.158953],[129.19563,-15.159303],[129.17114,-15.195692],[129.15819,-15.197602],[129.15752,-15.184362],[129.17492,-15.168373],[129.17467,-15.147453],[129.18544,-15.142133],[129.194579,-15.1256],[129.200549,-15.12261],[129.195399,-15.102657],[129.181039,-15.08443],[129.180419,-15.076401],[129.169509,-15.051533],[129.169669,-15.035823],[129.179909,-15.024843],[129.182059,-15.009043],[129.188919,-14.987173],[129.1757,-14.976843],[129.15085,-14.965783],[129.13069,-14.948973],[129.11028,-14.960764],[129.11272,-14.934444],[129.101291,-14.915063],[129.076962,-14.896313],[129.065942,-14.891074],[129.043912,-14.901824],[129.031662,-14.886404],[129.001242,-14.879473],[129.001338,-14.996186],[129.000723,-15.263311],[129.00044,-15.387439],[129.000483,-15.608673],[129.000482,-15.859357],[129.000462,-15.998558],[129.000486,-16.199584],[129.00049,-16.485621],[129.00049,-16.781258],[129.000495,-17.076821],[129.000497,-17.372407],[129.000493,-17.667988],[129.00049,-17.998562],[129.000509,-18.240778],[129.000513,-18.682594],[129.000483,-19.018525],[129.000522,-19.083935],[129.001279,-19.998565],[129.001289,-20.998579],[129.000492,-21.232009],[129.001015,-21.998576],[129.001267,-22.248443],[129.001302,-22.998575],[129.000903,-23.020906],[129.001306,-23.431919],[129.000847,-23.498698],[129.00083,-23.665361],[129.00081,-23.83202],[129.001311,-23.99858],[129.000781,-24.082001],[129.000753,-24.331991],[129.000725,-24.581982],[129.000698,-24.831973],[129.001321,-24.998584],[129.000682,-25.081967],[129.000658,-25.33197],[129.000628,-25.581988],[129.000568,-25.831834],[129.000587,-25.998614],[129.001838,-25.998606],[129.30723,-25.998609],[129.50332,-25.998584],[129.801317,-25.99858],[130.105316,-25.998578],[130.499313,-25.998576],[130.742971,-25.998594],[131.048379,-25.998592],[131.37152,-25.998617],[131.627043,-25.998587],[131.751301,-25.998563],[131.751305,-25.999482],[131.954357,-25.998568],[132.04498,-25.998582],[132.414689,-25.998578],[132.993367,-25.998573],[133.111844,-25.998581],[133.314855,-25.99857],[133.503295,-25.998548],[134.149291,-25.998546],[134.774147,-25.998541],[135.401282,-25.998533],[135.799278,-25.998528],[136.001736,-25.998526],[136.249275,-25.998325],[136.501274,-25.998114],[136.665922,-25.997982],[136.999238,-25.997699],[137.165896,-25.997557],[137.415882,-25.997353],[137.582539,-25.997212],[137.749197,-25.99708],[137.999054,-25.996867],[137.999033,-25.916427],[137.998971,-25.666437],[137.99894,-25.583107],[137.998797,-24.998509],[137.998745,-24.833129],[137.9986,-24.249828],[137.998519,-23.964688],[137.998486,-23.833178],[137.998444,-23.666517],[137.998246,-23.520895]]],[[[131.543133,-11.4522],[131.534483,-11.43771],[131.537093,-11.41322],[131.524003,-11.39409],[131.510783,-11.39606],[131.505143,-11.38679],[131.495313,-11.38302],[131.481333,-11.39883],[131.465084,-11.385731],[131.463514,-11.376911],[131.470984,-11.370391],[131.462884,-11.363131],[131.454044,-11.342091],[131.462684,-11.328011],[131.444214,-11.312912],[131.433344,-11.311182],[131.429524,-11.295462],[131.442604,-11.286712],[131.439804,-11.272242],[131.428404,-11.262142],[131.410004,-11.256423],[131.401304,-11.258303],[131.395544,-11.267083],[131.403144,-11.281572],[131.395074,-11.295542],[131.380814,-11.298202],[131.371995,-11.287872],[131.374955,-11.264283],[131.362725,-11.260733],[131.358305,-11.252013],[131.343785,-11.248793],[131.328875,-11.255953],[131.326515,-11.272993],[131.320425,-11.276693],[131.305105,-11.274583],[131.296205,-11.268113],[131.304795,-11.242174],[131.315245,-11.235784],[131.315275,-11.228214],[131.306745,-11.217104],[131.296935,-11.210734],[131.288206,-11.193865],[131.279756,-11.191795],[131.269426,-11.197515],[131.263276,-11.191375],[131.250796,-11.193915],[131.247476,-11.217845],[131.235766,-11.225245],[131.226966,-11.223165],[131.209656,-11.229515],[131.207336,-11.241855],[131.198776,-11.253525],[131.198426,-11.275994],[131.202966,-11.284264],[131.190886,-11.296404],[131.215336,-11.304763],[131.222046,-11.313953],[131.215716,-11.321713],[131.199736,-11.311803],[131.192316,-11.329733],[131.186706,-11.330713],[131.166906,-11.307803],[131.172166,-11.286364],[131.163736,-11.278084],[131.165636,-11.265555],[131.147747,-11.249875],[131.141427,-11.255825],[131.124607,-11.254155],[131.115057,-11.264495],[131.111537,-11.280295],[131.082577,-11.302164],[131.071577,-11.303354],[131.062597,-11.311774],[131.040937,-11.317754],[131.040657,-11.326334],[131.051097,-11.343004],[131.045417,-11.354943],[131.031607,-11.367293],[131.018027,-11.359763],[130.990237,-11.354544],[130.984458,-11.342854],[130.965738,-11.333375],[130.915599,-11.313536],[130.897309,-11.308917],[130.887299,-11.316307],[130.884959,-11.325337],[130.86588,-11.337647],[130.85124,-11.353257],[130.83139,-11.359687],[130.784511,-11.365608],[130.772271,-11.364398],[130.763031,-11.375528],[130.721062,-11.384298],[130.704562,-11.385318],[130.701942,-11.399878],[130.695362,-11.408528],[130.697902,-11.422448],[130.723451,-11.420468],[130.733711,-11.427647],[130.740141,-11.442487],[130.754431,-11.446987],[130.755611,-11.459876],[130.76943,-11.465726],[130.76622,-11.484566],[130.79319,-11.495585],[130.80655,-11.508214],[130.78485,-11.509655],[130.756,-11.491166],[130.75662,-11.481346],[130.737171,-11.477156],[130.722781,-11.470286],[130.719431,-11.483596],[130.709841,-11.486466],[130.694182,-11.464337],[130.699622,-11.455447],[130.695322,-11.447057],[130.682772,-11.440418],[130.680812,-11.427146],[130.664073,-11.410579],[130.657353,-11.400649],[130.659153,-11.393259],[130.655503,-11.375269],[130.661933,-11.372489],[130.658483,-11.3414],[130.641083,-11.35631],[130.641693,-11.36795],[130.636713,-11.37582],[130.619224,-11.38757],[130.601364,-11.38654],[130.597534,-11.39341],[130.581324,-11.402441],[130.568295,-11.397611],[130.556485,-11.383171],[130.554585,-11.361012],[130.566875,-11.340652],[130.579245,-11.340961],[130.603774,-11.321361],[130.599974,-11.307551],[130.602774,-11.300341],[130.594844,-11.289212],[130.574745,-11.281842],[130.565305,-11.272622],[130.551845,-11.266763],[130.538775,-11.284413],[130.516926,-11.281203],[130.512506,-11.284973],[130.475276,-11.247304],[130.445047,-11.206024],[130.401657,-11.166135],[130.391817,-11.170005],[130.372588,-11.170955],[130.372408,-11.191745],[130.363498,-11.251205],[130.370058,-11.264865],[130.390478,-11.276455],[130.392218,-11.284014],[130.407038,-11.301384],[130.409028,-11.318104],[130.398258,-11.318124],[130.393388,-11.338144],[130.389048,-11.344594],[130.391048,-11.366734],[130.408468,-11.364994],[130.407938,-11.382064],[130.414908,-11.400452],[130.411467,-11.408758],[130.426277,-11.428223],[130.418217,-11.454912],[130.429467,-11.463702],[130.433517,-11.474982],[130.431867,-11.502561],[130.452086,-11.51674],[130.460966,-11.53559],[130.474205,-11.539109],[130.491545,-11.562388],[130.484955,-11.582639],[130.478335,-11.592939],[130.476466,-11.620629],[130.482136,-11.637109],[130.492625,-11.654929],[130.503625,-11.665348],[130.529015,-11.679468],[130.540644,-11.672317],[130.556354,-11.672427],[130.568184,-11.685497],[130.571784,-11.695697],[130.593393,-11.704316],[130.599833,-11.718816],[130.622693,-11.723376],[130.635262,-11.735775],[130.641142,-11.747565],[130.659332,-11.754575],[130.672001,-11.762794],[130.677931,-11.785884],[130.686341,-11.796444],[130.72496,-11.802673],[130.757969,-11.824232],[130.780219,-11.832182],[130.801888,-11.845062],[130.828578,-11.850301],[130.852898,-11.850221],[130.862288,-11.854651],[130.887507,-11.875731],[130.892207,-11.87553],[130.921777,-11.901],[130.936007,-11.92084],[130.938467,-11.93204],[130.949287,-11.9401],[130.961907,-11.93972],[130.976437,-11.93315],[130.997796,-11.908749],[131.027766,-11.881799],[131.048296,-11.881559],[131.059056,-11.863999],[131.081916,-11.836209],[131.107986,-11.829229],[131.148706,-11.804579],[131.160296,-11.803049],[131.181905,-11.791749],[131.200105,-11.771899],[131.244385,-11.740499],[131.264615,-11.732149],[131.280395,-11.739789],[131.288715,-11.723559],[131.300115,-11.714689],[131.308875,-11.702189],[131.323245,-11.691519],[131.333964,-11.679259],[131.341614,-11.658399],[131.356824,-11.639039],[131.370584,-11.609729],[131.368904,-11.600919],[131.386824,-11.588789],[131.402844,-11.588839],[131.418484,-11.607899],[131.440253,-11.605949],[131.444023,-11.610589],[131.465103,-11.610339],[131.472573,-11.602569],[131.470333,-11.586739],[131.458093,-11.586709],[131.464583,-11.566409],[131.455673,-11.560269],[131.454473,-11.546599],[131.461123,-11.51546],[131.474733,-11.49225],[131.484023,-11.48766],[131.498063,-11.46886],[131.509643,-11.46551],[131.515913,-11.47355],[131.527003,-11.4763],[131.543133,-11.4522]]],[[[136.964576,-14.282604],[136.947946,-14.276214],[136.942866,-14.254344],[136.953136,-14.242594],[136.949866,-14.234514],[136.951916,-14.219584],[136.936096,-14.212164],[136.934276,-14.203714],[136.940156,-14.189194],[136.954096,-14.193134],[136.964126,-14.165254],[136.945176,-14.157075],[136.930706,-14.164725],[136.918167,-14.164805],[136.904757,-14.180935],[136.895567,-14.201585],[136.880587,-14.209175],[136.863108,-14.210795],[136.853918,-14.206475],[136.842938,-14.183075],[136.810919,-14.164156],[136.802139,-14.154066],[136.781159,-14.151196],[136.782419,-14.163386],[136.77089,-14.169466],[136.781779,-14.181916],[136.781639,-14.192306],[136.76327,-14.195716],[136.75274,-14.186226],[136.724401,-14.187487],[136.707081,-14.168987],[136.707541,-14.157177],[136.714351,-14.152327],[136.705451,-14.140767],[136.699841,-14.121827],[136.702671,-14.106847],[136.72413,-14.078137],[136.72208,-14.068667],[136.73282,-14.065297],[136.73779,-14.078357],[136.74608,-14.085857],[136.75357,-14.082517],[136.74788,-14.066527],[136.760199,-14.046427],[136.775249,-14.046187],[136.792178,-14.036667],[136.807558,-14.035856],[136.809438,-14.025216],[136.798138,-14.017527],[136.778979,-14.023927],[136.770209,-14.017447],[136.761809,-13.998547],[136.762259,-13.985737],[136.770889,-13.951127],[136.778908,-13.934017],[136.790978,-13.916387],[136.812587,-13.904137],[136.821807,-13.908617],[136.844476,-13.907556],[136.851956,-13.912926],[136.859526,-13.906436],[136.858486,-13.893216],[136.883996,-13.842807],[136.900496,-13.818987],[136.912026,-13.807557],[136.924406,-13.806527],[136.914026,-13.789497],[136.913306,-13.779557],[136.905216,-13.764127],[136.888657,-13.753938],[136.870947,-13.756618],[136.836919,-13.748318],[136.839928,-13.761788],[136.839308,-13.780308],[136.833119,-13.788508],[136.814739,-13.801918],[136.824769,-13.805158],[136.837278,-13.802438],[136.845278,-13.813578],[136.844728,-13.823968],[136.837318,-13.842907],[136.828128,-13.849868],[136.81161,-13.855776],[136.796729,-13.853658],[136.765251,-13.841379],[136.754461,-13.832359],[136.723742,-13.840909],[136.721612,-13.833889],[136.729142,-13.81972],[136.716843,-13.8108],[136.712493,-13.79381],[136.721373,-13.78361],[136.717973,-13.77578],[136.697054,-13.77492],[136.689524,-13.7639],[136.687584,-13.747951],[136.681504,-13.742811],[136.686044,-13.727151],[136.694464,-13.728801],[136.707274,-13.71567],[136.719883,-13.71774],[136.720793,-13.70621],[136.728873,-13.69442],[136.732413,-13.67355],[136.731123,-13.66224],[136.724943,-13.655071],[136.712523,-13.661281],[136.690114,-13.662011],[136.688754,-13.670561],[136.678505,-13.680081],[136.675325,-13.698801],[136.665175,-13.696681],[136.639446,-13.704131],[136.624406,-13.718121],[136.617066,-13.706002],[136.631716,-13.690731],[136.608546,-13.684192],[136.587057,-13.683422],[136.577187,-13.688082],[136.592367,-13.696582],[136.588637,-13.724342],[136.610636,-13.732572],[136.618156,-13.744171],[136.614986,-13.761301],[136.630546,-13.766191],[136.638016,-13.783551],[136.629976,-13.789911],[136.607936,-13.785421],[136.594097,-13.787031],[136.599757,-13.807041],[136.583937,-13.808611],[136.574167,-13.798552],[136.571187,-13.812452],[136.554418,-13.819842],[136.541508,-13.816212],[136.537528,-13.808722],[136.542578,-13.789102],[136.531889,-13.785022],[136.523819,-13.791532],[136.524569,-13.821482],[136.513479,-13.831882],[136.49489,-13.838082],[136.48369,-13.833762],[136.46276,-13.834503],[136.457131,-13.819233],[136.440451,-13.831393],[136.434711,-13.815113],[136.422572,-13.815643],[136.408882,-13.831763],[136.408042,-13.845313],[136.417032,-13.853243],[136.433391,-13.877683],[136.436141,-13.890793],[136.432851,-13.908512],[136.42083,-13.950272],[136.408151,-13.976332],[136.41817,-13.996012],[136.41565,-14.015272],[136.42191,-14.046572],[136.41802,-14.058002],[136.429439,-14.076381],[136.429629,-14.094241],[136.442218,-14.113641],[136.442608,-14.123471],[136.431398,-14.130871],[136.418729,-14.147081],[136.422119,-14.154981],[136.411409,-14.169491],[136.397999,-14.177901],[136.344,-14.201841],[136.324461,-14.213321],[136.3247,-14.246111],[136.35658,-14.220111],[136.395549,-14.202331],[136.421478,-14.19613],[136.437348,-14.1963],[136.453617,-14.20788],[136.455507,-14.21805],[136.490816,-14.237009],[136.510456,-14.233129],[136.524595,-14.233819],[136.529885,-14.244399],[136.540515,-14.254148],[136.551855,-14.252818],[136.566394,-14.260498],[136.572644,-14.258868],[136.628193,-14.265037],[136.633902,-14.283577],[136.645632,-14.286077],[136.649892,-14.296217],[136.670382,-14.287047],[136.676551,-14.297576],[136.684431,-14.283726],[136.694211,-14.275856],[136.710071,-14.274706],[136.721931,-14.265676],[136.73601,-14.259576],[136.75546,-14.258056],[136.76143,-14.264326],[136.784329,-14.260295],[136.809449,-14.270695],[136.814299,-14.281835],[136.830018,-14.277855],[136.839738,-14.288835],[136.845478,-14.282795],[136.859568,-14.278155],[136.890897,-14.307914],[136.909567,-14.284924],[136.932827,-14.293754],[136.935837,-14.281744],[136.946686,-14.277694],[136.958226,-14.284474],[136.964576,-14.282604]]],[[[130.641149,-11.756259],[130.617383,-11.733966],[130.610713,-11.737086],[130.592293,-11.730516],[130.584873,-11.708887],[130.576404,-11.711057],[130.564254,-11.707047],[130.556094,-11.692757],[130.549354,-11.689777],[130.533385,-11.694408],[130.516895,-11.691238],[130.509605,-11.683618],[130.484986,-11.669859],[130.468346,-11.666179],[130.462896,-11.64688],[130.464676,-11.629359],[130.459936,-11.61683],[130.462896,-11.608349],[130.463716,-11.575009],[130.424197,-11.546541],[130.402397,-11.539932],[130.385608,-11.522232],[130.376168,-11.507003],[130.380838,-11.494443],[130.375188,-11.484063],[130.389488,-11.471373],[130.396898,-11.453953],[130.403868,-11.447603],[130.399718,-11.440163],[130.400138,-11.425023],[130.384278,-11.405284],[130.372568,-11.397064],[130.364738,-11.382394],[130.353538,-11.346144],[130.353628,-11.338574],[130.337428,-11.318615],[130.303219,-11.338695],[130.280309,-11.342925],[130.263469,-11.342735],[130.251679,-11.346485],[130.247679,-11.354515],[130.254829,-11.376545],[130.24718,-11.387515],[130.2387,-11.388435],[130.23014,-11.406985],[130.20976,-11.419005],[130.1801,-11.429236],[130.169141,-11.462726],[130.147981,-11.482066],[130.156601,-11.491206],[130.172981,-11.483485],[130.185121,-11.484475],[130.193751,-11.494415],[130.198361,-11.507395],[130.21407,-11.509965],[130.2278,-11.496495],[130.23791,-11.506645],[130.2353,-11.520995],[130.25791,-11.533044],[130.26735,-11.546474],[130.26091,-11.552454],[130.25285,-11.535034],[130.24221,-11.534224],[130.23225,-11.527385],[130.22499,-11.507215],[130.21576,-11.514405],[130.195611,-11.516175],[130.194741,-11.527945],[130.184091,-11.539975],[130.174831,-11.557845],[130.185751,-11.572065],[130.195271,-11.571935],[130.200821,-11.585565],[130.197081,-11.616335],[130.190591,-11.639625],[130.193001,-11.643805],[130.209861,-11.642644],[130.217191,-11.638104],[130.230401,-11.643844],[130.236971,-11.661794],[130.250641,-11.667304],[130.255391,-11.692383],[130.242881,-11.687664],[130.217611,-11.672234],[130.208481,-11.695864],[130.203761,-11.686834],[130.211651,-11.676994],[130.214271,-11.664444],[130.202311,-11.649434],[130.195431,-11.654874],[130.185952,-11.671505],[130.159962,-11.698565],[130.157252,-11.705065],[130.129333,-11.704045],[130.116593,-11.699205],[130.106823,-11.685996],[130.084993,-11.669306],[130.073643,-11.671476],[130.068843,-11.686176],[130.071653,-11.722896],[130.067094,-11.740876],[130.061484,-11.750936],[130.065184,-11.764716],[130.056924,-11.765976],[130.042674,-11.755486],[130.033154,-11.756296],[130.020784,-11.774166],[130.026324,-11.798336],[130.030814,-11.806246],[130.048854,-11.824076],[130.064924,-11.818515],[130.087884,-11.825365],[130.100044,-11.820485],[130.118193,-11.827125],[130.130813,-11.825185],[130.174512,-11.809954],[130.203081,-11.805383],[130.24184,-11.791283],[130.298269,-11.777032],[130.312259,-11.770892],[130.355078,-11.779831],[130.374607,-11.78848],[130.392717,-11.80025],[130.422396,-11.805409],[130.445266,-11.816869],[130.454325,-11.813569],[130.503384,-11.830348],[130.512564,-11.829507],[130.545793,-11.819007],[130.567773,-11.821046],[130.581643,-11.826936],[130.603662,-11.827085],[130.612542,-11.821155],[130.621542,-11.796695],[130.631622,-11.781855],[130.641149,-11.756259]]],[[[132.631276,-11.186196],[132.624446,-11.177256],[132.607306,-11.170646],[132.596976,-11.178746],[132.587826,-11.176906],[132.582016,-11.168756],[132.579726,-11.154166],[132.587846,-11.139406],[132.602366,-11.142846],[132.614416,-11.129726],[132.602336,-11.117766],[132.603526,-11.106026],[132.597956,-11.095496],[132.597456,-11.074146],[132.586766,-11.056716],[132.585486,-11.028026],[132.579156,-11.007336],[132.582716,-10.991896],[132.597356,-10.976386],[132.570526,-10.973406],[132.556756,-10.994316],[132.561656,-11.006716],[132.561716,-11.023206],[132.554006,-11.036386],[132.545526,-11.042456],[132.527226,-11.042626],[132.520776,-11.053556],[132.498237,-11.056976],[132.483737,-11.048226],[132.467107,-11.031896],[132.470207,-11.057776],[132.477507,-11.062206],[132.485687,-11.078386],[132.496787,-11.077296],[132.502477,-11.084996],[132.512186,-11.086616],[132.509177,-11.117126],[132.509937,-11.138226],[132.502117,-11.148696],[132.491797,-11.155216],[132.481637,-11.149416],[132.477707,-11.159225],[132.489547,-11.174856],[132.499537,-11.195226],[132.500637,-11.205056],[132.512627,-11.212326],[132.517957,-11.224546],[132.527537,-11.233276],[132.530587,-11.243566],[132.543256,-11.252306],[132.546026,-11.279086],[132.557556,-11.316176],[132.566096,-11.328746],[132.579596,-11.331506],[132.587566,-11.343616],[132.599746,-11.300066],[132.610096,-11.287336],[132.619376,-11.284766],[132.616086,-11.243986],[132.619216,-11.232136],[132.604276,-11.218756],[132.602716,-11.204746],[132.615146,-11.186146],[132.631276,-11.186196]]],[[[135.938027,-11.803383],[135.930586,-11.789243],[135.931746,-11.780323],[135.925556,-11.771503],[135.909846,-11.768203],[135.899996,-11.757684],[135.889326,-11.762194],[135.876486,-11.755624],[135.863507,-11.772784],[135.866017,-11.782734],[135.874147,-11.790654],[135.885507,-11.792134],[135.888937,-11.803214],[135.879407,-11.811004],[135.871577,-11.832464],[135.864797,-11.841044],[135.848157,-11.848704],[135.835657,-11.841454],[135.830238,-11.860994],[135.809898,-11.883004],[135.781288,-11.909634],[135.764868,-11.914805],[135.733959,-11.937925],[135.723749,-11.939255],[135.715029,-11.932575],[135.693679,-11.939205],[135.677739,-11.932735],[135.665789,-11.937005],[135.669789,-11.945945],[135.656779,-11.964905],[135.646899,-11.971435],[135.632079,-11.975025],[135.615569,-11.970466],[135.612369,-11.962096],[135.594709,-11.954946],[135.581489,-11.961246],[135.588819,-11.968496],[135.58524,-11.980006],[135.56441,-12.003856],[135.561581,-12.016671],[135.563635,-12.031975],[135.55418,-12.048396],[135.56439,-12.056996],[135.569671,-12.069096],[135.58207,-12.055416],[135.58965,-12.056766],[135.59425,-12.042746],[135.60538,-12.032916],[135.62467,-12.028845],[135.63707,-12.017875],[135.65842,-12.012105],[135.69239,-12.006895],[135.702839,-12.002255],[135.734859,-12.001675],[135.738479,-11.980525],[135.749169,-11.971845],[135.759159,-11.971295],[135.776019,-11.976524],[135.797619,-11.964684],[135.819118,-11.941664],[135.828538,-11.928794],[135.839818,-11.902364],[135.851658,-11.890294],[135.857988,-11.878434],[135.870847,-11.867604],[135.900697,-11.851473],[135.905407,-11.841993],[135.907837,-11.823573],[135.920467,-11.810033],[135.938027,-11.803383]]],[[[137.106234,-15.774001],[137.091194,-15.767561],[137.077084,-15.755141],[137.083034,-15.747911],[137.079544,-15.726001],[137.085494,-15.712911],[137.077574,-15.683771],[137.081194,-15.674171],[137.081664,-15.655771],[137.073034,-15.649441],[137.063104,-15.652701],[137.054504,-15.640401],[137.033644,-15.635191],[137.029804,-15.620171],[137.023754,-15.613961],[137.019914,-15.594871],[137.008854,-15.586731],[136.991374,-15.584462],[136.994504,-15.605132],[136.999964,-15.622862],[136.985854,-15.634142],[136.976764,-15.634472],[136.980475,-15.655032],[136.994454,-15.664532],[136.990724,-15.672882],[136.974525,-15.661122],[136.961025,-15.640102],[136.946895,-15.661552],[136.947925,-15.676002],[136.936605,-15.687283],[136.939515,-15.694743],[136.934495,-15.703663],[136.947655,-15.717673],[136.959095,-15.709892],[136.959895,-15.723112],[136.968405,-15.725372],[136.975295,-15.712842],[136.982825,-15.723572],[136.974575,-15.737572],[136.983775,-15.758132],[136.989375,-15.760622],[136.990055,-15.781062],[137.000425,-15.793832],[137.016285,-15.805582],[137.026625,-15.797662],[137.035655,-15.798032],[137.044045,-15.817232],[137.039255,-15.834392],[137.060845,-15.838472],[137.072865,-15.834402],[137.088494,-15.815661],[137.097714,-15.812051],[137.102734,-15.781231],[137.106234,-15.774001]]],[[[136.301884,-13.735435],[136.293834,-13.723325],[136.292494,-13.707505],[136.274005,-13.705526],[136.266655,-13.691946],[136.252325,-13.693026],[136.254355,-13.673716],[136.242705,-13.666786],[136.221805,-13.662426],[136.199615,-13.665286],[136.187446,-13.675177],[136.192506,-13.679606],[136.190636,-13.692756],[136.177146,-13.708576],[136.180896,-13.718276],[136.173616,-13.727426],[136.181666,-13.736266],[136.173646,-13.748326],[136.160896,-13.750686],[136.145216,-13.747427],[136.127966,-13.736357],[136.119416,-13.722477],[136.109167,-13.742207],[136.111257,-13.770567],[136.118907,-13.781317],[136.116467,-13.798377],[136.105647,-13.815847],[136.118537,-13.830127],[136.136207,-13.837086],[136.168246,-13.834606],[136.169226,-13.820606],[136.155246,-13.816826],[136.158876,-13.805546],[136.151306,-13.788566],[136.144727,-13.785386],[136.169066,-13.769206],[136.185656,-13.768176],[136.190316,-13.774486],[136.189086,-13.794806],[136.206256,-13.810996],[136.210466,-13.829566],[136.198496,-13.848046],[136.204706,-13.856885],[136.237705,-13.846715],[136.254635,-13.832085],[136.254325,-13.821245],[136.259915,-13.808045],[136.258825,-13.788275],[136.263505,-13.783145],[136.279165,-13.792185],[136.283685,-13.787005],[136.275505,-13.777935],[136.273945,-13.759975],[136.260225,-13.760715],[136.253875,-13.747706],[136.268245,-13.736905],[136.280375,-13.738305],[136.301884,-13.735435]]],[[[136.766619,-11.03281],[136.760689,-11.025111],[136.745809,-11.026991],[136.731469,-11.042211],[136.721059,-11.044101],[136.721029,-11.055181],[136.729479,-11.06141],[136.737569,-11.07601],[136.73057,-11.08311],[136.7271,-11.09723],[136.70881,-11.09097],[136.7073,-11.10079],[136.72215,-11.10987],[136.71582,-11.12466],[136.70666,-11.12509],[136.701021,-11.13818],[136.706671,-11.16791],[136.692671,-11.18234],[136.687261,-11.19272],[136.672412,-11.19701],[136.663472,-11.18407],[136.657292,-11.18495],[136.643602,-11.20989],[136.621722,-11.21344],[136.624662,-11.22893],[136.610063,-11.2472],[136.600973,-11.26378],[136.587874,-11.27889],[136.586344,-11.29184],[136.576895,-11.31626],[136.581335,-11.32396],[136.547776,-11.36499],[136.537836,-11.36861],[136.516757,-11.39393],[136.499988,-11.39858],[136.495298,-11.40649],[136.501938,-11.42477],[136.494748,-11.43779],[136.475979,-11.44797],[136.483889,-11.45655],[136.497629,-11.45654],[136.499968,-11.44179],[136.524088,-11.43272],[136.527488,-11.445049],[136.535968,-11.441909],[136.537658,-11.426099],[136.547028,-11.424539],[136.562887,-11.407639],[136.562327,-11.398509],[136.582046,-11.384499],[136.593796,-11.372359],[136.599605,-11.34758],[136.607755,-11.33816],[136.624274,-11.32691],[136.629594,-11.30975],[136.623764,-11.30363],[136.634214,-11.29484],[136.625083,-11.28433],[136.633343,-11.27766],[136.644893,-11.28233],[136.648383,-11.26347],[136.662123,-11.26418],[136.670292,-11.24669],[136.672192,-11.21969],[136.684682,-11.21334],[136.696362,-11.21388],[136.709091,-11.20702],[136.711641,-11.19471],[136.720001,-11.19382],[136.714661,-11.17652],[136.720291,-11.16648],[136.721711,-11.15089],[136.73698,-11.12776],[136.73437,-11.12007],[136.73911,-11.10054],[136.74415,-11.0975],[136.749459,-11.08135],[136.747069,-11.07321],[136.757539,-11.04872],[136.766619,-11.03281]]],[[[105.712597,-10.466971],[105.70537,-10.46123],[105.709317,-10.441823],[105.699765,-10.412356],[105.686031,-10.416476],[105.674449,-10.414195],[105.671017,-10.428076],[105.661801,-10.428302],[105.661184,-10.439083],[105.650384,-10.449382],[105.632314,-10.459905],[105.606063,-10.467134],[105.582832,-10.462648],[105.567702,-10.455786],[105.560728,-10.445849],[105.552081,-10.441833],[105.548248,-10.456764],[105.55622,-10.465906],[105.558244,-10.475743],[105.552388,-10.490985],[105.539997,-10.499286],[105.533377,-10.508994],[105.537285,-10.515667],[105.547609,-10.513178],[105.556523,-10.50394],[105.584488,-10.504766],[105.592471,-10.511839],[105.603076,-10.510858],[105.624283,-10.515119],[105.634602,-10.527409],[105.63728,-10.5533],[105.641033,-10.564728],[105.648518,-10.570192],[105.664912,-10.56842],[105.669068,-10.532715],[105.677702,-10.517857],[105.674267,-10.50175],[105.687409,-10.488284],[105.695999,-10.474018],[105.712597,-10.466971]]],[[[136.617327,-15.555366],[136.610417,-15.523836],[136.582947,-15.513936],[136.566817,-15.530606],[136.542217,-15.534607],[136.525328,-15.530947],[136.525658,-15.538397],[136.511068,-15.544567],[136.522078,-15.563017],[136.517128,-15.581188],[136.504508,-15.592098],[136.511698,-15.605208],[136.510928,-15.626348],[136.494948,-15.639708],[136.505478,-15.643488],[136.513878,-15.652788],[136.539177,-15.653768],[136.550887,-15.639868],[136.571727,-15.646178],[136.589687,-15.645317],[136.594287,-15.626017],[136.600127,-15.622187],[136.600767,-15.601867],[136.595327,-15.588747],[136.604837,-15.560876],[136.617327,-15.555366]]],[[[136.377192,-11.58406],[136.369062,-11.58067],[136.371681,-11.56553],[136.365491,-11.55435],[136.345671,-11.5634],[136.340632,-11.57786],[136.321042,-11.58577],[136.309232,-11.573011],[136.295482,-11.580131],[136.296752,-11.591881],[136.314172,-11.59278],[136.315092,-11.60385],[136.288152,-11.605781],[136.278982,-11.598321],[136.280012,-11.582961],[136.270962,-11.585331],[136.265112,-11.572561],[136.251702,-11.592451],[136.239793,-11.600361],[136.246093,-11.610641],[136.242543,-11.620251],[136.232913,-11.628271],[136.230733,-11.645671],[136.216403,-11.642501],[136.207353,-11.648831],[136.175253,-11.646452],[136.168143,-11.656512],[136.180864,-11.675151],[136.168484,-11.681592],[136.159534,-11.693002],[136.172494,-11.694251],[136.192334,-11.676171],[136.207693,-11.671431],[136.217213,-11.664541],[136.223743,-11.652901],[136.231653,-11.663521],[136.258823,-11.66216],[136.264443,-11.65934],[136.266273,-11.64476],[136.272233,-11.639],[136.270163,-11.627251],[136.289763,-11.62228],[136.292513,-11.63482],[136.300423,-11.63448],[136.316692,-11.61752],[136.338132,-11.6174],[136.339962,-11.60385],[136.352562,-11.59537],[136.365052,-11.59796],[136.377192,-11.58406]]],[[[136.837146,-15.687274],[136.831666,-15.685914],[136.823076,-15.658794],[136.815506,-15.659234],[136.794656,-15.644974],[136.780196,-15.648224],[136.775076,-15.643584],[136.758756,-15.640725],[136.754786,-15.645355],[136.734606,-15.648925],[136.735166,-15.660785],[136.740996,-15.672875],[136.736837,-15.697155],[136.751267,-15.712775],[136.743217,-15.717385],[136.728487,-15.734745],[136.727647,-15.747175],[136.732167,-15.758026],[136.740337,-15.759505],[136.746187,-15.749915],[136.764037,-15.745545],[136.776517,-15.746355],[136.791477,-15.728655],[136.804436,-15.723814],[136.793736,-15.702564],[136.779516,-15.701305],[136.791066,-15.684344],[136.804966,-15.686884],[136.801796,-15.695124],[136.813806,-15.700344],[136.824196,-15.688274],[136.837146,-15.687274]]],[[[136.317197,-11.992519],[136.309277,-11.99105],[136.302387,-11.97286],[136.291257,-11.97852],[136.285737,-11.97411],[136.271527,-12.00238],[136.244588,-12.01646],[136.237958,-12.0245],[136.223378,-12.027021],[136.217628,-12.035931],[136.203988,-12.026841],[136.199258,-12.015991],[136.207848,-12.008171],[136.203928,-12.000501],[136.187208,-12.017371],[136.173788,-12.018871],[136.172658,-12.029951],[136.160358,-12.040381],[136.146278,-12.037691],[136.141668,-12.029001],[136.129048,-12.034112],[136.147798,-12.057251],[136.138168,-12.060541],[136.126338,-12.057972],[136.128318,-12.073682],[136.151838,-12.066401],[136.165158,-12.066601],[136.178028,-12.076861],[136.194678,-12.076601],[136.195798,-12.063371],[136.210358,-12.055531],[136.219198,-12.057101],[136.231468,-12.05176],[136.242808,-12.04178],[136.271718,-12.03403],[136.288218,-12.0211],[136.308627,-12.01269],[136.317197,-11.992519]]],[[[136.205914,-13.454747],[136.195184,-13.453347],[136.177114,-13.437577],[136.180394,-13.426297],[136.161844,-13.417417],[136.145914,-13.388437],[136.127034,-13.374578],[136.133424,-13.393128],[136.134294,-13.406458],[136.141754,-13.419147],[136.130404,-13.428477],[136.128624,-13.439087],[136.135964,-13.452557],[136.131435,-13.465627],[136.123875,-13.472277],[136.132125,-13.488017],[136.131505,-13.498627],[136.143435,-13.500477],[136.150055,-13.511017],[136.141695,-13.521597],[136.141195,-13.530747],[136.128805,-13.538497],[136.136155,-13.549257],[136.135205,-13.557387],[136.147195,-13.561727],[136.145985,-13.546247],[136.152905,-13.519387],[136.165015,-13.523947],[136.167725,-13.509837],[136.162915,-13.498417],[136.149145,-13.495327],[136.143565,-13.487157],[136.142125,-13.470317],[136.160674,-13.479767],[136.181294,-13.463577],[136.194194,-13.472547],[136.200324,-13.468507],[136.205914,-13.454747]]],[[[133.481727,-11.615863],[133.473717,-11.595073],[133.467187,-11.591333],[133.444827,-11.592563],[133.423857,-11.585543],[133.404937,-11.587784],[133.392998,-11.603254],[133.377168,-11.612954],[133.349518,-11.623434],[133.352378,-11.632934],[133.364858,-11.642774],[133.358758,-11.664915],[133.370208,-11.681545],[133.390058,-11.671054],[133.396017,-11.673544],[133.402337,-11.659764],[133.386878,-11.640654],[133.412467,-11.625084],[133.418537,-11.635034],[133.434137,-11.629164],[133.446647,-11.617084],[133.473817,-11.620363],[133.481727,-11.615863]]],[[[136.904895,-15.588552],[136.890685,-15.579613],[136.888255,-15.565712],[136.880475,-15.546282],[136.873765,-15.516342],[136.862585,-15.512373],[136.858495,-15.521293],[136.860455,-15.532703],[136.843315,-15.539673],[136.841655,-15.557403],[136.852595,-15.569843],[136.855835,-15.581823],[136.839046,-15.591623],[136.839476,-15.613423],[136.847026,-15.630373],[136.844326,-15.641323],[136.867416,-15.639883],[136.882115,-15.631093],[136.875365,-15.617193],[136.861975,-15.607353],[136.884825,-15.604783],[136.904895,-15.588552]]],[[[136.056024,-11.653073],[136.048924,-11.644253],[136.034934,-11.647303],[136.024164,-11.639043],[136.009834,-11.648413],[135.986094,-11.657543],[135.952715,-11.678533],[135.950175,-11.696043],[135.959335,-11.704753],[135.968625,-11.706793],[135.993385,-11.719243],[136.013005,-11.699823],[136.050064,-11.655333],[136.056024,-11.653073]]],[[[134.929383,-12.09225],[134.918653,-12.075281],[134.906383,-12.065451],[134.880283,-12.061391],[134.853913,-12.040951],[134.846973,-12.047451],[134.854663,-12.060391],[134.863213,-12.066071],[134.866443,-12.075141],[134.862833,-12.086201],[134.866553,-12.103581],[134.863734,-12.109031],[134.869064,-12.125941],[134.904654,-12.137371],[134.914324,-12.127441],[134.918203,-12.112711],[134.924437,-12.108903],[134.929383,-12.09225]]],[[[136.541708,-13.771822],[136.531719,-13.752282],[136.538558,-13.738902],[136.534229,-13.720103],[136.528289,-13.713263],[136.530929,-13.703463],[136.517759,-13.702433],[136.514589,-13.718563],[136.50116,-13.720553],[136.49518,-13.713383],[136.47246,-13.725283],[136.466351,-13.737603],[136.47429,-13.751403],[136.4904,-13.759243],[136.4948,-13.776293],[136.507869,-13.788572],[136.520229,-13.792622],[136.541708,-13.771822]]],[[[132.421983,-12.116853],[132.415343,-12.105433],[132.414794,-12.092223],[132.401394,-12.076163],[132.377534,-12.072953],[132.360874,-12.083083],[132.339754,-12.081463],[132.339154,-12.093313],[132.350944,-12.108923],[132.361614,-12.114033],[132.366414,-12.123973],[132.387504,-12.138923],[132.400583,-12.141543],[132.411263,-12.138293],[132.421983,-12.116853]]],[[[133.493487,-11.513603],[133.493037,-11.505582],[133.481588,-11.496192],[133.474718,-11.471332],[133.466588,-11.464312],[133.455008,-11.469512],[133.450648,-11.477192],[133.423588,-11.490613],[133.394488,-11.487653],[133.391728,-11.494433],[133.401578,-11.506193],[133.398008,-11.523253],[133.402928,-11.529133],[133.416458,-11.526773],[133.424838,-11.511413],[133.440768,-11.505543],[133.459218,-11.516413],[133.478817,-11.517213],[133.493487,-11.513603]]],[[[135.768471,-14.880515],[135.765541,-14.860955],[135.759322,-14.847655],[135.747502,-14.836555],[135.730532,-14.836796],[135.719502,-14.841896],[135.710572,-14.857056],[135.721002,-14.860435],[135.716892,-14.882165],[135.709672,-14.882615],[135.700382,-14.893585],[135.698182,-14.905005],[135.707962,-14.912915],[135.716432,-14.902395],[135.732112,-14.892195],[135.738862,-14.898865],[135.753152,-14.895905],[135.764091,-14.901775],[135.768471,-14.880515]]],[[[136.473929,-11.46898],[136.466599,-11.46888],[136.44725,-11.48516],[136.44944,-11.49239],[136.43638,-11.49545],[136.42126,-11.508],[136.42184,-11.51297],[136.40833,-11.52281],[136.386101,-11.52542],[136.381761,-11.54632],[136.366751,-11.55198],[136.374201,-11.56564],[136.389211,-11.56021],[136.404451,-11.54755],[136.419341,-11.54268],[136.425871,-11.53669],[136.44901,-11.53193],[136.45152,-11.51916],[136.46606,-11.50526],[136.4617,-11.49859],[136.471539,-11.4839],[136.473929,-11.46898]]],[[[130.544335,-12.704475],[130.539024,-12.692385],[130.541664,-12.679845],[130.530144,-12.667755],[130.529794,-12.659055],[130.517824,-12.650585],[130.515963,-12.632845],[130.503633,-12.604264],[130.522372,-12.573074],[130.510402,-12.565394],[130.508112,-12.574204],[130.485333,-12.585225],[130.492823,-12.590865],[130.494793,-12.605115],[130.486644,-12.623655],[130.499214,-12.645465],[130.515294,-12.652855],[130.524044,-12.661775],[130.527054,-12.684705],[130.525565,-12.702116],[130.535585,-12.709786],[130.544335,-12.704475]]],[[[134.990602,-12.03525],[134.981412,-12.03433],[134.954352,-12.01423],[134.928352,-12.021041],[134.911942,-12.021871],[134.910913,-12.033971],[134.932823,-12.044281],[134.939053,-12.05915],[134.960463,-12.0646],[134.963313,-12.05089],[134.986862,-12.0406],[134.990602,-12.03525]]],[[[136.627552,-11.741177],[136.614942,-11.737757],[136.605172,-11.745187],[136.588992,-11.746727],[136.587683,-11.764577],[136.567373,-11.770277],[136.559083,-11.780987],[136.543073,-11.778937],[136.532153,-11.769617],[136.529474,-11.782717],[136.515704,-11.786858],[136.521394,-11.801107],[136.547694,-11.792037],[136.569263,-11.792207],[136.589243,-11.782657],[136.586753,-11.769767],[136.600093,-11.758277],[136.614562,-11.753117],[136.627552,-11.741177]]],[[[136.499824,-11.818508],[136.491434,-11.802588],[136.478144,-11.810168],[136.479874,-11.819098],[136.469675,-11.827688],[136.468435,-11.850508],[136.473945,-11.858868],[136.460535,-11.866558],[136.462605,-11.879668],[136.457885,-11.889858],[136.464126,-11.904068],[136.479145,-11.898748],[136.486245,-11.884157],[136.482315,-11.856827],[136.477945,-11.846658],[136.499824,-11.818508]]],[[[135.122591,-11.928549],[135.102541,-11.919999],[135.091061,-11.921079],[135.082701,-11.916079],[135.069251,-11.922469],[135.057091,-11.91925],[135.047021,-11.94068],[135.056951,-11.95451],[135.065341,-11.950249],[135.080961,-11.949409],[135.088911,-11.941189],[135.107501,-11.942279],[135.122591,-11.928549]]],[[[130.075006,-13.17124],[130.057656,-13.15206],[130.049116,-13.15061],[130.034587,-13.15482],[130.020837,-13.14072],[130.024717,-13.1198],[130.016867,-13.11405],[130.020437,-13.17982],[130.041097,-13.18317],[130.054127,-13.17727],[130.068106,-13.18244],[130.075006,-13.17124]]],[[[131.071968,-12.117139],[131.064776,-12.104932],[131.043835,-12.093681],[131.023474,-12.099158],[131.015252,-12.109526],[131.001912,-12.117385],[131.010853,-12.123283],[131.032658,-12.130107],[131.058807,-12.126644],[131.071968,-12.117139]]],[[[132.149329,-11.606282],[132.138419,-11.590192],[132.134979,-11.568942],[132.121939,-11.564812],[132.11709,-11.573022],[132.1208,-11.585012],[132.11947,-11.597882],[132.10931,-11.612162],[132.11337,-11.623812],[132.13397,-11.627202],[132.149329,-11.606282]]],[[[136.827758,-12.135233],[136.821937,-12.115464],[136.823387,-12.079784],[136.811337,-12.078184],[136.797077,-12.088774],[136.801307,-12.097134],[136.796247,-12.106054],[136.803308,-12.131694],[136.814318,-12.141084],[136.827758,-12.135233]]],[[[136.840575,-15.577173],[136.833155,-15.555473],[136.826035,-15.560543],[136.807516,-15.558143],[136.793056,-15.560034],[136.786866,-15.568954],[136.796886,-15.573144],[136.801646,-15.582414],[136.835676,-15.584843],[136.840575,-15.577173]]],[[[131.064796,-12.037579],[131.052726,-12.030819],[131.039416,-12.031979],[131.012566,-12.041189],[131.001917,-12.052389],[131.032466,-12.058319],[131.062866,-12.046839],[131.064796,-12.037579]]],[[[136.432445,-11.881728],[136.426925,-11.872008],[136.418555,-11.874048],[136.409715,-11.863548],[136.398486,-11.889768],[136.381406,-11.898599],[136.385996,-11.906609],[136.408816,-11.893608],[136.431536,-11.894268],[136.432445,-11.881728]]],[[[136.1561,-12.190171],[136.13803,-12.169642],[136.12989,-12.177682],[136.11898,-12.174872],[136.10566,-12.180662],[136.10845,-12.197842],[136.12407,-12.198722],[136.12889,-12.194862],[136.15151,-12.194481],[136.1561,-12.190171]]],[[[132.919843,-11.168825],[132.914033,-11.158755],[132.914643,-11.143275],[132.895763,-11.140075],[132.876753,-11.146695],[132.863263,-11.139545],[132.860033,-11.151055],[132.871923,-11.156055],[132.880473,-11.169525],[132.897313,-11.159955],[132.919843,-11.168825]]],[[[131.127076,-12.062619],[131.123836,-12.055289],[131.098346,-12.052749],[131.064976,-12.066039],[131.070846,-12.073029],[131.099896,-12.076019],[131.119866,-12.071899],[131.127076,-12.062619]]],[[[129.732061,-14.804138],[129.701411,-14.789168],[129.673651,-14.783138],[129.671191,-14.789348],[129.698121,-14.809508],[129.719851,-14.813268],[129.732061,-14.804138]]],[[[136.373053,-13.825564],[136.367083,-13.811544],[136.352743,-13.812174],[136.335833,-13.834254],[136.335423,-13.843754],[136.368853,-13.841814],[136.373053,-13.825564]]],[[[134.865383,-12.026931],[134.855493,-12.013681],[134.835573,-12.007081],[134.826853,-12.020282],[134.829333,-12.027941],[134.849513,-12.037481],[134.865383,-12.026931]]],[[[135.978115,-11.737083],[135.975595,-11.731323],[135.952666,-11.732653],[135.952426,-11.742153],[135.941186,-11.741003],[135.937276,-11.749253],[135.940016,-11.763943],[135.952746,-11.763393],[135.966866,-11.753573],[135.968136,-11.745323],[135.978115,-11.737083]]],[[[131.135481,-12.014671],[131.127138,-12.000961],[131.083883,-12.014536],[131.100006,-12.022929],[131.111884,-12.023833],[131.135481,-12.014671]]],[[[135.992707,-11.852012],[135.982267,-11.848053],[135.976527,-11.857883],[135.957697,-11.868713],[135.941507,-11.881803],[135.956867,-11.898993],[135.962157,-11.887023],[135.974797,-11.870423],[135.980657,-11.856643],[135.992707,-11.852012]]],[[[133.016762,-11.067574],[132.987732,-11.052604],[132.994182,-11.087524],[133.005392,-11.086534],[133.016762,-11.067574]]],[[[132.324278,-11.581283],[132.319958,-11.573923],[132.303518,-11.563803],[132.295728,-11.586683],[132.300268,-11.594503],[132.314678,-11.600213],[132.324278,-11.581283]]],[[[130.396427,-12.626567],[130.385607,-12.617417],[130.377777,-12.616737],[130.364898,-12.624997],[130.370548,-12.643427],[130.386428,-12.643077],[130.396317,-12.633007],[130.396427,-12.626567]]],[[[136.047539,-12.101522],[136.035589,-12.092602],[136.026079,-12.103583],[136.028969,-12.120543],[136.026139,-12.144513],[136.031999,-12.145523],[136.040789,-12.117242],[136.036989,-12.106052],[136.047539,-12.101522]]],[[[136.155414,-11.696282],[136.145784,-11.684302],[136.140624,-11.697632],[136.125254,-11.711182],[136.130864,-11.725312],[136.141184,-11.720122],[136.153914,-11.705772],[136.155414,-11.696282]]],[[[136.109125,-13.464988],[136.101315,-13.455018],[136.077555,-13.449158],[136.076005,-13.462028],[136.084955,-13.474038],[136.106445,-13.471648],[136.109125,-13.464988]]],[[[136.819326,-15.604463],[136.813156,-15.596103],[136.791256,-15.590644],[136.778986,-15.609144],[136.801126,-15.609064],[136.819326,-15.604463]]],[[[130.434365,-12.579846],[130.429405,-12.568426],[130.420655,-12.563576],[130.410875,-12.567086],[130.405886,-12.578686],[130.416766,-12.592066],[130.434365,-12.579846]]],[[[135.630353,-14.496197],[135.624893,-14.488407],[135.603083,-14.490337],[135.601233,-14.503297],[135.612033,-14.518257],[135.630353,-14.496197]]],[[[134.831333,-12.045331],[134.815473,-12.030442],[134.809833,-12.016702],[134.803143,-12.012912],[134.795583,-12.028362],[134.803243,-12.037222],[134.831333,-12.045331]]],[[[132.682305,-11.189186],[132.670425,-11.184066],[132.653105,-11.193956],[132.655815,-11.207516],[132.674605,-11.198656],[132.682305,-11.189186]]],[[[96.863817,-12.199688],[96.846724,-12.205866],[96.830377,-12.182093],[96.827382,-12.187507],[96.839892,-12.20415],[96.848841,-12.206831],[96.863817,-12.199688]]],[[[130.109726,-13.221449],[130.101936,-13.194009],[130.090966,-13.192789],[130.086606,-13.201269],[130.087776,-13.212679],[130.097606,-13.221249],[130.109726,-13.221449]]],[[[135.003233,-12.09164],[134.997853,-12.07227],[134.984473,-12.06584],[134.984483,-12.07895],[134.989573,-12.09383],[135.003233,-12.09164]]],[[[136.682624,-13.658801],[136.667295,-13.654331],[136.668715,-13.663831],[136.661215,-13.674271],[136.665975,-13.684711],[136.676245,-13.678881],[136.682624,-13.658801]]],[[[136.681306,-15.605335],[136.666526,-15.595136],[136.654756,-15.593636],[136.649016,-15.604236],[136.662056,-15.610596],[136.681306,-15.605335]]],[[[132.360224,-12.170493],[132.358414,-12.160213],[132.350384,-12.157713],[132.344494,-12.172152],[132.345844,-12.184242],[132.358704,-12.184493],[132.360224,-12.170493]]],[[[136.248385,-13.595416],[136.245415,-13.584226],[136.221135,-13.586657],[136.225165,-13.600656],[136.236225,-13.603056],[136.248385,-13.595416]]],[[[130.416196,-12.595006],[130.409516,-12.584046],[130.397086,-12.581796],[130.391797,-12.587107],[130.400667,-12.601807],[130.416196,-12.595006]]],[[[136.962594,-13.626867],[136.949254,-13.633997],[136.933315,-13.634437],[136.927665,-13.647377],[136.952184,-13.643277],[136.962594,-13.626867]]],[[[136.829616,-15.730744],[136.818776,-15.723844],[136.799176,-15.729115],[136.807077,-15.746075],[136.817716,-15.730614],[136.829616,-15.730744]]],[[[136.071371,-12.276932],[136.062311,-12.283272],[136.048061,-12.284882],[136.043612,-12.300492],[136.054992,-12.303982],[136.056351,-12.291542],[136.065301,-12.289262],[136.071371,-12.276932]]],[[[136.459196,-11.904748],[136.446576,-11.903178],[136.434886,-11.919348],[136.453816,-11.917408],[136.459196,-11.904748]]],[[[134.185286,-12.096108],[134.182816,-12.086969],[134.172666,-12.089399],[134.164766,-12.100999],[134.172076,-12.112479],[134.185286,-12.096108]]],[[[136.104715,-11.747112],[136.086595,-11.748122],[136.077645,-11.752752],[136.081305,-11.772182],[136.092215,-11.754452],[136.104715,-11.747112]]],[[[134.959423,-12.08801],[134.956543,-12.07493],[134.943173,-12.06985],[134.950283,-12.09217],[134.959423,-12.08801]]],[[[132.877233,-11.047274],[132.858583,-11.044854],[132.855573,-11.059875],[132.871493,-11.053244],[132.877233,-11.047274]]],[[[136.210563,-11.635051],[136.204943,-11.627021],[136.206093,-11.617421],[136.193373,-11.613802],[136.195433,-11.629851],[136.210563,-11.635051]]],[[[136.837568,-11.664256],[136.833908,-11.656566],[136.823708,-11.658686],[136.817368,-11.673026],[136.824818,-11.676206],[136.837568,-11.664256]]],[[[136.602787,-13.657922],[136.586297,-13.653812],[136.575547,-13.667042],[136.591257,-13.667532],[136.602787,-13.657922]]],[[[136.688613,-11.822126],[136.651414,-11.834796],[136.669764,-11.836656],[136.688613,-11.822126]]],[[[135.169919,-11.704059],[135.162029,-11.697929],[135.157139,-11.686159],[135.150139,-11.687599],[135.156499,-11.705709],[135.169919,-11.704059]]],[[[132.803154,-11.388587],[132.796064,-11.386427],[132.779154,-11.373267],[132.780134,-11.389427],[132.787464,-11.388207],[132.798554,-11.395017],[132.803154,-11.388587]]],[[[136.122792,-11.544183],[136.113392,-11.545193],[136.106052,-11.559093],[136.113042,-11.566213],[136.121062,-11.554803],[136.122792,-11.544183]]],[[[136.096863,-13.301698],[136.094573,-13.297178],[136.077964,-13.298008],[136.083564,-13.309438],[136.091864,-13.310828],[136.096863,-13.301698]]],[[[136.090913,-11.584053],[136.077273,-11.586763],[136.085513,-11.601683],[136.090913,-11.584053]]],[[[136.71275,-12.217115],[136.709109,-12.203675],[136.700712,-12.211474],[136.700228,-12.228824],[136.71275,-12.217115]]],[[[136.420052,-13.632435],[136.417072,-13.621805],[136.398473,-13.622545],[136.402952,-13.631715],[136.420052,-13.632435]]],[[[130.408387,-12.608127],[130.391687,-12.600787],[130.388017,-12.610857],[130.401827,-12.615137],[130.408387,-12.608127]]],[[[136.400763,-13.714154],[136.391563,-13.699114],[136.384133,-13.711174],[136.400763,-13.714154]]],[[[131.96489,-11.483821],[131.95439,-11.472501],[131.94853,-11.480841],[131.96019,-11.488321],[131.96489,-11.483821]]],[[[131.357264,-12.109059],[131.350445,-12.096099],[131.344275,-12.104699],[131.357264,-12.109059]]]]},"bbox":[96.827382,-25.999482,138.001198,-10.412356]},
{"properties":{"electorateShortName":"solomon","electorateName":"Solomon","area":190.61,"state":"NT"},"type":"Feature","geometry":{"type":"Polygon","coordinates":[[[130.955869,-12.534051],[130.96695,-12.53465],[130.976844,-12.541256],[130.982029,-12.532219],[130.981308,-12.521742],[130.992512,-12.514959],[130.999199,-12.502248],[131.000654,-12.488903],[130.990047,-12.480963],[130.973124,-12.460946],[130.950965,-12.443354],[130.923422,-12.433098],[130.923421,-12.409646],[130.938213,-12.409601],[130.938488,-12.365505],[130.936876,-12.342998],[130.924077,-12.34277],[130.909407,-12.3379],[130.896927,-12.33006],[130.870537,-12.35541],[130.861147,-12.37578],[130.852934,-12.373968],[130.841139,-12.380913],[130.848725,-12.390553],[130.845843,-12.402603],[130.837721,-12.411611],[130.828218,-12.41163],[130.83556,-12.427287],[130.827876,-12.449318],[130.844301,-12.473711],[130.851921,-12.470534],[130.852739,-12.448424],[130.881898,-12.46453],[130.891918,-12.472761],[130.893088,-12.481901],[130.902178,-12.487761],[130.908838,-12.480861],[130.925858,-12.482971],[130.940858,-12.504291],[130.941928,-12.521801],[130.955869,-12.534051]]]},"bbox":[130.827876,-12.541256,131.000654,-12.33006]}],"bbox":[96.827382,-25.999482,138.001198,-10.412356]}