{"type":"FeatureCollection","features":[
{"properties":{"electorateShortName":"brand","electorateName":"Brand","area":377.340612,"state":"WA"},"type":"Feature","geometry":{"type":"Polygon","coordinates":[[[115.747816,-32.455643],[115.857725,-32.444576],[115.834949,-32.37879],[115.889645,-32.291934],[115.885334,-32.203956],[115.898546,-32.180241],[115.774924,-32.181389],[115.712858,-32.370174],[115.744135,-32.404004],[115.747816,-32.455643]]]},"bbox":[115.712858,-32.455643,115.898546,-32.180241]},
{"properties":{"electorateShortName":"canning","electorateName":"Canning","area":6304.282687,"state":"WA"},"type":"Feature","geometry":{"type":"Polygon","coordinates":[[[116.208891,-33.030373],[116.284449,-33.030262],[116.409406,-32.994578],[116.409452,-33.085823],[116.469049,-33.062039],[116.568113,-33.061172],[116.578354,-33.008567],[116.617707,-32.981815],[116.617499,-32.907765],[116.650012,-32.907795],[116.654314,-32.781779],[116.590653,-32.77175],[116.521273,-32.688977],[116.440194,-32.574181],[116.359596,-32.498093],[116.259682,-32.498103],[116.259679,-32.389635],[116.189706,-32.287429],[116.224901,-32.235885],[116.35808,-32.23635],[116.312437,-32.171092],[116.285558,-32.173122],[116.288879,-32.062154],[116.250103,-32.019753],[116.138465,-32.010052],[116.002678,-32.023481],[115.997811,-32.065682],[116.050119,-32.121282],[116.015818,-32.186556],[115.898628,-32.18024],[115.898546,-32.180241],[115.885334,-32.203956],[115.889645,-32.291934],[115.834949,-32.37879],[115.857725,-32.444576],[115.747816,-32.455643],[115.727917,-32.516497],[115.700593,-32.520285],[115.633002,-32.594595],[115.606972,-32.684929],[115.632637,-32.833887],[115.65846,-32.933052],[115.763772,-32.921983],[115.94005,-32.941049],[116.163983,-32.933621],[116.208859,-32.984207],[116.208891,-33.030373]]]},"bbox":[115.606972,-33.085823,116.654314,-32.010052]},
{"properties":{"electorateShortName":"cowan","electorateName":"Cowan","area":179.897853,"state":"WA"},"type":"Feature","geometry":{"type":"Polygon","coordinates":[[[115.965103,-31.861983],[115.962736,-31.795663],[115.88283,-31.795638],[115.883271,-31.720456],[115.829292,-31.733511],[115.773748,-31.717249],[115.816815,-31.799718],[115.796752,-31.845875],[115.87829,-31.867862],[115.955944,-31.887658],[115.965103,-31.861983]]]},"bbox":[115.773748,-31.887658,115.965103,-31.717249]},
{"properties":{"electorateShortName":"curtin","electorateName":"Curtin","area":97.821263,"state":"WA"},"type":"Feature","geometry":{"type":"Polygon","coordinates":[[[115.838086,-31.991159],[115.823045,-31.914195],[115.800677,-31.882535],[115.754493,-31.894212],[115.750871,-32.021603],[115.775886,-32.026464],[115.838086,-31.991159]]]},"bbox":[115.750871,-32.026464,115.838086,-31.882535]},
{"properties":{"electorateShortName":"durack","electorateName":"Durack","area":1629857.717,"state":"WA"},"type":"Feature","geometry":{"type":"MultiPolygon","coordinates":[[[[129.001306,-23.431919],[129.001302,-22.998575],[129.001267,-22.248443],[129.001015,-21.998576],[129.000492,-21.232009],[129.001289,-20.998579],[129.001279,-19.998565],[129.000522,-19.083935],[129.000513,-18.682594],[129.000509,-18.240778],[129.000493,-17.667988],[129.000497,-17.372407],[129.00049,-16.781258],[129.000486,-16.199584],[129.000483,-15.608673],[129.001242,-14.879473],[128.911402,-14.856333],[128.800783,-14.855873],[128.738404,-14.839283],[128.678874,-14.795782],[128.603464,-14.804782],[128.542665,-14.770512],[128.436395,-14.812151],[128.439065,-14.851941],[128.477134,-14.911612],[128.401045,-14.938512],[128.354835,-14.887401],[128.289216,-14.974082],[128.228166,-15.003152],[128.194027,-15.093513],[128.221067,-15.130853],[128.220238,-15.203753],[128.271008,-15.271304],[128.258018,-15.306325],[128.188169,-15.228784],[128.128299,-15.183684],[128.11164,-15.239254],[128.128171,-15.291725],[128.11867,-15.415576],[128.08936,-15.390305],[128.067131,-15.335325],[128.082401,-15.285745],[128.097609,-15.164854],[128.074948,-15.103994],[128.113357,-14.993273],[128.110816,-14.936302],[128.157696,-14.840559],[128.183877,-14.744259],[128.130907,-14.66414],[128.086867,-14.64621],[128.014096,-14.569825],[127.962707,-14.590376],[127.931777,-14.556775],[127.943436,-14.522254],[127.854647,-14.486534],[127.819757,-14.440574],[127.828427,-14.402544],[127.788277,-14.388424],[127.779667,-14.333224],[127.670388,-14.195967],[127.503158,-14.072758],[127.449119,-14.054059],[127.455478,-13.980239],[127.347398,-13.906579],[127.305599,-13.95386],[127.265579,-13.90193],[127.226629,-13.94252],[127.16981,-13.91064],[127.1373,-13.974241],[127.06935,-13.896161],[127.08142,-13.839971],[127.01105,-13.822662],[126.984139,-13.756761],[126.931959,-13.741422],[126.881,-13.748662],[126.792651,-13.785563],[126.745722,-13.788923],[126.772811,-13.860723],[126.809481,-13.916793],[126.856951,-13.940923],[126.817372,-13.982073],[126.761812,-13.973593],[126.701862,-14.021224],[126.754752,-14.047863],[126.720363,-14.089854],[126.649604,-14.131425],[126.575465,-14.228705],[126.562614,-14.169996],[126.515445,-14.157416],[126.499484,-14.100186],[126.456894,-14.099326],[126.539223,-13.964375],[126.464884,-14.005626],[126.393904,-14.017746],[126.300928,-14.140187],[126.357087,-14.186897],[126.25745,-14.237917],[126.22476,-14.221408],[126.179398,-14.130359],[126.221697,-14.110478],[126.175176,-14.057949],[126.217475,-14.042929],[126.200375,-14.006039],[126.151355,-14.00966],[126.132355,-13.94449],[126.074915,-13.91575],[126.072786,-13.962491],[126.095626,-14.01477],[126.029287,-14.034671],[126.022678,-14.09139],[126.100497,-14.07496],[126.152198,-14.125679],[126.157299,-14.178528],[126.12779,-14.233048],[126.057671,-14.246859],[126.082891,-14.303509],[126.045812,-14.35916],[125.996134,-14.39637],[126.047843,-14.48051],[126.041913,-14.53672],[126.000293,-14.55499],[125.964754,-14.51923],[125.903864,-14.56442],[125.934304,-14.62155],[125.902174,-14.63393],[125.857494,-14.61344],[125.849274,-14.55916],[125.802115,-14.4723],[125.714256,-14.481967],[125.661604,-14.445623],[125.676044,-14.360327],[125.710573,-14.300925],[125.673773,-14.290226],[125.629212,-14.233576],[125.589942,-14.244537],[125.587904,-14.357856],[125.620084,-14.413364],[125.595155,-14.466911],[125.606295,-14.509268],[125.506116,-14.517595],[125.465226,-14.545461],[125.437247,-14.594601],[125.405627,-14.544831],[125.374447,-14.575771],[125.335667,-14.555772],[125.282477,-14.578602],[125.287848,-14.628982],[125.248768,-14.684722],[125.228318,-14.663192],[125.146709,-14.752173],[125.197739,-14.791223],[125.209439,-14.855063],[125.274109,-14.858232],[125.316609,-14.895442],[125.277989,-14.931343],[125.230709,-14.919133],[125.213719,-14.969813],[125.278739,-14.959303],[125.285599,-14.999193],[125.371139,-14.996682],[125.399389,-15.067282],[125.375949,-15.116982],[125.385399,-15.144152],[125.31512,-15.154663],[125.23102,-15.102163],[125.17175,-15.144293],[125.05901,-15.028274],[125.01895,-15.007954],[125.034991,-15.102154],[124.974441,-15.135314],[124.895172,-15.113514],[124.849122,-15.149794],[124.865912,-15.235955],[124.907942,-15.245664],[124.876142,-15.305305],[124.920082,-15.356465],[125.026372,-15.300314],[125.102851,-15.305454],[125.083932,-15.404904],[125.062622,-15.460934],[125.026223,-15.491354],[124.990322,-15.425835],[124.952562,-15.386305],[124.849473,-15.335425],[124.798493,-15.299515],[124.770573,-15.302065],[124.719723,-15.261615],[124.690543,-15.274895],[124.661984,-15.354946],[124.696433,-15.353296],[124.668904,-15.428606],[124.677064,-15.478196],[124.617854,-15.466096],[124.603024,-15.505226],[124.554674,-15.502796],[124.517204,-15.468627],[124.483155,-15.475497],[124.430075,-15.560787],[124.435596,-15.637698],[124.402466,-15.685178],[124.392146,-15.745538],[124.415626,-15.872288],[124.483296,-15.887108],[124.479296,-15.925078],[124.516376,-15.979718],[124.599745,-15.820257],[124.675485,-15.777966],[124.716515,-15.793486],[124.712865,-15.835956],[124.656075,-15.854387],[124.582496,-16.001438],[124.589036,-16.113358],[124.560716,-16.119458],[124.516996,-16.171009],[124.468946,-16.102569],[124.432266,-16.182029],[124.383067,-16.22727],[124.418787,-16.35899],[124.480476,-16.35644],[124.570956,-16.32929],[124.673426,-16.350389],[124.703356,-16.401319],[124.452377,-16.40649],[124.387487,-16.34562],[124.340597,-16.424491],[124.256728,-16.409591],[124.224718,-16.417551],[124.169798,-16.305801],[124.124448,-16.280432],[123.990609,-16.260132],[123.941719,-16.289073],[123.98038,-16.347443],[123.97571,-16.378943],[123.9058,-16.335163],[123.825361,-16.322823],[123.79055,-16.200473],[123.738379,-16.152773],[123.67061,-16.151934],[123.63111,-16.174994],[123.5749,-16.169424],[123.56674,-16.203495],[123.59945,-16.247304],[123.550201,-16.283154],[123.596101,-16.318033],[123.640321,-16.308693],[123.697421,-16.337533],[123.697213,-16.414851],[123.667413,-16.4345],[123.540362,-16.394534],[123.512912,-16.424014],[123.599233,-16.448731],[123.625213,-16.49044],[123.583003,-16.519362],[123.507942,-16.490554],[123.491002,-16.546015],[123.615142,-16.554332],[123.507271,-16.657736],[123.61776,-16.679497],[123.717589,-16.784868],[123.76872,-16.888688],[123.79612,-16.911838],[123.855909,-16.892497],[123.891369,-16.907217],[123.82687,-16.957277],[123.796449,-17.004007],[123.817891,-17.054487],[123.829603,-17.134649],[123.807264,-17.169159],[123.761123,-17.087749],[123.704423,-17.042679],[123.660033,-17.039649],[123.642932,-16.997789],[123.585064,-17.0349],[123.587615,-17.092841],[123.646226,-17.183951],[123.623806,-17.198661],[123.602928,-17.339401],[123.573848,-17.367192],[123.582759,-17.424752],[123.571268,-17.512181],[123.545078,-17.496361],[123.52419,-17.433202],[123.48328,-17.397063],[123.459279,-17.350613],[123.388768,-17.307613],[123.383408,-17.240033],[123.344578,-17.162732],[123.290602,-17.107721],[123.278176,-17.035544],[123.234835,-16.969948],[123.148254,-16.920208],[123.163393,-16.858986],[123.156963,-16.805666],[123.110623,-16.783917],[123.103453,-16.745297],[123.050614,-16.690788],[122.968734,-16.56188],[123.000424,-16.52715],[122.991924,-16.45677],[123.047244,-16.462969],[123.018264,-16.40883],[122.924874,-16.397131],[122.901524,-16.434981],[122.896825,-16.500081],[122.847726,-16.546502],[122.780027,-16.578753],[122.741798,-16.683403],[122.757428,-16.746053],[122.734458,-16.777653],[122.63741,-16.800705],[122.58249,-16.764166],[122.533801,-16.836947],[122.589581,-16.951107],[122.536532,-16.957027],[122.490252,-16.913657],[122.467632,-16.968838],[122.424282,-16.960348],[122.366353,-16.997639],[122.351043,-17.036949],[122.303974,-17.06055],[122.253195,-17.11985],[122.270795,-17.15469],[122.226375,-17.186451],[122.201656,-17.245921],[122.173206,-17.263592],[122.150017,-17.355372],[122.152258,-17.465653],[122.145169,-17.560353],[122.172549,-17.601233],[122.199649,-17.684823],[122.1987,-17.774314],[122.212131,-17.852943],[122.193871,-17.997405],[122.255371,-17.958204],[122.351888,-17.975223],[122.372597,-17.993713],[122.380958,-18.070664],[122.362544,-18.128334],[122.32278,-18.161726],[122.214613,-18.204036],[122.130022,-18.307426],[122.063513,-18.325816],[122.017415,-18.390527],[121.903643,-18.464057],[121.872013,-18.471687],[121.823393,-18.446858],[121.792294,-18.482498],[121.764754,-18.552828],[121.792255,-18.642598],[121.717273,-18.706368],[121.618145,-18.706309],[121.649746,-18.757699],[121.645816,-18.79938],[121.564597,-18.96711],[121.517109,-19.080101],[121.465639,-19.163582],[121.333221,-19.341653],[121.210132,-19.466302],[121.113922,-19.538571],[120.981888,-19.621038],[120.631003,-19.770045],[120.567994,-19.786216],[120.322975,-19.875736],[120.195936,-19.913908],[120.133206,-19.912429],[119.972766,-19.933001],[119.813248,-19.972013],[119.745078,-19.966444],[119.741138,-20.005914],[119.615468,-20.065656],[119.573409,-20.074716],[119.490312,-20.018016],[119.258261,-19.972083],[119.218269,-19.953213],[119.11869,-19.961713],[119.068349,-20.015393],[118.99383,-20.035794],[118.976411,-20.095514],[118.940872,-20.144755],[118.896502,-20.167756],[118.842063,-20.230647],[118.815754,-20.281018],[118.768224,-20.281728],[118.676765,-20.326659],[118.561962,-20.294396],[118.491045,-20.334271],[118.439156,-20.344662],[118.297766,-20.351633],[118.166098,-20.385193],[118.134758,-20.371573],[117.992309,-20.472155],[117.943268,-20.497636],[117.914228,-20.547098],[117.871818,-20.561138],[117.85412,-20.606039],[117.774291,-20.66422],[117.693452,-20.686001],[117.641661,-20.664991],[117.526991,-20.713971],[117.442572,-20.730602],[117.347532,-20.735652],[117.274002,-20.723162],[117.193602,-20.686452],[117.165771,-20.602822],[117.106752,-20.653043],[117.084502,-20.636063],[116.976122,-20.666376],[116.898773,-20.724107],[116.828193,-20.708718],[116.793222,-20.665107],[116.824273,-20.589177],[116.862532,-20.536237],[116.808061,-20.531357],[116.746393,-20.621328],[116.692134,-20.677608],[116.590204,-20.74042],[116.525909,-20.752861],[116.45945,-20.822651],[116.345391,-20.838822],[116.29085,-20.877693],[116.20459,-20.833754],[116.191621,-20.933015],[116.130452,-20.997017],[115.989382,-21.040109],[115.881502,-21.121142],[115.833533,-21.205602],[115.821505,-21.251523],[115.767424,-21.254113],[115.703144,-21.279463],[115.652546,-21.315654],[115.518576,-21.446576],[115.492747,-21.485766],[115.416139,-21.541929],[115.307127,-21.59148],[115.204046,-21.598001],[115.132206,-21.644852],[115.106666,-21.632541],[115.048926,-21.682012],[114.971566,-21.669643],[114.916195,-21.690823],[114.842096,-21.751105],[114.769466,-21.795086],[114.720886,-21.798786],[114.643606,-21.848927],[114.642507,-21.909328],[114.607048,-21.99042],[114.570598,-22.001781],[114.504859,-22.123566],[114.50364,-22.161037],[114.45539,-22.206948],[114.45207,-22.265635],[114.40872,-22.331167],[114.3814,-22.445677],[114.35485,-22.500606],[114.32087,-22.487347],[114.31744,-22.440617],[114.26197,-22.440626],[114.21861,-22.497188],[114.14957,-22.520139],[114.121799,-22.472668],[114.159618,-22.366934],[114.182368,-22.343522],[114.084757,-22.191275],[114.080266,-22.154135],[114.140754,-21.943042],[114.148873,-21.866652],[114.191014,-21.814581],[114.161215,-21.786211],[114.078749,-21.815962],[113.995084,-21.875463],[113.924886,-22.006985],[113.866887,-22.151067],[113.832909,-22.274589],[113.78031,-22.37676],[113.74938,-22.408421],[113.737741,-22.471031],[113.654012,-22.583393],[113.709393,-22.715284],[113.771424,-22.785264],[113.816655,-22.906935],[113.829426,-23.030908],[113.812495,-23.082769],[113.770855,-23.13065],[113.764476,-23.180351],[113.791947,-23.283782],[113.779729,-23.470595],[113.75326,-23.528236],[113.70047,-23.575201],[113.613213,-23.630908],[113.567276,-23.752229],[113.531906,-23.774839],[113.513827,-23.84733],[113.470308,-23.898561],[113.4587,-24.013642],[113.429991,-24.032653],[113.419422,-24.090333],[113.443343,-24.181694],[113.390165,-24.223995],[113.405446,-24.294155],[113.399528,-24.411406],[113.406958,-24.484176],[113.489939,-24.575957],[113.617272,-24.736344],[113.644143,-24.864755],[113.677804,-24.924985],[113.664635,-25.018186],[113.697706,-25.086596],[113.743247,-25.128957],[113.817067,-25.173566],[113.847168,-25.270127],[113.891339,-25.337007],[113.90205,-25.410088],[113.98629,-25.554959],[113.990189,-25.58992],[114.045179,-25.669004],[114.119555,-25.728185],[114.119404,-25.755256],[114.232095,-25.87567],[114.256917,-25.989661],[114.194667,-25.983571],[114.239278,-26.072702],[114.253839,-26.155372],[114.191179,-26.168333],[114.20403,-26.244795],[114.23798,-26.283905],[114.217271,-26.363776],[114.166352,-26.390016],[114.089562,-26.467617],[114.053862,-26.419217],[113.980802,-26.354197],[113.950481,-26.267597],[113.93522,-26.181837],[113.947559,-26.143006],[113.880028,-26.071046],[113.830079,-26.153847],[113.77399,-26.214889],[113.72102,-26.196729],[113.703228,-26.12593],[113.699924,-26.044962],[113.734327,-26.013658],[113.731638,-25.949526],[113.761857,-25.878595],[113.720357,-25.851835],[113.721766,-25.793645],[113.691116,-25.789215],[113.606655,-25.714325],[113.585384,-25.640184],[113.537754,-25.625765],[113.515162,-25.555774],[113.472752,-25.558264],[113.431983,-25.625725],[113.414475,-25.724737],[113.478696,-25.783337],[113.464296,-25.808577],[113.512917,-25.852117],[113.517617,-25.919578],[113.559108,-25.946398],[113.567249,-26.038799],[113.588669,-26.094389],[113.620809,-26.100899],[113.68805,-26.217539],[113.75352,-26.233319],[113.836641,-26.280818],[113.883561,-26.341009],[113.870522,-26.40194],[113.889024,-26.4815],[113.863654,-26.536721],[113.812366,-26.576002],[113.814227,-26.603852],[113.697006,-26.611464],[113.676678,-26.667895],[113.628695,-26.540193],[113.591365,-26.578704],[113.558225,-26.574004],[113.577194,-26.504623],[113.552323,-26.469113],[113.567072,-26.433343],[113.527382,-26.356572],[113.486573,-26.396523],[113.479871,-26.271092],[113.462211,-26.253382],[113.44431,-26.168001],[113.39672,-26.113951],[113.37877,-26.153651],[113.354172,-26.276373],[113.362062,-26.338374],[113.336712,-26.344944],[113.318521,-26.239123],[113.31903,-26.116832],[113.260891,-26.191223],[113.19725,-26.173983],[113.277522,-26.294014],[113.329004,-26.433725],[113.503515,-26.588595],[113.584357,-26.671426],[113.756407,-26.892138],[113.965158,-27.230748],[114.086012,-27.460288],[114.140475,-27.61278],[114.163016,-27.706411],[114.124357,-27.772902],[114.105399,-27.850373],[114.156061,-28.017779],[114.174711,-28.110972],[114.232838,-28.175466],[114.323321,-28.233061],[114.405422,-28.335375],[114.432984,-28.394242],[114.494687,-28.450561],[114.556284,-28.53412],[114.596573,-28.611563],[114.620047,-28.729809],[114.612243,-28.795347],[114.634273,-28.873564],[114.688348,-28.93296],[114.831984,-29.066018],[114.872084,-29.116741],[114.920793,-29.255486],[114.926874,-29.312732],[114.997569,-29.493548],[114.977133,-29.55739],[114.957949,-29.683704],[114.959298,-29.770488],[114.9818,-29.852865],[114.977788,-29.945078],[114.959264,-30.049314],[114.984038,-30.079087],[115.00622,-30.159243],[114.992691,-30.207583],[115.032096,-30.242117],[115.050572,-30.424339],[115.071196,-30.478059],[115.057312,-30.50379],[115.094183,-30.548275],[115.103602,-30.591548],[115.190247,-30.793067],[115.262682,-30.891691],[115.423621,-30.892844],[115.498183,-30.919558],[115.520297,-30.975656],[115.792586,-30.974977],[115.892732,-30.982401],[115.952229,-31.004332],[115.95225,-31.060605],[116.045693,-31.060503],[116.048379,-31.089011],[116.221287,-31.089006],[116.234595,-31.115841],[116.245005,-31.23057],[116.360671,-31.236504],[116.40254,-31.307601],[116.498913,-31.298133],[116.547855,-31.276656],[116.568785,-31.311746],[116.625346,-31.273595],[116.597809,-31.395178],[116.600232,-31.509432],[116.650585,-31.488068],[116.762718,-31.50384],[116.818969,-31.484561],[116.86034,-31.519217],[116.961452,-31.68298],[116.989337,-31.761261],[117.020857,-31.784291],[117.123759,-31.799935],[117.158314,-31.856642],[117.096419,-31.930533],[117.099605,-31.981831],[117.143838,-31.982063],[117.227493,-32.038928],[117.247049,-32.179319],[117.239616,-32.228309],[117.411649,-32.221209],[117.42839,-32.201239],[117.543513,-32.203096],[117.622177,-32.188465],[117.633067,-32.162156],[117.79366,-32.159971],[117.805788,-32.149661],[117.923399,-32.157386],[118.082255,-32.191105],[118.077979,-32.228194],[118.208278,-32.230799],[118.194753,-32.279562],[118.321549,-32.286384],[118.623718,-32.285361],[118.615376,-32.248058],[118.816798,-32.246663],[118.91378,-32.237658],[118.913888,-32.213485],[119.161469,-32.2147],[119.178678,-32.203379],[120.009697,-32.203594],[120.009691,-31.866688],[120.00975,-31.268923],[120.011702,-30.742933],[120.013889,-30.161129],[119.98822,-30.158505],[119.419865,-29.95005],[119.419864,-29.944735],[119.080863,-29.826107],[118.503738,-29.612323],[118.436142,-29.280436],[118.436067,-29.117953],[118.720334,-29.117428],[118.720338,-29.292284],[119.200641,-29.290941],[119.344406,-29.110937],[119.663042,-29.112987],[119.77578,-28.916006],[119.801959,-28.847806],[119.801951,-28.465564],[120.051053,-28.461312],[120.046926,-28.294223],[120.203322,-28.292613],[120.196625,-28.047203],[120.151517,-28.047632],[120.157504,-27.612622],[120.074693,-27.612623],[120.058396,-27.502273],[120.058394,-27.290273],[120.535772,-27.292062],[121.00329,-27.292235],[121.779059,-27.290256],[121.779052,-26.806784],[122.065544,-26.806784],[122.065552,-26.82839],[122.460972,-26.828381],[122.460972,-26.712817],[122.689162,-26.712814],[122.689161,-26.654685],[122.963876,-26.654711],[122.963877,-26.681945],[123.046743,-26.681944],[123.046744,-26.745494],[123.338983,-26.746216],[123.985956,-26.747188],[124.668028,-26.745017],[124.668028,-25.415291],[124.668017,-24.415287],[124.668017,-23.440313],[125.001336,-23.431955],[125.501332,-23.431951],[126.001328,-23.431949],[127.815929,-23.431933],[128.501311,-23.431926],[129.001306,-23.431919]]],[[[113.2379,-26.106352],[113.203978,-26.003292],[113.136678,-25.977432],[113.109726,-25.867971],[113.114756,-25.838651],[113.076785,-25.76862],[113.007513,-25.528678],[112.970672,-25.480388],[112.928673,-25.526509],[112.929794,-25.6432],[112.979595,-25.749471],[112.967175,-25.778512],[113.022966,-25.860412],[113.061237,-25.944003],[113.135968,-26.022343],[113.18159,-26.123633],[113.2379,-26.106352]]],[[[115.476919,-20.733548],[115.460829,-20.674418],[115.435609,-20.665658],[115.32717,-20.79935],[115.306821,-20.860441],[115.394931,-20.886431],[115.44745,-20.82889],[115.476919,-20.733548]]],[[[124.655094,-15.398576],[124.568237,-15.28821],[124.558057,-15.25523],[124.504557,-15.28162],[124.49995,-15.319529],[124.460794,-15.368007],[124.483514,-15.385467],[124.554574,-15.388566],[124.517624,-15.441167],[124.566554,-15.444256],[124.655094,-15.398576]]],[[[125.216127,-14.495703],[125.153597,-14.453653],[125.095748,-14.551973],[125.100128,-14.632273],[125.129478,-14.633313],[125.213138,-14.601252],[125.195258,-14.550712],[125.216127,-14.495703]]],[[[128.201957,-15.142463],[128.128347,-15.059813],[128.114008,-15.121604],[128.163138,-15.170753],[128.201957,-15.142463]]],[[[113.921806,-25.883864],[113.913026,-25.826463],[113.855826,-25.810704],[113.858346,-25.868224],[113.921806,-25.883864]]],[[[124.461438,-15.30074],[124.424557,-15.25752],[124.391872,-15.332458],[124.461438,-15.30074]]],[[[125.23087,-15.070653],[125.15378,-15.038653],[125.17508,-15.122053],[125.22886,-15.099573],[125.23087,-15.070653]]],[[[116.886839,-20.481666],[116.851378,-20.449246],[116.820022,-20.509386],[116.878981,-20.505426],[116.886839,-20.481666]]],[[[116.648254,-20.684929],[116.579034,-20.692129],[116.601914,-20.728379],[116.648254,-20.684929]]]]},"bbox":[112.928673,-32.286384,129.001306,-13.741422]},
{"properties":{"electorateShortName":"forrest","electorateName":"Forrest","area":11071.808585,"state":"WA"},"type":"Feature","geometry":{"type":"Polygon","coordinates":[[[115.6745,-34.485409],[115.765957,-34.458837],[115.822517,-34.406498],[115.789617,-34.374896],[115.793891,-34.333806],[115.875992,-34.297061],[115.878101,-34.213177],[115.944332,-34.135065],[116.009664,-34.126597],[115.979766,-34.085652],[115.970375,-33.906736],[116.001915,-33.895048],[116.000066,-33.801311],[116.082889,-33.801176],[116.100255,-33.780593],[116.217957,-33.771099],[116.196959,-33.592518],[116.196836,-33.513495],[116.132815,-33.486809],[116.06419,-33.484954],[116.064179,-33.440355],[116.00576,-33.407106],[115.919199,-33.378625],[115.918585,-33.290001],[115.945799,-33.222402],[116.008534,-33.231938],[116.145003,-33.23187],[116.146899,-33.084885],[116.209065,-33.085053],[116.208891,-33.030373],[116.208859,-32.984207],[116.163983,-32.933621],[115.94005,-32.941049],[115.763772,-32.921983],[115.65846,-32.933052],[115.688765,-33.120567],[115.679623,-33.284992],[115.635579,-33.312553],[115.59896,-33.409616],[115.566263,-33.46243],[115.427004,-33.608714],[115.309275,-33.653964],[115.20671,-33.65104],[115.129087,-33.626991],[115.088836,-33.568289],[115.00429,-33.530164],[115.028268,-33.634152],[114.97962,-33.708015],[115.000101,-33.794171],[114.9833,-33.881357],[115.000795,-34.015397],[114.996046,-34.105286],[115.039132,-34.198194],[115.025946,-34.256782],[115.119138,-34.340947],[115.26286,-34.306795],[115.343484,-34.315772],[115.453084,-34.361357],[115.543282,-34.416072],[115.577862,-34.422088],[115.6745,-34.485409]]]},"bbox":[114.97962,-34.485409,116.217957,-32.921983]},
{"properties":{"electorateShortName":"fremantle","electorateName":"Fremantle","area":196.296885,"state":"WA"},"type":"Feature","geometry":{"type":"Polygon","coordinates":[[[115.898628,-32.18024],[115.916173,-32.115337],[115.884285,-32.075037],[115.858263,-32.087593],[115.793621,-32.056642],[115.775886,-32.026464],[115.750871,-32.021603],[115.7554,-32.135494],[115.774924,-32.181389],[115.898546,-32.180241],[115.898628,-32.18024]]]},"bbox":[115.750871,-32.181389,115.916173,-32.021603]},
{"properties":{"electorateShortName":"hasluck","electorateName":"Hasluck","area":1192.452342,"state":"WA"},"type":"Feature","geometry":{"type":"Polygon","coordinates":[[[116.288879,-32.062154],[116.32374,-32.023442],[116.409065,-32.01232],[116.415125,-31.909333],[116.346175,-31.90679],[116.358281,-31.81948],[116.342883,-31.802217],[116.347233,-31.706578],[116.28766,-31.706464],[116.288043,-31.671104],[116.205448,-31.670468],[116.099034,-31.695844],[116.089158,-31.831994],[116.02697,-31.867858],[115.965103,-31.861983],[115.955944,-31.887658],[115.953364,-31.919948],[115.997691,-31.917679],[116.011282,-31.960115],[115.941156,-32.02962],[115.997811,-32.065682],[116.002678,-32.023481],[116.138465,-32.010052],[116.250103,-32.019753],[116.288879,-32.062154]]]},"bbox":[115.941156,-32.065682,116.415125,-31.670468]},
{"properties":{"electorateShortName":"moore","electorateName":"Moore","area":90.051132,"state":"WA"},"type":"Feature","geometry":{"type":"Polygon","coordinates":[[[115.796752,-31.845875],[115.816815,-31.799718],[115.773748,-31.717249],[115.70661,-31.712027],[115.751007,-31.8462],[115.796752,-31.845875]]]},"bbox":[115.70661,-31.8462,115.816815,-31.712027]},
{"properties":{"electorateShortName":"burt","electorateName":"Burt","area":172.374245,"state":"WA"},"type":"Feature","geometry":{"type":"Polygon","coordinates":[[[115.898628,-32.18024],[116.015818,-32.186556],[116.050119,-32.121282],[115.997811,-32.065682],[115.941156,-32.02962],[115.884285,-32.075037],[115.916173,-32.115337],[115.898628,-32.18024]]]},"bbox":[115.884285,-32.186556,116.050119,-32.02962]},
{"properties":{"electorateShortName":"oconnor","electorateName":"O'Connor","area":868575.998191,"state":"WA"},"type":"Feature","geometry":{"type":"Polygon","coordinates":[[[129.00134,-31.687068],[129.001421,-31.433755],[129.001395,-30.763205],[129.001395,-30.305446],[129.001551,-29.805563],[129.001572,-29.388911],[129.001576,-28.972059],[129.001653,-28.472276],[129.001352,-27.888961],[129.001342,-27.305647],[129.001337,-26.888993],[129.001806,-26.472341],[129.001838,-25.998606],[129.000658,-25.33197],[129.000698,-24.831973],[129.000753,-24.331991],[129.001311,-23.99858],[129.001306,-23.431919],[128.501311,-23.431926],[127.815929,-23.431933],[126.001328,-23.431949],[125.501332,-23.431951],[125.001336,-23.431955],[124.668017,-23.440313],[124.668017,-24.415287],[124.668028,-25.415291],[124.668028,-26.745017],[123.985956,-26.747188],[123.338983,-26.746216],[123.046744,-26.745494],[123.046743,-26.681944],[122.963877,-26.681945],[122.963876,-26.654711],[122.689161,-26.654685],[122.689162,-26.712814],[122.460972,-26.712817],[122.460972,-26.828381],[122.065552,-26.82839],[122.065544,-26.806784],[121.779052,-26.806784],[121.779059,-27.290256],[121.00329,-27.292235],[120.535772,-27.292062],[120.058394,-27.290273],[120.058396,-27.502273],[120.074693,-27.612623],[120.157504,-27.612622],[120.151517,-28.047632],[120.196625,-28.047203],[120.203322,-28.292613],[120.046926,-28.294223],[120.051053,-28.461312],[119.801951,-28.465564],[119.801959,-28.847806],[119.77578,-28.916006],[119.663042,-29.112987],[119.344406,-29.110937],[119.200641,-29.290941],[118.720338,-29.292284],[118.720334,-29.117428],[118.436067,-29.117953],[118.436142,-29.280436],[118.503738,-29.612323],[119.080863,-29.826107],[119.419864,-29.944735],[119.419865,-29.95005],[119.98822,-30.158505],[120.013889,-30.161129],[120.011702,-30.742933],[120.00975,-31.268923],[120.009691,-31.866688],[120.009697,-32.203594],[119.178678,-32.203379],[119.161469,-32.2147],[118.913888,-32.213485],[118.91378,-32.237658],[118.816798,-32.246663],[118.615376,-32.248058],[118.623718,-32.285361],[118.321549,-32.286384],[118.194753,-32.279562],[118.208278,-32.230799],[118.077979,-32.228194],[118.082255,-32.191105],[117.923399,-32.157386],[117.805788,-32.149661],[117.79366,-32.159971],[117.633067,-32.162156],[117.622177,-32.188465],[117.543513,-32.203096],[117.42839,-32.201239],[117.411649,-32.221209],[117.239616,-32.228309],[117.191011,-32.25764],[117.040474,-32.261495],[116.833937,-32.258218],[116.818774,-32.293729],[116.724612,-32.348373],[116.666036,-32.356596],[116.383807,-32.357441],[116.383953,-32.23644],[116.35808,-32.23635],[116.224901,-32.235885],[116.189706,-32.287429],[116.259679,-32.389635],[116.259682,-32.498103],[116.359596,-32.498093],[116.440194,-32.574181],[116.521273,-32.688977],[116.590653,-32.77175],[116.654314,-32.781779],[116.650012,-32.907795],[116.617499,-32.907765],[116.617707,-32.981815],[116.578354,-33.008567],[116.568113,-33.061172],[116.469049,-33.062039],[116.409452,-33.085823],[116.409406,-32.994578],[116.284449,-33.030262],[116.208891,-33.030373],[116.209065,-33.085053],[116.146899,-33.084885],[116.145003,-33.23187],[116.008534,-33.231938],[115.945799,-33.222402],[115.918585,-33.290001],[115.919199,-33.378625],[116.00576,-33.407106],[116.064179,-33.440355],[116.06419,-33.484954],[116.132815,-33.486809],[116.196836,-33.513495],[116.196959,-33.592518],[116.217957,-33.771099],[116.100255,-33.780593],[116.082889,-33.801176],[116.000066,-33.801311],[116.001915,-33.895048],[115.970375,-33.906736],[115.979766,-34.085652],[116.009664,-34.126597],[115.944332,-34.135065],[115.878101,-34.213177],[115.875992,-34.297061],[115.793891,-34.333806],[115.789617,-34.374896],[115.822517,-34.406498],[115.765957,-34.458837],[115.6745,-34.485409],[115.818598,-34.602152],[115.949951,-34.723632],[116.002664,-34.812392],[116.002145,-34.842218],[116.137045,-34.844744],[116.250729,-34.876055],[116.354297,-34.926471],[116.478566,-35.003983],[116.532847,-35.004438],[116.658079,-35.051438],[116.707198,-35.028956],[116.791501,-35.01849],[116.861703,-35.053599],[116.921228,-35.064349],[116.956844,-35.019364],[117.14111,-35.052212],[117.186737,-35.01811],[117.315425,-35.037173],[117.361836,-35.019492],[117.479131,-35.073569],[117.524391,-35.074129],[117.595832,-35.10774],[117.675724,-35.04433],[117.762152,-35.054515],[117.865886,-35.109255],[117.937906,-35.117861],[117.9164,-35.021585],[118.04428,-35.016737],[118.102092,-34.98602],[118.168661,-34.995963],[118.174417,-34.941147],[118.259873,-34.908552],[118.360101,-34.90501],[118.397075,-34.876645],[118.400428,-34.823854],[118.456643,-34.747472],[118.519837,-34.717451],[118.645197,-34.691221],[118.717375,-34.6576],[118.751991,-34.622448],[118.739631,-34.573564],[118.811598,-34.509473],[118.907827,-34.503446],[118.911791,-34.462878],[118.960905,-34.451277],[119.069109,-34.458813],[119.15223,-34.494511],[119.180712,-34.485889],[119.23936,-34.516177],[119.271965,-34.466048],[119.31478,-34.444887],[119.384092,-34.467011],[119.404848,-34.379817],[119.507448,-34.359128],[119.504087,-34.286445],[119.531008,-34.226967],[119.598683,-34.133533],[119.666402,-34.080413],[119.781732,-34.026733],[119.81637,-33.983476],[119.85863,-33.969793],[119.944395,-33.977887],[119.989165,-33.93781],[120.04406,-33.923133],[120.11917,-33.952521],[120.176725,-33.934825],[120.253374,-33.93423],[120.43657,-33.971882],[120.550598,-33.925241],[120.593472,-33.886246],[120.810206,-33.88951],[120.868536,-33.85626],[121.008718,-33.870853],[121.123484,-33.850629],[121.172767,-33.867086],[121.210243,-33.842331],[121.296339,-33.840199],[121.361482,-33.815442],[121.546584,-33.82799],[121.651814,-33.888868],[121.695084,-33.86121],[121.783533,-33.906759],[121.857122,-33.890379],[121.933382,-33.834289],[122.017722,-33.836469],[122.085382,-33.902798],[122.136743,-34.006599],[122.188992,-34.008159],[122.272801,-33.984388],[122.287791,-33.949018],[122.375301,-33.911607],[122.49111,-33.938987],[122.55757,-33.936617],[122.61869,-33.892836],[122.742759,-33.896066],[122.773819,-33.877735],[122.829389,-33.909975],[122.905749,-33.889245],[123.083117,-33.871534],[123.133887,-33.904374],[123.181778,-34.011595],[123.292497,-33.974044],[123.354366,-33.900993],[123.412296,-33.893833],[123.546755,-33.934992],[123.590045,-33.881141],[123.742364,-33.809171],[123.756934,-33.723069],[123.810233,-33.664769],[123.872452,-33.633848],[123.869262,-33.606228],[123.97602,-33.558606],[123.998,-33.426375],[124.07911,-33.249225],[124.101189,-33.176154],[124.154307,-33.096063],[124.238655,-33.017591],[124.354414,-32.960069],[124.458263,-32.935577],[124.741,-32.900144],[124.900218,-32.828561],[124.928047,-32.794161],[125.026186,-32.728859],[125.102415,-32.715398],[125.230343,-32.643236],[125.370691,-32.591694],[125.419171,-32.587753],[125.56025,-32.534091],[125.679369,-32.444049],[125.801225,-32.366725],[125.95101,-32.290542],[126.037052,-32.268591],[126.113991,-32.264579],[126.203139,-32.232277],[126.422025,-32.284084],[126.672789,-32.308371],[126.772578,-32.292341],[126.956523,-32.297599],[127.057213,-32.283819],[127.213371,-32.276387],[127.33541,-32.254086],[127.481898,-32.216534],[127.705705,-32.136702],[128.022372,-32.073979],[128.280599,-31.990758],[128.494827,-31.911905],[128.543281,-31.88153],[128.642335,-31.850935],[128.803353,-31.757973],[128.896362,-31.717043],[129.00134,-31.687068]]]},"bbox":[115.6745,-35.117861,129.001838,-23.431919]},
{"properties":{"electorateShortName":"pearce","electorateName":"Pearce","area":13250.093995,"state":"WA"},"type":"Feature","geometry":{"type":"Polygon","coordinates":[[[117.239616,-32.228309],[117.247049,-32.179319],[117.227493,-32.038928],[117.143838,-31.982063],[117.099605,-31.981831],[117.096419,-31.930533],[117.158314,-31.856642],[117.123759,-31.799935],[117.020857,-31.784291],[116.989337,-31.761261],[116.961452,-31.68298],[116.86034,-31.519217],[116.818969,-31.484561],[116.762718,-31.50384],[116.650585,-31.488068],[116.600232,-31.509432],[116.597809,-31.395178],[116.625346,-31.273595],[116.568785,-31.311746],[116.547855,-31.276656],[116.498913,-31.298133],[116.40254,-31.307601],[116.360671,-31.236504],[116.245005,-31.23057],[116.234595,-31.115841],[116.221287,-31.089006],[116.048379,-31.089011],[116.045693,-31.060503],[115.95225,-31.060605],[115.952229,-31.004332],[115.892732,-30.982401],[115.792586,-30.974977],[115.520297,-30.975656],[115.498183,-30.919558],[115.423621,-30.892844],[115.262682,-30.891691],[115.312406,-30.972512],[115.383226,-31.121401],[115.441094,-31.277796],[115.5504,-31.42737],[115.584447,-31.499523],[115.635222,-31.565635],[115.70661,-31.712027],[115.773748,-31.717249],[115.829292,-31.733511],[115.883271,-31.720456],[115.88283,-31.795638],[115.962736,-31.795663],[115.965103,-31.861983],[116.02697,-31.867858],[116.089158,-31.831994],[116.099034,-31.695844],[116.205448,-31.670468],[116.288043,-31.671104],[116.28766,-31.706464],[116.347233,-31.706578],[116.342883,-31.802217],[116.358281,-31.81948],[116.346175,-31.90679],[116.415125,-31.909333],[116.409065,-32.01232],[116.32374,-32.023442],[116.288879,-32.062154],[116.285558,-32.173122],[116.312437,-32.171092],[116.35808,-32.23635],[116.383953,-32.23644],[116.383807,-32.357441],[116.666036,-32.356596],[116.724612,-32.348373],[116.818774,-32.293729],[116.833937,-32.258218],[117.040474,-32.261495],[117.191011,-32.25764],[117.239616,-32.228309]]]},"bbox":[115.262682,-32.357441,117.247049,-30.891691]},
{"properties":{"electorateShortName":"perth","electorateName":"Perth","area":80.395634,"state":"WA"},"type":"Feature","geometry":{"type":"Polygon","coordinates":[[[115.953364,-31.919948],[115.955944,-31.887658],[115.87829,-31.867862],[115.87749,-31.911693],[115.823045,-31.914195],[115.838086,-31.991159],[115.843248,-31.96489],[115.953364,-31.919948]]]},"bbox":[115.823045,-31.991159,115.955944,-31.867862]},
{"properties":{"electorateShortName":"stirling","electorateName":"Stirling","area":74.147084,"state":"WA"},"type":"Feature","geometry":{"type":"Polygon","coordinates":[[[115.823045,-31.914195],[115.87749,-31.911693],[115.87829,-31.867862],[115.796752,-31.845875],[115.751007,-31.8462],[115.754493,-31.894212],[115.800677,-31.882535],[115.823045,-31.914195]]]},"bbox":[115.751007,-31.914195,115.87829,-31.845875]},
{"properties":{"electorateShortName":"swan","electorateName":"Swan","area":133.885941,"state":"WA"},"type":"Feature","geometry":{"type":"Polygon","coordinates":[[[115.941156,-32.02962],[116.011282,-31.960115],[115.997691,-31.917679],[115.953364,-31.919948],[115.843248,-31.96489],[115.838086,-31.991159],[115.863805,-32.034489],[115.941156,-32.02962]]]},"bbox":[115.838086,-32.034489,116.011282,-31.917679]},
{"properties":{"electorateShortName":"tangney","electorateName":"Tangney","area":83.092372,"state":"WA"},"type":"Feature","geometry":{"type":"Polygon","coordinates":[[[115.941156,-32.02962],[115.863805,-32.034489],[115.838086,-31.991159],[115.775886,-32.026464],[115.793621,-32.056642],[115.858263,-32.087593],[115.884285,-32.075037],[115.941156,-32.02962]]]},"bbox":[115.775886,-32.087593,115.941156,-31.991159]}],"bbox":[112.928673,-35.117861,129.001838,-13.741422]}