{"type":"FeatureCollection","features":[
{"properties":{"electorateShortName":"bean","electorateName":"Bean","area":1913.8,"state":null},"type":"Feature","geometry":{"type":"MultiPolygon","coordinates":[[[[149.206345,-35.345905],[149.203401,-35.343707],[149.190353,-35.343839],[149.176195,-35.337632],[149.15875,-35.341648],[149.147553,-35.34524],[149.137366,-35.3442],[149.124421,-35.347919],[149.114291,-35.345143],[149.100461,-35.350697],[149.098612,-35.343853],[149.088741,-35.336927],[149.082634,-35.339486],[149.084113,-35.34887],[149.069556,-35.34837],[149.064803,-35.337577],[149.064189,-35.324535],[149.061822,-35.309408],[149.065156,-35.301945],[149.072333,-35.293584],[149.083611,-35.285805],[149.086465,-35.28063],[149.076551,-35.276641],[149.068487,-35.275708],[149.049226,-35.268997],[149.040692,-35.269908],[149.03396,-35.265887],[149.019616,-35.280406],[149.016765,-35.271791],[149.007625,-35.272079],[149.002417,-35.261831],[148.996516,-35.257991],[148.994524,-35.262659],[148.987715,-35.262346],[148.979653,-35.25937],[148.968735,-35.248642],[148.962525,-35.243979],[148.974483,-35.240724],[148.976254,-35.238837],[148.968677,-35.231135],[148.961731,-35.218467],[148.810134,-35.307449],[148.801069,-35.321771],[148.801712,-35.329175],[148.793547,-35.339122],[148.798729,-35.34815],[148.799397,-35.353388],[148.796698,-35.358414],[148.805696,-35.365156],[148.804064,-35.376204],[148.80866,-35.382455],[148.80361,-35.38882],[148.795688,-35.393003],[148.795976,-35.406637],[148.785795,-35.408911],[148.788926,-35.418006],[148.788917,-35.426495],[148.781028,-35.433339],[148.774841,-35.441835],[148.773014,-35.449498],[148.775985,-35.454888],[148.771684,-35.463477],[148.767152,-35.465494],[148.766846,-35.471196],[148.770561,-35.475607],[148.774381,-35.486145],[148.765185,-35.490897],[148.76279,-35.495499],[148.765188,-35.50527],[148.767972,-35.52498],[148.772248,-35.529852],[148.769797,-35.538141],[148.769997,-35.545581],[148.773238,-35.548875],[148.777949,-35.55852],[148.778524,-35.563531],[148.77294,-35.567798],[148.788773,-35.58834],[148.783191,-35.595406],[148.773614,-35.598565],[148.768896,-35.604262],[148.778174,-35.613428],[148.77949,-35.622615],[148.783442,-35.62851],[148.78038,-35.633003],[148.770858,-35.640034],[148.773502,-35.655502],[148.781722,-35.655818],[148.790554,-35.65932],[148.798521,-35.666979],[148.798388,-35.676148],[148.79657,-35.682657],[148.791376,-35.689646],[148.788443,-35.697807],[148.796282,-35.709352],[148.814138,-35.719859],[148.818749,-35.718718],[148.827871,-35.726148],[148.834726,-35.740511],[148.847093,-35.750469],[148.854026,-35.751082],[148.854938,-35.759197],[148.862456,-35.75755],[148.860737,-35.752874],[148.867477,-35.738702],[148.86407,-35.733869],[148.871608,-35.725564],[148.877693,-35.714936],[148.883614,-35.717122],[148.889403,-35.722723],[148.892479,-35.730487],[148.888368,-35.733671],[148.894087,-35.751288],[148.898777,-35.751215],[148.903348,-35.757798],[148.902312,-35.763202],[148.895221,-35.770611],[148.894956,-35.784627],[148.897776,-35.79465],[148.886623,-35.810063],[148.892426,-35.816626],[148.896577,-35.817924],[148.897596,-35.82472],[148.907065,-35.829563],[148.903249,-35.834182],[148.903936,-35.842505],[148.907788,-35.850765],[148.912654,-35.85546],[148.920059,-35.85729],[148.919783,-35.86079],[148.932237,-35.870567],[148.932719,-35.87365],[148.940614,-35.875839],[148.944562,-35.881391],[148.958406,-35.891788],[148.959133,-35.895456],[148.966288,-35.897268],[148.967855,-35.893972],[148.977311,-35.892423],[148.98951,-35.895988],[148.997983,-35.896887],[148.997398,-35.900995],[149.00882,-35.901306],[149.012198,-35.899697],[149.022681,-35.906086],[149.027606,-35.912892],[149.0337,-35.911196],[149.041232,-35.914611],[149.044564,-35.919537],[149.048811,-35.92041],[149.054498,-35.91453],[149.057133,-35.907397],[149.051698,-35.903534],[149.054224,-35.898895],[149.061738,-35.891448],[149.061711,-35.879879],[149.086574,-35.848248],[149.095682,-35.845716],[149.091978,-35.835416],[149.094725,-35.828766],[149.093517,-35.824221],[149.095931,-35.817612],[149.100583,-35.814811],[149.101088,-35.805063],[149.097099,-35.799674],[149.100232,-35.789757],[149.093498,-35.787226],[149.093144,-35.783159],[149.097371,-35.777442],[149.091631,-35.773946],[149.090709,-35.765617],[149.0964,-35.752824],[149.096228,-35.74365],[149.100686,-35.736304],[149.099098,-35.729288],[149.103887,-35.72329],[149.099349,-35.714659],[149.101966,-35.707776],[149.107476,-35.702307],[149.109418,-35.696586],[149.103799,-35.689771],[149.104382,-35.684869],[149.09942,-35.683883],[149.09496,-35.676823],[149.097271,-35.673605],[149.095686,-35.666988],[149.096037,-35.654339],[149.09748,-35.647295],[149.095629,-35.640335],[149.087562,-35.639652],[149.087873,-35.627905],[149.08419,-35.621677],[149.084525,-35.614644],[149.079234,-35.607749],[149.078148,-35.586417],[149.084615,-35.580814],[149.108345,-35.58398],[149.125617,-35.587489],[149.130345,-35.590979],[149.142635,-35.592783],[149.140486,-35.588292],[149.131945,-35.5572],[149.132454,-35.549503],[149.150468,-35.510338],[149.15161,-35.493201],[149.144984,-35.476557],[149.138601,-35.468311],[149.135179,-35.453685],[149.141888,-35.451391],[149.144163,-35.446384],[149.151463,-35.443914],[149.155016,-35.436676],[149.152899,-35.433531],[149.140324,-35.433978],[149.138058,-35.429371],[149.144503,-35.423141],[149.146391,-35.415303],[149.156562,-35.408065],[149.182191,-35.380848],[149.187118,-35.374614],[149.204403,-35.347787],[149.206345,-35.345905]]],[[[167.998035,-29.028973],[167.983574,-29.022908],[167.970925,-29.021446],[167.96609,-29.018054],[167.963538,-29.011177],[167.957325,-29.007057],[167.942405,-29.002631],[167.931272,-29.001874],[167.921454,-28.997542],[167.918881,-29.001287],[167.920495,-29.016332],[167.91913,-29.023966],[167.92157,-29.0301],[167.918729,-29.034149],[167.919545,-29.041256],[167.925116,-29.051363],[167.933154,-29.05393],[167.936713,-29.063232],[167.941956,-29.061683],[167.947805,-29.056371],[167.959402,-29.058808],[167.962459,-29.062884],[167.967753,-29.061647],[167.969446,-29.056956],[167.983315,-29.057334],[167.987431,-29.054334],[167.983187,-29.04919],[167.994762,-29.046094],[167.99412,-29.031261],[167.998035,-29.028973]]],[[[167.965969,-29.116859],[167.960509,-29.114878],[167.953959,-29.116393],[167.946644,-29.113804],[167.942021,-29.117017],[167.941812,-29.120882],[167.947141,-29.129423],[167.951309,-29.126842],[167.954868,-29.120883],[167.96072,-29.124037],[167.965969,-29.116859]]]]},"bbox":[148.76279,-35.92041,167.998035,-28.997542]},
{"properties":{"electorateShortName":"canberra","electorateName":"Canberra","area":312.39,"state":null},"type":"Feature","geometry":{"type":"Polygon","coordinates":[[[149.206345,-35.345905],[149.217912,-35.341563],[149.230915,-35.342577],[149.243802,-35.335109],[149.249308,-35.330127],[149.26262,-35.331368],[149.268373,-35.335067],[149.284469,-35.337938],[149.291858,-35.333912],[149.299606,-35.333082],[149.30497,-35.335922],[149.31402,-35.33604],[149.336346,-35.339884],[149.347266,-35.350155],[149.352134,-35.351317],[149.363983,-35.348171],[149.367987,-35.339552],[149.374455,-35.337981],[149.39018,-35.331056],[149.39718,-35.324254],[149.397281,-35.311003],[149.39479,-35.303157],[149.389676,-35.302698],[149.383697,-35.306471],[149.374174,-35.304695],[149.370172,-35.30824],[149.361666,-35.309025],[149.361991,-35.303089],[149.350553,-35.299358],[149.347872,-35.291587],[149.343211,-35.292048],[149.337698,-35.286971],[149.327561,-35.282402],[149.322477,-35.28674],[149.316264,-35.281788],[149.3153,-35.276231],[149.298462,-35.272156],[149.289293,-35.275699],[149.285433,-35.271631],[149.271628,-35.270805],[149.273179,-35.259179],[149.257329,-35.257203],[149.250324,-35.247987],[149.240608,-35.245811],[149.23455,-35.24047],[149.241242,-35.236755],[149.246794,-35.22915],[149.238697,-35.222227],[149.228775,-35.221687],[149.22351,-35.219135],[149.213785,-35.219605],[149.209763,-35.22649],[149.202456,-35.224625],[149.207555,-35.216047],[149.200699,-35.205565],[149.195544,-35.206559],[149.179534,-35.219513],[149.158113,-35.22677],[149.151283,-35.230968],[149.142117,-35.225562],[149.12512,-35.231391],[149.119028,-35.219613],[149.108536,-35.20946],[149.09268,-35.201952],[149.089731,-35.204749],[149.086463,-35.214146],[149.074179,-35.225857],[149.080283,-35.231015],[149.07339,-35.241107],[149.075773,-35.250452],[149.058658,-35.244142],[149.04812,-35.243333],[149.030149,-35.239596],[149.026108,-35.253528],[149.02762,-35.258563],[149.03396,-35.265887],[149.040692,-35.269908],[149.049226,-35.268997],[149.068487,-35.275708],[149.076551,-35.276641],[149.086465,-35.28063],[149.083611,-35.285805],[149.072333,-35.293584],[149.065156,-35.301945],[149.061822,-35.309408],[149.064189,-35.324535],[149.064803,-35.337577],[149.069556,-35.34837],[149.084113,-35.34887],[149.082634,-35.339486],[149.088741,-35.336927],[149.098612,-35.343853],[149.100461,-35.350697],[149.114291,-35.345143],[149.124421,-35.347919],[149.137366,-35.3442],[149.147553,-35.34524],[149.15875,-35.341648],[149.176195,-35.337632],[149.190353,-35.343839],[149.203401,-35.343707],[149.206345,-35.345905]]]},"bbox":[149.026108,-35.351317,149.397281,-35.201952]},
{"properties":{"electorateShortName":"fenner","electorateName":"Fenner","area":238.48,"state":null},"type":"Feature","geometry":{"type":"MultiPolygon","coordinates":[[[[149.200699,-35.205565],[149.19239,-35.202536],[149.190287,-35.194353],[149.196388,-35.190942],[149.197035,-35.185369],[149.191415,-35.179256],[149.183641,-35.175669],[149.189072,-35.165524],[149.185606,-35.161122],[149.176538,-35.158247],[149.169464,-35.160216],[149.162637,-35.15425],[149.164729,-35.148594],[149.164278,-35.141905],[149.1502,-35.145093],[149.149612,-35.138406],[149.138825,-35.134789],[149.140133,-35.130393],[149.120948,-35.124416],[149.112652,-35.127711],[149.102573,-35.135223],[149.093153,-35.138738],[149.091339,-35.142085],[148.961731,-35.218467],[148.968677,-35.231135],[148.976254,-35.238837],[148.974483,-35.240724],[148.962525,-35.243979],[148.968735,-35.248642],[148.979653,-35.25937],[148.987715,-35.262346],[148.994524,-35.262659],[148.996516,-35.257991],[149.002417,-35.261831],[149.007625,-35.272079],[149.016765,-35.271791],[149.019616,-35.280406],[149.03396,-35.265887],[149.02762,-35.258563],[149.026108,-35.253528],[149.030149,-35.239596],[149.04812,-35.243333],[149.058658,-35.244142],[149.075773,-35.250452],[149.07339,-35.241107],[149.080283,-35.231015],[149.074179,-35.225857],[149.086463,-35.214146],[149.089731,-35.204749],[149.09268,-35.201952],[149.108536,-35.20946],[149.119028,-35.219613],[149.12512,-35.231391],[149.142117,-35.225562],[149.151283,-35.230968],[149.158113,-35.22677],[149.179534,-35.219513],[149.195544,-35.206559],[149.200699,-35.205565]]],[[[150.593971,-35.185018],[150.60073,-35.178074],[150.608899,-35.173671],[150.632623,-35.166422],[150.654952,-35.163097],[150.671973,-35.163876],[150.678054,-35.167759],[150.682616,-35.165393],[150.691355,-35.172352],[150.689293,-35.17791],[150.693516,-35.181281],[150.695731,-35.190068],[150.691791,-35.197462],[150.695788,-35.200818],[150.707739,-35.19126],[150.710392,-35.185719],[150.720772,-35.178485],[150.724869,-35.172951],[150.731087,-35.1752],[150.730835,-35.178763],[150.737443,-35.180084],[150.741481,-35.175465],[150.746167,-35.175158],[150.751025,-35.170099],[150.7556,-35.170751],[150.760481,-35.16227],[150.758089,-35.15566],[150.7626,-35.152675],[150.762263,-35.143283],[150.764952,-35.139487],[150.763687,-35.133498],[150.765777,-35.127982],[150.753012,-35.124258],[150.7455,-35.13599],[150.738425,-35.137202],[150.721866,-35.135675],[150.717464,-35.133163],[150.708691,-35.122433],[150.701604,-35.122862],[150.661053,-35.117824],[150.66032,-35.125394],[150.651688,-35.131917],[150.637259,-35.146881],[150.627903,-35.149976],[150.617393,-35.147626],[150.607504,-35.143847],[150.602853,-35.146252],[150.59343,-35.146914],[150.596246,-35.15218],[150.602606,-35.153179],[150.604696,-35.1579],[150.600744,-35.165708],[150.601698,-35.168886],[150.591249,-35.172472],[150.593971,-35.185018]]],[[[150.772826,-35.118347],[150.76831,-35.112335],[150.76441,-35.117686],[150.764849,-35.123697],[150.77131,-35.122583],[150.772826,-35.118347]]]]},"bbox":[148.961731,-35.280406,150.772826,-35.112335]}],"bbox":[148.76279,-35.92041,167.998035,-28.997542]}