{"type":"FeatureCollection","features":[
{"properties":{"electorateShortName":"bean","electorateName":"Bean","area":1913.8,"state":null},"type":"Feature","geometry":{"type":"MultiPolygon","coordinates":[[[[149.206345,-35.345905],[149.176195,-35.337632],[149.069556,-35.34837],[149.03396,-35.265887],[148.979653,-35.25937],[148.961731,-35.218467],[148.810134,-35.307449],[148.793547,-35.339122],[148.80866,-35.382455],[148.785795,-35.408911],[148.76279,-35.495499],[148.768896,-35.604262],[148.798521,-35.666979],[148.788443,-35.697807],[148.834726,-35.740511],[148.889403,-35.722723],[148.912654,-35.85546],[148.958406,-35.891788],[149.048811,-35.92041],[149.101088,-35.805063],[149.090709,-35.765617],[149.109418,-35.696586],[149.078148,-35.586417],[149.140486,-35.588292],[149.132454,-35.549503],[149.15161,-35.493201],[149.146391,-35.415303],[149.206345,-35.345905]]],[[[167.998035,-29.028973],[167.918881,-29.001287],[167.919545,-29.041256],[167.967753,-29.061647],[167.998035,-29.028973]]]]},"bbox":[148.76279,-35.92041,167.998035,-29.001287]},
{"properties":{"electorateShortName":"canberra","electorateName":"Canberra","area":312.39,"state":null},"type":"Feature","geometry":{"type":"Polygon","coordinates":[[[149.206345,-35.345905],[149.249308,-35.330127],[149.336346,-35.339884],[149.39718,-35.324254],[149.3153,-35.276231],[149.271628,-35.270805],[149.200699,-35.205565],[149.07339,-35.241107],[149.03396,-35.265887],[149.069556,-35.34837],[149.176195,-35.337632],[149.206345,-35.345905]]]},"bbox":[149.03396,-35.34837,149.39718,-35.205565]},
{"properties":{"electorateShortName":"fenner","electorateName":"Fenner","area":238.48,"state":null},"type":"Feature","geometry":{"type":"MultiPolygon","coordinates":[[[[149.200699,-35.205565],[149.164278,-35.141905],[149.120948,-35.124416],[148.961731,-35.218467],[148.979653,-35.25937],[149.03396,-35.265887],[149.07339,-35.241107],[149.200699,-35.205565]]],[[[150.593971,-35.185018],[150.654952,-35.163097],[150.695731,-35.190068],[150.760481,-35.16227],[150.765777,-35.127982],[150.701604,-35.122862],[150.661053,-35.117824],[150.607504,-35.143847],[150.593971,-35.185018]]]]},"bbox":[148.961731,-35.265887,150.765777,-35.117824]}],"bbox":[148.76279,-35.92041,167.998035,-29.001287]}