{"type":"FeatureCollection","features":[
{"properties":{"electorateShortName":"banks","electorateName":"Banks","area":49.47,"state":null},"type":"Feature","geometry":{"type":"Polygon","coordinates":[[[151.129671,-33.973631],[151.076976,-33.943251],[151.035641,-33.940462],[150.970677,-33.946946],[151.034708,-33.991575],[151.092083,-33.995127],[151.129671,-33.973631]]]},"bbox":[150.970677,-33.995127,151.129671,-33.940462]},
{"properties":{"electorateShortName":"barton","electorateName":"Barton","area":39.65,"state":null},"type":"Feature","geometry":{"type":"Polygon","coordinates":[[[151.17424,-33.924966],[151.119054,-33.9122],[151.076976,-33.943251],[151.129671,-33.973631],[151.154842,-33.966669],[151.17424,-33.924966]]]},"bbox":[151.076976,-33.973631,151.17424,-33.9122]},
{"properties":{"electorateShortName":"bennelong","electorateName":"Bennelong","area":58.76,"state":null},"type":"Feature","geometry":{"type":"Polygon","coordinates":[[[151.128305,-33.842931],[151.157106,-33.792709],[151.10009,-33.753523],[151.0476,-33.766489],[151.051103,-33.824238],[151.128305,-33.842931]]]},"bbox":[151.0476,-33.842931,151.157106,-33.753523]},
{"properties":{"electorateShortName":"berowra","electorateName":"Berowra","area":741.64,"state":null},"type":"Feature","geometry":{"type":"Polygon","coordinates":[[[151.284798,-33.572214],[151.2305,-33.535448],[151.158792,-33.517262],[151.145295,-33.472193],[151.103296,-33.482514],[151.032748,-33.406351],[150.988457,-33.379232],[150.943673,-33.424896],[150.887353,-33.437201],[150.926583,-33.508451],[150.889073,-33.555299],[150.935653,-33.564909],[150.904302,-33.61188],[150.930022,-33.659839],[151.019071,-33.717193],[151.031131,-33.768966],[151.0476,-33.766489],[151.10009,-33.753523],[151.11223,-33.679097],[151.161505,-33.659605],[151.175919,-33.627211],[151.284798,-33.572214]]]},"bbox":[150.887353,-33.768966,151.284798,-33.379232]},
{"properties":{"electorateShortName":"blaxland","electorateName":"Blaxland","area":61.16,"state":null},"type":"Feature","geometry":{"type":"Polygon","coordinates":[[[151.042278,-33.861729],[151.030078,-33.835178],[150.996472,-33.851322],[150.985518,-33.870492],[150.968598,-33.931074],[150.970677,-33.946946],[151.035641,-33.940462],[151.042278,-33.861729]]]},"bbox":[150.968598,-33.946946,151.042278,-33.835178]},
{"properties":{"electorateShortName":"bradfield","electorateName":"Bradfield","area":100.58,"state":null},"type":"Feature","geometry":{"type":"Polygon","coordinates":[[[151.232938,-33.792589],[151.203599,-33.773133],[151.18035,-33.740095],[151.191417,-33.702699],[151.161505,-33.659605],[151.11223,-33.679097],[151.10009,-33.753523],[151.157106,-33.792709],[151.232938,-33.792589]]]},"bbox":[151.10009,-33.792709,151.232938,-33.659605]},
{"properties":{"electorateShortName":"calare","electorateName":"Calare","area":32647.97,"state":null},"type":"Feature","geometry":{"type":"Polygon","coordinates":[[[150.186093,-33.88118],[150.177912,-33.778027],[150.214826,-33.674875],[150.266463,-33.622346],[150.236942,-33.593271],[150.256814,-33.494305],[150.335619,-33.511948],[150.402519,-33.476926],[150.4474,-33.481423],[150.475923,-33.399445],[150.580997,-33.351442],[150.53315,-33.240176],[150.527999,-33.194059],[150.604485,-33.1473],[150.610687,-33.066137],[150.488448,-33.048124],[150.371672,-33.015457],[150.366455,-32.936634],[150.340685,-32.87098],[150.3622,-32.845066],[150.337975,-32.790387],[150.288566,-32.765054],[150.311343,-32.646919],[150.236447,-32.608444],[150.246977,-32.460298],[150.318917,-32.408261],[150.266698,-32.375736],[150.26078,-32.317813],[150.217873,-32.336569],[150.164314,-32.320185],[150.054166,-32.351038],[150.021827,-32.305597],[150.063026,-32.245722],[150.034803,-32.195905],[149.947996,-32.134952],[149.892267,-32.11267],[149.81943,-32.103624],[149.795665,-32.05809],[149.750811,-32.119822],[149.638067,-32.112778],[149.602701,-32.126936],[149.573847,-32.086985],[149.494803,-32.102092],[149.432506,-32.095033],[149.413277,-32.175537],[149.346378,-32.238059],[149.305892,-32.304507],[149.189159,-32.290575],[149.220152,-32.180984],[149.193756,-32.104421],[149.100358,-32.115175],[149.059265,-32.096665],[149.012024,-32.106866],[149.00078,-32.139631],[148.944185,-32.174016],[148.927247,-32.271664],[148.883545,-32.312008],[148.851192,-32.31338],[148.805097,-32.367108],[148.768123,-32.343124],[148.754109,-32.419051],[148.703837,-32.434946],[148.72766,-32.472939],[148.700407,-32.496936],[148.719957,-32.575391],[148.669562,-32.624041],[148.605154,-32.652179],[148.501184,-32.614117],[148.475148,-32.627842],[148.391421,-32.621925],[148.349499,-32.636824],[148.347143,-32.675763],[148.329513,-32.701025],[148.328315,-32.798687],[148.378164,-32.833103],[148.381831,-32.93455],[148.430165,-32.969942],[148.505455,-33.062037],[148.486567,-33.123236],[148.495895,-33.190869],[148.397185,-33.269909],[148.418223,-33.385],[148.365145,-33.435299],[148.313524,-33.453189],[148.290651,-33.491909],[148.392772,-33.518727],[148.388833,-33.57999],[148.417382,-33.607154],[148.524169,-33.577287],[148.557937,-33.602925],[148.621066,-33.591714],[148.635899,-33.567008],[148.712026,-33.573728],[148.738927,-33.53792],[148.787796,-33.529269],[148.82321,-33.56568],[148.922397,-33.599333],[148.907469,-33.673053],[148.99366,-33.720609],[148.974557,-33.756454],[149.041283,-33.809334],[149.091447,-33.765415],[149.130187,-33.764289],[149.17209,-33.72628],[149.257743,-33.740656],[149.219734,-33.791776],[149.180823,-33.806141],[149.174789,-33.844937],[149.119836,-33.887828],[149.155178,-33.92836],[149.152632,-33.967033],[149.197738,-33.984896],[149.279321,-33.948523],[149.347778,-33.953299],[149.434733,-34.022927],[149.480219,-34.015379],[149.547501,-34.085569],[149.629447,-34.114099],[149.681688,-34.191454],[149.804704,-34.20262],[149.849901,-34.183698],[149.920374,-34.181677],[149.949395,-34.124609],[149.932543,-34.090534],[150.007292,-34.085287],[150.011735,-34.109711],[150.105241,-34.138496],[150.115857,-34.080292],[150.165229,-34.023469],[150.209036,-33.997793],[150.2412,-33.952033],[150.175556,-33.945178],[150.155908,-33.89309],[150.186093,-33.88118]]]},"bbox":[148.290651,-34.20262,150.610687,-32.05809]},
{"properties":{"electorateShortName":"chifley","electorateName":"Chifley","area":125.9,"state":null},"type":"Feature","geometry":{"type":"Polygon","coordinates":[[[150.896938,-33.797945],[150.906339,-33.765656],[150.851042,-33.650138],[150.812394,-33.677614],[150.765994,-33.705777],[150.803381,-33.776811],[150.896938,-33.797945]]]},"bbox":[150.765994,-33.797945,150.906339,-33.650138]},
{"properties":{"electorateShortName":"cook","electorateName":"Cook","area":64.4,"state":null},"type":"Feature","geometry":{"type":"Polygon","coordinates":[[[151.231926,-34.016739],[151.163887,-34.000746],[151.154842,-33.966669],[151.129671,-33.973631],[151.092083,-33.995127],[151.076868,-34.053482],[151.112757,-34.075693],[151.162586,-34.072444],[151.185918,-34.034563],[151.231926,-34.016739]]]},"bbox":[151.076868,-34.075693,151.231926,-33.966669]},
{"properties":{"electorateShortName":"cowper","electorateName":"Cowper","area":7288.1,"state":null},"type":"Feature","geometry":{"type":"Polygon","coordinates":[[[152.915196,-31.492814],[152.938449,-31.472927],[152.917846,-31.398803],[152.971419,-31.320303],[152.961352,-31.228513],[152.989217,-31.146896],[153.04925,-31.079172],[153.039757,-30.999138],[153.089288,-30.923973],[153.076483,-30.889125],[153.022906,-30.873152],[153.004201,-30.834944],[152.991151,-30.741473],[152.997491,-30.678914],[153.019183,-30.649375],[153.012623,-30.579853],[153.04119,-30.474951],[153.136083,-30.315935],[153.1495,-30.240696],[153.092125,-30.241608],[153.063319,-30.287125],[152.952152,-30.215507],[152.911059,-30.228489],[152.82954,-30.222078],[152.803453,-30.189567],[152.692987,-30.189015],[152.697823,-30.223335],[152.655376,-30.255316],[152.559647,-30.243719],[152.547091,-30.28865],[152.474912,-30.356637],[152.478585,-30.396993],[152.428078,-30.418897],[152.389645,-30.453052],[152.386854,-30.528965],[152.335809,-30.567038],[152.316055,-30.602971],[152.369291,-30.658905],[152.358405,-30.684213],[152.375309,-30.745347],[152.343857,-30.791901],[152.315673,-30.793799],[152.28951,-30.844152],[152.29117,-30.975444],[152.269825,-30.999147],[152.34517,-31.050618],[152.349587,-31.117004],[152.385897,-31.166653],[152.455832,-31.155831],[152.539697,-31.162886],[152.597606,-31.123699],[152.64048,-31.14974],[152.706943,-31.151512],[152.705219,-31.207461],[152.679693,-31.227203],[152.736674,-31.340141],[152.785939,-31.343094],[152.824844,-31.413747],[152.81498,-31.476781],[152.915196,-31.492814]]]},"bbox":[152.269825,-31.492814,153.1495,-30.189015]},
{"properties":{"electorateShortName":"cunningham","electorateName":"Cunningham","area":516.34,"state":null},"type":"Feature","geometry":{"type":"Polygon","coordinates":[[[151.066158,-34.172329],[150.979872,-34.13841],[150.922732,-34.130009],[150.899355,-34.189613],[150.859526,-34.181048],[150.890517,-34.214076],[150.876359,-34.25966],[150.81676,-34.306375],[150.750861,-34.301926],[150.745677,-34.337416],[150.689634,-34.441706],[150.747162,-34.461249],[150.850837,-34.450786],[150.89778,-34.500723],[150.913644,-34.4648],[150.903812,-34.401143],[150.92639,-34.319425],[150.977149,-34.245157],[151.066158,-34.172329]]]},"bbox":[150.689634,-34.500723,151.066158,-34.130009]},
{"properties":{"electorateShortName":"dobell","electorateName":"Dobell","area":720,"state":null},"type":"Feature","geometry":{"type":"Polygon","coordinates":[[[151.449605,-33.429352],[151.485003,-33.398629],[151.509143,-33.331355],[151.570336,-33.289529],[151.565085,-33.247326],[151.527986,-33.244476],[151.51218,-33.194307],[151.455115,-33.202843],[151.398625,-33.185747],[151.37894,-33.099711],[151.315283,-33.048252],[151.266703,-33.058556],[151.25077,-33.099827],[151.202626,-33.13886],[151.199234,-33.199734],[151.216733,-33.248361],[151.302527,-33.328444],[151.302593,-33.36238],[151.376638,-33.371292],[151.34508,-33.412419],[151.449605,-33.429352]]]},"bbox":[151.199234,-33.429352,151.570336,-33.048252]},
{"properties":{"electorateShortName":"eden-monaro","electorateName":"Eden-Monaro","area":41624.37,"state":null},"type":"Feature","geometry":{"type":"Polygon","coordinates":[[[150.134459,-36.066015],[150.092496,-36.044878],[150.014268,-36.035793],[149.966665,-36.010489],[149.855705,-35.809015],[149.817232,-35.753041],[149.856847,-35.719476],[149.934096,-35.61165],[149.929853,-35.565592],[149.964045,-35.500787],[149.998742,-35.478744],[150.007436,-35.430683],[150.038056,-35.406213],[150.03804,-35.331635],[150.113762,-35.290943],[150.197489,-35.230222],[150.204326,-35.177566],[150.141643,-35.14446],[150.129401,-35.09779],[150.071681,-35.049501],[150.05191,-35.007276],[149.980741,-35.095146],[150.018646,-35.107978],[149.931118,-35.235045],[149.798404,-35.207386],[149.771792,-35.175611],[149.73154,-35.182711],[149.660656,-35.137933],[149.559783,-35.115521],[149.538247,-35.068569],[149.551228,-34.97557],[149.524719,-34.969679],[149.526448,-34.907917],[149.447813,-34.927857],[149.280448,-34.911674],[149.279035,-34.89052],[149.182133,-34.892721],[149.043337,-34.827568],[149.037599,-34.758318],[148.990355,-34.706223],[148.941412,-34.690235],[148.949465,-34.646075],[148.90471,-34.63903],[148.847386,-34.56897],[148.782707,-34.572021],[148.687863,-34.558715],[148.653642,-34.542419],[148.659582,-34.61429],[148.586709,-34.627441],[148.563403,-34.805531],[148.522267,-34.90147],[148.572949,-35.001426],[148.567022,-35.094995],[148.469226,-35.080143],[148.456831,-35.154524],[148.333559,-35.138318],[148.215651,-35.110415],[148.221527,-35.166189],[148.119788,-35.202562],[147.97579,-35.203695],[147.958622,-35.229068],[147.894832,-35.233724],[147.845544,-35.329987],[147.884291,-35.357405],[147.897578,-35.412494],[147.883819,-35.488498],[147.92309,-35.542743],[147.845391,-35.554599],[147.89396,-35.62422],[147.833648,-35.641585],[147.801663,-35.678005],[147.819657,-35.744114],[147.760588,-35.839756],[147.714259,-35.838507],[147.691175,-35.886085],[147.689329,-35.937679],[147.8112,-35.967299],[147.84944,-35.989599],[147.913997,-35.997954],[147.924591,-36.042748],[147.997571,-36.047766],[147.99078,-36.120669],[148.028889,-36.140078],[148.021889,-36.176971],[148.038261,-36.365556],[148.087713,-36.451949],[148.124717,-36.46484],[148.139815,-36.525603],[148.124448,-36.55098],[148.217443,-36.598853],[148.185114,-36.692217],[148.134466,-36.743739],[148.10882,-36.797001],[148.194946,-36.796253],[148.680015,-36.992665],[149.199775,-37.201189],[149.976291,-37.505032],[149.97541,-37.44545],[149.951181,-37.366104],[149.972162,-37.328523],[149.942936,-37.282524],[150.021337,-37.218882],[150.004599,-37.14645],[149.938309,-37.09858],[149.872514,-37.083208],[149.939397,-37.038901],[149.908606,-36.939094],[149.929592,-36.894714],[149.940621,-36.811683],[149.967162,-36.78743],[149.999881,-36.665002],[150.058028,-36.579313],[150.055037,-36.495297],[150.082699,-36.422783],[150.068941,-36.393006],[150.136439,-36.305905],[150.147542,-36.237994],[150.124678,-36.137445],[150.134459,-36.066015]],[[149.200699,-35.205565],[149.271628,-35.270805],[149.3153,-35.276231],[149.39718,-35.324254],[149.336346,-35.339884],[149.249308,-35.330127],[149.206345,-35.345905],[149.146391,-35.415303],[149.15161,-35.493201],[149.132454,-35.549503],[149.140486,-35.588292],[149.078148,-35.586417],[149.109418,-35.696586],[149.090709,-35.765617],[149.101088,-35.805063],[149.048811,-35.92041],[148.958406,-35.891788],[148.912654,-35.85546],[148.889403,-35.722723],[148.834726,-35.740511],[148.788443,-35.697807],[148.798521,-35.666979],[148.768896,-35.604262],[148.76279,-35.495499],[148.785795,-35.408911],[148.80866,-35.382455],[148.793547,-35.339122],[148.810134,-35.307449],[148.961731,-35.218467],[149.120948,-35.124416],[149.164278,-35.141905],[149.200699,-35.205565]]]},"bbox":[147.689329,-37.505032,150.204326,-34.542419]},
{"properties":{"electorateShortName":"farrer","electorateName":"Farrer","area":126564.02,"state":null},"type":"Feature","geometry":{"type":"Polygon","coordinates":[[[147.689329,-35.937679],[147.691175,-35.886085],[147.714259,-35.838507],[147.760588,-35.839756],[147.819657,-35.744114],[147.801663,-35.678005],[147.833648,-35.641585],[147.89396,-35.62422],[147.845391,-35.554599],[147.685594,-35.534198],[147.607787,-35.539571],[147.525087,-35.483406],[147.480995,-35.54516],[147.283199,-35.500123],[147.226524,-35.473668],[147.087341,-35.450465],[146.871365,-35.57586],[146.796881,-35.574699],[146.662323,-35.547763],[146.669769,-35.520279],[146.540094,-35.487174],[146.428237,-35.471405],[146.354226,-35.387797],[146.364032,-35.337739],[146.403804,-35.304452],[146.413658,-35.250545],[146.389251,-35.231731],[146.563727,-35.119126],[146.615161,-35.114348],[146.688478,-35.067979],[146.761524,-35.076441],[146.7942,-35.058208],[146.807657,-34.986944],[146.784477,-34.924058],[146.84358,-34.899125],[146.843266,-34.83723],[146.911568,-34.482591],[146.795492,-34.470798],[146.823028,-34.310851],[146.718745,-34.298111],[146.729043,-34.236768],[146.623872,-34.224735],[146.635404,-34.151187],[146.458206,-34.13293],[146.492809,-33.919657],[146.417433,-33.910635],[146.437185,-33.794499],[146.0703,-33.753534],[146.095141,-33.603131],[146.053962,-33.475767],[146.066897,-33.359114],[146.095088,-33.276178],[146.058892,-33.211808],[146.093631,-33.189083],[146.03166,-33.093579],[145.645258,-33.080312],[145.668529,-32.935871],[145.651787,-32.935351],[145.671923,-32.805722],[145.586515,-32.796236],[145.504348,-32.770092],[145.510436,-32.727862],[145.467462,-32.722507],[145.412631,-32.775949],[145.330563,-32.766674],[145.344278,-32.682486],[145.257279,-32.671254],[145.249374,-32.724393],[145.164993,-32.71483],[145.127254,-32.954686],[145.107556,-33.033712],[145.027698,-33.021923],[144.991731,-33.033662],[144.979402,-33.083791],[144.908865,-33.074448],[144.913078,-33.049131],[144.798235,-33.036219],[144.777974,-33.163461],[144.741889,-33.173591],[144.733424,-33.231398],[144.645681,-33.222352],[144.577529,-33.288666],[144.546947,-33.300011],[144.262641,-33.272906],[144.236255,-33.249829],[144.251426,-33.15507],[143.905907,-33.115708],[143.898192,-33.161392],[143.720951,-33.140453],[143.66485,-33.178855],[143.637288,-33.149916],[143.55246,-33.140481],[143.57281,-33.012429],[143.653413,-33.012413],[143.671807,-32.940764],[143.585153,-32.93103],[143.591987,-32.885141],[143.505852,-32.876004],[143.499566,-32.918349],[143.416969,-32.907493],[143.432435,-32.808446],[143.269614,-32.791387],[143.271212,-32.780229],[142.964638,-32.748537],[142.94435,-32.890533],[142.515536,-32.847454],[142.549908,-32.991416],[142.547987,-33.01714],[142.382492,-33.005539],[142.28965,-33.081676],[142.27428,-33.123423],[142.105679,-33.11242],[142.107802,-33.090131],[142.022933,-33.0848],[142.038355,-33.143941],[141.560773,-33.096293],[141.573204,-33.005572],[141.40258,-32.98766],[141.348003,-33.366658],[141.002258,-33.329008],[141.002956,-34.021892],[141.008944,-34.044659],[141.153324,-34.064288],[141.207196,-34.061188],[141.261021,-34.078979],[141.333928,-34.130235],[141.357551,-34.110689],[141.452499,-34.161286],[141.49464,-34.154513],[141.517587,-34.206455],[141.567974,-34.19183],[141.635074,-34.12039],[141.704907,-34.095686],[141.877847,-34.136849],[141.899106,-34.111489],[141.983492,-34.112412],[142.074484,-34.130492],[142.082078,-34.172992],[142.220316,-34.181665],[142.249565,-34.266928],[142.238544,-34.30782],[142.3337,-34.339302],[142.396798,-34.338095],[142.351891,-34.394745],[142.368408,-34.527088],[142.434747,-34.576146],[142.471582,-34.666869],[142.51417,-34.690931],[142.501829,-34.732639],[142.526185,-34.759814],[142.63143,-34.784396],[142.616551,-34.737954],[142.696762,-34.720165],[142.678929,-34.680153],[142.699546,-34.603155],[142.763518,-34.596737],[142.861505,-34.628214],[142.874045,-34.673405],[142.924713,-34.649591],[142.96334,-34.676608],[143.012939,-34.671045],[143.040044,-34.702511],[143.104118,-34.694001],[143.196437,-34.728109],[143.273544,-34.777017],[143.351547,-34.796004],[143.359391,-34.817289],[143.323091,-34.884688],[143.342789,-34.932533],[143.319601,-34.968697],[143.338008,-35.010576],[143.346988,-35.104778],[143.374051,-35.122918],[143.396379,-35.193113],[143.446411,-35.189924],[143.471482,-35.219293],[143.563927,-35.202627],[143.584421,-35.278789],[143.563748,-35.316119],[143.642338,-35.401037],[143.665835,-35.382457],[143.746463,-35.388599],[143.866592,-35.480323],[143.948097,-35.500832],[143.989386,-35.553192],[144.04785,-35.556174],[144.104918,-35.590724],[144.117546,-35.625926],[144.24841,-35.7215],[144.296367,-35.737179],[144.375727,-35.801211],[144.36476,-35.819647],[144.408376,-35.898742],[144.51644,-35.995631],[144.583275,-36.039025],[144.692392,-36.069351],[144.717616,-36.112711],[144.805787,-36.123842],[144.874824,-36.057628],[144.986877,-36.064296],[144.923615,-35.988951],[144.971073,-35.860927],[145.020321,-35.856001],[145.072861,-35.827757],[145.168353,-35.842476],[145.246515,-35.830412],[145.284146,-35.856572],[145.352396,-35.865795],[145.442293,-35.835642],[145.471521,-35.811322],[145.533964,-35.805286],[145.684681,-35.930753],[145.721179,-35.935062],[145.793445,-35.982817],[145.84426,-35.983005],[145.908007,-35.953565],[145.989126,-36.013079],[146.032803,-35.994774],[146.108589,-36.007092],[146.177951,-36.033848],[146.242797,-36.028965],[146.299882,-36.047795],[146.387672,-36.035514],[146.414345,-35.975453],[146.517902,-35.960061],[146.607972,-35.985904],[146.679175,-36.021948],[146.72723,-36.02682],[146.760209,-36.058169],[146.836347,-36.082187],[147.016178,-36.089497],[147.137173,-36.028625],[147.204328,-36.049889],[147.352244,-36.032293],[147.360761,-35.988997],[147.404264,-35.943562],[147.456156,-35.957779],[147.498602,-35.946642],[147.555245,-36.00321],[147.689329,-35.937679]]]},"bbox":[141.002258,-36.123842,147.89396,-32.671254]},
{"properties":{"electorateShortName":"fowler","electorateName":"Fowler","area":60.3,"state":null},"type":"Feature","geometry":{"type":"Polygon","coordinates":[[[150.985518,-33.870492],[150.945003,-33.885677],[150.875878,-33.852024],[150.842448,-33.876249],[150.881878,-33.888583],[150.918927,-33.939096],[150.968598,-33.931074],[150.985518,-33.870492]]]},"bbox":[150.842448,-33.939096,150.985518,-33.852024]},
{"properties":{"electorateShortName":"gilmore","electorateName":"Gilmore","area":6341.26,"state":null},"type":"Feature","geometry":{"type":"Polygon","coordinates":[[[150.701604,-35.122862],[150.678123,-35.025228],[150.753894,-34.991007],[150.785012,-35.030788],[150.799512,-35.09063],[150.840569,-35.060413],[150.835267,-35.032089],[150.779433,-34.973075],[150.78001,-34.934466],[150.750217,-34.887528],[150.762336,-34.817197],[150.822899,-34.773159],[150.858825,-34.686322],[150.860886,-34.627883],[150.796952,-34.641328],[150.758131,-34.613022],[150.666625,-34.611709],[150.576376,-34.669631],[150.548328,-34.650451],[150.398143,-34.705149],[150.37784,-34.736644],[150.28782,-34.764691],[150.209564,-34.814495],[150.127115,-34.817387],[150.07422,-34.768097],[150.040306,-34.79555],[150.037447,-34.843872],[150.088242,-34.924887],[150.05552,-34.965285],[150.05191,-35.007276],[150.071681,-35.049501],[150.129401,-35.09779],[150.141643,-35.14446],[150.204326,-35.177566],[150.197489,-35.230222],[150.113762,-35.290943],[150.03804,-35.331635],[150.038056,-35.406213],[150.007436,-35.430683],[149.998742,-35.478744],[149.964045,-35.500787],[149.929853,-35.565592],[149.934096,-35.61165],[149.856847,-35.719476],[149.817232,-35.753041],[149.855705,-35.809015],[149.966665,-36.010489],[150.014268,-36.035793],[150.092496,-36.044878],[150.134459,-36.066015],[150.160261,-36.013824],[150.149676,-35.895409],[150.187121,-35.832865],[150.227112,-35.822133],[150.234944,-35.771762],[150.199194,-35.719221],[150.262428,-35.717863],[150.313561,-35.635562],[150.407619,-35.529497],[150.392847,-35.464609],[150.474882,-35.356554],[150.478024,-35.291824],[150.541494,-35.245711],[150.539507,-35.216614],[150.593971,-35.185018],[150.607504,-35.143847],[150.661053,-35.117824],[150.701604,-35.122862]]]},"bbox":[149.817232,-36.066015,150.860886,-34.611709]},
{"properties":{"electorateShortName":"grayndler","electorateName":"Grayndler","area":27.73,"state":null},"type":"Feature","geometry":{"type":"Polygon","coordinates":[[[151.179039,-33.920542],[151.195942,-33.849776],[151.159279,-33.845383],[151.117504,-33.888516],[151.119054,-33.9122],[151.17424,-33.924966],[151.179039,-33.920542]]]},"bbox":[151.117504,-33.924966,151.195942,-33.845383]},
{"properties":{"electorateShortName":"greenway","electorateName":"Greenway","area":81.27,"state":null},"type":"Feature","geometry":{"type":"Polygon","coordinates":[[[150.966879,-33.781121],[150.927603,-33.697],[150.874039,-33.656671],[150.851042,-33.650138],[150.906339,-33.765656],[150.896938,-33.797945],[150.952387,-33.811574],[150.966879,-33.781121]]]},"bbox":[150.851042,-33.811574,150.966879,-33.650138]},
{"properties":{"electorateShortName":"hughes","electorateName":"Hughes","area":358.87,"state":null},"type":"Feature","geometry":{"type":"Polygon","coordinates":[[[151.066158,-34.172329],[151.127882,-34.137919],[151.162586,-34.072444],[151.112757,-34.075693],[151.076868,-34.053482],[151.092083,-33.995127],[151.034708,-33.991575],[150.970677,-33.946946],[150.968598,-33.931074],[150.918927,-33.939096],[150.888573,-34.005463],[150.940791,-34.040033],[150.922732,-34.130009],[150.979872,-34.13841],[151.066158,-34.172329]]]},"bbox":[150.888573,-34.172329,151.162586,-33.931074]},
{"properties":{"electorateShortName":"hume","electorateName":"Hume","area":17236.13,"state":null},"type":"Feature","geometry":{"type":"Polygon","coordinates":[[[150.745677,-34.337416],[150.750861,-34.301926],[150.81676,-34.306375],[150.876359,-34.25966],[150.890517,-34.214076],[150.859526,-34.181048],[150.752063,-34.163864],[150.722585,-34.002382],[150.731798,-33.939931],[150.704789,-33.913048],[150.720944,-33.869447],[150.672337,-33.842403],[150.612793,-33.861847],[150.470564,-33.963447],[150.404275,-33.940691],[150.326633,-33.85673],[150.280855,-33.85066],[150.232966,-33.884501],[150.186093,-33.88118],[150.155908,-33.89309],[150.175556,-33.945178],[150.2412,-33.952033],[150.209036,-33.997793],[150.165229,-34.023469],[150.115857,-34.080292],[150.105241,-34.138496],[150.011735,-34.109711],[150.007292,-34.085287],[149.932543,-34.090534],[149.949395,-34.124609],[149.920374,-34.181677],[149.849901,-34.183698],[149.804704,-34.20262],[149.681688,-34.191454],[149.629447,-34.114099],[149.547501,-34.085569],[149.480219,-34.015379],[149.434733,-34.022927],[149.347778,-33.953299],[149.279321,-33.948523],[149.197738,-33.984896],[149.152632,-33.967033],[149.155178,-33.92836],[149.119836,-33.887828],[149.082078,-33.91288],[148.982051,-33.924165],[148.966308,-33.970116],[148.927697,-33.981342],[148.869453,-33.94686],[148.767364,-33.981956],[148.763135,-34.038251],[148.730955,-34.078698],[148.645477,-34.10725],[148.636239,-34.146204],[148.645351,-34.251831],[148.608096,-34.30067],[148.609878,-34.356317],[148.553622,-34.411429],[148.614754,-34.466283],[148.622363,-34.526737],[148.653642,-34.542419],[148.687863,-34.558715],[148.782707,-34.572021],[148.847386,-34.56897],[148.90471,-34.63903],[148.949465,-34.646075],[148.941412,-34.690235],[148.990355,-34.706223],[149.037599,-34.758318],[149.043337,-34.827568],[149.182133,-34.892721],[149.279035,-34.89052],[149.280448,-34.911674],[149.447813,-34.927857],[149.526448,-34.907917],[149.524719,-34.969679],[149.551228,-34.97557],[149.538247,-35.068569],[149.559783,-35.115521],[149.660656,-35.137933],[149.73154,-35.182711],[149.771792,-35.175611],[149.798404,-35.207386],[149.931118,-35.235045],[150.018646,-35.107978],[149.980741,-35.095146],[150.05191,-35.007276],[150.05552,-34.965285],[150.088242,-34.924887],[150.037447,-34.843872],[150.040306,-34.79555],[150.07422,-34.768097],[150.127115,-34.817387],[150.209564,-34.814495],[150.28782,-34.764691],[150.37784,-34.736644],[150.398143,-34.705149],[150.416149,-34.662966],[150.380868,-34.613911],[150.340998,-34.592213],[150.257508,-34.597417],[150.254535,-34.566204],[150.309147,-34.508201],[150.32004,-34.476547],[150.382528,-34.447029],[150.455872,-34.432114],[150.530565,-34.385063],[150.570022,-34.380552],[150.634633,-34.319652],[150.745677,-34.337416]]]},"bbox":[148.553622,-35.235045,150.890517,-33.842403]},
{"properties":{"electorateShortName":"hunter","electorateName":"Hunter","area":10576.69,"state":null},"type":"Feature","geometry":{"type":"Polygon","coordinates":[[[151.662412,-32.929851],[151.608578,-32.880151],[151.477827,-32.87227],[151.487259,-32.849374],[151.407551,-32.825686],[151.396164,-32.77718],[151.433194,-32.757466],[151.400589,-32.702881],[151.407184,-32.679147],[151.434772,-32.613621],[151.470816,-32.618177],[151.500727,-32.504188],[151.456798,-32.472384],[151.446149,-32.407075],[151.371487,-32.291598],[151.339229,-32.262123],[151.341902,-32.175586],[151.309698,-32.138984],[151.246256,-32.209568],[151.208815,-32.220166],[151.118349,-32.193692],[151.066043,-32.165754],[150.975451,-32.170118],[150.861315,-32.189542],[150.656558,-32.160607],[150.629114,-32.148247],[150.4989,-32.130039],[150.486529,-32.239935],[150.527595,-32.313603],[150.393601,-32.333752],[150.38685,-32.378895],[150.318917,-32.408261],[150.246977,-32.460298],[150.236447,-32.608444],[150.311343,-32.646919],[150.288566,-32.765054],[150.337975,-32.790387],[150.3622,-32.845066],[150.340685,-32.87098],[150.366455,-32.936634],[150.371672,-33.015457],[150.488448,-33.048124],[150.610687,-33.066137],[150.718059,-33.068653],[150.745841,-33.021913],[150.804787,-33.006045],[150.855141,-33.056316],[150.848251,-33.092812],[150.973962,-33.129606],[151.035356,-33.117464],[151.052491,-33.07994],[151.103972,-33.076969],[151.135527,-33.110401],[151.202626,-33.13886],[151.25077,-33.099827],[151.266703,-33.058556],[151.315283,-33.048252],[151.37894,-33.099711],[151.398625,-33.185747],[151.455115,-33.202843],[151.51218,-33.194307],[151.532684,-33.140792],[151.613877,-33.090566],[151.633277,-33.041009],[151.614129,-32.955406],[151.662412,-32.929851]]]},"bbox":[150.236447,-33.202843,151.662412,-32.130039]},
{"properties":{"electorateShortName":"kingsford-smith","electorateName":"Kingsford Smith","area":57.86,"state":null},"type":"Feature","geometry":{"type":"Polygon","coordinates":[[[151.231926,-34.016739],[151.24988,-34.001238],[151.266539,-33.913935],[151.215031,-33.900896],[151.179039,-33.920542],[151.17424,-33.924966],[151.154842,-33.966669],[151.163887,-34.000746],[151.231926,-34.016739]]]},"bbox":[151.154842,-34.016739,151.266539,-33.900896]},
{"properties":{"electorateShortName":"lindsay","electorateName":"Lindsay","area":338.97,"state":null},"type":"Feature","geometry":{"type":"Polygon","coordinates":[[[150.812394,-33.677614],[150.782148,-33.637517],[150.708442,-33.61346],[150.681494,-33.625074],[150.644053,-33.721212],[150.64072,-33.781917],[150.588042,-33.844933],[150.612793,-33.861847],[150.672337,-33.842403],[150.720944,-33.869447],[150.767908,-33.875728],[150.765151,-33.783428],[150.803381,-33.776811],[150.765994,-33.705777],[150.812394,-33.677614]]]},"bbox":[150.588042,-33.875728,150.812394,-33.61346]},
{"properties":{"electorateShortName":"lyne","electorateName":"Lyne","area":16040.73,"state":null},"type":"Feature","geometry":{"type":"Polygon","coordinates":[[[152.915196,-31.492814],[152.81498,-31.476781],[152.824844,-31.413747],[152.785939,-31.343094],[152.736674,-31.340141],[152.679693,-31.227203],[152.705219,-31.207461],[152.706943,-31.151512],[152.64048,-31.14974],[152.597606,-31.123699],[152.539697,-31.162886],[152.455832,-31.155831],[152.385897,-31.166653],[152.349587,-31.117004],[152.330897,-31.127464],[152.316572,-31.202936],[152.14755,-31.196017],[152.160941,-31.240885],[152.123679,-31.278729],[152.09976,-31.392027],[152.065575,-31.409145],[152.083657,-31.500485],[151.91277,-31.4767],[151.915755,-31.510067],[151.84458,-31.499475],[151.761575,-31.511185],[151.802497,-31.573861],[151.757149,-31.601741],[151.756867,-31.638158],[151.659977,-31.61219],[151.536255,-31.598101],[151.517871,-31.768467],[151.594022,-31.78969],[151.57678,-31.85484],[151.535463,-31.84554],[151.491173,-31.878161],[151.442452,-31.949366],[151.454726,-31.995979],[151.408589,-32.032685],[151.387447,-32.083526],[151.335448,-32.082403],[151.309698,-32.138984],[151.341902,-32.175586],[151.339229,-32.262123],[151.371487,-32.291598],[151.446149,-32.407075],[151.456798,-32.472384],[151.500727,-32.504188],[151.470816,-32.618177],[151.434772,-32.613621],[151.407184,-32.679147],[151.424995,-32.691366],[151.496875,-32.638999],[151.509915,-32.687487],[151.569049,-32.697386],[151.727015,-32.751268],[151.756003,-32.678348],[151.809842,-32.686222],[151.844219,-32.661604],[151.932013,-32.661416],[151.976222,-32.684583],[152.194486,-32.707671],[152.18698,-32.669451],[152.214414,-32.627575],[152.285026,-32.594775],[152.33563,-32.527079],[152.418854,-32.482549],[152.533347,-32.44304],[152.516316,-32.408505],[152.545767,-32.3371],[152.526786,-32.280044],[152.56751,-32.211487],[152.506396,-32.165553],[152.508752,-32.129038],[152.548008,-32.073271],[152.54381,-32.036093],[152.608795,-31.94714],[152.657126,-31.903104],[152.745085,-31.845878],[152.747952,-31.789103],[152.797657,-31.733566],[152.793334,-31.705666],[152.842205,-31.642064],[152.844584,-31.574441],[152.915196,-31.492814]]]},"bbox":[151.309698,-32.751268,152.915196,-31.117004]},
{"properties":{"electorateShortName":"macarthur","electorateName":"Macarthur","area":362.6,"state":null},"type":"Feature","geometry":{"type":"Polygon","coordinates":[[[150.922732,-34.130009],[150.940791,-34.040033],[150.888573,-34.005463],[150.815164,-33.967775],[150.731798,-33.939931],[150.722585,-34.002382],[150.752063,-34.163864],[150.859526,-34.181048],[150.899355,-34.189613],[150.922732,-34.130009]]]},"bbox":[150.722585,-34.189613,150.940791,-33.939931]},
{"properties":{"electorateShortName":"mackellar","electorateName":"Mackellar","area":212.29,"state":null},"type":"Feature","geometry":{"type":"Polygon","coordinates":[[[151.299717,-33.756601],[151.300203,-33.718072],[151.331914,-33.636464],[151.335198,-33.582209],[151.284798,-33.572214],[151.175919,-33.627211],[151.161505,-33.659605],[151.191417,-33.702699],[151.18035,-33.740095],[151.203599,-33.773133],[151.227126,-33.751393],[151.299717,-33.756601]]]},"bbox":[151.161505,-33.773133,151.335198,-33.572214]},
{"properties":{"electorateShortName":"macquarie","electorateName":"Macquarie","area":4373.46,"state":null},"type":"Feature","geometry":{"type":"Polygon","coordinates":[[[151.135527,-33.110401],[151.103972,-33.076969],[151.052491,-33.07994],[151.035356,-33.117464],[150.973962,-33.129606],[150.848251,-33.092812],[150.855141,-33.056316],[150.804787,-33.006045],[150.745841,-33.021913],[150.718059,-33.068653],[150.610687,-33.066137],[150.604485,-33.1473],[150.527999,-33.194059],[150.53315,-33.240176],[150.580997,-33.351442],[150.475923,-33.399445],[150.4474,-33.481423],[150.402519,-33.476926],[150.335619,-33.511948],[150.256814,-33.494305],[150.236942,-33.593271],[150.266463,-33.622346],[150.214826,-33.674875],[150.177912,-33.778027],[150.186093,-33.88118],[150.232966,-33.884501],[150.280855,-33.85066],[150.326633,-33.85673],[150.404275,-33.940691],[150.470564,-33.963447],[150.612793,-33.861847],[150.588042,-33.844933],[150.64072,-33.781917],[150.644053,-33.721212],[150.681494,-33.625074],[150.708442,-33.61346],[150.782148,-33.637517],[150.812394,-33.677614],[150.851042,-33.650138],[150.874039,-33.656671],[150.904302,-33.61188],[150.935653,-33.564909],[150.889073,-33.555299],[150.926583,-33.508451],[150.887353,-33.437201],[150.943673,-33.424896],[150.988457,-33.379232],[150.999641,-33.351156],[151.090244,-33.324986],[151.099671,-33.144458],[151.135527,-33.110401]]]},"bbox":[150.177912,-33.963447,151.135527,-33.006045]},
{"properties":{"electorateShortName":"mcmahon","electorateName":"McMahon","area":168.35,"state":null},"type":"Feature","geometry":{"type":"Polygon","coordinates":[[[150.996472,-33.851322],[150.952387,-33.811574],[150.896938,-33.797945],[150.803381,-33.776811],[150.765151,-33.783428],[150.767908,-33.875728],[150.842448,-33.876249],[150.875878,-33.852024],[150.945003,-33.885677],[150.985518,-33.870492],[150.996472,-33.851322]]]},"bbox":[150.765151,-33.885677,150.996472,-33.776811]},
{"properties":{"electorateShortName":"mitchell","electorateName":"Mitchell","area":101.11,"state":null},"type":"Feature","geometry":{"type":"Polygon","coordinates":[[[151.031131,-33.768966],[151.019071,-33.717193],[150.930022,-33.659839],[150.904302,-33.61188],[150.874039,-33.656671],[150.927603,-33.697],[150.966879,-33.781121],[151.031131,-33.768966]]]},"bbox":[150.874039,-33.781121,151.031131,-33.61188]},
{"properties":{"electorateShortName":"new-england","electorateName":"New England","area":66327.59,"state":null},"type":"Feature","geometry":{"type":"Polygon","coordinates":[[[152.428078,-30.418897],[152.35178,-30.355359],[152.337677,-30.26243],[152.315421,-30.208575],[152.309672,-30.147907],[152.280721,-30.087436],[152.313319,-30.030123],[152.308005,-29.980175],[152.275042,-29.960416],[152.285582,-29.907048],[152.267689,-29.847868],[152.197742,-29.875924],[152.168757,-29.869874],[152.17596,-29.817476],[152.205433,-29.771754],[152.264365,-29.750938],[152.280708,-29.665904],[152.336123,-29.640777],[152.354492,-29.545471],[152.412456,-29.50688],[152.388785,-29.445316],[152.451081,-29.358053],[152.331517,-29.341837],[152.298279,-29.307447],[152.351323,-29.249123],[152.394086,-29.24125],[152.444231,-29.144175],[152.455006,-29.089027],[152.421006,-29.084096],[152.46464,-29.008025],[152.467109,-28.973664],[152.558516,-28.990078],[152.548638,-28.932364],[152.573306,-28.86365],[152.556973,-28.824527],[152.480325,-28.780262],[152.498235,-28.74483],[152.375208,-28.699883],[152.408765,-28.628211],[152.441811,-28.592688],[152.447754,-28.527473],[152.500138,-28.528526],[152.577038,-28.437617],[152.627861,-28.327548],[152.597846,-28.314779],[152.525036,-28.303964],[152.536753,-28.265694],[152.487617,-28.253908],[152.44275,-28.290772],[152.38508,-28.368855],[152.312222,-28.362717],[152.267606,-28.390047],[152.217189,-28.449236],[152.164947,-28.432626],[152.121721,-28.460333],[152.06929,-28.468759],[152.016864,-28.525281],[151.955149,-28.519412],[151.957446,-28.563417],[151.985769,-28.58153],[152.013854,-28.665753],[152.076049,-28.708175],[152.043603,-28.730613],[152.023571,-28.891181],[151.927348,-28.925411],[151.847287,-28.90863],[151.834235,-28.957209],[151.772735,-28.938251],[151.726628,-28.866876],[151.636751,-28.922061],[151.54908,-28.952484],[151.499374,-29.017755],[151.502799,-29.069884],[151.395282,-29.177187],[151.33931,-29.177266],[151.281159,-29.103695],[151.28865,-29.051751],[151.272148,-28.973172],[151.281944,-28.949959],[151.103478,-28.837047],[151.055809,-28.849073],[151.010299,-28.740641],[150.948417,-28.734381],[150.930908,-28.705519],[150.729851,-28.634142],[150.632541,-28.676572],[150.58306,-28.656108],[150.535145,-28.67203],[150.483443,-28.662131],[150.539403,-28.707396],[150.672684,-28.741396],[150.672147,-28.793301],[150.63764,-28.826871],[150.611922,-28.887505],[150.630952,-28.941345],[150.611552,-29.000026],[150.702024,-29.083907],[150.752277,-29.15097],[150.763679,-29.209513],[150.751241,-29.263237],[150.795123,-29.313725],[150.827929,-29.411862],[150.890605,-29.420644],[150.863628,-29.456517],[150.856784,-29.512519],[150.733308,-29.569273],[150.726032,-29.635639],[150.68871,-29.677912],[150.676957,-29.754931],[150.612074,-29.795893],[150.525355,-29.810999],[150.406833,-29.745087],[150.302421,-29.735565],[150.28796,-29.749832],[150.312409,-29.892556],[150.292859,-29.990531],[150.248852,-29.99348],[150.197512,-30.062574],[150.124153,-30.070046],[150.07566,-30.107363],[150.102263,-30.191946],[150.167062,-30.228544],[150.194998,-30.321087],[150.188295,-30.359725],[150.283241,-30.430848],[150.351488,-30.418184],[150.367582,-30.470081],[150.358849,-30.519138],[150.388654,-30.551035],[150.36502,-30.583433],[150.454351,-30.607517],[150.509647,-30.660088],[150.457961,-30.690158],[150.487268,-30.798984],[150.559266,-30.810814],[150.530401,-30.875117],[150.527741,-30.968574],[150.551811,-31.011416],[150.599399,-31.046846],[150.572125,-31.206047],[150.575295,-31.273798],[150.550514,-31.289523],[150.543292,-31.36287],[150.433278,-31.36388],[150.417667,-31.397631],[150.160961,-31.354959],[150.148646,-31.303841],[150.158496,-31.237667],[150.103379,-31.240018],[150.078838,-31.338094],[150.006557,-31.320806],[149.98813,-31.427367],[149.968049,-31.45813],[149.882911,-31.451994],[149.866949,-31.537269],[149.911314,-31.572789],[149.863574,-31.669611],[149.904783,-31.706764],[149.965541,-31.700973],[149.993737,-31.721789],[150.030212,-31.69088],[150.075072,-31.739869],[150.023983,-31.828752],[149.897359,-31.912621],[149.866099,-31.961503],[149.869721,-32.023779],[149.795665,-32.05809],[149.81943,-32.103624],[149.892267,-32.11267],[149.947996,-32.134952],[150.034803,-32.195905],[150.063026,-32.245722],[150.021827,-32.305597],[150.054166,-32.351038],[150.164314,-32.320185],[150.217873,-32.336569],[150.26078,-32.317813],[150.266698,-32.375736],[150.318917,-32.408261],[150.38685,-32.378895],[150.393601,-32.333752],[150.527595,-32.313603],[150.486529,-32.239935],[150.4989,-32.130039],[150.629114,-32.148247],[150.656558,-32.160607],[150.861315,-32.189542],[150.975451,-32.170118],[151.066043,-32.165754],[151.118349,-32.193692],[151.208815,-32.220166],[151.246256,-32.209568],[151.309698,-32.138984],[151.335448,-32.082403],[151.387447,-32.083526],[151.408589,-32.032685],[151.454726,-31.995979],[151.442452,-31.949366],[151.491173,-31.878161],[151.535463,-31.84554],[151.57678,-31.85484],[151.594022,-31.78969],[151.517871,-31.768467],[151.536255,-31.598101],[151.659977,-31.61219],[151.756867,-31.638158],[151.757149,-31.601741],[151.802497,-31.573861],[151.761575,-31.511185],[151.84458,-31.499475],[151.915755,-31.510067],[151.91277,-31.4767],[152.083657,-31.500485],[152.065575,-31.409145],[152.09976,-31.392027],[152.123679,-31.278729],[152.160941,-31.240885],[152.14755,-31.196017],[152.316572,-31.202936],[152.330897,-31.127464],[152.349587,-31.117004],[152.34517,-31.050618],[152.269825,-30.999147],[152.29117,-30.975444],[152.28951,-30.844152],[152.315673,-30.793799],[152.343857,-30.791901],[152.375309,-30.745347],[152.358405,-30.684213],[152.369291,-30.658905],[152.316055,-30.602971],[152.335809,-30.567038],[152.386854,-30.528965],[152.389645,-30.453052],[152.428078,-30.418897]]]},"bbox":[149.795665,-32.408261,152.627861,-28.253908]},
{"properties":{"electorateShortName":"newcastle","electorateName":"Newcastle","area":156.76,"state":null},"type":"Feature","geometry":{"type":"Polygon","coordinates":[[[151.81011,-32.87822],[151.72725,-32.837075],[151.672974,-32.829504],[151.608578,-32.880151],[151.662412,-32.929851],[151.737915,-32.962947],[151.792983,-32.922815],[151.81011,-32.87822]]]},"bbox":[151.608578,-32.962947,151.81011,-32.829504]},
{"properties":{"electorateShortName":"north-sydney","electorateName":"North Sydney","area":41.61,"state":null},"type":"Feature","geometry":{"type":"Polygon","coordinates":[[[151.22665,-33.854461],[151.232938,-33.792589],[151.157106,-33.792709],[151.128305,-33.842931],[151.159279,-33.845383],[151.195942,-33.849776],[151.22665,-33.854461]]]},"bbox":[151.128305,-33.854461,151.232938,-33.792589]},
{"properties":{"electorateShortName":"page","electorateName":"Page","area":19318.14,"state":null},"type":"Feature","geometry":{"type":"Polygon","coordinates":[[[153.544475,-28.917804],[153.475801,-28.924591],[153.486858,-28.864848],[153.441382,-28.823097],[153.448133,-28.746851],[153.40682,-28.742889],[153.418182,-28.677922],[153.412627,-28.618563],[153.32783,-28.542733],[153.247732,-28.515887],[153.160263,-28.524129],[153.124034,-28.430592],[153.1094,-28.35744],[153.065283,-28.344234],[152.941574,-28.334512],[152.882129,-28.312092],[152.831926,-28.319961],[152.803636,-28.353735],[152.740742,-28.359934],[152.627857,-28.303031],[152.597846,-28.314779],[152.627861,-28.327548],[152.577038,-28.437617],[152.500138,-28.528526],[152.447754,-28.527473],[152.441811,-28.592688],[152.408765,-28.628211],[152.375208,-28.699883],[152.498235,-28.74483],[152.480325,-28.780262],[152.556973,-28.824527],[152.573306,-28.86365],[152.548638,-28.932364],[152.558516,-28.990078],[152.467109,-28.973664],[152.46464,-29.008025],[152.421006,-29.084096],[152.455006,-29.089027],[152.444231,-29.144175],[152.394086,-29.24125],[152.351323,-29.249123],[152.298279,-29.307447],[152.331517,-29.341837],[152.451081,-29.358053],[152.388785,-29.445316],[152.412456,-29.50688],[152.354492,-29.545471],[152.336123,-29.640777],[152.280708,-29.665904],[152.264365,-29.750938],[152.205433,-29.771754],[152.17596,-29.817476],[152.168757,-29.869874],[152.197742,-29.875924],[152.267689,-29.847868],[152.285582,-29.907048],[152.275042,-29.960416],[152.308005,-29.980175],[152.313319,-30.030123],[152.280721,-30.087436],[152.309672,-30.147907],[152.315421,-30.208575],[152.337677,-30.26243],[152.35178,-30.355359],[152.428078,-30.418897],[152.478585,-30.396993],[152.474912,-30.356637],[152.547091,-30.28865],[152.559647,-30.243719],[152.655376,-30.255316],[152.697823,-30.223335],[152.692987,-30.189015],[152.803453,-30.189567],[152.82954,-30.222078],[152.911059,-30.228489],[152.952152,-30.215507],[153.063319,-30.287125],[153.092125,-30.241608],[153.1495,-30.240696],[153.20109,-30.157596],[153.197084,-30.040577],[153.261773,-29.939942],[153.267648,-29.86525],[153.302914,-29.779179],[153.29201,-29.755913],[153.333974,-29.674551],[153.322947,-29.644035],[153.358717,-29.524101],[153.358416,-29.465843],[153.375511,-29.366632],[153.340263,-29.320414],[153.358856,-29.264965],[153.453325,-29.141867],[153.433862,-29.091555],[153.452966,-29.039249],[153.544475,-28.917804]]]},"bbox":[152.168757,-30.418897,153.544475,-28.303031]},
{"properties":{"electorateShortName":"parkes","electorateName":"Parkes","area":393047.12,"state":null},"type":"Feature","geometry":{"type":"Polygon","coordinates":[[[149.795665,-32.05809],[149.869721,-32.023779],[149.866099,-31.961503],[149.897359,-31.912621],[150.023983,-31.828752],[150.075072,-31.739869],[150.030212,-31.69088],[149.993737,-31.721789],[149.965541,-31.700973],[149.904783,-31.706764],[149.863574,-31.669611],[149.911314,-31.572789],[149.866949,-31.537269],[149.882911,-31.451994],[149.968049,-31.45813],[149.98813,-31.427367],[150.006557,-31.320806],[150.078838,-31.338094],[150.103379,-31.240018],[150.158496,-31.237667],[150.148646,-31.303841],[150.160961,-31.354959],[150.417667,-31.397631],[150.433278,-31.36388],[150.543292,-31.36287],[150.550514,-31.289523],[150.575295,-31.273798],[150.572125,-31.206047],[150.599399,-31.046846],[150.551811,-31.011416],[150.527741,-30.968574],[150.530401,-30.875117],[150.559266,-30.810814],[150.487268,-30.798984],[150.457961,-30.690158],[150.509647,-30.660088],[150.454351,-30.607517],[150.36502,-30.583433],[150.388654,-30.551035],[150.358849,-30.519138],[150.367582,-30.470081],[150.351488,-30.418184],[150.283241,-30.430848],[150.188295,-30.359725],[150.194998,-30.321087],[150.167062,-30.228544],[150.102263,-30.191946],[150.07566,-30.107363],[150.124153,-30.070046],[150.197512,-30.062574],[150.248852,-29.99348],[150.292859,-29.990531],[150.312409,-29.892556],[150.28796,-29.749832],[150.302421,-29.735565],[150.406833,-29.745087],[150.525355,-29.810999],[150.612074,-29.795893],[150.676957,-29.754931],[150.68871,-29.677912],[150.726032,-29.635639],[150.733308,-29.569273],[150.856784,-29.512519],[150.863628,-29.456517],[150.890605,-29.420644],[150.827929,-29.411862],[150.795123,-29.313725],[150.751241,-29.263237],[150.763679,-29.209513],[150.752277,-29.15097],[150.702024,-29.083907],[150.611552,-29.000026],[150.630952,-28.941345],[150.611922,-28.887505],[150.63764,-28.826871],[150.672147,-28.793301],[150.672684,-28.741396],[150.539403,-28.707396],[150.483443,-28.662131],[150.414296,-28.649864],[150.362879,-28.595387],[150.289648,-28.537157],[150.181437,-28.565038],[150.169679,-28.551113],[150.049319,-28.588994],[150.017933,-28.580389],[149.97158,-28.607665],[149.830077,-28.603846],[149.696606,-28.630759],[149.587511,-28.572882],[149.461772,-28.591551],[149.391403,-28.691734],[149.358975,-28.68433],[149.293978,-28.711683],[149.14239,-28.823873],[149.081108,-28.845866],[149.042373,-28.939312],[148.958086,-28.999051],[148.361055,-28.999043],[147.599628,-28.999057],[147.233259,-28.999059],[146.745786,-28.998946],[146.067784,-28.998645],[145.666844,-28.999081],[144.87418,-28.999091],[144.196177,-28.999115],[143.451901,-28.999069],[142.70748,-28.999091],[142.264797,-28.999074],[141.537076,-28.998996],[140.999265,-28.999101],[141.000018,-29.646656],[141.000455,-30.285945],[141.000699,-30.70755],[141.000764,-31.353757],[141.001289,-31.829147],[141.001004,-32.467467],[141.001451,-32.932675],[141.00215,-33.227123],[141.002258,-33.329008],[141.348003,-33.366658],[141.40258,-32.98766],[141.573204,-33.005572],[141.560773,-33.096293],[142.038355,-33.143941],[142.022933,-33.0848],[142.107802,-33.090131],[142.105679,-33.11242],[142.27428,-33.123423],[142.28965,-33.081676],[142.382492,-33.005539],[142.547987,-33.01714],[142.549908,-32.991416],[142.515536,-32.847454],[142.94435,-32.890533],[142.964638,-32.748537],[143.271212,-32.780229],[143.269614,-32.791387],[143.432435,-32.808446],[143.416969,-32.907493],[143.499566,-32.918349],[143.505852,-32.876004],[143.591987,-32.885141],[143.585153,-32.93103],[143.671807,-32.940764],[143.653413,-33.012413],[143.57281,-33.012429],[143.55246,-33.140481],[143.637288,-33.149916],[143.66485,-33.178855],[143.720951,-33.140453],[143.898192,-33.161392],[143.905907,-33.115708],[144.251426,-33.15507],[144.236255,-33.249829],[144.262641,-33.272906],[144.546947,-33.300011],[144.577529,-33.288666],[144.645681,-33.222352],[144.733424,-33.231398],[144.741889,-33.173591],[144.777974,-33.163461],[144.798235,-33.036219],[144.913078,-33.049131],[144.908865,-33.074448],[144.979402,-33.083791],[144.991731,-33.033662],[145.027698,-33.021923],[145.107556,-33.033712],[145.127254,-32.954686],[145.164993,-32.71483],[145.249374,-32.724393],[145.257279,-32.671254],[145.344278,-32.682486],[145.330563,-32.766674],[145.412631,-32.775949],[145.467462,-32.722507],[145.510436,-32.727862],[145.504348,-32.770092],[145.586515,-32.796236],[145.671923,-32.805722],[145.651787,-32.935351],[145.668529,-32.935871],[145.645258,-33.080312],[146.03166,-33.093579],[146.093631,-33.189083],[146.058892,-33.211808],[146.095088,-33.276178],[146.066897,-33.359114],[146.053962,-33.475767],[146.095141,-33.603131],[146.440808,-33.520858],[146.445623,-33.563875],[146.80888,-33.607151],[146.830767,-33.532427],[146.988475,-33.55196],[146.986431,-33.563834],[147.242778,-33.591816],[147.278115,-33.562807],[147.32036,-33.567801],[147.358351,-33.525343],[147.403505,-33.527012],[147.426412,-33.43462],[147.4804,-33.441743],[147.514722,-33.263086],[147.442535,-33.230847],[147.325945,-33.20809],[147.29794,-33.19184],[147.308075,-33.104384],[147.388534,-33.139417],[147.405017,-33.038017],[147.554975,-33.048197],[147.54302,-33.020151],[147.57105,-32.949714],[147.604257,-32.762695],[147.568364,-32.735381],[147.577635,-32.675638],[147.545261,-32.551855],[147.561644,-32.456001],[147.696383,-32.369297],[147.769979,-32.420741],[147.823619,-32.420208],[147.884373,-32.440303],[147.965854,-32.499699],[148.003651,-32.564126],[148.092036,-32.614783],[148.128486,-32.682979],[148.347143,-32.675763],[148.349499,-32.636824],[148.391421,-32.621925],[148.475148,-32.627842],[148.501184,-32.614117],[148.605154,-32.652179],[148.669562,-32.624041],[148.719957,-32.575391],[148.700407,-32.496936],[148.72766,-32.472939],[148.703837,-32.434946],[148.754109,-32.419051],[148.768123,-32.343124],[148.805097,-32.367108],[148.851192,-32.31338],[148.883545,-32.312008],[148.927247,-32.271664],[148.944185,-32.174016],[149.00078,-32.139631],[149.012024,-32.106866],[149.059265,-32.096665],[149.100358,-32.115175],[149.193756,-32.104421],[149.220152,-32.180984],[149.189159,-32.290575],[149.305892,-32.304507],[149.346378,-32.238059],[149.413277,-32.175537],[149.432506,-32.095033],[149.494803,-32.102092],[149.573847,-32.086985],[149.602701,-32.126936],[149.638067,-32.112778],[149.750811,-32.119822],[149.795665,-32.05809]]]},"bbox":[140.999265,-33.607151,150.890605,-28.537157]},
{"properties":{"electorateShortName":"parramatta","electorateName":"Parramatta","area":56.81,"state":null},"type":"Feature","geometry":{"type":"Polygon","coordinates":[[[151.051103,-33.824238],[151.0476,-33.766489],[151.031131,-33.768966],[150.966879,-33.781121],[150.952387,-33.811574],[150.996472,-33.851322],[151.030078,-33.835178],[151.051103,-33.824238]]]},"bbox":[150.952387,-33.851322,151.051103,-33.766489]},
{"properties":{"electorateShortName":"paterson","electorateName":"Paterson","area":1036.73,"state":null},"type":"Feature","geometry":{"type":"Polygon","coordinates":[[[152.194486,-32.707671],[151.976222,-32.684583],[151.932013,-32.661416],[151.844219,-32.661604],[151.809842,-32.686222],[151.756003,-32.678348],[151.727015,-32.751268],[151.569049,-32.697386],[151.509915,-32.687487],[151.496875,-32.638999],[151.424995,-32.691366],[151.407184,-32.679147],[151.400589,-32.702881],[151.433194,-32.757466],[151.396164,-32.77718],[151.407551,-32.825686],[151.487259,-32.849374],[151.477827,-32.87227],[151.608578,-32.880151],[151.672974,-32.829504],[151.72725,-32.837075],[151.81011,-32.87822],[151.951335,-32.812927],[152.176033,-32.754788],[152.194486,-32.707671]]]},"bbox":[151.396164,-32.880151,152.194486,-32.638999]},
{"properties":{"electorateShortName":"reid","electorateName":"Reid","area":49.16,"state":null},"type":"Feature","geometry":{"type":"Polygon","coordinates":[[[151.117504,-33.888516],[151.159279,-33.845383],[151.128305,-33.842931],[151.051103,-33.824238],[151.030078,-33.835178],[151.042278,-33.861729],[151.117504,-33.888516]]]},"bbox":[151.030078,-33.888516,151.159279,-33.824238]},
{"properties":{"electorateShortName":"richmond","electorateName":"Richmond","area":2133.02,"state":null},"type":"Feature","geometry":{"type":"Polygon","coordinates":[[[153.544475,-28.917804],[153.605627,-28.84396],[153.595813,-28.775189],[153.627162,-28.654618],[153.568497,-28.589701],[153.553457,-28.531851],[153.553822,-28.464425],[153.575982,-28.368206],[153.586296,-28.258206],[153.552171,-28.164408],[153.531167,-28.175249],[153.485949,-28.157028],[153.356812,-28.249619],[153.296863,-28.234233],[153.184434,-28.246209],[153.1094,-28.35744],[153.124034,-28.430592],[153.160263,-28.524129],[153.247732,-28.515887],[153.32783,-28.542733],[153.412627,-28.618563],[153.418182,-28.677922],[153.40682,-28.742889],[153.448133,-28.746851],[153.441382,-28.823097],[153.486858,-28.864848],[153.475801,-28.924591],[153.544475,-28.917804]]]},"bbox":[153.1094,-28.924591,153.627162,-28.157028]},
{"properties":{"electorateShortName":"riverina","electorateName":"Riverina","area":48976.17,"state":null},"type":"Feature","geometry":{"type":"Polygon","coordinates":[[[149.119836,-33.887828],[149.174789,-33.844937],[149.180823,-33.806141],[149.219734,-33.791776],[149.257743,-33.740656],[149.17209,-33.72628],[149.130187,-33.764289],[149.091447,-33.765415],[149.041283,-33.809334],[148.974557,-33.756454],[148.99366,-33.720609],[148.907469,-33.673053],[148.922397,-33.599333],[148.82321,-33.56568],[148.787796,-33.529269],[148.738927,-33.53792],[148.712026,-33.573728],[148.635899,-33.567008],[148.621066,-33.591714],[148.557937,-33.602925],[148.524169,-33.577287],[148.417382,-33.607154],[148.388833,-33.57999],[148.392772,-33.518727],[148.290651,-33.491909],[148.313524,-33.453189],[148.365145,-33.435299],[148.418223,-33.385],[148.397185,-33.269909],[148.495895,-33.190869],[148.486567,-33.123236],[148.505455,-33.062037],[148.430165,-32.969942],[148.381831,-32.93455],[148.378164,-32.833103],[148.328315,-32.798687],[148.329513,-32.701025],[148.347143,-32.675763],[148.128486,-32.682979],[148.092036,-32.614783],[148.003651,-32.564126],[147.965854,-32.499699],[147.884373,-32.440303],[147.823619,-32.420208],[147.769979,-32.420741],[147.696383,-32.369297],[147.561644,-32.456001],[147.545261,-32.551855],[147.577635,-32.675638],[147.568364,-32.735381],[147.604257,-32.762695],[147.57105,-32.949714],[147.54302,-33.020151],[147.554975,-33.048197],[147.405017,-33.038017],[147.388534,-33.139417],[147.308075,-33.104384],[147.29794,-33.19184],[147.325945,-33.20809],[147.442535,-33.230847],[147.514722,-33.263086],[147.4804,-33.441743],[147.426412,-33.43462],[147.403505,-33.527012],[147.358351,-33.525343],[147.32036,-33.567801],[147.278115,-33.562807],[147.242778,-33.591816],[146.986431,-33.563834],[146.988475,-33.55196],[146.830767,-33.532427],[146.80888,-33.607151],[146.445623,-33.563875],[146.440808,-33.520858],[146.095141,-33.603131],[146.0703,-33.753534],[146.437185,-33.794499],[146.417433,-33.910635],[146.492809,-33.919657],[146.458206,-34.13293],[146.635404,-34.151187],[146.623872,-34.224735],[146.729043,-34.236768],[146.718745,-34.298111],[146.823028,-34.310851],[146.795492,-34.470798],[146.911568,-34.482591],[146.843266,-34.83723],[146.84358,-34.899125],[146.784477,-34.924058],[146.807657,-34.986944],[146.7942,-35.058208],[146.761524,-35.076441],[146.688478,-35.067979],[146.615161,-35.114348],[146.563727,-35.119126],[146.389251,-35.231731],[146.413658,-35.250545],[146.403804,-35.304452],[146.364032,-35.337739],[146.354226,-35.387797],[146.428237,-35.471405],[146.540094,-35.487174],[146.669769,-35.520279],[146.662323,-35.547763],[146.796881,-35.574699],[146.871365,-35.57586],[147.087341,-35.450465],[147.226524,-35.473668],[147.283199,-35.500123],[147.480995,-35.54516],[147.525087,-35.483406],[147.607787,-35.539571],[147.685594,-35.534198],[147.845391,-35.554599],[147.92309,-35.542743],[147.883819,-35.488498],[147.897578,-35.412494],[147.884291,-35.357405],[147.845544,-35.329987],[147.894832,-35.233724],[147.958622,-35.229068],[147.97579,-35.203695],[148.119788,-35.202562],[148.221527,-35.166189],[148.215651,-35.110415],[148.333559,-35.138318],[148.456831,-35.154524],[148.469226,-35.080143],[148.567022,-35.094995],[148.572949,-35.001426],[148.522267,-34.90147],[148.563403,-34.805531],[148.586709,-34.627441],[148.659582,-34.61429],[148.653642,-34.542419],[148.622363,-34.526737],[148.614754,-34.466283],[148.553622,-34.411429],[148.609878,-34.356317],[148.608096,-34.30067],[148.645351,-34.251831],[148.636239,-34.146204],[148.645477,-34.10725],[148.730955,-34.078698],[148.763135,-34.038251],[148.767364,-33.981956],[148.869453,-33.94686],[148.927697,-33.981342],[148.966308,-33.970116],[148.982051,-33.924165],[149.082078,-33.91288],[149.119836,-33.887828]]]},"bbox":[146.0703,-35.57586,149.257743,-32.369297]},
{"properties":{"electorateShortName":"robertson","electorateName":"Robertson","area":893.72,"state":null},"type":"Feature","geometry":{"type":"Polygon","coordinates":[[[151.335198,-33.582209],[151.348535,-33.539918],[151.404889,-33.528724],[151.442572,-33.481745],[151.449605,-33.429352],[151.34508,-33.412419],[151.376638,-33.371292],[151.302593,-33.36238],[151.302527,-33.328444],[151.216733,-33.248361],[151.199234,-33.199734],[151.202626,-33.13886],[151.135527,-33.110401],[151.099671,-33.144458],[151.090244,-33.324986],[150.999641,-33.351156],[150.988457,-33.379232],[151.032748,-33.406351],[151.103296,-33.482514],[151.145295,-33.472193],[151.158792,-33.517262],[151.2305,-33.535448],[151.284798,-33.572214],[151.335198,-33.582209]]]},"bbox":[150.988457,-33.582209,151.449605,-33.110401]},
{"properties":{"electorateShortName":"shortland","electorateName":"Shortland","area":199.14,"state":null},"type":"Feature","geometry":{"type":"Polygon","coordinates":[[[151.565085,-33.247326],[151.629258,-33.187147],[151.657554,-33.073647],[151.730916,-33.005938],[151.737915,-32.962947],[151.662412,-32.929851],[151.614129,-32.955406],[151.633277,-33.041009],[151.613877,-33.090566],[151.532684,-33.140792],[151.51218,-33.194307],[151.527986,-33.244476],[151.565085,-33.247326]]]},"bbox":[151.51218,-33.247326,151.737915,-32.929851]},
{"properties":{"electorateShortName":"sydney","electorateName":"Sydney","area":40.64,"state":null},"type":"Feature","geometry":{"type":"Polygon","coordinates":[[[151.215031,-33.900896],[151.22665,-33.854461],[151.195942,-33.849776],[151.179039,-33.920542],[151.215031,-33.900896]]]},"bbox":[151.179039,-33.920542,151.22665,-33.849776]},
{"properties":{"electorateShortName":"warringah","electorateName":"Warringah","area":52.24,"state":null},"type":"Feature","geometry":{"type":"Polygon","coordinates":[[[151.290672,-33.828322],[151.299717,-33.756601],[151.227126,-33.751393],[151.203599,-33.773133],[151.232938,-33.792589],[151.22665,-33.854461],[151.290672,-33.828322]]]},"bbox":[151.203599,-33.854461,151.299717,-33.751393]},
{"properties":{"electorateShortName":"watson","electorateName":"Watson","area":47.47,"state":null},"type":"Feature","geometry":{"type":"Polygon","coordinates":[[[151.119054,-33.9122],[151.117504,-33.888516],[151.042278,-33.861729],[151.035641,-33.940462],[151.076976,-33.943251],[151.119054,-33.9122]]]},"bbox":[151.035641,-33.943251,151.119054,-33.861729]},
{"properties":{"electorateShortName":"wentworth","electorateName":"Wentworth","area":27.98,"state":null},"type":"Feature","geometry":{"type":"Polygon","coordinates":[[[151.290672,-33.828322],[151.22665,-33.854461],[151.215031,-33.900896],[151.266539,-33.913935],[151.290672,-33.828322]]]},"bbox":[151.215031,-33.913935,151.290672,-33.828322]},
{"properties":{"electorateShortName":"werriwa","electorateName":"Werriwa","area":171.49,"state":null},"type":"Feature","geometry":{"type":"Polygon","coordinates":[[[150.918927,-33.939096],[150.881878,-33.888583],[150.842448,-33.876249],[150.767908,-33.875728],[150.720944,-33.869447],[150.704789,-33.913048],[150.731798,-33.939931],[150.815164,-33.967775],[150.888573,-34.005463],[150.918927,-33.939096]]]},"bbox":[150.704789,-34.005463,150.918927,-33.869447]},
{"properties":{"electorateShortName":"whitlam","electorateName":"Whitlam","area":1295.54,"state":null},"type":"Feature","geometry":{"type":"Polygon","coordinates":[[[150.860886,-34.627883],[150.868387,-34.554754],[150.89778,-34.500723],[150.850837,-34.450786],[150.747162,-34.461249],[150.689634,-34.441706],[150.745677,-34.337416],[150.634633,-34.319652],[150.570022,-34.380552],[150.530565,-34.385063],[150.455872,-34.432114],[150.382528,-34.447029],[150.32004,-34.476547],[150.309147,-34.508201],[150.254535,-34.566204],[150.257508,-34.597417],[150.340998,-34.592213],[150.380868,-34.613911],[150.416149,-34.662966],[150.398143,-34.705149],[150.548328,-34.650451],[150.576376,-34.669631],[150.666625,-34.611709],[150.758131,-34.613022],[150.796952,-34.641328],[150.860886,-34.627883]]]},"bbox":[150.254535,-34.705149,150.89778,-34.319652]}],"bbox":[140.999265,-37.505032,153.627162,-28.157028]}