{"type":"FeatureCollection","features":[
{"properties":{"electorateShortName":"cunningham","electorateName":"Cunningham","area":518.775526,"state":"NSW"},"type":"Feature","geometry":{"type":"MultiPolygon","coordinates":[[[[151.066158,-34.172329],[151.060313,-34.171458],[151.060403,-34.170943],[151.060833,-34.168514],[151.055163,-34.16772],[151.054478,-34.171526],[151.048254,-34.170751],[151.048204,-34.170744],[151.045294,-34.170382],[151.034783,-34.169071],[151.01602,-34.166455],[151.015917,-34.166444],[151.015769,-34.166199],[151.015618,-34.166011],[151.015437,-34.165678],[151.01537,-34.165563],[151.015372,-34.165505],[151.015339,-34.165448],[151.015322,-34.165404],[151.015256,-34.165289],[151.015257,-34.165231],[151.015092,-34.164957],[151.014873,-34.164738],[151.014607,-34.16429],[151.014171,-34.163797],[151.014104,-34.163738],[151.014022,-34.163551],[151.013993,-34.163321],[151.013982,-34.163035],[151.014093,-34.162692],[151.014412,-34.162282],[151.014658,-34.162057],[151.014888,-34.161803],[151.014976,-34.161732],[151.015081,-34.16162],[151.015312,-34.161322],[151.015418,-34.161181],[151.015618,-34.160726],[151.015714,-34.160283],[151.015721,-34.159968],[151.015741,-34.159868],[151.015747,-34.159596],[151.015766,-34.159525],[151.015768,-34.159439],[151.015786,-34.159396],[151.015893,-34.15924],[151.016071,-34.158971],[151.016301,-34.158702],[151.0166,-34.158421],[151.017213,-34.157943],[151.017494,-34.15769],[151.017744,-34.157335],[151.017886,-34.157109],[151.018137,-34.156654],[151.018296,-34.156513],[151.018349,-34.156457],[151.018545,-34.156131],[151.018545,-34.156116],[151.018564,-34.156073],[151.01874,-34.15589],[151.018897,-34.155821],[151.019035,-34.155794],[151.019259,-34.155798],[151.019413,-34.155829],[151.019498,-34.155873],[151.019767,-34.15615],[151.020055,-34.156369],[151.020071,-34.156412],[151.020105,-34.156441],[151.020169,-34.156643],[151.020167,-34.1567],[151.020269,-34.156788],[151.020423,-34.156804],[151.020562,-34.156749],[151.020859,-34.156568],[151.021207,-34.156387],[151.022164,-34.155929],[151.022286,-34.155888],[151.022546,-34.155792],[151.022582,-34.155784],[151.021984,-34.155689],[151.013652,-34.154531],[151.007178,-34.152057],[151.00527,-34.151327],[151.001158,-34.149813],[150.995639,-34.147716],[150.993037,-34.146756],[150.991098,-34.146037],[150.990831,-34.14589],[150.990554,-34.145737],[150.990277,-34.145544],[150.990004,-34.145355],[150.988085,-34.144056],[150.987614,-34.143736],[150.987517,-34.143671],[150.981911,-34.139874],[150.979838,-34.13847],[150.968635,-34.136813],[150.953827,-34.13462],[150.953647,-34.134662],[150.953207,-34.134549],[150.950524,-34.134333],[150.945934,-34.133541],[150.941855,-34.132914],[150.941122,-34.132814],[150.928539,-34.130901],[150.92813,-34.13075],[150.923326,-34.13024],[150.922732,-34.130009],[150.923108,-34.131254],[150.922458,-34.133936],[150.921441,-34.134218],[150.92065,-34.134867],[150.91969,-34.135912],[150.91873,-34.136984],[150.917943,-34.137899],[150.918023,-34.139384],[150.91839,-34.140315],[150.919211,-34.14098],[150.91947,-34.141238],[150.919729,-34.14177],[150.919516,-34.142439],[150.918999,-34.143047],[150.918634,-34.14367],[150.91871,-34.144278],[150.918771,-34.145023],[150.918738,-34.145449],[150.918877,-34.146072],[150.91871,-34.146877],[150.918208,-34.147303],[150.917754,-34.147329],[150.917262,-34.14758],[150.917097,-34.148078],[150.916808,-34.148671],[150.916565,-34.149036],[150.916398,-34.149249],[150.916075,-34.149505],[150.916075,-34.149534],[150.91588,-34.149731],[150.91588,-34.14976],[150.915737,-34.149972],[150.915631,-34.150071],[150.915492,-34.15014],[150.915371,-34.150152],[150.915354,-34.150138],[150.915302,-34.150141],[150.915179,-34.150249],[150.915108,-34.150334],[150.915055,-34.150405],[150.915054,-34.150462],[150.915035,-34.150533],[150.915051,-34.150577],[150.915083,-34.150649],[150.915202,-34.150737],[150.915304,-34.150767],[150.915339,-34.150768],[150.915476,-34.15077],[150.915596,-34.150787],[150.91597,-34.150993],[150.916258,-34.151156],[150.916492,-34.151418],[150.916575,-34.151577],[150.916671,-34.151837],[150.916669,-34.151921],[150.916713,-34.152239],[150.916686,-34.152624],[150.916663,-34.152868],[150.916606,-34.153081],[150.91657,-34.153138],[150.916568,-34.153225],[150.916531,-34.153338],[150.916477,-34.153437],[150.916349,-34.153737],[150.916295,-34.153836],[150.916094,-34.154305],[150.916055,-34.15449],[150.915779,-34.155245],[150.915646,-34.155744],[150.915571,-34.155972],[150.91557,-34.156044],[150.915197,-34.15651],[150.915016,-34.15688],[150.914864,-34.157436],[150.914792,-34.157578],[150.914543,-34.157889],[150.9144,-34.15813],[150.914361,-34.15833],[150.914322,-34.158516],[150.914298,-34.158773],[150.914278,-34.158902],[150.914205,-34.159044],[150.914114,-34.159257],[150.91399,-34.159399],[150.913638,-34.159694],[150.913166,-34.160015],[150.912938,-34.160183],[150.912588,-34.160449],[150.912446,-34.160591],[150.912359,-34.160662],[150.91227,-34.160775],[150.912058,-34.160972],[150.911831,-34.16114],[150.911569,-34.161278],[150.911015,-34.161398],[150.910929,-34.161424],[150.910492,-34.161676],[150.910018,-34.162127],[150.909613,-34.162492],[150.909451,-34.162719],[150.909294,-34.162816],[150.909206,-34.16293],[150.909066,-34.162999],[150.908591,-34.163392],[150.908418,-34.163475],[150.908313,-34.163573],[150.907927,-34.163825],[150.90777,-34.163951],[150.907733,-34.164037],[150.907313,-34.16433],[150.907085,-34.164498],[150.906927,-34.164653],[150.906873,-34.164738],[150.906838,-34.164781],[150.906801,-34.164852],[150.9068,-34.164895],[150.906764,-34.16498],[150.906758,-34.165238],[150.90682,-34.165497],[150.906815,-34.165669],[150.906779,-34.165754],[150.906406,-34.166235],[150.906386,-34.166335],[150.906256,-34.166705],[150.906214,-34.16702],[150.906192,-34.167234],[150.906171,-34.167363],[150.906185,-34.167492],[150.906191,-34.167965],[150.906216,-34.168309],[150.906215,-34.168367],[150.906288,-34.168883],[150.906294,-34.169342],[150.906325,-34.169486],[150.906439,-34.169746],[150.906469,-34.169918],[150.906485,-34.16999],[150.906501,-34.170033],[150.906478,-34.170248],[150.906477,-34.170305],[150.906421,-34.170462],[150.90642,-34.170519],[150.906364,-34.170705],[150.906237,-34.170946],[150.906023,-34.171243],[150.905969,-34.171343],[150.905916,-34.171399],[150.905844,-34.171555],[150.905659,-34.17188],[150.905376,-34.172378],[150.905303,-34.172549],[150.905301,-34.172592],[150.905283,-34.172635],[150.905293,-34.172936],[150.905291,-34.173022],[150.905321,-34.173163],[150.905368,-34.173381],[150.905427,-34.173755],[150.905421,-34.174013],[150.905321,-34.17457],[150.905264,-34.174784],[150.905229,-34.17484],[150.905135,-34.17514],[150.905025,-34.175425],[150.904934,-34.175595],[150.904823,-34.175951],[150.904849,-34.176281],[150.904911,-34.176526],[150.904961,-34.176598],[150.90496,-34.176641],[150.905109,-34.176887],[150.905074,-34.176915],[150.905073,-34.176944],[150.904932,-34.177071],[150.904913,-34.177142],[150.904874,-34.177342],[150.90482,-34.177441],[150.904801,-34.177513],[150.904676,-34.177697],[150.904499,-34.17788],[150.904481,-34.177923],[150.904444,-34.178037],[150.904424,-34.178137],[150.904382,-34.178451],[150.904363,-34.178522],[150.904345,-34.179224],[150.904215,-34.179623],[150.904014,-34.180078],[150.904013,-34.180136],[150.904011,-34.180207],[150.904033,-34.180695],[150.904029,-34.180867],[150.904029,-34.180881],[150.904079,-34.180939],[150.904078,-34.180982],[150.904111,-34.181054],[150.904595,-34.182352],[150.904642,-34.182539],[150.90464,-34.182611],[150.904651,-34.18284],[150.904574,-34.183211],[150.904519,-34.183325],[150.904518,-34.183354],[150.904309,-34.184138],[150.904274,-34.184195],[150.904235,-34.184352],[150.904088,-34.18475],[150.903908,-34.185063],[150.903467,-34.185471],[150.903292,-34.185597],[150.903118,-34.185694],[150.902909,-34.185762],[150.902702,-34.185802],[150.902581,-34.1858],[150.901977,-34.185875],[150.901907,-34.185903],[150.901439,-34.186038],[150.901335,-34.186094],[150.901179,-34.186148],[150.901074,-34.186204],[150.900623,-34.18634],[150.900451,-34.186365],[150.900398,-34.186393],[150.900085,-34.186502],[150.899894,-34.186599],[150.899265,-34.186961],[150.899036,-34.187172],[150.898911,-34.187371],[150.898936,-34.187785],[150.898943,-34.187901],[150.898982,-34.187959],[150.89904,-34.188182],[150.899061,-34.188261],[150.899383,-34.189141],[150.899397,-34.18927],[150.899339,-34.189542],[150.899306,-34.189606],[150.885318,-34.187551],[150.884889,-34.189502],[150.884448,-34.189603],[150.884036,-34.189553],[150.88392,-34.189393],[150.883938,-34.18935],[150.883889,-34.189221],[150.883861,-34.188991],[150.88378,-34.188774],[150.883598,-34.188499],[150.883429,-34.188382],[150.883312,-34.188319],[150.883123,-34.188219],[150.882969,-34.188173],[150.882866,-34.188186],[150.881665,-34.188022],[150.881443,-34.187947],[150.881323,-34.187944],[150.880435,-34.187657],[150.879704,-34.187272],[150.87962,-34.187199],[150.879449,-34.187138],[150.879175,-34.187105],[150.878967,-34.187129],[150.878847,-34.187142],[150.878363,-34.187235],[150.877564,-34.187493],[150.876891,-34.187596],[150.876478,-34.187589],[150.876323,-34.187558],[150.87591,-34.187579],[150.874682,-34.187816],[150.874078,-34.187863],[150.873907,-34.187817],[150.873721,-34.187685],[150.873587,-34.187525],[150.873558,-34.187352],[150.873493,-34.187237],[150.873416,-34.186805],[150.873476,-34.186506],[150.873511,-34.186449],[150.87352,-34.186162],[150.873454,-34.185989],[150.873169,-34.185698],[150.872948,-34.185565],[150.872352,-34.18534],[150.872131,-34.185222],[150.871946,-34.185032],[150.871732,-34.184656],[150.871663,-34.183967],[150.871522,-34.183449],[150.871189,-34.182985],[150.870599,-34.182473],[150.870175,-34.182251],[150.869544,-34.181996],[150.869114,-34.182003],[150.868662,-34.182182],[150.868574,-34.182238],[150.867725,-34.182509],[150.86721,-34.182429],[150.866986,-34.182425],[150.8669,-34.182467],[150.866103,-34.182682],[150.865879,-34.182678],[150.865056,-34.182578],[150.864505,-34.182583],[150.864194,-34.18262],[150.864054,-34.182704],[150.863689,-34.182855],[150.86303,-34.183073],[150.862874,-34.183085],[150.862476,-34.183178],[150.862185,-34.18313],[150.861913,-34.182968],[150.861309,-34.182384],[150.86082,-34.181989],[150.860565,-34.181855],[150.860447,-34.181753],[150.860208,-34.181649],[150.860073,-34.18156],[150.859442,-34.181408],[150.858823,-34.181453],[150.857935,-34.181862],[150.857477,-34.182493],[150.857731,-34.183876],[150.857741,-34.187644],[150.857986,-34.188717],[150.85836,-34.189703],[150.857644,-34.190329],[150.858113,-34.191636],[150.857451,-34.192529],[150.858638,-34.193599],[150.858855,-34.193536],[150.859394,-34.19345],[150.859959,-34.193015],[150.860802,-34.192451],[150.862119,-34.192011],[150.863392,-34.192158],[150.864127,-34.192991],[150.864098,-34.19457],[150.864351,-34.196508],[150.864431,-34.197992],[150.864852,-34.198723],[150.864676,-34.199541],[150.865436,-34.200293],[150.866559,-34.200333],[150.868348,-34.200418],[150.869078,-34.199735],[150.870592,-34.199041],[150.872301,-34.199029],[150.874471,-34.199772],[150.877063,-34.201386],[150.87824,-34.202417],[150.878853,-34.202859],[150.879326,-34.203929],[150.879294,-34.205143],[150.879967,-34.206186],[150.880375,-34.208383],[150.88092,-34.208846],[150.882745,-34.209999],[150.883922,-34.211142],[150.885075,-34.212096],[150.885749,-34.212223],[150.886681,-34.212559],[150.887889,-34.213362],[150.889751,-34.213369],[150.889819,-34.213375],[150.889737,-34.213719],[150.8898,-34.213737],[150.890243,-34.213945],[150.890497,-34.214107],[150.890716,-34.214311],[150.891132,-34.214877],[150.891181,-34.214992],[150.891265,-34.215051],[150.891545,-34.215557],[150.891873,-34.216222],[150.891936,-34.216467],[150.891969,-34.217212],[150.891983,-34.217313],[150.892026,-34.217834],[150.892177,-34.218232],[150.892276,-34.218629],[150.89245,-34.219101],[150.892773,-34.219597],[150.892997,-34.220069],[150.893345,-34.220615],[150.893582,-34.220879],[150.893712,-34.22124],[150.893709,-34.221354],[150.893757,-34.221484],[150.893715,-34.221784],[150.893677,-34.221927],[150.89307,-34.22279],[150.892997,-34.222947],[150.892927,-34.223031],[150.892906,-34.223146],[150.892836,-34.223188],[150.892649,-34.223695],[150.892524,-34.224142],[150.8924,-34.22449],[150.892201,-34.224912],[150.892152,-34.225135],[150.892164,-34.225297],[150.892175,-34.225526],[150.891986,-34.226225],[150.891652,-34.227179],[150.891539,-34.227281],[150.891466,-34.227428],[150.89144,-34.22758],[150.891415,-34.227835],[150.891414,-34.227886],[150.891427,-34.227906],[150.891389,-34.228048],[150.891378,-34.22845],[150.89132,-34.228752],[150.891257,-34.229084],[150.891307,-34.229258],[150.891345,-34.229446],[150.891337,-34.229452],[150.891437,-34.229583],[150.891512,-34.229648],[150.891554,-34.229699],[150.891659,-34.229775],[150.891757,-34.22986],[150.892052,-34.230061],[150.892079,-34.230081],[150.892471,-34.230216],[150.892899,-34.230324],[150.893242,-34.230373],[150.894559,-34.230739],[150.895495,-34.231185],[150.8957,-34.23126],[150.895991,-34.231322],[150.896524,-34.231346],[150.896765,-34.231378],[150.897192,-34.231486],[150.897516,-34.231634],[150.89777,-34.231811],[150.898073,-34.232131],[150.898024,-34.23231],[150.897996,-34.232417],[150.897491,-34.233339],[150.897208,-34.233649],[150.897189,-34.233706],[150.897012,-34.233889],[150.896399,-34.234309],[150.896296,-34.234308],[150.895739,-34.234513],[150.895099,-34.234645],[150.894045,-34.234757],[150.893872,-34.234811],[150.893487,-34.235034],[150.89289,-34.235496],[150.892175,-34.235857],[150.891911,-34.23611],[150.891802,-34.236337],[150.891668,-34.236837],[150.891506,-34.237148],[150.891382,-34.237276],[150.890751,-34.237709],[150.890362,-34.238132],[150.890182,-34.238416],[150.890036,-34.238743],[150.889752,-34.239799],[150.889533,-34.240267],[150.8893,-34.240636],[150.889033,-34.240975],[150.888751,-34.241243],[150.888312,-34.24155],[150.88709,-34.242217],[150.886652,-34.24251],[150.886336,-34.242763],[150.886102,-34.24316],[150.885846,-34.243744],[150.885125,-34.245708],[150.884965,-34.24658],[150.884892,-34.246779],[150.884766,-34.246977],[150.88453,-34.247475],[150.884526,-34.247604],[150.884355,-34.248426],[150.884215,-34.248647],[150.884002,-34.248929],[150.883837,-34.249284],[150.883836,-34.249327],[150.883783,-34.249398],[150.883673,-34.249668],[150.883563,-34.249924],[150.883492,-34.249994],[150.883367,-34.250164],[150.883257,-34.250448],[150.883217,-34.250648],[150.883145,-34.250762],[150.883126,-34.250833],[150.882857,-34.251243],[150.88275,-34.251385],[150.882626,-34.25154],[150.882534,-34.251768],[150.882514,-34.251853],[150.882494,-34.251982],[150.882474,-34.252082],[150.882484,-34.252354],[150.882465,-34.252425],[150.882395,-34.252481],[150.882252,-34.252694],[150.882215,-34.252765],[150.882195,-34.252879],[150.882064,-34.253292],[150.88206,-34.25345],[150.881877,-34.253876],[150.881798,-34.254261],[150.881809,-34.254491],[150.881629,-34.25549],[150.881627,-34.255547],[150.881607,-34.255647],[150.881452,-34.256332],[150.881415,-34.256446],[150.881394,-34.256589],[150.881152,-34.2573],[150.881095,-34.2575],[150.881002,-34.25777],[150.880814,-34.258531],[150.88076,-34.258598],[150.880665,-34.258725],[150.88061,-34.258765],[150.880576,-34.258828],[150.880515,-34.258875],[150.880467,-34.258938],[150.880378,-34.258996],[150.88033,-34.259013],[150.880241,-34.259105],[150.880158,-34.25914],[150.880069,-34.259203],[150.879966,-34.259256],[150.879904,-34.259262],[150.879829,-34.259325],[150.87978,-34.259337],[150.879678,-34.259423],[150.879595,-34.259447],[150.879527,-34.25951],[150.879424,-34.259557],[150.879327,-34.259592],[150.879272,-34.259598],[150.879177,-34.259673],[150.879053,-34.259725],[150.878888,-34.259754],[150.878633,-34.259779],[150.878543,-34.259779],[150.878308,-34.259781],[150.878088,-34.259805],[150.877971,-34.2598],[150.877792,-34.259807],[150.877488,-34.259837],[150.87735,-34.25982],[150.877302,-34.259821],[150.87724,-34.259787],[150.877012,-34.259731],[150.876908,-34.259714],[150.876756,-34.259715],[150.876673,-34.25971],[150.876625,-34.259693],[150.876494,-34.259665],[150.876384,-34.25966],[150.876359,-34.25966],[150.876325,-34.25967],[150.876308,-34.259678],[150.876278,-34.259697],[150.876267,-34.259706],[150.876248,-34.259727],[150.876237,-34.259741],[150.876107,-34.259877],[150.873944,-34.26174],[150.852796,-34.279952],[150.851433,-34.27851],[150.850832,-34.278252],[150.849945,-34.278052],[150.848828,-34.277852],[150.847339,-34.277766],[150.846137,-34.277652],[150.844534,-34.277194],[150.842787,-34.27645],[150.840526,-34.27542],[150.838808,-34.274762],[150.837176,-34.274533],[150.835229,-34.274676],[150.832853,-34.274905],[150.829532,-34.275191],[150.828529,-34.275209],[150.827281,-34.274914],[150.825508,-34.274093],[150.823471,-34.273141],[150.821894,-34.272124],[150.819792,-34.271008],[150.817033,-34.269794],[150.81562,-34.269466],[150.813978,-34.269334],[150.812171,-34.269728],[150.810102,-34.270418],[150.807671,-34.270976],[150.80519,-34.27134],[150.805514,-34.2731],[150.805844,-34.274846],[150.806316,-34.276924],[150.80627,-34.277632],[150.806317,-34.278954],[150.806418,-34.279908],[150.806647,-34.280748],[150.807214,-34.281598],[150.808064,-34.282967],[150.808962,-34.283911],[150.809482,-34.284855],[150.809812,-34.286035],[150.810096,-34.287263],[150.810615,-34.28849],[150.811371,-34.289812],[150.812505,-34.291134],[150.813781,-34.292173],[150.814961,-34.293258],[150.815623,-34.294957],[150.815836,-34.29591],[150.815561,-34.29635],[150.815009,-34.297067],[150.814513,-34.297839],[150.814568,-34.298775],[150.814347,-34.300539],[150.814734,-34.301696],[150.81523,-34.30335],[150.816057,-34.304562],[150.81676,-34.306375],[150.814317,-34.306063],[150.801929,-34.304482],[150.792833,-34.303348],[150.792824,-34.303364],[150.792675,-34.303743],[150.792588,-34.303818],[150.792585,-34.303918],[150.792259,-34.304528],[150.792166,-34.304756],[150.792161,-34.304942],[150.792124,-34.305056],[150.792136,-34.305242],[150.792085,-34.305857],[150.792047,-34.305999],[150.792045,-34.306085],[150.791947,-34.306513],[150.7918,-34.306868],[150.791788,-34.306926],[150.79178,-34.306968],[150.791745,-34.307086],[150.791483,-34.307053],[150.791455,-34.30705],[150.787148,-34.306507],[150.786929,-34.306479],[150.778914,-34.305468],[150.778758,-34.305449],[150.778205,-34.305379],[150.751171,-34.301965],[150.751149,-34.301962],[150.750861,-34.301926],[150.749054,-34.314295],[150.74902,-34.31453],[150.748997,-34.314688],[150.748879,-34.315493],[150.748667,-34.316948],[150.748629,-34.317206],[150.745861,-34.336413],[150.745727,-34.337069],[150.745677,-34.337416],[150.745572,-34.337611],[150.745431,-34.337872],[150.744605,-34.33941],[150.744573,-34.339469],[150.744515,-34.339576],[150.740616,-34.346832],[150.740059,-34.34787],[150.726336,-34.373408],[150.726324,-34.37343],[150.702299,-34.418138],[150.689634,-34.441706],[150.690926,-34.442007],[150.693359,-34.442769],[150.695484,-34.442845],[150.697732,-34.442972],[150.699456,-34.443353],[150.701766,-34.443988],[150.703337,-34.444953],[150.70423,-34.445994],[150.706817,-34.446984],[150.70928,-34.447213],[150.711898,-34.449777],[150.713807,-34.449803],[150.715224,-34.449574],[150.716918,-34.449473],[150.71738,-34.450488],[150.716764,-34.453307],[150.717595,-34.45478],[150.720305,-34.455706],[150.722276,-34.456074],[150.724956,-34.456937],[150.726357,-34.457255],[150.727989,-34.456861],[150.728466,-34.457229],[150.729298,-34.45789],[150.730468,-34.458563],[150.730622,-34.458779],[150.731438,-34.459071],[150.733209,-34.459223],[150.733917,-34.460099],[150.734918,-34.460658],[150.737012,-34.459997],[150.737751,-34.460137],[150.73866,-34.460594],[150.739499,-34.460747],[150.740408,-34.460579],[150.74147,-34.460036],[150.742406,-34.459752],[150.742902,-34.459684],[150.74366,-34.459969],[150.744708,-34.46036],[150.745247,-34.460576],[150.745468,-34.46077],[150.746117,-34.461228],[150.747162,-34.461249],[150.7474,-34.461167],[150.74778,-34.461036],[150.74834,-34.460536],[150.751164,-34.455918],[150.751991,-34.455359],[150.752888,-34.455179],[150.753703,-34.455159],[150.754283,-34.455034],[150.755197,-34.454579],[150.756154,-34.453162],[150.757303,-34.452318],[150.758399,-34.450775],[150.75903,-34.450263],[150.760032,-34.449966],[150.764662,-34.449418],[150.766458,-34.449297],[150.767618,-34.449712],[150.768597,-34.450287],[150.769382,-34.450523],[150.771125,-34.45058],[150.77228,-34.45047],[150.774283,-34.45014],[150.775783,-34.449893],[150.776986,-34.449496],[150.77819,-34.448709],[150.78108,-34.448109],[150.781862,-34.448133],[150.783898,-34.448299],[150.78477,-34.448065],[150.78678,-34.445352],[150.787005,-34.445053],[150.787337,-34.444756],[150.787642,-34.444539],[150.788195,-34.4443],[150.789469,-34.443703],[150.790461,-34.44324],[150.790514,-34.442978],[150.790662,-34.442886],[150.790959,-34.442756],[150.791219,-34.4427],[150.79146,-34.442682],[150.791682,-34.442682],[150.791886,-34.442737],[150.792072,-34.442793],[150.792239,-34.44283],[150.792443,-34.442941],[150.792666,-34.443108],[150.792926,-34.443183],[150.793037,-34.443238],[150.793297,-34.443387],[150.793593,-34.443554],[150.793909,-34.443758],[150.794095,-34.443925],[150.794781,-34.444611],[150.794799,-34.444648],[150.794868,-34.44473],[150.794941,-34.444825],[150.795007,-34.444923],[150.795063,-34.445023],[150.7951,-34.445108],[150.795123,-34.445167],[150.795133,-34.445194],[150.79516,-34.445283],[150.795163,-34.445296],[150.795189,-34.445335],[150.795078,-34.445706],[150.79506,-34.446002],[150.795097,-34.446448],[150.795245,-34.446745],[150.795283,-34.446944],[150.795317,-34.447044],[150.795371,-34.447164],[150.795437,-34.447281],[150.79549,-34.44736],[150.795653,-34.447524],[150.795895,-34.447709],[150.796136,-34.447913],[150.796693,-34.448396],[150.796952,-34.448655],[150.797175,-34.448915],[150.797416,-34.449193],[150.797695,-34.449546],[150.797917,-34.449843],[150.798122,-34.450065],[150.798363,-34.450307],[150.798734,-34.450455],[150.799068,-34.450548],[150.799569,-34.450659],[150.800107,-34.450807],[150.800404,-34.4509],[150.800812,-34.450974],[150.801146,-34.451104],[150.801387,-34.451253],[150.801542,-34.451372],[150.801629,-34.451438],[150.801233,-34.451363],[150.801575,-34.451573],[150.801662,-34.451627],[150.802032,-34.451857],[150.802215,-34.451966],[150.802401,-34.452071],[150.802585,-34.452179],[150.802761,-34.452292],[150.802924,-34.452417],[150.803044,-34.452525],[150.803119,-34.4526],[150.803186,-34.452676],[150.803249,-34.452755],[150.803307,-34.452836],[150.803361,-34.452919],[150.803413,-34.453003],[150.803455,-34.453075],[150.803495,-34.453148],[150.803526,-34.453211],[150.803531,-34.453222],[150.803566,-34.453296],[150.803596,-34.453372],[150.803621,-34.453447],[150.803641,-34.453523],[150.803695,-34.453756],[150.803727,-34.453878],[150.803765,-34.454],[150.803807,-34.45412],[150.803853,-34.454238],[150.803916,-34.454383],[150.80395,-34.454455],[150.803987,-34.454525],[150.804027,-34.454595],[150.804087,-34.454688],[150.804152,-34.454781],[150.804222,-34.454871],[150.804298,-34.454957],[150.804381,-34.455036],[150.804457,-34.455099],[150.804538,-34.455159],[150.804622,-34.455215],[150.804629,-34.455218],[150.804711,-34.455267],[150.804801,-34.455315],[150.804877,-34.455352],[150.804956,-34.455385],[150.805037,-34.455417],[150.805201,-34.455474],[150.805288,-34.455502],[150.805377,-34.455527],[150.805467,-34.455551],[150.805732,-34.455616],[150.805987,-34.455672],[150.8062,-34.455722],[150.806327,-34.455755],[150.80639,-34.455773],[150.806545,-34.455825],[150.80662,-34.455854],[150.806695,-34.455885],[150.806767,-34.455919],[150.80682,-34.455946],[150.806916,-34.456001],[150.806974,-34.456036],[150.807087,-34.456109],[150.8071,-34.456118],[150.807142,-34.456147],[150.807214,-34.456201],[150.807286,-34.456257],[150.807354,-34.456314],[150.80742,-34.456375],[150.807481,-34.456437],[150.807534,-34.4565],[150.807584,-34.456566],[150.80784,-34.45695],[150.807938,-34.457139],[150.808295,-34.457797],[150.808659,-34.458174],[150.809673,-34.458806],[150.809941,-34.458973],[150.810883,-34.45952],[150.81089,-34.459478],[150.811277,-34.459708],[150.813669,-34.461129],[150.813774,-34.461177],[150.814016,-34.461297],[150.814238,-34.461438],[150.81446,-34.461539],[150.814682,-34.46168],[150.814883,-34.461801],[150.815065,-34.461861],[150.815407,-34.461982],[150.815649,-34.462002],[150.815911,-34.462042],[150.816119,-34.462014],[150.81614,-34.462012],[150.816496,-34.461962],[150.816819,-34.461861],[150.817161,-34.461781],[150.817463,-34.4617],[150.817826,-34.461619],[150.818169,-34.461539],[150.818451,-34.461539],[150.818774,-34.461559],[150.818848,-34.461559],[150.819056,-34.461559],[150.819439,-34.461579],[150.819782,-34.461599],[150.820084,-34.461619],[150.820366,-34.461539],[150.82081,-34.461479],[150.820978,-34.461441],[150.821153,-34.461398],[150.821475,-34.461317],[150.821838,-34.461237],[150.822402,-34.461237],[150.822536,-34.461247],[150.82302,-34.461312],[150.82317,-34.461337],[150.82338,-34.461378],[150.82356,-34.461416],[150.823739,-34.461458],[150.823917,-34.461505],[150.824092,-34.461558],[150.824264,-34.461616],[150.824382,-34.46166],[150.824498,-34.461707],[150.824613,-34.461756],[150.824727,-34.461808],[150.824837,-34.461863],[150.824984,-34.461946],[150.825126,-34.462036],[150.825401,-34.462227],[150.82579,-34.462492],[150.826037,-34.46267],[150.826287,-34.462845],[150.826542,-34.46301],[150.826596,-34.463039],[150.826679,-34.463084],[150.827272,-34.463363],[150.827408,-34.463417],[150.827615,-34.463489],[150.827826,-34.46355],[150.827959,-34.463582],[150.828093,-34.463611],[150.828229,-34.463636],[150.828366,-34.463657],[150.828503,-34.463675],[150.829024,-34.463729],[150.829775,-34.463702],[150.830634,-34.463523],[150.830725,-34.463487],[150.831383,-34.463232],[150.831592,-34.463153],[150.832424,-34.462819],[150.832553,-34.462768],[150.833008,-34.462623],[150.83354,-34.462506],[150.834466,-34.462411],[150.835319,-34.462354],[150.835871,-34.462295],[150.836525,-34.462168],[150.836891,-34.462036],[150.837887,-34.461588],[150.838636,-34.461229],[150.838748,-34.461176],[150.838917,-34.46109],[150.839432,-34.460836],[150.839557,-34.460689],[150.841049,-34.459939],[150.841206,-34.459769],[150.841834,-34.459159],[150.84344,-34.457351],[150.845176,-34.455499],[150.84573,-34.454923],[150.845916,-34.454733],[150.846682,-34.453953],[150.847071,-34.453568],[150.847468,-34.453194],[150.847879,-34.452835],[150.848347,-34.452461],[150.84883,-34.452103],[150.849325,-34.451759],[150.849827,-34.451426],[150.850332,-34.4511],[150.850837,-34.450786],[150.851444,-34.451124],[150.851818,-34.451396],[150.852344,-34.45174],[150.852814,-34.452024],[150.853342,-34.452305],[150.85408,-34.45264],[150.854593,-34.452822],[150.854971,-34.452945],[150.855404,-34.4531],[150.855836,-34.453301],[150.856312,-34.453516],[150.856547,-34.453664],[150.857017,-34.454021],[150.857856,-34.454816],[150.858065,-34.455024],[150.858371,-34.455316],[150.858526,-34.455461],[150.858674,-34.455584],[150.859042,-34.455885],[150.859312,-34.45609],[150.859572,-34.456291],[150.85966,-34.456402],[150.859699,-34.456402],[150.859704,-34.456443],[150.859723,-34.456478],[150.859752,-34.456507],[150.85979,-34.456528],[150.859833,-34.45654],[150.859879,-34.45654],[150.859923,-34.456531],[150.859964,-34.456509],[150.860089,-34.456572],[150.860385,-34.456701],[150.860983,-34.457012],[150.862484,-34.457778],[150.8634,-34.458243],[150.864287,-34.458732],[150.864942,-34.459168],[150.865256,-34.459426],[150.865736,-34.459844],[150.866155,-34.460264],[150.866517,-34.46066],[150.866969,-34.461215],[150.867105,-34.461412],[150.867447,-34.461956],[150.867956,-34.462703],[150.868457,-34.463409],[150.868632,-34.463653],[150.86908,-34.464326],[150.869512,-34.464889],[150.869677,-34.46506],[150.869865,-34.465198],[150.87005,-34.465303],[150.870084,-34.465323],[150.870341,-34.465421],[150.870408,-34.465442],[150.870573,-34.465494],[150.870932,-34.465559],[150.871561,-34.465623],[150.872544,-34.465724],[150.873348,-34.465809],[150.874278,-34.465951],[150.875174,-34.466114],[150.87516,-34.466247],[150.875227,-34.466371],[150.875343,-34.466643],[150.875164,-34.466616],[150.87503,-34.466597],[150.874985,-34.466968],[150.875417,-34.467027],[150.875384,-34.467207],[150.875121,-34.467171],[150.875052,-34.467538],[150.875315,-34.467574],[150.875246,-34.467941],[150.875222,-34.468058],[150.875119,-34.468568],[150.874924,-34.46952],[150.874804,-34.470106],[150.874525,-34.470067],[150.874442,-34.470474],[150.874573,-34.470492],[150.87449,-34.470899],[150.874638,-34.47092],[150.874602,-34.471099],[150.874522,-34.471506],[150.874324,-34.472506],[150.874432,-34.472521],[150.874352,-34.472927],[150.874285,-34.473262],[150.874232,-34.473513],[150.873974,-34.474734],[150.873861,-34.47544],[150.873813,-34.475746],[150.873786,-34.475939],[150.873771,-34.476056],[150.873694,-34.476603],[150.873495,-34.478047],[150.873479,-34.478156],[150.873441,-34.478424],[150.873421,-34.478579],[150.873347,-34.479104],[150.8733,-34.479442],[150.873296,-34.47953],[150.872186,-34.479424],[150.871635,-34.479372],[150.87147,-34.47935],[150.87057,-34.479227],[150.869647,-34.479123],[150.869178,-34.479069],[150.868532,-34.478977],[150.868097,-34.48127],[150.868044,-34.481546],[150.868025,-34.481649],[150.867659,-34.483572],[150.867647,-34.483635],[150.867474,-34.484564],[150.867281,-34.484741],[150.86706,-34.484838],[150.866424,-34.485117],[150.866033,-34.485292],[150.865475,-34.485649],[150.865331,-34.485755],[150.86532,-34.485839],[150.865994,-34.48662],[150.86604,-34.487055],[150.865968,-34.487181],[150.86565,-34.487597],[150.865003,-34.488444],[150.864223,-34.488035],[150.863308,-34.487554],[150.863259,-34.487746],[150.863228,-34.488115],[150.863106,-34.488249],[150.863362,-34.488402],[150.863465,-34.48842],[150.863496,-34.488425],[150.863599,-34.488515],[150.86369,-34.488588],[150.863806,-34.4886],[150.864023,-34.488699],[150.864206,-34.488813],[150.864395,-34.488893],[150.864498,-34.488909],[150.864664,-34.488998],[150.864864,-34.489112],[150.864914,-34.48918],[150.865023,-34.489215],[150.865177,-34.489328],[150.865319,-34.489407],[150.86541,-34.489476],[150.865431,-34.489562],[150.865481,-34.48964],[150.865485,-34.489717],[150.865391,-34.489773],[150.865434,-34.489888],[150.865437,-34.490003],[150.865469,-34.490129],[150.865565,-34.490202],[150.865646,-34.490208],[150.865723,-34.490162],[150.865777,-34.490091],[150.865825,-34.490025],[150.865901,-34.489973],[150.866004,-34.490018],[150.866153,-34.490102],[150.866428,-34.490226],[150.866688,-34.490358],[150.867064,-34.49053],[150.867329,-34.490629],[150.867649,-34.490769],[150.868016,-34.490925],[150.868422,-34.491081],[150.868779,-34.49123],[150.869195,-34.491379],[150.869515,-34.491534],[150.869948,-34.491691],[150.870156,-34.491781],[150.870808,-34.492025],[150.87071,-34.492044],[150.87062,-34.492065],[150.870521,-34.492078],[150.870385,-34.492128],[150.870464,-34.492181],[150.870581,-34.492198],[150.870759,-34.492231],[150.870939,-34.492241],[150.87103,-34.492243],[150.871056,-34.492243],[150.871174,-34.492179],[150.871346,-34.492152],[150.871598,-34.492119],[150.871713,-34.49218],[150.871594,-34.492253],[150.871405,-34.492279],[150.871349,-34.492375],[150.871572,-34.492423],[150.871743,-34.492434],[150.871854,-34.492451],[150.871904,-34.492459],[150.872154,-34.492493],[150.872321,-34.49252],[150.87236,-34.492526],[150.872449,-34.492572],[150.872727,-34.492592],[150.8728,-34.492564],[150.872836,-34.492527],[150.872962,-34.492522],[150.873322,-34.492528],[150.873366,-34.492536],[150.873454,-34.492605],[150.873507,-34.492673],[150.873632,-34.492705],[150.873946,-34.49271],[150.874296,-34.492724],[150.874764,-34.492709],[150.875015,-34.492699],[150.875294,-34.492704],[150.875573,-34.492672],[150.87633,-34.492588],[150.876664,-34.492527],[150.876754,-34.492528],[150.87687,-34.492575],[150.877083,-34.492668],[150.877359,-34.492777],[150.877734,-34.492843],[150.878026,-34.492848],[150.878058,-34.492819],[150.878072,-34.492788],[150.878003,-34.492766],[150.877908,-34.492753],[150.877832,-34.492747],[150.877719,-34.492677],[150.877622,-34.492533],[150.877536,-34.492427],[150.877489,-34.492284],[150.877492,-34.492158],[150.877507,-34.492059],[150.877527,-34.492002],[150.877566,-34.491987],[150.877642,-34.491972],[150.877705,-34.491984],[150.877718,-34.492005],[150.877697,-34.492068],[150.877682,-34.492141],[150.877717,-34.492288],[150.877759,-34.492384],[150.87777,-34.492441],[150.877768,-34.492499],[150.877831,-34.492542],[150.877893,-34.492601],[150.877973,-34.492681],[150.878054,-34.49273],[150.878161,-34.492758],[150.87825,-34.492775],[150.878388,-34.492814],[150.87854,-34.492838],[150.878716,-34.492888],[150.879044,-34.492957],[150.879164,-34.492975],[150.879464,-34.492891],[150.879713,-34.492827],[150.880032,-34.49278],[150.880331,-34.492717],[150.880694,-34.492686],[150.88095,-34.492596],[150.881173,-34.492532],[150.881486,-34.492433],[150.881589,-34.492377],[150.881787,-34.492343],[150.881953,-34.492266],[150.882229,-34.492169],[150.882422,-34.492105],[150.882615,-34.492051],[150.88278,-34.491998],[150.882931,-34.491978],[150.883205,-34.491926],[150.883632,-34.49182],[150.883977,-34.491657],[150.884202,-34.491423],[150.884369,-34.49129],[150.88444,-34.491178],[150.884604,-34.491193],[150.884725,-34.491251],[150.884655,-34.491307],[150.884736,-34.491376],[150.884871,-34.491423],[150.885061,-34.491472],[150.885307,-34.491465],[150.885566,-34.491481],[150.885785,-34.491473],[150.886113,-34.491479],[150.88648,-34.491553],[150.886605,-34.491595],[150.886654,-34.49194],[150.886764,-34.492735],[150.886822,-34.493255],[150.886871,-34.493657],[150.88694,-34.494207],[150.88699,-34.494589],[150.886927,-34.494588],[150.886944,-34.49477],[150.887014,-34.494768],[150.887065,-34.495168],[150.887095,-34.495543],[150.887157,-34.495912],[150.887187,-34.496011],[150.887262,-34.496048],[150.887381,-34.496069],[150.887445,-34.496114],[150.887465,-34.496205],[150.887481,-34.496393],[150.887443,-34.496644],[150.887383,-34.496868],[150.887256,-34.497153],[150.887034,-34.497373],[150.887028,-34.497616],[150.886849,-34.497801],[150.886422,-34.497973],[150.886149,-34.498031],[150.886061,-34.498061],[150.886146,-34.498059],[150.886219,-34.498061],[150.886287,-34.498054],[150.886357,-34.498049],[150.886409,-34.498053],[150.886445,-34.49806],[150.886499,-34.498058],[150.886601,-34.498063],[150.886656,-34.498053],[150.886692,-34.498045],[150.886719,-34.49804],[150.886762,-34.498024],[150.886821,-34.498018],[150.886844,-34.498018],[150.886853,-34.498017],[150.886913,-34.498006],[150.886938,-34.498013],[150.886979,-34.498014],[150.887021,-34.498012],[150.887068,-34.498007],[150.887111,-34.498001],[150.887174,-34.497982],[150.88719,-34.497978],[150.887225,-34.497965],[150.887284,-34.497942],[150.887313,-34.497929],[150.88733,-34.497918],[150.887466,-34.497932],[150.887615,-34.497946],[150.887988,-34.497985],[150.888115,-34.497997],[150.888564,-34.498043],[150.888644,-34.498133],[150.888809,-34.498145],[150.889,-34.498159],[150.889241,-34.498159],[150.8895,-34.498121],[150.889571,-34.498144],[150.889678,-34.498176],[150.894798,-34.498867],[150.896243,-34.499058],[150.896361,-34.499212],[150.897351,-34.500245],[150.89778,-34.500723],[150.909228,-34.49304],[150.918791,-34.493344],[150.920347,-34.49482],[150.921958,-34.493755],[150.921261,-34.492035],[150.917707,-34.491015],[150.916685,-34.487736],[150.918699,-34.486612],[150.915732,-34.485651],[150.913669,-34.481025],[150.915456,-34.47783],[150.913061,-34.474807],[150.913644,-34.4648],[150.901876,-34.46205],[150.900447,-34.451096],[150.901841,-34.450939],[150.900477,-34.450789],[150.899948,-34.44525],[150.902981,-34.431233],[150.907179,-34.423381],[150.910776,-34.42216],[150.902211,-34.417201],[150.903327,-34.416355],[150.902047,-34.416199],[150.903085,-34.411056],[150.902049,-34.408038],[150.903812,-34.401143],[150.911563,-34.388634],[150.916523,-34.386118],[150.915508,-34.384758],[150.917455,-34.381515],[150.923669,-34.375865],[150.926676,-34.375683],[150.926591,-34.373309],[150.9313,-34.368752],[150.925308,-34.367648],[150.924774,-34.365706],[150.921077,-34.363643],[150.919416,-34.358597],[150.921322,-34.349162],[150.924327,-34.347907],[150.922679,-34.346363],[150.92311,-34.344346],[150.925568,-34.34013],[150.927537,-34.339655],[150.925275,-34.337629],[150.9257,-34.33343],[150.930286,-34.331102],[150.924459,-34.327555],[150.92639,-34.319425],[150.934869,-34.309468],[150.935681,-34.306399],[150.938567,-34.305355],[150.93817,-34.303738],[150.943418,-34.301322],[150.941502,-34.299923],[150.94174,-34.297551],[150.944556,-34.294167],[150.947034,-34.293765],[150.946098,-34.29256],[150.947484,-34.29047],[150.950037,-34.289998],[150.948858,-34.288536],[150.94974,-34.286359],[150.952639,-34.285],[150.954026,-34.281781],[150.956727,-34.280991],[150.956231,-34.278328],[150.958781,-34.274473],[150.964255,-34.270479],[150.963922,-34.268639],[150.967967,-34.267245],[150.968054,-34.26256],[150.97369,-34.258473],[150.972696,-34.254842],[150.977384,-34.25169],[150.975802,-34.249838],[150.978717,-34.249306],[150.977149,-34.245157],[150.985945,-34.236878],[150.987831,-34.232737],[150.993284,-34.227982],[151.000297,-34.226329],[151.004358,-34.220978],[151.01083,-34.218945],[151.012875,-34.213105],[151.021278,-34.204055],[151.025802,-34.202779],[151.0331,-34.196075],[151.038634,-34.194912],[151.039335,-34.192124],[151.041803,-34.191173],[151.044957,-34.186403],[151.054813,-34.185158],[151.053579,-34.183513],[151.054196,-34.180529],[151.057465,-34.178316],[151.060797,-34.178908],[151.063242,-34.17684],[151.063078,-34.17442],[151.066158,-34.172329]]],[[[150.935712,-34.492914],[150.928929,-34.488444],[150.927191,-34.48904],[150.92717,-34.492721],[150.929486,-34.49279],[150.93093,-34.490887],[150.934604,-34.493936],[150.935712,-34.492914]]],[[[150.930948,-34.456694],[150.929112,-34.454422],[150.928896,-34.456708],[150.930948,-34.456694]]]]},"bbox":[150.689634,-34.500723,151.066158,-34.130009]}]}