{"type":"FeatureCollection","features":[
{"properties":{"electorateShortName":"flinders","electorateName":"Flinders","area":871.11,"state":"VIC"},"type":"Feature","geometry":{"type":"Polygon","coordinates":[[[145.061412,-38.201453],[145.061311,-38.201423],[145.061238,-38.201436],[145.06157189915976,-38.20101424489164],[145.0662585,-38.1950945],[145.0136954847405,-38.15348090414565],[145.00839304281564,-38.14645163037017],[144.99592712954484,-38.13294408779657],[144.98578921400707,-38.13569527726361],[144.90036907379007,-38.261460901006316],[144.83924311702478,-38.27915035708886],[144.7845463586855,-38.25496295049117],[144.73866526798287,-38.2757952869037],[144.72301835075731,-38.27858700024219],[144.71461960567402,-38.27890424069344],[144.70547413255187,-38.28122143883386],[144.68844543511068,-38.27902269231032],[144.6842593275233,-38.28046950591238],[144.67138043460264,-38.28934989192228],[144.66348431348348,-38.29097661507881],[144.65010725676115,-38.28745043975607],[144.6358145779934,-38.29077897472421],[144.63473034354445,-38.291902020221585],[144.59621164632532,-38.369451443164934],[144.8633764259714,-38.58585719431302],[145.0380363863831,-38.576421453713955],[145.08356423320487,-38.473945192684575],[145.0838421943537,-38.473782046196874],[145.09238057631552,-38.46997956591122],[145.10468336757555,-38.46161552110875],[145.1058216790358,-38.46105097619871],[145.11695361222158,-38.44658905938946],[145.12275659380634,-38.44190962420029],[145.13232464150596,-38.43718551741846],[145.13621759446826,-38.43457991493193],[145.15750056399833,-38.43042454873085],[145.16725526277335,-38.431882446133024],[145.1849614396796,-38.426549945581094],[145.19570205377042,-38.429708799003606],[145.21427703460913,-38.42712752514294],[145.2223937609393,-38.428711836647274],[145.22323522111193,-38.429108316880985],[145.22952663713042,-38.42971052424736],[145.26008259787056,-38.42405934255877],[145.26927218934208,-38.41485686868997],[145.33591,-38.424042],[145.3029592616576,-38.419500181242014],[145.30495037463734,-38.42301496637798],[145.31975650253526,-38.43962281158498],[145.34591372451735,-38.45873542226391],[145.35181871134822,-38.45866324370007],[145.37202333218463,-38.46782503233783],[145.37368892318636,-38.468087123152515],[145.39403455348483,-38.44670688873999],[145.39758058062517,-38.436186071978845],[145.40093172180642,-38.43243904984012],[145.40114165723327,-38.40911782895572],[145.4100395420738,-38.38882365090295],[145.418189483853,-38.388409438042814],[145.42751639460025,-38.39107072432051],[145.43076363270401,-38.390916217422216],[145.43827084091203,-38.38796519790857],[145.45422143619922,-38.39102948939102],[145.46180725880453,-38.39002478264192],[145.46348809338193,-38.39022119225761],[145.47296174084408,-38.38507717416889],[145.50247510170587,-38.38430127464956],[145.50409416592896,-38.38492468561385],[145.51426840744887,-38.37934217876328],[145.52286109380157,-38.36908161056073],[145.52620732996945,-38.36061898932355],[145.50028870910452,-38.338208076748636],[145.4998731786637,-38.32783843700924],[145.4902570318229,-38.31175734772555],[145.48992087436224,-38.30867136332655],[145.48777384132433,-38.30672436789937],[145.47977992969882,-38.29388349363649],[145.470238054204,-38.28410884603765],[145.46411931540314,-38.27521780496052],[145.46032636817554,-38.27123237452313],[145.45449981521676,-38.26711740609642],[145.43621108618134,-38.26501120640001],[145.43528149168048,-38.26541383052258],[145.42841178244745,-38.26620300615952],[145.40109230412867,-38.264381730785225],[145.39531010390266,-38.26574410649175],[145.3762125455123,-38.267035891594205],[145.37354590650423,-38.26800224544605],[145.3695160871829,-38.26824430233825],[145.36433889403514,-38.265556047679574],[145.3446471568521,-38.26477776521745],[145.32828564591372,-38.26724676307793],[145.32419199652725,-38.26623264047528],[145.31235179240414,-38.2663989967885],[145.3055930542106,-38.264268723083354],[145.28396332631795,-38.26717908289162],[145.2633840770783,-38.24787801675705],[145.26691010898762,-38.238817248089276],[145.26633184335364,-38.23409507145232],[145.2574336562181,-38.23026990496765],[145.25731988558795,-38.22607561116582],[145.25711459532513,-38.22615131652228],[145.25787861588478,-38.2258695669253],[145.25868386462838,-38.2257483864323],[145.25901936402522,-38.225732471381264],[145.25422,-38.22361],[145.24574,-38.222593],[145.244228,-38.222399],[145.240225,-38.221892],[145.239376,-38.221754],[145.236253,-38.221372],[145.229938,-38.220597],[145.226541,-38.218951],[145.220018,-38.211958],[145.219442,-38.211562],[145.215447,-38.208729],[145.215237,-38.208167],[145.21512,-38.207766],[145.214982,-38.207087],[145.214929,-38.206539],[145.214934,-38.205297],[145.215412,-38.202743],[145.215767,-38.200652],[145.209598,-38.19991],[145.200993,-38.199669],[145.19673,-38.199549],[145.182029,-38.199097],[145.181817,-38.199064],[145.181897,-38.198647],[145.181201,-38.198542],[145.180746,-38.198345],[145.179987,-38.197734],[145.179379,-38.197304],[145.175604,-38.194431],[145.175142,-38.194079],[145.174636,-38.193695],[145.17416,-38.193332],[145.172107,-38.191755],[145.17086,-38.190797],[145.170581,-38.190586],[145.167372,-38.188166],[145.163473,-38.185203],[145.161759,-38.183622],[145.159285,-38.181741],[145.159062,-38.181571],[145.157557,-38.183941],[145.156614,-38.186191],[145.15431,-38.191689],[145.153874,-38.192313],[145.152387,-38.194479],[145.151297,-38.194305],[145.150533,-38.19421],[145.1487,-38.194111],[145.148119,-38.194077],[145.147995,-38.194073],[145.146894,-38.194497],[145.143093,-38.195958],[145.142501,-38.196185],[145.139662,-38.197277],[145.133534,-38.195668],[145.128944,-38.199996],[145.128752,-38.200087],[145.12694,-38.200922],[145.125487,-38.201587],[145.123488,-38.202518],[145.117932,-38.205104],[145.116011,-38.206463],[145.110461,-38.210386],[145.110396,-38.2106],[145.109905,-38.212171],[145.109456,-38.213651],[145.109326,-38.214081],[145.104992,-38.218996],[145.100818,-38.223479],[145.09934,-38.224894],[145.099184,-38.22473],[145.09572,-38.219842],[145.093616,-38.216765],[145.09299,-38.216926],[145.09237,-38.217051],[145.091236,-38.217195],[145.089256,-38.217334],[145.088316,-38.217472],[145.083496,-38.218348],[145.077759,-38.219374],[145.077657,-38.21925],[145.070186,-38.217104],[145.068828,-38.216714],[145.066437,-38.216027],[145.065895,-38.215872],[145.063324,-38.215133],[145.063948,-38.214643],[145.063947,-38.214637],[145.063845,-38.213518],[145.06379,-38.21352],[145.063788,-38.213486],[145.06379,-38.213418],[145.063811,-38.213332],[145.06383,-38.213248],[145.063832,-38.213167],[145.063837,-38.213091],[145.063859,-38.213003],[145.063877,-38.212912],[145.063857,-38.212846],[145.06383,-38.212767],[145.063828,-38.21269],[145.063857,-38.212611],[145.063858,-38.212521],[145.063852,-38.212444],[145.063858,-38.21236],[145.063804,-38.212295],[145.063745,-38.212213],[145.063748,-38.212138],[145.06379,-38.21206],[145.063794,-38.212013],[145.063766,-38.211957],[145.063708,-38.211907],[145.063676,-38.211836],[145.06367,-38.211776],[145.063634,-38.211709],[145.063656,-38.211662],[145.06369,-38.211623],[145.063705,-38.211579],[145.063701,-38.211497],[145.063675,-38.211437],[145.063656,-38.211347],[145.063628,-38.211253],[145.063618,-38.211181],[145.063627,-38.211135],[145.063624,-38.21107],[145.063628,-38.210999],[145.0636,-38.210885],[145.063608,-38.210832],[145.063602,-38.210765],[145.063589,-38.210681],[145.063564,-38.210609],[145.063552,-38.210559],[145.063542,-38.210512],[145.063532,-38.210473],[145.063528,-38.210435],[145.063517,-38.210366],[145.063506,-38.210283],[145.063468,-38.210204],[145.063402,-38.210102],[145.063335,-38.210004],[145.063266,-38.209914],[145.063192,-38.209802],[145.063108,-38.209702],[145.063056,-38.209629],[145.06304,-38.209566],[145.063064,-38.209519],[145.06306,-38.209463],[145.062982,-38.209356],[145.062948,-38.209286],[145.062801,-38.209054],[145.062683,-38.208888],[145.062613,-38.208812],[145.062567,-38.208728],[145.062507,-38.208639],[145.062445,-38.208581],[145.062409,-38.208491],[145.062376,-38.208362],[145.062324,-38.208223],[145.062236,-38.208086],[145.062175,-38.207941],[145.062146,-38.207855],[145.062127,-38.207796],[145.062143,-38.207748],[145.062168,-38.207718],[145.062155,-38.207663],[145.062189,-38.207572],[145.062191,-38.207495],[145.062174,-38.207431],[145.062166,-38.207392],[145.062115,-38.207271],[145.062067,-38.207133],[145.062075,-38.20698],[145.062092,-38.206849],[145.062043,-38.20673],[145.061858,-38.206589],[145.061814,-38.206472],[145.061765,-38.20637],[145.061733,-38.206247],[145.061742,-38.20613],[145.061769,-38.206],[145.061808,-38.205901],[145.061825,-38.205819],[145.061831,-38.205774],[145.061834,-38.205693],[145.061819,-38.205563],[145.061864,-38.2055],[145.061879,-38.20542],[145.061955,-38.205346],[145.062019,-38.20526],[145.06204,-38.205154],[145.06205,-38.20496],[145.062066,-38.204825],[145.062073,-38.2047],[145.06206,-38.204622],[145.06207,-38.204508],[145.062067,-38.20441],[145.062044,-38.20431],[145.062034,-38.204216],[145.062038,-38.204121],[145.062054,-38.204038],[145.062121,-38.203972],[145.062179,-38.20391],[145.062212,-38.203842],[145.062193,-38.203751],[145.062183,-38.203683],[145.062239,-38.203598],[145.06228,-38.203524],[145.062279,-38.20344],[145.062242,-38.203352],[145.062215,-38.203261],[145.0622,-38.203065],[145.062139,-38.202985],[145.062064,-38.202918],[145.062033,-38.202876],[145.062008,-38.202804],[145.062017,-38.202729],[145.062043,-38.202653],[145.062035,-38.20256],[145.062004,-38.202467],[145.061967,-38.202395],[145.061934,-38.202309],[145.061888,-38.202232],[145.061838,-38.20221],[145.061774,-38.202168],[145.061731,-38.202075],[145.061715,-38.201936],[145.06169,-38.201822],[145.061652,-38.2017],[145.06163,-38.201651],[145.061609,-38.201604],[145.061526,-38.201507],[145.061412,-38.201453]],[[145.0608045419438,-38.20175455946671],[145.04573072355603,-38.2128326960431],[145.05260774093043,-38.207778599214286],[145.0518249119992,-38.20569231442218],[145.05638283348347,-38.20500418666563],[145.0608045419438,-38.20175455946671]]]},"bbox":[144.59621164632532,-38.58585719431302,145.52620732996945,-38.13294408779657]}]}