{"type":"FeatureCollection","features":[
{"properties":{"electorateShortName":"gellibrand","electorateName":"Gellibrand","area":124.62,"state":"VIC"},"type":"Feature","geometry":{"type":"MultiPolygon","coordinates":[[[[144.905562,-37.822888],[144.906132,-37.822252],[144.906529,-37.821593],[144.906638,-37.82102],[144.906601,-37.820174],[144.906493,-37.819157],[144.90624,-37.818125],[144.905842,-37.816792],[144.905607,-37.815903],[144.905477,-37.815387],[144.905452,-37.815291],[144.905452,-37.81424],[144.905465,-37.81349],[144.905569,-37.812772],[144.905724,-37.811878],[144.905931,-37.81115],[144.906113,-37.810492],[144.906229,-37.810123],[144.906294,-37.809794],[144.90632,-37.809517],[144.906372,-37.809168],[144.906437,-37.80885],[144.906709,-37.808285],[144.906968,-37.807638],[144.907201,-37.807028],[144.907587,-37.806135],[144.90768,-37.805919],[144.908225,-37.804605],[144.908434,-37.804152],[144.908613,-37.803763],[144.90891,-37.803131],[144.909273,-37.802412],[144.909609,-37.801807],[144.910115,-37.801057],[144.910207,-37.800927],[144.910413,-37.800636],[144.910685,-37.800348],[144.910983,-37.800102],[144.911359,-37.799876],[144.911709,-37.799733],[144.912071,-37.79964],[144.912421,-37.799578],[144.912771,-37.799578],[144.913121,-37.79962],[144.913483,-37.799743],[144.913768,-37.799989],[144.914079,-37.800184],[144.914429,-37.800256],[144.914805,-37.800236],[144.915077,-37.800113],[144.915479,-37.799835],[144.91588,-37.799466],[144.916217,-37.799086],[144.916385,-37.798762],[144.916501,-37.798362],[144.916493,-37.798214],[144.916489,-37.798012],[144.91632,-37.797602],[144.916048,-37.797242],[144.915698,-37.796903],[144.915284,-37.796544],[144.915208,-37.79649],[144.914649,-37.796092],[144.913923,-37.79563],[144.91347,-37.795373],[144.912924,-37.795161],[144.912049,-37.795515],[144.911724,-37.795616],[144.911059,-37.795626],[144.910078,-37.795525],[144.90985,-37.795495],[144.90965,-37.795473],[144.908767,-37.795375],[144.9086,-37.795357],[144.90693,-37.795172],[144.905947,-37.795063],[144.90431,-37.794882],[144.901124,-37.794529],[144.900795,-37.794492],[144.900531,-37.794463],[144.900386,-37.794568],[144.899893,-37.794924],[144.899326,-37.79523],[144.898769,-37.795529],[144.898388,-37.795731],[144.897755,-37.796065],[144.896947,-37.796493],[144.89627,-37.796852],[144.895594,-37.797211],[144.895204,-37.797417],[144.894292,-37.797899],[144.893408,-37.798366],[144.893254,-37.798447],[144.892358,-37.798921],[144.891321,-37.799469],[144.890996,-37.799641],[144.889374,-37.800499],[144.888476,-37.800974],[144.887708,-37.80138],[144.887469,-37.801507],[144.887324,-37.801583],[144.886614,-37.801959],[144.883952,-37.801655],[144.880805,-37.801344],[144.877881,-37.801032],[144.872422,-37.800457],[144.870459,-37.80024],[144.868462,-37.799946],[144.868411,-37.799938],[144.868286,-37.79992],[144.86753,-37.799816],[144.867051,-37.799756],[144.864999,-37.799456],[144.862115,-37.799158],[144.862047,-37.799539],[144.861209,-37.799444],[144.860732,-37.79939],[144.860719,-37.799481],[144.860664,-37.7998],[144.86062,-37.800073],[144.860553,-37.800479],[144.860532,-37.800615],[144.86051,-37.80075],[144.860487,-37.800886],[144.860421,-37.801295],[144.860398,-37.801431],[144.860354,-37.801706],[144.860331,-37.801841],[144.860198,-37.802661],[144.860193,-37.802687],[144.861774,-37.80289],[144.86188,-37.803002],[144.861968,-37.803096],[144.860972,-37.809236],[144.860807,-37.810245],[144.860427,-37.810202],[144.859909,-37.813017],[144.860216,-37.813721],[144.859834,-37.813833],[144.859231,-37.814014],[144.858124,-37.814264],[144.856229,-37.814773],[144.855873,-37.814882],[144.855515,-37.814992],[144.85381,-37.815462],[144.850128,-37.816458],[144.846692,-37.817386],[144.846575,-37.817418],[144.845987,-37.817647],[144.843947,-37.818213],[144.841043,-37.819019],[144.840048,-37.819295],[144.838094,-37.819837],[144.836986,-37.820145],[144.836008,-37.820423],[144.835467,-37.820574],[144.829832,-37.822145],[144.827414,-37.822832],[144.827371,-37.822769],[144.827247,-37.822634],[144.827199,-37.822559],[144.827144,-37.822487],[144.827094,-37.822411],[144.827034,-37.822343],[144.826967,-37.822279],[144.826884,-37.822228],[144.826818,-37.822163],[144.826749,-37.822101],[144.826687,-37.822035],[144.82662,-37.821972],[144.826548,-37.821913],[144.82648,-37.821849],[144.826426,-37.821777],[144.826374,-37.821704],[144.826324,-37.821627],[144.826264,-37.821561],[144.826211,-37.821488],[144.826168,-37.821408],[144.826137,-37.821318],[144.826111,-37.821226],[144.826082,-37.821134],[144.826058,-37.821042],[144.826008,-37.820966],[144.825953,-37.820893],[144.825907,-37.820815],[144.825857,-37.820738],[144.8258,-37.820666],[144.825707,-37.820517],[144.825666,-37.820435],[144.825636,-37.82035],[144.825633,-37.820346],[144.825584,-37.820276],[144.825545,-37.820192],[144.825518,-37.820106],[144.825486,-37.820022],[144.825481,-37.819998],[144.825464,-37.819928],[144.825419,-37.819851],[144.82537,-37.819776],[144.825353,-37.81968],[144.825316,-37.819595],[144.825299,-37.819496],[144.825292,-37.819391],[144.825275,-37.819293],[144.825238,-37.81921],[144.825223,-37.819111],[144.825192,-37.819022],[144.825193,-37.818911],[144.825207,-37.818688],[144.825195,-37.818585],[144.825153,-37.818505],[144.825138,-37.818404],[144.825147,-37.818291],[144.825178,-37.818195],[144.825233,-37.81812],[144.825294,-37.818052],[144.825319,-37.817954],[144.825357,-37.817867],[144.825423,-37.817802],[144.825483,-37.817735],[144.825564,-37.817681],[144.825628,-37.817615],[144.82572,-37.817572],[144.825806,-37.817527],[144.825875,-37.817463],[144.826019,-37.817349],[144.826104,-37.817305],[144.826179,-37.817247],[144.826263,-37.817199],[144.826354,-37.817154],[144.826439,-37.817106],[144.826508,-37.817044],[144.826594,-37.816996],[144.826677,-37.816944],[144.82676,-37.8169],[144.826586,-37.816872],[144.82522,-37.816758],[144.821973,-37.816487],[144.82069,-37.81638],[144.816933,-37.816066],[144.812845,-37.815732],[144.810062,-37.815504],[144.809089,-37.815419],[144.808313,-37.815348],[144.807567,-37.81528],[144.807148,-37.815249],[144.803927,-37.814966],[144.8003,-37.814649],[144.79823,-37.814469],[144.787461,-37.813562],[144.782318,-37.813129],[144.777214,-37.812699],[144.769138,-37.812017],[144.769171,-37.812217],[144.768237,-37.819233],[144.767846,-37.822067],[144.767269,-37.826556],[144.767257,-37.826649],[144.766783,-37.830175],[144.766309,-37.833686],[144.765826,-37.837305],[144.76564,-37.838707],[144.765001,-37.839445],[144.764619,-37.839888],[144.763844,-37.840784],[144.763696,-37.840957],[144.761252,-37.843792],[144.761212,-37.843843],[144.76114,-37.843914],[144.761029,-37.843993],[144.754769,-37.848309],[144.751231,-37.850749],[144.746544,-37.854009],[144.745624,-37.853931],[144.744954,-37.853873],[144.741536,-37.853582],[144.738901,-37.853357],[144.734875,-37.853013],[144.733256,-37.852875],[144.731271,-37.852724],[144.73124,-37.853124],[144.730961,-37.855299],[144.730883,-37.855891],[144.730652,-37.857615],[144.730616,-37.857986],[144.730641,-37.858346],[144.730705,-37.858726],[144.731215,-37.860572],[144.731421,-37.861317],[144.731612,-37.862111],[144.731755,-37.862771],[144.731793,-37.863037],[144.731346,-37.863285],[144.734534,-37.867346],[144.734679,-37.867566],[144.734792,-37.867787],[144.734833,-37.868071],[144.734832,-37.868255],[144.734804,-37.868398],[144.734743,-37.868553],[144.734655,-37.868718],[144.734501,-37.86891],[144.7351,-37.869353],[144.735308,-37.869587],[144.735474,-37.869808],[144.735788,-37.870541],[144.736573,-37.872728],[144.736683,-37.873013],[144.73681,-37.873327],[144.736851,-37.873418],[144.73691,-37.873462],[144.73675,-37.873502],[144.735122,-37.873903],[144.733569,-37.874279],[144.730156,-37.875162],[144.727537,-37.875839],[144.723057,-37.876997],[144.721906,-37.877295],[144.718952,-37.878042],[144.719003,-37.878556],[144.719303,-37.881535],[144.719081,-37.882799],[144.718994,-37.88329],[144.718514,-37.886016],[144.718094,-37.8884],[144.718022,-37.888806],[144.717854,-37.889867],[144.716863,-37.896116],[144.720648,-37.896535],[144.725011,-37.897005],[144.725566,-37.897065],[144.726617,-37.89718],[144.728064,-37.897345],[144.730538,-37.897627],[144.732337,-37.897832],[144.733353,-37.897948],[144.733542,-37.89797],[144.734495,-37.898078],[144.735222,-37.898163],[144.73615,-37.898267],[144.736616,-37.898326],[144.737975,-37.898478],[144.738972,-37.89859],[144.741201,-37.898843],[144.742057,-37.898941],[144.743941,-37.899156],[144.745553,-37.899339],[144.747088,-37.899516],[144.747799,-37.899595],[144.749283,-37.899765],[144.750518,-37.899899],[144.750622,-37.89991],[144.753561,-37.900233],[144.753472,-37.900714],[144.75324,-37.901948],[144.753064,-37.902931],[144.752482,-37.90618],[144.75246,-37.906298],[144.751979,-37.908992],[144.750957,-37.914698],[144.75052,-37.917214],[144.750437,-37.917685],[144.750317,-37.918373],[144.75017,-37.919322],[144.749746,-37.92171],[144.749482,-37.923179],[144.747422,-37.922936],[144.74553,-37.922746],[144.745131,-37.922765],[144.744801,-37.922811],[144.744402,-37.922945],[144.744094,-37.923105],[144.743842,-37.923309],[144.743665,-37.923495],[144.743521,-37.923712],[144.743415,-37.923971],[144.743289,-37.924669],[144.742813,-37.927201],[144.742718,-37.927551],[144.742717,-37.927774],[144.742515,-37.928691],[144.742618,-37.928696],[144.7426,-37.928795],[144.742765,-37.928815],[144.740648,-37.940409],[144.74049,-37.941279],[144.7433262341032,-37.93966982884731],[144.742453504333,-37.940165242509984],[144.74282020755507,-37.941252839992764],[144.744095539494,-37.94350066797058],[144.74000307958326,-37.94396014406695],[144.73914985206397,-37.94865829559711],[144.73914985206397,-37.94865829559712],[144.7382564201066,-37.95357782599519],[144.73825642010664,-37.9535778259952],[144.73736298814927,-37.95849735639326],[144.7373629881493,-37.95849735639327],[144.73646955619193,-37.963416886791336],[144.73646955619193,-37.96341688679134],[144.73557612423457,-37.96833641718941],[144.7355761242346,-37.96833641718942],[144.73468269227723,-37.97325594758749],[144.73468269227726,-37.9732559475875],[144.7337892603199,-37.978175477985566],[144.7337892603199,-37.97817547798557],[144.73289582836253,-37.98309500838364],[144.73289582836256,-37.98309500838365],[144.7320023964052,-37.98801453878172],[144.73200239640522,-37.98801453878173],[144.73110896444786,-37.992934069179796],[144.73110896444786,-37.9929340691798],[144.7302155324905,-37.997853599577866],[144.73021553249052,-37.99785359957788],[144.72932210053315,-38.00277312997594],[144.72932210053315,-38.00277312997595],[144.7284286685758,-38.00769266037402],[144.72842866857582,-38.007692660374026],[144.72753523661845,-38.012612190772096],[144.72753523661848,-38.0126121907721],[144.7266418046611,-38.01753172117017],[144.7266418046611,-38.01753172117018],[144.72574837270375,-38.02245125156825],[144.72574837270378,-38.022451251568256],[144.7248549407464,-38.027370781966326],[144.72485494074644,-38.02737078196633],[144.7244797869889,-38.029436502023614],[144.73002009016537,-38.03066793101528],[144.74836706421675,-38.030933625420694],[144.76638662269636,-38.0274727638865],[144.76683934149813,-38.02728456071995],[144.77155402586544,-38.02672934042293],[144.79093470765235,-38.02223273989427],[144.8020659315745,-38.01686268490565],[144.82304470801031,-38.012120022632736],[144.84232911459313,-38.00251003596884],[144.84866511459313,-37.998338035968835],[144.86211573559206,-37.98749600073667],[144.87324693109053,-37.9742836799713],[144.88128258899556,-37.95984544887413],[144.88445235812603,-37.96084081471684],[144.90191782131578,-37.962747574852536],[144.91942094242611,-37.96122478463591],[144.93629470530337,-37.9563304751842],[144.94143370530335,-37.9542774751842],[144.94825702636703,-37.95062161191086],[144.9469096706065,-37.947669443875085],[144.9469096706065,-37.94766944387508],[144.94483368462323,-37.94312078668891],[144.94275769863998,-37.93857212950274],[144.94275769863998,-37.93857212950273],[144.94068171265673,-37.93402347231656],[144.93860572667347,-37.92947481513039],[144.93860572667347,-37.92947481513038],[144.93652974069022,-37.92492615794421],[144.93445375470696,-37.92037750075804],[144.93445375470696,-37.920377500758036],[144.9323777687237,-37.915828843571866],[144.93030178274046,-37.911280186385696],[144.93030178274043,-37.91128018638569],[144.92822579675718,-37.90673152919952],[144.92614981077392,-37.90218287201335],[144.92614981077392,-37.90218287201334],[144.92407382479067,-37.89763421482717],[144.9219978388074,-37.893085557641],[144.9219978388074,-37.893085557640994],[144.91992185282416,-37.888536900454824],[144.91803524032156,-37.88440317624533],[144.91803417440877,-37.884402265630925],[144.9126024559115,-37.88752998406439],[144.90923323499382,-37.89341513591815],[144.90642415537607,-37.89637540025174],[144.9028498207753,-37.90182462401044],[144.90029922279928,-37.904805689961314],[144.8966463234406,-37.91015199887373],[144.89418450636873,-37.913156512647],[144.89049058146057,-37.918457578415314],[144.88807349932603,-37.921478481594775],[144.88435441516742,-37.92675422370441],[144.88196425286515,-37.929786755731385],[144.87822817189075,-37.93504634017531],[144.8758559798695,-37.9380874576982],[144.8721076493511,-37.94333584572775],[144.86974830157126,-37.94638353377],[144.86599072456835,-37.95162370928107],[144.86430129755854,-37.9538187011751],[144.86385003156244,-37.95305071250335],[144.8630984616351,-37.95186346027553],[144.859759787013,-37.9456540360578],[144.85562618234113,-37.93859463942203],[144.85142737237567,-37.93204244681872],[144.84375018815402,-37.92115869334776],[144.83905857807028,-37.906324544161095],[144.8475989280348,-37.87575815002298],[144.84832820973082,-37.87193391298511],[144.8483397901211,-37.86774857352874],[144.85954961279705,-37.867389974412454],[144.8638259423084,-37.86485964382746],[144.86487350119523,-37.86541592980227],[144.86981369451263,-37.866191699937986],[144.87123512188788,-37.865932562412496],[144.87432820010702,-37.87001823208815],[144.87912245801056,-37.871839872689634],[144.88444821405298,-37.869852443295834],[144.8854223989297,-37.86888836322212],[144.889236999458,-37.87171330346983],[144.89420329936075,-37.872301976410405],[144.8970802735019,-37.87111445963744],[144.89899480409147,-37.874143348083514],[144.90379076289904,-37.87595279887294],[144.9070277625266,-37.87421831493344],[144.9088253926661,-37.8760517744524],[144.91086715292812,-37.87618104077296],[144.91260899682726,-37.8793087233195],[144.91346914494324,-37.88021415157029],[144.91516248190086,-37.87815338141255],[144.9179553350558,-37.87874153222132],[144.91897566475788,-37.87833291163318],[144.91899540381544,-37.87830944887876],[144.9174093596279,-37.87545723496163],[144.9151279421027,-37.878033045116254],[144.9138207871642,-37.8751689604103],[144.9164958730746,-37.87381449443723],[144.91556565904648,-37.87214167257146],[144.91254413008667,-37.87237169904299],[144.91178918593243,-37.87071755388976],[144.91400671360574,-37.869338190854506],[144.91359729954084,-37.868601933628554],[144.91207065826092,-37.867924185098076],[144.908045,-37.8707],[144.9148118728831,-37.86603403349939],[144.91674448079937,-37.868168828517355],[144.9327273353406,-37.86481468278465],[144.93523270928637,-37.862488729656825],[144.9347238675221,-37.86204465761832],[144.92096991000582,-37.85554339509202],[144.91367871557796,-37.86392738816665],[144.911555,-37.862068],[144.90642070488062,-37.861568133738224],[144.90771281273513,-37.8616939311667],[144.9090109191385,-37.86053983464134],[144.90568882268352,-37.85735115288592],[144.90560803000946,-37.85717412944727],[144.90659017667824,-37.85614852270775],[144.90366047577223,-37.8529068768511],[144.90360056809354,-37.8527756141666],[144.90420868496815,-37.852284155742],[144.9049146217067,-37.85191631138454],[144.90550227958497,-37.85174667411546],[144.90556332700353,-37.851722091492164],[144.905593,-37.851732],[144.90537509576868,-37.851628873820744],[144.90537509576868,-37.85162887382074],[144.899459,-37.848829],[144.897444,-37.844135],[144.900774,-37.848528],[144.903892,-37.850008],[144.900468,-37.84809],[144.899413,-37.845638],[144.901188,-37.847148],[144.897148,-37.842552],[144.898362,-37.841204],[144.898124,-37.840776],[144.897653,-37.839744],[144.897436,-37.839027],[144.897219,-37.83834],[144.897129,-37.837523],[144.897093,-37.836348],[144.89713,-37.834957],[144.897112,-37.833682],[144.89714,-37.832815],[144.897147,-37.83263],[144.897237,-37.832028],[144.8974,-37.831412],[144.897708,-37.830796],[144.898377,-37.829692],[144.898884,-37.828876],[144.899644,-37.82793],[144.900548,-37.82707],[144.90167,-37.826081],[144.902647,-37.825336],[144.903479,-37.824706],[144.904232,-37.824172],[144.905426,-37.82304],[144.905562,-37.822888]]],[[[144.95152128810346,-37.946088270899374],[144.95246610791773,-37.94836643052454],[144.9566929750381,-37.94610171981806],[144.95546578306983,-37.94389483678262],[144.9554657830698,-37.94389483678262],[144.9530358348541,-37.93952501394081],[144.95303583485406,-37.9395250139408],[144.95060588663836,-37.93515519109899],[144.95060588663833,-37.93515519109899],[144.94817593842262,-37.93078536825718],[144.9481759384226,-37.930785368257176],[144.9457459902069,-37.92641554541537],[144.94574599020686,-37.92641554541536],[144.94331604199115,-37.92204572257355],[144.9433160419911,-37.92204572257355],[144.9408860937754,-37.91767589973174],[144.94088609377536,-37.917675899731734],[144.93845614555966,-37.913306076889924],[144.93845614555963,-37.913306076889924],[144.93602619734392,-37.908936254048115],[144.9360261973439,-37.90893625404811],[144.9335962491282,-37.9045664312063],[144.93359624912816,-37.90456643120629],[144.93116630091245,-37.90019660836448],[144.93116630091242,-37.90019660836448],[144.92873635269672,-37.89582678552267],[144.9287363526967,-37.895826785522665],[144.92630640448098,-37.891456962680856],[144.92630640448095,-37.891456962680856],[144.92393167834814,-37.88718644677802],[144.92378732584834,-37.88713670301478],[144.9237315045971,-37.88682647045267],[144.92228006691778,-37.884216322020855],[144.92079479438462,-37.885030379602284],[144.92081885919438,-37.888127510919574],[144.92274626188615,-37.88771561241431],[144.92335752513733,-37.89246500312414],[144.9248433980152,-37.892270503659454],[144.92577187139455,-37.89685923425505],[144.9269991171765,-37.89679281835864],[144.92812922998385,-37.90127947429252],[144.92918613405084,-37.901297729189366],[144.9304557456188,-37.90571379091093],[144.93139183055936,-37.90579225274687],[144.9327636914901,-37.910156582683065],[144.93360956793381,-37.91028008068266],[144.9350595916184,-37.91460487207631],[144.93583552009784,-37.91476334058127],[144.9373472343289,-37.91905693011661],[144.93806732674193,-37.91924334495125],[144.93962897013012,-37.92351168404286],[144.9403034527559,-37.923720947428635],[144.9419063347329,-37.92796843296372],[144.94254285658815,-37.928196727193956],[144.94418037395317,-37.93242669957368],[144.94478480664597,-37.93267109106751],[144.9464518246306,-37.936886147582584],[144.9470287739776,-37.937144333186005],[144.94872122088526,-37.94134653322047],[144.94927436665512,-37.94161667149066],[144.95098895934674,-37.94580767546744],[144.95152128810346,-37.946088270899374]]],[[[144.90590773349922,-37.8509807697997],[144.90572135753538,-37.85135003089582],[144.9056662029756,-37.85148877450227],[144.905937643737,-37.85135813992927],[144.90614960492923,-37.85117614872886],[144.90590773349922,-37.8509807697997]]],[[[144.9130536326444,-37.88263133073014],[144.91718288407682,-37.88253559313592],[144.9168754515504,-37.881861983014325],[144.91347603358847,-37.88073479770599],[144.91299878217689,-37.88162723103161],[144.912979765867,-37.8820687534394],[144.9130536326444,-37.88263133073014]]],[[[144.91994535546803,-37.88109302773515],[144.91908031274008,-37.878830982572104],[144.9180248412808,-37.88346838078294],[144.9199443999877,-37.882197668784414],[144.91994535546803,-37.88109302773515]]]]},"bbox":[144.716863,-38.030933625420694,144.9566929750381,-37.794463]}]}