{"type":"FeatureCollection","features":[
{"properties":{"electorateShortName":"hindmarsh","electorateName":"Hindmarsh","area":122.42,"state":"SA"},"type":"Feature","geometry":{"type":"MultiPolygon","coordinates":[[[[138.558371,-34.850051],[138.560018,-34.849974],[138.561723,-34.849883],[138.563421,-34.849809],[138.564539,-34.849757],[138.564355,-34.8471],[138.56431,-34.846451],[138.564204,-34.845134],[138.564048,-34.842549],[138.564033,-34.842297],[138.56397,-34.841447],[138.563903,-34.84055],[138.563833,-34.839632],[138.563811,-34.838794],[138.563558,-34.83827],[138.563221,-34.837466],[138.562756,-34.836587],[138.562986,-34.834998],[138.563365,-34.832749],[138.567863,-34.832526],[138.575357,-34.832104],[138.575266,-34.832048],[138.575235,-34.831925],[138.57519,-34.83179],[138.575049,-34.831648],[138.574308,-34.831048],[138.573835,-34.830678],[138.573316,-34.830275],[138.572723,-34.82983],[138.571496,-34.8289],[138.569398,-34.827338],[138.567322,-34.825799],[138.56682,-34.825421],[138.566687,-34.825317],[138.566605,-34.825272],[138.566504,-34.825252],[138.566385,-34.82526],[138.56627,-34.825305],[138.558316,-34.822384],[138.547565,-34.809637],[138.549512,-34.801437],[138.552231,-34.800789],[138.553874,-34.797933],[138.551163,-34.793146],[138.55134139698305,-34.79220703132491],[138.5511206451715,-34.79295830892607],[138.5507577595273,-34.79365218456733],[138.55026664649506,-34.79426206765928],[138.54966612642843,-34.794764586361325],[138.54897921235974,-34.79514048323353],[138.54930407957877,-34.79496270761779],[138.54537397085218,-34.79250053171578],[138.54839399895226,-34.782624583401095],[138.5480427045458,-34.782063461120295],[138.53625557385382,-34.77997151174771],[138.53683916469933,-34.76747927156642],[138.5351592879709,-34.7643224449823],[138.53203160302817,-34.76249575170215],[138.5275376872174,-34.75699885202989],[138.5268938744617,-34.756743374406625],[138.52373656317198,-34.75277940058729],[138.5215453924876,-34.74870452645796],[138.51311809659242,-34.74249226422483],[138.49855837214997,-34.7402925448573],[138.494003994623,-34.74296996679739],[138.47633884053948,-34.744841355030864],[138.45602721264675,-34.743144459268784],[138.44411737978228,-34.743716726387596],[138.44108076542216,-34.74423984922696],[138.43992968522687,-34.74426711835389],[138.44839870549117,-34.765306356773266],[138.45202800120134,-34.772718702868424],[138.45587015976562,-34.77905609155035],[138.45992518118396,-34.784318522818936],[138.46419306545644,-34.788505996674274],[138.468673812583,-34.79161851311635],[138.47336742256368,-34.79365607214515],[138.47720596657942,-34.79440915665111],[138.47802533743544,-34.795873891474],[138.48223178750035,-34.80037160807747],[138.4868801850014,-34.802637490128475],[138.4891433275135,-34.80265262748013],[138.48877524738828,-34.7999025035799],[138.4901442777132,-34.8101312629142],[138.48557542281463,-34.809226539171945],[138.48067066056097,-34.808255299121754],[138.48067066056097,-34.80825529912176],[138.47576589830732,-34.80728405907157],[138.47576589830732,-34.80728405907158],[138.47086113605366,-34.806312819021386],[138.47086113605366,-34.80631281902139],[138.4659563738,-34.8053415789712],[138.4659563738,-34.80534157897121],[138.46105161154634,-34.80437033892102],[138.46105161154634,-34.804370338921025],[138.45614684929268,-34.803399098870834],[138.45614684929268,-34.80339909887084],[138.45124208703902,-34.80242785882065],[138.44633732478536,-34.80145661877046],[138.44633732478536,-34.801456618770466],[138.4414325625317,-34.800485378720275],[138.4414325625317,-34.80048537872028],[138.38838487351728,-34.7899808858466],[138.38838265989443,-34.79126286293582],[138.3915338966847,-34.807922629266976],[138.3930636354471,-34.81180190267652],[138.39229595719257,-34.813890128978464],[138.43804225542647,-34.81700505739348],[138.43816359248171,-34.81699367747344],[138.44307531554495,-34.817328948894236],[138.44319671271947,-34.817316709704],[138.4481083782304,-34.81765287857846],[138.44822984143886,-34.817639699102074],[138.45314144385432,-34.81797685197239],[138.45326297992818,-34.81796263916219],[138.45817451286354,-34.81830087572272],[138.45829612975038,-34.81828552199126],[138.46320758580032,-34.81862495789576],[138.46332929282062,-34.81860833791767],[138.4682406633293,-34.818949108377765],[138.46836247151137,-34.81893107496052],[138.47327374627406,-34.81927333941895],[138.47339566879754,-34.81925371809655],[138.47816479150944,-34.81958771847513],[138.47831859788099,-34.819772629310286],[138.48358771508097,-34.82360786989811],[138.48633975172018,-34.82421170582934],[138.48827892135412,-34.82027158333185],[138.476742,-34.843713],[138.4830671380533,-34.83086120080334],[138.47908205845272,-34.83112910531434],[138.47908205845272,-34.83112910531431],[138.47409331893573,-34.83146448276087],[138.47409331893573,-34.83146448276084],[138.46910457941874,-34.831799860207404],[138.46910457941874,-34.831799860207376],[138.46411583990175,-34.83213523765394],[138.46411583990175,-34.83213523765391],[138.45912710038476,-34.83247061510047],[138.45912710038476,-34.83247061510044],[138.45413836086777,-34.832805992547],[138.45413836086777,-34.83280599254697],[138.44914962135078,-34.833141369993534],[138.44914962135078,-34.833141369993506],[138.4441608818338,-34.833476747440066],[138.4441608818338,-34.83347674744004],[138.4391721423168,-34.8338121248866],[138.4391721423168,-34.83381212488657],[138.38712632894607,-34.837311003096794],[138.38686459492988,-34.83901703813232],[138.38618259492986,-34.85207003813232],[138.38655941755457,-34.866234143531415],[138.38915457152862,-34.88016357470782],[138.3917986377389,-34.88998440912248],[138.43134816484022,-34.89238005267772],[138.45809146480056,-34.90569728435606],[138.46127797843994,-34.92637401337004],[138.45919379771868,-34.93081810519168],[138.45823193068802,-34.932535827661624],[138.4546914391093,-34.940159507487145],[138.45368082337345,-34.94187610726718],[138.45019079805977,-34.94953268463945],[138.44905998714293,-34.95126567800301],[138.4457058469475,-34.95899806081094],[138.4455082296014,-34.959225615509666],[138.44376325466138,-34.96113303746799],[138.4420340878394,-34.96798996822472],[138.44342736262837,-34.96791465607397],[138.44428841179436,-34.96797733515359],[138.44632688223763,-34.96786370419982],[138.44638700007238,-34.96775467567159],[138.44845192149418,-34.967643058297455],[138.4492492245899,-34.96770080335922],[138.4513216769128,-34.96758527814527],[138.45137717597427,-34.967484936433664],[138.45347667393716,-34.96737145005731],[138.45420984877285,-34.96742428207874],[138.45631648689647,-34.96730685123738],[138.4563673365981,-34.96721519802158],[138.45850161996844,-34.967099831352925],[138.45917028435403,-34.967147771311524],[138.46131131218857,-34.96702842347615],[138.46135748194393,-34.96694546043533],[138.4635267595992,-34.96682820218371],[138.46413053134413,-34.96687127105699],[138.46630615278923,-34.966749994861566],[138.46634761201184,-34.96667572367492],[138.46855209284067,-34.96655656254905],[138.4690905897539,-34.966594781314534],[138.4713010086985,-34.96647156539363],[138.47133772680192,-34.96640598774033],[138.47357761970397,-34.966284912448344],[138.47405045959414,-34.96631830208356],[138.47629587991648,-34.966193135072345],[138.4763278263142,-34.96613625263157],[138.47860334020032,-34.96601325188099],[138.47901014087557,-34.96604183336346],[138.4812907664432,-34.965914703897695],[138.48131791054874,-34.96586651834863],[138.48362925434094,-34.96574158084637],[138.48396963360895,-34.965765375153644],[138.48628566827878,-34.965636271869684],[138.48630797950565,-34.96559678489152],[138.48865536213694,-34.9654698993439],[138.48892893780507,-34.96548892745351],[138.49128058542325,-34.965357838988304],[138.49129803318502,-34.965327052260214],[138.49368166359963,-34.96519820737296],[138.49388805347462,-34.96521249026245],[138.49627551787668,-34.96507940525355],[138.49628807158683,-34.965057320454726],[138.49870815874013,-34.96492650493294],[138.4988469806284,-34.96493606357988],[138.50127046563918,-34.96480097066542],[138.50127809471124,-34.96478758947504],[138.50373484756966,-34.96465479202325],[138.5038057192771,-34.964659647405185],[138.50602426030605,-34.96453597873296],[138.50704799376257,-34.96064905410108],[138.508578,-34.964393],[138.508948,-34.964373],[138.510132,-34.964307],[138.511847,-34.964206],[138.511947,-34.9642],[138.512172,-34.964185],[138.512978,-34.964133],[138.516625,-34.963928],[138.516628,-34.96385],[138.516658,-34.963368],[138.516723,-34.962685],[138.517418,-34.96278],[138.51742,-34.962788],[138.517429,-34.962847],[138.51756,-34.963059],[138.51803,-34.963559],[138.518126,-34.963752],[138.51846,-34.964529],[138.518538,-34.964651],[138.51906,-34.965182],[138.520198,-34.965118],[138.52166,-34.965047],[138.523044,-34.964975],[138.52306,-34.965182],[138.523107,-34.965777],[138.523155,-34.966429],[138.523196,-34.967004],[138.523217,-34.967302],[138.523287,-34.968296],[138.524435,-34.968818],[138.524628,-34.969073],[138.524751,-34.969825],[138.524921,-34.970933],[138.525139,-34.970923],[138.526304,-34.97087],[138.526581,-34.970857],[138.5265,-34.970932],[138.52726,-34.970891],[138.528408,-34.97083],[138.528411,-34.970879],[138.528463,-34.971441],[138.528482,-34.971654],[138.528551,-34.972626],[138.528577,-34.972951],[138.528621,-34.97353],[138.528662,-34.974071],[138.528667,-34.974147],[138.528778,-34.97445],[138.529069,-34.974271],[138.52914,-34.974242],[138.529481,-34.974103],[138.52987,-34.973985],[138.530305,-34.973892],[138.530753,-34.973832],[138.530917,-34.973823],[138.531955,-34.973779],[138.532029,-34.974203],[138.532184,-34.974361],[138.532284,-34.974548],[138.53233,-34.974725],[138.532364,-34.97507],[138.532418,-34.975615],[138.533322,-34.975589],[138.536131,-34.975426],[138.536798,-34.975385],[138.537213,-34.975252],[138.537702,-34.974961],[138.537719,-34.975162],[138.53778,-34.975938],[138.544182,-34.972702],[138.546481,-34.97154],[138.546512,-34.971524],[138.54759,-34.970979],[138.5487,-34.970418],[138.550903,-34.969304],[138.551064,-34.969223],[138.551917,-34.968791],[138.552846,-34.968321],[138.553773,-34.967853],[138.554992,-34.967237],[138.554992,-34.96708],[138.554924,-34.966064],[138.554869,-34.965247],[138.554816,-34.964112],[138.554799,-34.963874],[138.554682,-34.962235],[138.554647,-34.961742],[138.554634,-34.961631],[138.55461,-34.961286],[138.554561,-34.960571],[138.554546,-34.960352],[138.554539,-34.960013],[138.554533,-34.959734],[138.554322,-34.957416],[138.554262,-34.956597],[138.554172,-34.955362],[138.554167,-34.955298],[138.554152,-34.955084],[138.554096,-34.954323],[138.554087,-34.954215],[138.554054,-34.953752],[138.554018,-34.953285],[138.553979,-34.95276],[138.553872,-34.951256],[138.553858,-34.951091],[138.553801,-34.950307],[138.553793,-34.950137],[138.553719,-34.949151],[138.553651,-34.948274],[138.553644,-34.94813],[138.553479,-34.945878],[138.553266,-34.942993],[138.553218,-34.942319],[138.553172,-34.941675],[138.553164,-34.941572],[138.553114,-34.940866],[138.5531,-34.940672],[138.553056,-34.940064],[138.553036,-34.939773],[138.552999,-34.939256],[138.552921,-34.938159],[138.552906,-34.937949],[138.552847,-34.93712],[138.552835,-34.937006],[138.552774,-34.936139],[138.552772,-34.936069],[138.552741,-34.935701],[138.552739,-34.935671],[138.552638,-34.934387],[138.552632,-34.934238],[138.552559,-34.933272],[138.552526,-34.932769],[138.55246,-34.931991],[138.552411,-34.931305],[138.552369,-34.930716],[138.552306,-34.929843],[138.552294,-34.929675],[138.552254,-34.929117],[138.552203,-34.928404],[138.552164,-34.927854],[138.552111,-34.927111],[138.552028,-34.925968],[138.55197,-34.925149],[138.551952,-34.924901],[138.55194,-34.924615],[138.551607,-34.924627],[138.550263,-34.924693],[138.549842,-34.924718],[138.549276,-34.924742],[138.549069,-34.924752],[138.548983,-34.923731],[138.548963,-34.923491],[138.548864,-34.922301],[138.548841,-34.922154],[138.54877,-34.921176],[138.548674,-34.920072],[138.548646,-34.919751],[138.548583,-34.918911],[138.548574,-34.918785],[138.548404,-34.91679],[138.548391,-34.916631],[138.548338,-34.915964],[138.548276,-34.915209],[138.548265,-34.914964],[138.548254,-34.91475],[138.548159,-34.913847],[138.548149,-34.91372],[138.548111,-34.913281],[138.548137,-34.913166],[138.548295,-34.912459],[138.548632,-34.911628],[138.548926,-34.910851],[138.549006,-34.910639],[138.549261,-34.909965],[138.549965,-34.908099],[138.550172,-34.907549],[138.550668,-34.906234],[138.551311,-34.904528],[138.552095,-34.904467],[138.552003,-34.903334],[138.551913,-34.902204],[138.551822,-34.901018],[138.551807,-34.90088],[138.551739,-34.899984],[138.551653,-34.898925],[138.551629,-34.898598],[138.55147,-34.896795],[138.551466,-34.896727],[138.551395,-34.895772],[138.551358,-34.895325],[138.551316,-34.894809],[138.551303,-34.89464],[138.551192,-34.893237],[138.55111,-34.89225],[138.551042,-34.891327],[138.551191,-34.891108],[138.549135,-34.889747],[138.548261,-34.889165],[138.548499,-34.888051],[138.548602,-34.887529],[138.548695,-34.887062],[138.548989,-34.885682],[138.54902,-34.88545],[138.549172,-34.884685],[138.549326,-34.883957],[138.549327,-34.883912],[138.549468,-34.883222],[138.549558,-34.882777],[138.549788,-34.881636],[138.549807,-34.881539],[138.549907,-34.881041],[138.55004,-34.880375],[138.550267,-34.879232],[138.5505,-34.878066],[138.550623,-34.877451],[138.550774,-34.876668],[138.548576,-34.875336],[138.548395,-34.875225],[138.548311,-34.873951],[138.548218,-34.872595],[138.548202,-34.87239],[138.54814,-34.87147],[138.548079,-34.870562],[138.547942,-34.86862],[138.547874,-34.867699],[138.547872,-34.867658],[138.547814,-34.866697],[138.547747,-34.86576],[138.547668,-34.86471],[138.547637,-34.864274],[138.547545,-34.862945],[138.547511,-34.862463],[138.54745,-34.86159],[138.547453,-34.861481],[138.547397,-34.86066],[138.547329,-34.859653],[138.547275,-34.858849],[138.547241,-34.858395],[138.547205,-34.857898],[138.547119,-34.856632],[138.547097,-34.856303],[138.547095,-34.856273],[138.547043,-34.855499],[138.546959,-34.854244],[138.546843,-34.852434],[138.546751,-34.851105],[138.546715,-34.850583],[138.548952,-34.85049],[138.551229,-34.850381],[138.552327,-34.850333],[138.552622,-34.850319],[138.555122,-34.850203],[138.555466,-34.850174],[138.556159,-34.850143],[138.556415,-34.850136],[138.557257,-34.850104],[138.558371,-34.850051]]],[[[138.4074475019953,-34.948108863057456],[138.41129257152863,-34.962390574707825],[138.41371765584665,-34.96957656316681],[138.4145195735546,-34.969636746744754],[138.41635843565896,-34.96953424260718],[138.4164456238177,-34.96937312844204],[138.41830747156428,-34.96927248802332],[138.4194815182515,-34.96936015185454],[138.42135313848522,-34.96925582167259],[138.42143589138948,-34.96910338424898],[138.42333106271232,-34.96900094255587],[138.4244432742713,-34.969083567481796],[138.42634785661943,-34.968977399884686],[138.42642614368273,-34.96883364088179],[138.4283548473816,-34.968729386627814],[138.42940484162472,-34.96880699362593],[138.43134259006172,-34.96869897724346],[138.4314163806976,-34.96856389834046],[138.43337882558325,-34.96845782023855],[138.43436622032252,-34.968530430286336],[138.43633733881214,-34.968420553748906],[138.4363583852526,-34.9683821467256],[138.43638991894014,-34.96808931025258],[138.43866736953933,-34.96717591978331],[138.44052461547,-34.96719374873704],[138.43942747167162,-34.96427111703143],[138.43940983204143,-34.964210456907026],[138.43842571831428,-34.96422457715171],[138.4362180934947,-34.96597957117508],[138.43438927342632,-34.96489746256427],[138.43210192082688,-34.96325327660877],[138.43097928918922,-34.96331498826013],[138.43014647793774,-34.96287218290607],[138.42677865584054,-34.9608931567351],[138.4257605355709,-34.96074801143674],[138.42157857451198,-34.95844595875843],[138.42061662691833,-34.958220737932756],[138.41546080597746,-34.955473087094745],[138.41022064641524,-34.95116517176182],[138.4074475019953,-34.948108863057456]]]]},"bbox":[138.38618259492986,-34.975938,138.575357,-34.7402925448573]}]}