{"type":"FeatureCollection","features":[
{"properties":{"electorateShortName":"mcpherson","electorateName":"McPherson","area":229.41645,"state":"QLD"},"type":"Feature","geometry":{"type":"Polygon","coordinates":[[[153.552171,-28.164408],[153.552823,-28.168448],[153.556113,-28.16847],[153.558464,-28.17925],[153.563723,-28.191191],[153.569601,-28.199072],[153.571431,-28.199438],[153.568629,-28.205915],[153.566973,-28.218902],[153.567226,-28.231415],[153.570274,-28.243791],[153.575488,-28.252801],[153.57962363331777,-28.255568729176115],[153.59435129766416,-28.24497180863362],[153.5972442823484,-28.241827105759914],[153.60308300639574,-28.238623683010807],[153.6167450494998,-28.227099244454035],[153.62786029124794,-28.213102262396934],[153.6359903463604,-28.197184777994707],[153.6408145653573,-28.179974577040138],[153.64214268097837,-28.16215043008373],[153.63992231232615,-28.144415321714316],[153.63424103076935,-28.127468724837694],[153.62532290612674,-28.111979013456086],[153.62304590612675,-28.108802013456085],[153.61144420182606,-28.09556843337967],[153.59748894558638,-28.08484565353467],[153.58171375743507,-28.07704369076177],[153.56472184781757,-28.07246087592045],[153.5582100947709,-28.072020144334466],[153.55038175780405,-28.062378621350536],[153.5429797457689,-28.056226737672922],[153.54265830982445,-28.05519300719658],[153.5332932903638,-28.038592772769718],[153.5212866915583,-28.02506279038458],[153.51795790250512,-28.019962055323763],[153.50612729962978,-28.00770655025704],[153.4921994340873,-27.997899658279184],[153.48974792352251,-27.996793291653706],[153.48696094779132,-27.990569124154042],[153.476804589232,-27.976236528078772],[153.46405758835797,-27.964149804032946],[153.45950865422765,-27.961276742203285],[153.45954323619233,-27.961228736391114],[153.45792323619233,-27.96006173639111],[153.45721450727723,-27.959554468713343],[153.45475850207637,-27.958276593060692],[153.4492055507119,-27.954769403870838],[153.44734255071188,-27.95383340387084],[153.44710969812445,-27.95429687007854],[153.43482040911115,-27.94790267221077],[153.43307940911114,-27.947288672210767],[153.42939017109907,-27.946356911736828],[153.431074,-27.998905],[153.437734,-28.040372],[153.447581,-28.076061],[153.446818,-28.076282],[153.446246,-28.076448],[153.445637,-28.076625],[153.445554,-28.07641],[153.445399,-28.075979],[153.445318,-28.075743],[153.445238,-28.075756],[153.445133,-28.075773],[153.444073,-28.075604],[153.442895,-28.075416],[153.442631,-28.075395],[153.4422,-28.075356],[153.441839,-28.075323],[153.440924,-28.075174],[153.440592,-28.075123],[153.439097,-28.074896],[153.438693,-28.074835],[153.438526,-28.074809],[153.43793,-28.074718],[153.437267,-28.074619],[153.436317,-28.07448],[153.436217,-28.074465],[153.43566,-28.074375],[153.435333,-28.074323],[153.435228,-28.074293],[153.434874,-28.074192],[153.434501,-28.074087],[153.434306,-28.074132],[153.43429,-28.074226],[153.434209,-28.074643],[153.434168,-28.074864],[153.43414,-28.075008],[153.434085,-28.075301],[153.434027,-28.075293],[153.433131,-28.075159],[153.433019,-28.075143],[153.432737,-28.0751],[153.432638,-28.075086],[153.432066,-28.075],[153.431203,-28.074872],[153.431258,-28.074579],[153.431267,-28.074538],[153.431288,-28.074419],[153.43138,-28.073938],[153.431384,-28.073913],[153.431441,-28.073618],[153.431098,-28.073567],[153.430987,-28.073554],[153.430898,-28.073537],[153.430271,-28.073443],[153.429092,-28.073268],[153.42822,-28.073137],[153.427852,-28.073083],[153.427614,-28.073047],[153.427328,-28.073005],[153.427119,-28.072973],[153.42711,-28.072971],[153.426981,-28.072953],[153.426935,-28.072945],[153.426033,-28.07281],[153.425939,-28.072797],[153.425683,-28.072758],[153.425583,-28.072744],[153.424705,-28.072613],[153.424535,-28.072587],[153.424591,-28.072294],[153.424616,-28.07217],[153.424652,-28.071983],[153.42467,-28.071894],[153.424729,-28.071587],[153.424737,-28.071551],[153.424814,-28.07116],[153.424956,-28.07043],[153.424971,-28.070344],[153.424985,-28.070272],[153.424991,-28.070251],[153.425086,-28.069756],[153.425183,-28.069676],[153.425298,-28.069131],[153.425343,-28.068915],[153.425378,-28.068758],[153.425283,-28.068743],[153.425429,-28.067996],[153.421505,-28.067339],[153.42115,-28.067279],[153.421039,-28.067675],[153.420744,-28.068279],[153.419998,-28.069387],[153.419168,-28.066648],[153.418762,-28.065312],[153.418723,-28.065148],[153.418273,-28.063549],[153.418037,-28.062889],[153.417792,-28.062209],[153.417639,-28.061956],[153.417258,-28.06132],[153.416614,-28.060488],[153.416313,-28.060093],[153.415311,-28.058782],[153.414932,-28.058284],[153.41426,-28.057404],[153.414021,-28.057097],[153.412974,-28.056059],[153.412141,-28.055478],[153.411316,-28.055026],[153.41075,-28.054652],[153.410572,-28.054531],[153.409901,-28.05396],[153.409229,-28.05324],[153.408683,-28.052447],[153.408383,-28.051863],[153.408117,-28.051224],[153.407895,-28.050576],[153.407625,-28.049664],[153.40741,-28.049068],[153.40727,-28.048441],[153.407213,-28.04828],[153.406995,-28.047622],[153.406935,-28.047412],[153.406804,-28.046657],[153.406793,-28.046593],[153.406762,-28.046316],[153.40678,-28.045871],[153.406913,-28.045007],[153.407223,-28.043713],[153.407291,-28.043341],[153.407451,-28.04247],[153.408116,-28.039365],[153.408347,-28.038233],[153.408392,-28.03801],[153.408534,-28.037272],[153.408726,-28.036275],[153.408774,-28.035588],[153.408801,-28.03519],[153.408727,-28.035162],[153.408102,-28.034946],[153.406938,-28.034254],[153.405946,-28.033541],[153.405318,-28.033087],[153.404887,-28.032779],[153.403146,-28.032165],[153.401102,-28.031885],[153.398212,-28.03141],[153.3981,-28.031387],[153.397432,-28.031271],[153.397235,-28.031237],[153.396891,-28.031178],[153.396023,-28.03103],[153.395781,-28.030988],[153.395328,-28.031161],[153.394842,-28.031236],[153.392085,-28.031836],[153.391821,-28.031895],[153.391157,-28.032046],[153.390628,-28.03215],[153.39007,-28.032199],[153.389045,-28.032238],[153.387362,-28.032303],[153.387106,-28.032357],[153.3869,-28.032462],[153.386784,-28.032591],[153.386789,-28.032558],[153.386792,-28.032526],[153.386792,-28.032494],[153.386788,-28.032462],[153.386781,-28.032431],[153.386773,-28.0324],[153.38676,-28.03237],[153.386745,-28.032342],[153.386732,-28.032322],[153.385422,-28.032583],[153.385088,-28.03265],[153.3844,-28.03286],[153.384375,-28.03287],[153.384365,-28.032873],[153.382404,-28.033657],[153.380594,-28.034469],[153.380077,-28.034775],[153.37936,-28.035274],[153.377988,-28.03688],[153.376464,-28.038664],[153.376442,-28.0387],[153.374925,-28.041139],[153.37424,-28.041885],[153.373164,-28.042841],[153.371431,-28.04423],[153.371218,-28.044418],[153.370806,-28.044843],[153.370115,-28.045366],[153.370063,-28.045405],[153.36965,-28.045639],[153.369058,-28.045926],[153.368976,-28.045955],[153.368455,-28.046136],[153.367503,-28.046392],[153.366477,-28.046629],[153.36551,-28.04682],[153.364273,-28.047055],[153.363784,-28.047134],[153.362541,-28.04733],[153.362442,-28.047359],[153.361619,-28.047553],[153.360489,-28.047905],[153.359544,-28.048149],[153.357211,-28.048659],[153.356671,-28.048851],[153.356397,-28.049031],[153.3563,-28.049057],[153.356209,-28.049258],[153.355967,-28.049285],[153.355927,-28.049358],[153.355797,-28.049479],[153.355703,-28.0495],[153.355337,-28.049581],[153.354941,-28.049761],[153.354917,-28.049771],[153.354887,-28.049791],[153.354863,-28.04981],[153.354842,-28.049833],[153.354825,-28.049857],[153.354809,-28.049891],[153.354794,-28.04994],[153.35479,-28.049966],[153.35479,-28.050014],[153.354788,-28.050119],[153.354771,-28.050213],[153.354723,-28.050305],[153.354603,-28.050546],[153.354507,-28.051013],[153.354437,-28.051343],[153.354442,-28.051674],[153.35452,-28.052047],[153.354855,-28.05278],[153.355204,-28.053763],[153.355358,-28.054318],[153.355461,-28.055023],[153.355505,-28.056328],[153.355494,-28.057637],[153.355694,-28.058821],[153.355743,-28.059406],[153.355682,-28.060101],[153.355666,-28.06015],[153.35555,-28.060701],[153.355304,-28.061191],[153.354812,-28.061827],[153.354528,-28.062298],[153.354361,-28.063424],[153.354646,-28.065121],[153.354776,-28.065892],[153.354618,-28.066755],[153.354138,-28.069375],[153.354089,-28.069784],[153.354112,-28.070074],[153.353429,-28.070342],[153.353044,-28.070769],[153.352909,-28.071947],[153.352812,-28.072795],[153.352753,-28.07332],[153.35267,-28.074043],[153.352378,-28.074785],[153.352204,-28.075227],[153.351743,-28.075647],[153.35123,-28.076115],[153.35108,-28.076361],[153.351185,-28.076399],[153.351357,-28.076425],[153.351195,-28.077258],[153.35101,-28.078184],[153.350828,-28.0791],[153.350732,-28.079584],[153.350696,-28.079763],[153.350639,-28.080048],[153.350612,-28.080139],[153.350224,-28.080118],[153.34979,-28.080074],[153.349184,-28.080052],[153.348549,-28.080029],[153.348312,-28.080022],[153.347508,-28.080068],[153.34694,-28.080139],[153.346718,-28.080179],[153.346496,-28.080233],[153.345645,-28.080525],[153.345451,-28.080575],[153.344881,-28.08072],[153.344501,-28.080817],[153.34409,-28.080921],[153.343934,-28.080981],[153.343541,-28.081132],[153.343165,-28.081373],[153.342942,-28.081516],[153.342204,-28.082288],[153.341927,-28.082399],[153.340879,-28.082876],[153.340552,-28.083017],[153.340185,-28.083222],[153.339833,-28.083418],[153.338925,-28.083888],[153.338456,-28.084315],[153.33831,-28.08451],[153.33826,-28.084667],[153.338311,-28.084852],[153.338458,-28.085147],[153.338636,-28.085424],[153.338752,-28.085655],[153.338893,-28.086076],[153.338995,-28.086617],[153.339108,-28.087253],[153.339545,-28.088116],[153.339863,-28.088265],[153.340062,-28.08827],[153.340395,-28.088086],[153.340651,-28.087962],[153.34103,-28.087904],[153.341408,-28.087973],[153.341956,-28.088135],[153.342163,-28.087911],[153.342561,-28.087636],[153.343224,-28.087404],[153.344459,-28.087073],[153.345036,-28.086944],[153.345501,-28.086815],[153.346351,-28.086642],[153.34741,-28.086454],[153.348292,-28.086295],[153.348923,-28.086145],[153.350139,-28.086803],[153.351298,-28.087137],[153.351348,-28.087187],[153.35181,-28.087648],[153.351908,-28.087769],[153.352001,-28.087604],[153.352208,-28.087157],[153.352317,-28.086992],[153.3524,-28.08702],[153.352658,-28.087176],[153.352787,-28.087235],[153.352915,-28.08731],[153.352979,-28.087367],[153.352978,-28.08748],[153.352996,-28.087596],[153.353015,-28.087664],[153.35306,-28.087665],[153.353105,-28.087682],[153.353364,-28.087683],[153.353818,-28.08763],[153.354012,-28.087632],[153.354142,-28.087617],[153.354336,-28.087618],[153.354531,-28.087562],[153.354661,-28.087508],[153.354921,-28.08743],[153.35505,-28.087413],[153.355374,-28.087417],[153.355504,-28.087378],[153.355569,-28.087379],[153.355634,-28.087363],[153.355763,-28.087346],[153.3559,-28.087308],[153.35603,-28.087252],[153.35616,-28.087213],[153.356283,-28.087209],[153.356384,-28.087131],[153.356723,-28.087012],[153.357094,-28.086849],[153.357298,-28.086764],[153.357413,-28.086708],[153.357579,-28.086651],[153.35788,-28.086505],[153.358122,-28.08642],[153.358314,-28.086347],[153.358608,-28.086217],[153.358921,-28.086082],[153.359183,-28.085958],[153.359382,-28.085879],[153.35958,-28.085783],[153.35972,-28.085699],[153.359784,-28.08562],[153.359895,-28.085515],[153.359922,-28.085396],[153.359944,-28.085325],[153.360014,-28.085283],[153.360137,-28.085272],[153.360266,-28.085308],[153.36033,-28.085365],[153.360375,-28.085423],[153.360394,-28.085479],[153.360405,-28.085644],[153.360378,-28.085758],[153.360377,-28.085815],[153.36037,-28.085872],[153.360376,-28.085929],[153.360375,-28.085986],[153.360368,-28.086043],[153.360404,-28.086282],[153.360448,-28.086397],[153.360446,-28.086624],[153.360496,-28.086784],[153.360514,-28.086897],[153.360559,-28.086956],[153.36059,-28.087024],[153.360655,-28.087041],[153.36072,-28.087043],[153.360772,-28.087009],[153.360819,-28.086895],[153.360832,-28.086838],[153.360833,-28.086781],[153.360853,-28.086725],[153.360854,-28.086588],[153.361067,-28.086095],[153.36108,-28.086038],[153.361081,-28.085981],[153.361101,-28.085924],[153.361102,-28.085867],[153.361083,-28.08581],[153.361103,-28.085752],[153.361103,-28.085696],[153.36113,-28.08564],[153.361169,-28.0856],[153.361234,-28.085584],[153.361299,-28.085584],[153.361634,-28.085718],[153.361763,-28.085798],[153.36202,-28.085914],[153.362149,-28.085989],[153.362245,-28.086105],[153.362308,-28.086276],[153.362305,-28.086504],[153.362478,-28.086671],[153.362543,-28.086717],[153.362607,-28.086757],[153.362723,-28.086775],[153.36282,-28.086759],[153.363005,-28.086595],[153.363139,-28.08646],[153.363226,-28.086398],[153.363363,-28.086251],[153.363418,-28.086209],[153.363423,-28.086206],[153.365208,-28.088903],[153.365828,-28.08984],[153.366144,-28.090317],[153.366106,-28.091998],[153.367016,-28.093019],[153.367278,-28.093532],[153.367874,-28.094688],[153.368436,-28.095446],[153.368509,-28.095544],[153.368941,-28.096696],[153.368958,-28.09674],[153.368569,-28.097418],[153.367083,-28.098251],[153.367235,-28.10037],[153.36747,-28.101159],[153.367778,-28.102101],[153.368503,-28.102985],[153.368707,-28.103872],[153.369829,-28.105456],[153.370122,-28.106398],[153.370059,-28.106485],[153.370007,-28.106547],[153.36981,-28.107101],[153.369763,-28.107332],[153.368949,-28.107797],[153.36864,-28.108971],[153.368163,-28.109869],[153.367009,-28.111599],[153.365709,-28.11185],[153.365685,-28.11185],[153.365694,-28.11186],[153.364751,-28.112402],[153.364135,-28.112968],[153.363684,-28.113269],[153.363506,-28.113884],[153.363342,-28.114474],[153.363032,-28.115566],[153.362784,-28.116332],[153.362537,-28.117571],[153.362274,-28.118651],[153.361994,-28.119381],[153.361705,-28.120297],[153.361579,-28.120767],[153.361188,-28.122385],[153.36084,-28.125157],[153.360716,-28.125505],[153.360592,-28.125727],[153.360289,-28.126029],[153.35979,-28.12641],[153.359042,-28.126966],[153.358311,-28.127411],[153.358115,-28.127555],[153.359798,-28.128785],[153.360838,-28.130033],[153.362789,-28.131152],[153.363883,-28.1324],[153.365224,-28.132919],[153.365423,-28.133742],[153.364891,-28.134725],[153.365198,-28.135507],[153.365083,-28.135825],[153.364593,-28.1363],[153.364583,-28.136628],[153.364061,-28.137706],[153.362954,-28.138147],[153.362843,-28.138183],[153.362523,-28.138529],[153.361995,-28.139638],[153.361587,-28.141644],[153.361535,-28.141991],[153.361381,-28.144321],[153.361681,-28.14525],[153.361575,-28.145263],[153.361443,-28.145644],[153.361902,-28.146737],[153.361652,-28.147692],[153.360553,-28.147633],[153.36046,-28.147623],[153.360403,-28.148283],[153.360091,-28.148253],[153.360028,-28.148631],[153.360005,-28.148762],[153.359968,-28.148969],[153.359556,-28.151283],[153.358489,-28.157291],[153.356086,-28.158513],[153.35516,-28.158694],[153.354427,-28.159061],[153.352407,-28.160071],[153.348522,-28.160563],[153.348467,-28.16087],[153.347707,-28.165363],[153.348018,-28.168213],[153.347772,-28.168597],[153.346354,-28.169334],[153.345255,-28.16936],[153.345195,-28.169328],[153.344079,-28.170564],[153.342825,-28.171327],[153.340592,-28.173369],[153.339519,-28.173612],[153.338088,-28.173338],[153.337392,-28.173312],[153.335251,-28.175299],[153.33465,-28.175757],[153.3324,-28.178971],[153.329567,-28.180981],[153.32905,-28.182107],[153.328749,-28.18289],[153.326924,-28.184909],[153.326534,-28.185578],[153.323451,-28.185863],[153.322601,-28.185643],[153.321594,-28.185691],[153.319658,-28.187666],[153.319904,-28.188391],[153.319504,-28.19128],[153.319476,-28.191276],[153.319722,-28.19263],[153.320104,-28.193426],[153.320209,-28.195053],[153.319609,-28.195935],[153.319617,-28.196323],[153.31954,-28.197365],[153.318474,-28.19773],[153.318185,-28.198016],[153.317347,-28.198449],[153.31649,-28.199184],[153.315824,-28.199658],[153.315653,-28.199711],[153.315303,-28.199882],[153.314628,-28.201511],[153.314677,-28.202417],[153.314149,-28.203058],[153.313093,-28.20364],[153.313171,-28.203802],[153.313171,-28.203935],[153.313149,-28.204046],[153.317285,-28.207015],[153.313153,-28.211547],[153.311844,-28.211353],[153.301409,-28.222594],[153.301298,-28.222742],[153.300753,-28.22238],[153.299259,-28.221931],[153.298937,-28.221042],[153.298792,-28.220683],[153.298366,-28.219508],[153.296474,-28.219145],[153.296497,-28.219274],[153.296307,-28.22084],[153.296371,-28.221243],[153.295365,-28.222876],[153.294303,-28.22832],[153.294263,-28.230486],[153.296643,-28.23266],[153.296827,-28.233555],[153.296652,-28.233986],[153.296863,-28.234233],[153.297192,-28.234413],[153.29751,-28.234623],[153.297814,-28.234859],[153.2981,-28.235114],[153.298365,-28.235382],[153.298596,-28.235678],[153.298795,-28.236003],[153.298982,-28.236339],[153.299175,-28.236671],[153.299395,-28.23698],[153.299651,-28.237281],[153.299922,-28.237575],[153.300207,-28.237854],[153.300507,-28.238113],[153.300823,-28.238346],[153.301166,-28.238549],[153.301531,-28.238723],[153.301909,-28.238876],[153.302292,-28.23902],[153.302672,-28.239166],[153.30291,-28.239265],[153.303149,-28.239367],[153.303388,-28.239464],[153.303631,-28.239548],[153.303877,-28.239613],[153.304239,-28.239667],[153.304612,-28.239686],[153.304989,-28.239676],[153.305364,-28.23964],[153.30573,-28.239584],[153.306169,-28.239463],[153.306597,-28.239282],[153.307021,-28.239075],[153.307447,-28.238875],[153.307884,-28.238716],[153.308297,-28.238606],[153.308716,-28.238511],[153.309138,-28.238431],[153.309563,-28.238368],[153.309988,-28.238321],[153.310537,-28.238238],[153.311776,-28.237482],[153.313195,-28.2377],[153.313744,-28.237473],[153.314307,-28.237362],[153.315112,-28.2378],[153.315211,-28.238058],[153.31599,-28.238273],[153.316484,-28.238649],[153.316685,-28.238717],[153.317041,-28.238681],[153.317596,-28.238381],[153.318599,-28.238296],[153.3188,-28.238244],[153.319441,-28.238333],[153.31968,-28.238246],[153.32023,-28.238191],[153.320501,-28.237989],[153.320999,-28.237947],[153.321718,-28.238024],[153.322776,-28.237343],[153.323589,-28.236892],[153.324189,-28.236483],[153.327694,-28.237012],[153.330213,-28.237064],[153.331102,-28.238368],[153.331116,-28.241534],[153.331698,-28.245415],[153.331842,-28.245611],[153.332149,-28.246033],[153.333356,-28.246348],[153.334174,-28.246746],[153.334495,-28.247971],[153.33518,-28.248412],[153.336364,-28.248769],[153.337782,-28.249192],[153.33958,-28.250311],[153.340878,-28.249774],[153.342274,-28.249959],[153.343836,-28.249437],[153.344444,-28.249074],[153.345378,-28.248599],[153.346223,-28.248172],[153.348064,-28.248821],[153.351608,-28.249],[153.352898,-28.248917],[153.353624,-28.248705],[153.354096,-28.248587],[153.356812,-28.249619],[153.359567,-28.248583],[153.360787,-28.248412],[153.361237,-28.24835],[153.361595,-28.248227],[153.363474,-28.247568],[153.365374,-28.246901],[153.365695,-28.246532],[153.366667,-28.246214],[153.36754,-28.245927],[153.369669,-28.245229],[153.372359,-28.242801],[153.375316,-28.241497],[153.376187,-28.241097],[153.37706,-28.240869],[153.378468,-28.240432],[153.379809,-28.239542],[153.38059,-28.239217],[153.382281,-28.237505],[153.382862,-28.23721],[153.385011,-28.237194],[153.387614,-28.236264],[153.389527,-28.234935],[153.390123,-28.234026],[153.390465,-28.232814],[153.390422,-28.23223],[153.389671,-28.231344],[153.389655,-28.230025],[153.390412,-28.228892],[153.390664,-28.228768],[153.391326,-28.227657],[153.394932,-28.222519],[153.396979,-28.220198],[153.399024,-28.217899],[153.399597,-28.217521],[153.399788,-28.217395],[153.401013,-28.216393],[153.402218,-28.215271],[153.402776,-28.214137],[153.404066,-28.212969],[153.405213,-28.212265],[153.405783,-28.211558],[153.406264,-28.210754],[153.40661,-28.210415],[153.408485,-28.209886],[153.409805,-28.20988],[153.411697,-28.208948],[153.412118,-28.209018],[153.412739,-28.209006],[153.413324,-28.208217],[153.413933,-28.208334],[153.414456,-28.20811],[153.414754,-28.207737],[153.415888,-28.206767],[153.416685,-28.205956],[153.417515,-28.204392],[153.417671,-28.203704],[153.418111,-28.203533],[153.418099,-28.203005],[153.418611,-28.202232],[153.418561,-28.200317],[153.419196,-28.199681],[153.420394,-28.199465],[153.421973,-28.199364],[153.422848,-28.198814],[153.424947,-28.197475],[153.425472,-28.196249],[153.426308,-28.195912],[153.426781,-28.195396],[153.426871,-28.195035],[153.428865,-28.194275],[153.429215,-28.193347],[153.431159,-28.191044],[153.431306,-28.190976],[153.431911,-28.190695],[153.435117,-28.187837],[153.4356,-28.187207],[153.436847,-28.186652],[153.437126,-28.18659],[153.438914,-28.186198],[153.439102,-28.186022],[153.440119,-28.185602],[153.440693,-28.185427],[153.441103,-28.185372],[153.443372,-28.184337],[153.443726,-28.184285],[153.444055,-28.184295],[153.44497,-28.18431],[153.445521,-28.184302],[153.446127,-28.184292],[153.447656,-28.183759],[153.447837,-28.183707],[153.447942,-28.183684],[153.448719,-28.183433],[153.448972,-28.18294],[153.450446,-28.181927],[153.450629,-28.181801],[153.452895,-28.181092],[153.455244,-28.181272],[153.457134,-28.18054],[153.45775,-28.179337],[153.457913,-28.179203],[153.458078,-28.179068],[153.459246,-28.178111],[153.458678,-28.175157],[153.460939,-28.172488],[153.461703,-28.17125],[153.462085,-28.17105],[153.463044,-28.169961],[153.463089,-28.16976],[153.465032,-28.167595],[153.465693,-28.166035],[153.466042,-28.165726],[153.466104,-28.165615],[153.466167,-28.165483],[153.466665,-28.164603],[153.468504,-28.162512],[153.468991,-28.162353],[153.469629,-28.162144],[153.470781,-28.161769],[153.47247,-28.161953],[153.473745,-28.160756],[153.473711,-28.160324],[153.473704,-28.160107],[153.474431,-28.159793],[153.474737,-28.158746],[153.474835,-28.158454],[153.474883,-28.158308],[153.474937,-28.158131],[153.475646,-28.157731],[153.476931,-28.15702],[153.477409,-28.157072],[153.478729,-28.15759],[153.480566,-28.1575],[153.481246,-28.157799],[153.481498,-28.158373],[153.482617,-28.158431],[153.482921,-28.158213],[153.485037,-28.157734],[153.485911,-28.157058],[153.485949,-28.157028],[153.489802,-28.158622],[153.49552,-28.160907],[153.496899,-28.161458],[153.501541,-28.163307],[153.50164,-28.163347],[153.505188,-28.164759],[153.514147,-28.168407],[153.519762,-28.170652],[153.52008,-28.170785],[153.520444,-28.170939],[153.520571,-28.170989],[153.523737,-28.172261],[153.525369,-28.172919],[153.525904,-28.173134],[153.526924,-28.173543],[153.527685,-28.173849],[153.527728,-28.173949],[153.527882,-28.17401],[153.527953,-28.173957],[153.529578,-28.17461],[153.531167,-28.175249],[153.531149,-28.175745],[153.53235,-28.176234],[153.532997,-28.176497],[153.533333,-28.176633],[153.534058,-28.176929],[153.534643,-28.17763],[153.535119,-28.176855],[153.535419,-28.176369],[153.535642,-28.176005],[153.535707,-28.17594],[153.536155,-28.175483],[153.536546,-28.175085],[153.536581,-28.175047],[153.536685,-28.174941],[153.537183,-28.174435],[153.537499,-28.17411],[153.537609,-28.173997],[153.537942,-28.173658],[153.538663,-28.172922],[153.538821,-28.172761],[153.539506,-28.172062],[153.539744,-28.171684],[153.539949,-28.171358],[153.540191,-28.170976],[153.540274,-28.170849],[153.540287,-28.170829],[153.540303,-28.170802],[153.540362,-28.170719],[153.540475,-28.170547],[153.540695,-28.170205],[153.54091,-28.169864],[153.541487,-28.168967],[153.542219,-28.168652],[153.542448,-28.168555],[153.543364,-28.168164],[153.543517,-28.168098],[153.543819,-28.16797],[153.545152,-28.167402],[153.545654,-28.167187],[153.546007,-28.167035],[153.546471,-28.166836],[153.546665,-28.166755],[153.547677,-28.166322],[153.547706,-28.16631],[153.548083,-28.166149],[153.548774,-28.165854],[153.549229,-28.16566],[153.549717,-28.165451],[153.550258,-28.165221],[153.552171,-28.164408]]]},"bbox":[153.294263,-28.255568729176115,153.64214268097837,-27.946356911736828]}]}