{"type":"FeatureCollection","features":[
{"properties":{"electorateShortName":"newcastle","electorateName":"Newcastle","area":170.783963,"state":"NSW"},"type":"Feature","geometry":{"type":"MultiPolygon","coordinates":[[[[151.737915,-32.962947],[151.73785223759361,-32.9647956381515],[151.73776343264655,-32.967411347501965],[151.74013389675025,-32.963979852063396],[151.74030004839514,-32.963477588806796],[151.74108793114826,-32.96353027591776],[151.74499001271533,-32.96267293667418],[151.7451958387487,-32.96268151053804],[151.74524025896662,-32.962478077200515],[151.74728407335348,-32.96213201121668],[151.74970019295793,-32.96255356192802],[151.75026859472774,-32.962516016887385],[151.75028034786345,-32.962541472473006],[151.7530242691262,-32.96146333188659],[151.7523469234535,-32.962538457612624],[151.75261412768495,-32.96255776514936],[151.7552716675002,-32.9623308277454],[151.75535706426479,-32.962566085557924],[151.75681110928514,-32.96229456093445],[151.7576812694062,-32.96242649188096],[151.76024426871373,-32.96205621527846],[151.76036377641697,-32.962506999584164],[151.76245334362997,-32.961980182936294],[151.76296474672233,-32.96245768227468],[151.76281416775586,-32.961818845532555],[151.7648689783374,-32.96070025766257],[151.76009830497594,-32.960804939221205],[151.760088104866,-32.96089461394617],[151.75860342524663,-32.96127885498288],[151.7551381479597,-32.960992911245356],[151.7551022663168,-32.96082902735869],[151.75516141489712,-32.96045924408399],[151.75800963543236,-32.960341573926215],[151.76005398635954,-32.960557276364824],[151.76011704805794,-32.95965460890574],[151.76293464077818,-32.95972521648575],[151.76507715002407,-32.96024287715741],[151.76502795310853,-32.958053492602524],[151.76525582699986,-32.95801271516935],[151.76803236411487,-32.95934304488716],[151.7691774872526,-32.96018854524281],[151.77012070902686,-32.96010531979215],[151.77027896578738,-32.96230890904085],[151.76805628387837,-32.9621251838377],[151.76539320804991,-32.96293673428257],[151.76538899376007,-32.963053995645694],[151.770031,-32.963842590743134],[151.77035919430787,-32.96309903370671],[151.77503099999998,-32.96395390287629],[151.77536035495373,-32.963143677877916],[151.78003099999998,-32.96407093231542],[151.7803617525087,-32.963180977866784],[151.785031,-32.96419544092311],[151.7853634677534,-32.96320842947319],[151.790031,-32.964329997358284],[151.79036562290386,-32.963222244001564],[151.795031,-32.96447849859224],[151.79536841208645,-32.963216403534176],[151.800031,-32.96464715601958],[151.8003721633485,-32.96318073860363],[151.80503099999999,-32.96484651322715],[151.80537747821052,-32.96309660207314],[151.81003099999998,-32.96509602054138],[151.81037770176684,-32.962974],[151.81047495762385,-32.962974],[151.81503099999998,-32.96543595803789],[151.81534811644022,-32.962974],[151.81594448663913,-32.962974],[151.81951453282161,-32.96558743654066],[151.8200649670743,-32.965605192484276],[151.82031300637368,-32.962974],[151.82150282831543,-32.962974],[151.82390986038516,-32.96572922130067],[151.82510539800754,-32.96576778703039],[151.8252723807735,-32.962974],[151.82715216353085,-32.962974],[151.82823231911115,-32.96586865545302],[151.83015142362854,-32.965930562050296],[151.83022624882543,-32.962974],[151.83289474515772,-32.962974],[151.83248370620845,-32.96600579697219],[151.83520305325723,-32.96609351784465],[151.8351746196948,-32.962974],[151.83873290105808,-32.962974],[151.8366657602666,-32.96614070194172],[151.84026029623442,-32.96625665471476],[151.84011750252674,-32.962974],[151.84466903722955,-32.962974],[151.84078016362722,-32.96627342463067],[151.8452911122916,-32.966418939103576],[151.8452911122916,-32.96641893910362],[151.8502885128633,-32.966580145573516],[151.8502885128633,-32.96658014557355],[151.85528591343498,-32.96674135204345],[151.855285913435,-32.966741352043485],[151.8602833140067,-32.96690255851338],[151.8602833140067,-32.96690255851342],[151.8652807145784,-32.967063764983315],[151.8652807145784,-32.96706376498336],[151.8763227596559,-32.96741995998551],[151.8817750789291,-32.9595780086818],[151.88275291869283,-32.957369457082265],[151.865219076462,-32.957652605633555],[151.865031,-32.9577841187422],[151.86021879719763,-32.9578550556891],[151.860031,-32.95799374150547],[151.85521848455812,-32.95805710107111],[151.855031,-32.958203844394504],[151.85021813218023,-32.958258664624815],[151.850031,-32.95841452490681],[151.8452177319732,-32.958459648250646],[151.845031,-32.958625908854415],[151.8402172734901,-32.95865992527954],[151.84003099999998,-32.95883816144725],[151.83521674300275,-32.95885932925595],[151.835031,-32.95905150402478],[151.83021612210325,-32.95905763698553],[151.830031,-32.9592662401058],[151.82521538552479,-32.9592545421079],[151.825031,-32.9594827974305],[151.82021449761857,-32.95944961238108],[151.820031,-32.95970179875414],[151.81521340641095,-32.95964221762458],[151.81503099999998,-32.95992418728315],[151.81021203305068,-32.95983140176742],[151.81003099999998,-32.96015146322342],[151.8052126234922,-32.960015707725574],[151.8051981114696,-32.96004073587271],[151.80503099999999,-32.96038616615806],[151.80023508873842,-32.960193442840364],[151.80008067564054,-32.96050919828239],[151.800031,-32.96063296374677],[151.7952543977646,-32.96035961101266],[151.795031,-32.96092164797372],[151.79477554787462,-32.96088019164016],[151.7902701005641,-32.96050487548302],[151.790031,-32.96128836837611],[151.78928121305816,-32.96111906402711],[151.78528109576342,-32.96060632351603],[151.78504998624712,-32.96169595113302],[151.78477191446964,-32.96169586871391],[151.78392624068263,-32.96140341388691],[151.78028377063222,-32.960588699827795],[151.7801339050608,-32.961856061973535],[151.77882396636008,-32.961843475389756],[151.77859597406848,-32.96186697732081],[151.77525528078854,-32.95997591625557],[151.77520657286806,-32.962038568526424],[151.77339427714662,-32.96198762365018],[151.77233487070686,-32.96214343995019],[151.772704598613,-32.96136159298847],[151.7723223679176,-32.960028777080815],[151.7741045439018,-32.95975380495029],[151.77511684065172,-32.95966448464883],[151.77524997674917,-32.95985399160732],[151.77619090084542,-32.959776389619975],[151.7792863808064,-32.959296584047],[151.78008992629478,-32.959225682974505],[151.78024072995916,-32.95944238309502],[151.7809916707894,-32.959380449830654],[151.78446360131812,-32.9588397704725],[151.78506318081745,-32.95878686639904],[151.78523131313585,-32.95903078860609],[151.78579638097838,-32.95898418507267],[151.78963621160412,-32.95838336368262],[151.79003660422828,-32.95834803492168],[151.7902217262879,-32.95861920813981],[151.79060503626604,-32.958587594945726],[151.7948042178187,-32.957927363134345],[151.79501019653588,-32.957909188541656],[151.79521196942403,-32.95820764169546],[151.79541764151267,-32.95819067904897],[151.79996762610688,-32.957471768285444],[151.79998395774885,-32.957470327258214],[151.80020204255288,-32.95779608927233],[151.8002342015882,-32.95779343698076],[151.80496502055897,-32.957042211442186],[151.805185601211,-32.957374979593816],[151.80994676984145,-32.95661508535631],[151.8101676783569,-32.95695169336101],[151.81492851565628,-32.9561879172253],[151.81514975933044,-32.956528450508166],[151.8199102578871,-32.95576070563797],[151.82013184426145,-32.95610525250688],[151.82489199641225,-32.955333449119465],[151.82511393328576,-32.955682100896304],[151.82987373110453,-32.95490614612724],[151.83009602654548,-32.95525899728669],[151.8348554618308,-32.954478795047436],[151.8350781241893,-32.954835943363754],[151.83983718845175,-32.954051394190564],[151.84006022637303,-32.954412940893036],[151.84481891082143,-32.95362394178704],[151.84504233325993,-32.953989991724754],[151.8498006287869,-32.95319643598243],[151.85002444502112,-32.953567097798896],[151.85478234218778,-32.952768874832216],[151.85500656183626,-32.953144261150776],[151.85976405085583,-32.95234125629636],[151.85998868389382,-32.95272148391687],[151.86474575461443,-32.95191357823331],[151.8649708113918,-32.95229876834136],[151.87177597477188,-32.951135737521774],[151.88607137674825,-32.94987437852404],[151.8887143148325,-32.94390503124438],[151.8891530999999,-32.941997295262624],[151.8644273101709,-32.946139087836805],[151.8641198913053,-32.94601662589687],[151.85946662435543,-32.94680480914769],[151.8591579824704,-32.94667333150529],[151.8545059824247,-32.9474710278192],[151.85419597053652,-32.94732946097225],[151.84954539245442,-32.94813783537558],[151.8492338353674,-32.94798490177149],[151.84458486463117,-32.94880534726506],[151.84427155121776,-32.94863951003287],[151.83962441199046,-32.94947371122316],[151.83930908463446,-32.949293098811914],[151.83466405148744,-32.950143119408615],[151.83434639133816,-32.94994542066529],[151.82970380559004,-32.950813826457676],[151.82938341145842,-32.95059614102321],[151.82474370471758,-32.95148617712273],[151.82442006200938,-32.95124479614073],[151.81978379109975,-32.95216065000718],[151.8194562245417,-32.951890724095314],[151.8148241251246,-32.9528379295083],[151.81449172393312,-32.952532946262416],[151.8098647962737,-32.95351902975097],[151.80952628988862,-32.9531699521701],[151.80490594304237,-32.9542055203489],[151.80455948212153,-32.95379928139269],[151.79994779182354,-32.95489996708842],[151.79959053178473,-32.95441663743145],[151.79551634720488,-32.95547086603686],[151.79496340094252,-32.955563374867985],[151.7946179646976,-32.955013782218636],[151.79103023337692,-32.95604814666691],[151.78998186841858,-32.956231843143364],[151.78963855180285,-32.95557267102177],[151.7864863541306,-32.95663201110787],[151.7850035192637,-32.95691000246962],[151.78464359150806,-32.956044677295324],[151.78188277107571,-32.95722179252364],[151.7800289557282,-32.957609135250436],[151.77959879290282,-32.956238175363495],[151.77721568806857,-32.9578150810894],[151.77506022874724,-32.958367567872884],[151.77462510202366,-32.95633610806014],[151.7794614474703,-32.955470656769876],[151.7794614474703,-32.95547065676984],[151.78438326481975,-32.9545899105075],[151.78438326481975,-32.95458991050747],[151.7893050821692,-32.95370916424513],[151.7893050821692,-32.953709164245105],[151.79422689951863,-32.952828417982765],[151.79422689951866,-32.95282841798274],[151.7991487168681,-32.9519476717204],[151.7991487168681,-32.95194767172036],[151.80407053421754,-32.95106692545802],[151.80407053421754,-32.951066925457994],[151.80899235156699,-32.950186179195654],[151.80899235156699,-32.950186179195626],[151.81391416891643,-32.949305432933286],[151.81391416891645,-32.94930543293325],[151.8188359862659,-32.94842468667091],[151.8188359862659,-32.94842468667088],[151.82375780361534,-32.94754394040854],[151.82375780361534,-32.947543940408515],[151.82867962096478,-32.946663194146176],[151.82867962096478,-32.94666319414615],[151.83360143831422,-32.94578244788381],[151.83360143831425,-32.94578244788377],[151.8385232556637,-32.94490170162143],[151.8385232556637,-32.944901701621404],[151.84344507301313,-32.944020955359065],[151.84344507301313,-32.944020955359036],[151.84836689036257,-32.9431402090967],[151.84836689036257,-32.94314020909666],[151.853288707712,-32.94225946283432],[151.853288707712,-32.94225946283429],[151.85821052506145,-32.941378716571954],[151.85821052506148,-32.941378716571926],[151.86313234241092,-32.940497970309586],[151.86313234241092,-32.94049797030955],[151.89062969782492,-32.93557739092075],[151.8925563573966,-32.927200722650106],[151.89309546284352,-32.91194914488788],[151.89689652549973,-32.902054827284566],[151.89703746179276,-32.90123021047589],[151.89469670743756,-32.900610599028894],[151.89469670743756,-32.90061059902888],[151.8898631812983,-32.89933113622725],[151.88986318129827,-32.89933113622723],[151.885029655159,-32.8980516734256],[151.885029655159,-32.89805167342558],[151.8801961290197,-32.89677221062394],[151.8801961290197,-32.89677221062393],[151.87536260288041,-32.895492747822296],[151.87536260288041,-32.895492747822274],[151.87052907674112,-32.89421328502064],[151.87052907674112,-32.894213285020626],[151.86569555060183,-32.89293382221899],[151.86569555060183,-32.89293382221897],[151.86086202446253,-32.89165435941734],[151.86086202446253,-32.89165435941732],[151.85602849832327,-32.89037489661569],[151.85602849832324,-32.890374896615675],[151.85119497218398,-32.88909543381404],[151.85119497218398,-32.88909543381402],[151.84636144604468,-32.88781597101239],[151.84636144604468,-32.88781597101237],[151.8415279199054,-32.88653650821074],[151.8415279199054,-32.88653650821072],[151.83770084444478,-32.88552345882404],[151.8413769793299,-32.88307482954836],[151.8373261407635,-32.882443935238996],[151.83678541208047,-32.88473392780449],[151.8323875328003,-32.881987958618744],[151.83196657436736,-32.883183695761],[151.82735898390365,-32.88144524845604],[151.8270878682766,-32.882017865874],[151.8224237416627,-32.88055004648289],[151.82219756112636,-32.88092652392968],[151.81750714457428,-32.87958440726678],[151.81730302483052,-32.87986233643233],[151.81273487455942,-32.87862990994014],[151.8120375122831,-32.88006947239284],[151.807657642577,-32.88720957248642],[151.81000688917152,-32.87833464090757],[151.80983148341113,-32.878459512533034],[151.81011,-32.87822],[151.809974,-32.878184],[151.802314,-32.876991],[151.797265,-32.876216],[151.796531,-32.876105],[151.795967,-32.87602],[151.793951,-32.875713],[151.786362,-32.87521],[151.78618,-32.874538],[151.785217,-32.871305],[151.783865,-32.866369],[151.781586,-32.860739],[151.781269,-32.860096],[151.780214,-32.858628],[151.779759,-32.858205],[151.779119,-32.857668],[151.779036,-32.857604],[151.778953,-32.857539],[151.778442,-32.857165],[151.777455,-32.85653],[151.777176,-32.856369],[151.776603,-32.856062],[151.775701,-32.855638],[151.774128,-32.855047],[151.773588,-32.854884],[151.772929,-32.85468],[151.772595,-32.854584],[151.772484,-32.854553],[151.771009,-32.85422],[151.770894,-32.8542],[151.770779,-32.85418],[151.770663,-32.854161],[151.770201,-32.854092],[151.769732,-32.854039],[151.769264,-32.853987],[151.768796,-32.853935],[151.768327,-32.853884],[151.767859,-32.853833],[151.766921,-32.853735],[151.765707,-32.853742],[151.763429,-32.853874],[151.761869,-32.85385],[151.761608,-32.853848],[151.761348,-32.853847],[151.761088,-32.853847],[151.759907,-32.853805],[151.759807,-32.853795],[151.759606,-32.853778],[151.759304,-32.853757],[151.759154,-32.85375],[151.757694,-32.853639],[151.756933,-32.85359],[151.756537,-32.853584],[151.755311,-32.853511],[151.754098,-32.853365],[151.753229,-32.853198],[151.752367,-32.852986],[151.751509,-32.852751],[151.751136,-32.852647],[151.750539,-32.852505],[151.749943,-32.852356],[151.749348,-32.852201],[151.748756,-32.85204],[151.748165,-32.851872],[151.747079,-32.851546],[151.745999,-32.851199],[151.744925,-32.850831],[151.74386,-32.85044],[151.742804,-32.850027],[151.74188,-32.849645],[151.740963,-32.849245],[151.740053,-32.848828],[151.738265,-32.848751],[151.737538,-32.848461],[151.736322,-32.847836],[151.735368,-32.846613],[151.734527,-32.845464],[151.73371,-32.844102],[151.733559,-32.84386],[151.733217,-32.843312],[151.732818,-32.842133],[151.732487,-32.84099],[151.731309,-32.839712],[151.73068,-32.839195],[151.729574,-32.83843],[151.729122,-32.838121],[151.728436,-32.837653],[151.72725,-32.837075],[151.726044,-32.83666],[151.724746,-32.836289],[151.723122,-32.835782],[151.721601,-32.835412],[151.718835,-32.83486],[151.716692,-32.834425],[151.71476,-32.833722],[151.712941,-32.833018],[151.711012,-32.832677],[151.709523,-32.832427],[151.70833,-32.832356],[151.706665,-32.832672],[151.706091,-32.832828],[151.705574,-32.832968],[151.704459,-32.833036],[151.70239,-32.832952],[151.700207,-32.832575],[151.697979,-32.831836],[151.696406,-32.830954],[151.695456,-32.830487],[151.6951,-32.830312],[151.693812,-32.829256],[151.692948,-32.828592],[151.692092,-32.827934],[151.690758,-32.826264],[151.68905,-32.825141],[151.687826,-32.824376],[151.687775,-32.824344],[151.686756,-32.823649],[151.68664,-32.823575],[151.685972,-32.823141],[151.68592,-32.823292],[151.685416,-32.823887],[151.684903,-32.824394],[151.684705,-32.824587],[151.684474,-32.824724],[151.684208,-32.824865],[151.684044,-32.824991],[151.683933,-32.825116],[151.683851,-32.825104],[151.683684,-32.826013],[151.683669,-32.826269],[151.683676,-32.826574],[151.68372,-32.826742],[151.68297,-32.826864],[151.681811,-32.826965],[151.681472,-32.826771],[151.678666,-32.825569],[151.678438,-32.82544],[151.678209,-32.825254],[151.677649,-32.824545],[151.677437,-32.82438],[151.677251,-32.824352],[151.675124,-32.824852],[151.674343,-32.825487],[151.675459,-32.828014],[151.674917,-32.82821],[151.674068,-32.828639],[151.672974,-32.829504],[151.667534,-32.833957],[151.661992,-32.838494],[151.651825,-32.846813],[151.650519,-32.847882],[151.640909,-32.855744],[151.63543,-32.860176],[151.635341,-32.860248],[151.635297,-32.860166],[151.63525,-32.860187],[151.635173,-32.860219],[151.635163,-32.860222],[151.635134,-32.860234],[151.635105,-32.860244],[151.635085,-32.860252],[151.635066,-32.860258],[151.635036,-32.860269],[151.635006,-32.860278],[151.634996,-32.860282],[151.634896,-32.860312],[151.634886,-32.860314],[151.634835,-32.860328],[151.634773,-32.860343],[151.634753,-32.860347],[151.634743,-32.86035],[151.634608,-32.860376],[151.634597,-32.860377],[151.634576,-32.860381],[151.634566,-32.860382],[151.634524,-32.860389],[151.634503,-32.860391],[151.63446,-32.860397],[151.634333,-32.860409],[151.634323,-32.860409],[151.634302,-32.860411],[151.634291,-32.860411],[151.63427,-32.860413],[151.634227,-32.860414],[151.634216,-32.860415],[151.634195,-32.860415],[151.634184,-32.860416],[151.634067,-32.860416],[151.634057,-32.860415],[151.634025,-32.860415],[151.633961,-32.860412],[151.63394,-32.86041],[151.633929,-32.86041],[151.633897,-32.860407],[151.633886,-32.860407],[151.633802,-32.860399],[151.633791,-32.860397],[151.63376,-32.860394],[151.633707,-32.860386],[151.633696,-32.860385],[151.633686,-32.860383],[151.633675,-32.860382],[151.633655,-32.860378],[151.633644,-32.860377],[151.633602,-32.860369],[151.633592,-32.860368],[151.633561,-32.860362],[151.63355,-32.860359],[151.633499,-32.860349],[151.633447,-32.860337],[151.633417,-32.860329],[151.633406,-32.860327],[151.633335,-32.860307],[151.633325,-32.860305],[151.633265,-32.860287],[151.633255,-32.860283],[151.633195,-32.860264],[151.633186,-32.86026],[151.633166,-32.860254],[151.633146,-32.860246],[151.633136,-32.860243],[151.633127,-32.860239],[151.633117,-32.860236],[151.633098,-32.860228],[151.633088,-32.860225],[151.632973,-32.860177],[151.632889,-32.860138],[151.632825,-32.860106],[151.632744,-32.860062],[151.632657,-32.86001],[151.632598,-32.859972],[151.63259,-32.859966],[151.632581,-32.859961],[151.632565,-32.859949],[151.632556,-32.859944],[151.63254,-32.859932],[151.632515,-32.859915],[151.632428,-32.859849],[151.632413,-32.859836],[151.632367,-32.859799],[151.63236,-32.859792],[151.632352,-32.859786],[151.632345,-32.859779],[151.631857,-32.859351],[151.631135,-32.858847],[151.631152,-32.858755],[151.628857,-32.858393],[151.628566,-32.858337],[151.627275,-32.858098],[151.626563,-32.857972],[151.625511,-32.857781],[151.624643,-32.857699],[151.623783,-32.857639],[151.622658,-32.857492],[151.622347,-32.857484],[151.622032,-32.857436],[151.620689,-32.85711],[151.620213,-32.856992],[151.620041,-32.856946],[151.619902,-32.856909],[151.619875,-32.856959],[151.619281,-32.856931],[151.618313,-32.856886],[151.614151,-32.856826],[151.613887,-32.858636],[151.613718,-32.859472],[151.613672,-32.859663],[151.613651,-32.859769],[151.613361,-32.861285],[151.612457,-32.865998],[151.610849,-32.873437],[151.610548,-32.874825],[151.610261,-32.876156],[151.60937,-32.880272],[151.608578,-32.880151],[151.608363,-32.880427],[151.608158,-32.880696],[151.607953,-32.880963],[151.607778,-32.881184],[151.607532,-32.881493],[151.607178,-32.881931],[151.60689,-32.88228],[151.606781,-32.88241],[151.606634,-32.882583],[151.606117,-32.883185],[151.605894,-32.883443],[151.605674,-32.883701],[151.605452,-32.883959],[151.605342,-32.884088],[151.604894,-32.884606],[151.601545,-32.888465],[151.601173,-32.888894],[151.600984,-32.889107],[151.600846,-32.88926],[151.601324,-32.889525],[151.601585,-32.889675],[151.601992,-32.889925],[151.602435,-32.890223],[151.60267,-32.8904],[151.602952,-32.890613],[151.603279,-32.890862],[151.603643,-32.891157],[151.603909,-32.891384],[151.604251,-32.891698],[151.6045,-32.891938],[151.604745,-32.892181],[151.605069,-32.892506],[151.605595,-32.893034],[151.606327,-32.893762],[151.606488,-32.893925],[151.606588,-32.894035],[151.606703,-32.894203],[151.607157,-32.894527],[151.607549,-32.894989],[151.608201,-32.895637],[151.608809,-32.896246],[151.609175,-32.89661],[151.609499,-32.896936],[151.609824,-32.897261],[151.610282,-32.897698],[151.610889,-32.898236],[151.611483,-32.898711],[151.612003,-32.899095],[151.612489,-32.899431],[151.612838,-32.899658],[151.613141,-32.899848],[151.613552,-32.900092],[151.614238,-32.900468],[151.614723,-32.900714],[151.615161,-32.900922],[151.615384,-32.901022],[151.615606,-32.901119],[151.615775,-32.901191],[151.615944,-32.901262],[151.616113,-32.901331],[151.616284,-32.901398],[151.616577,-32.901509],[151.616803,-32.90159],[151.617093,-32.901691],[151.617326,-32.901769],[151.617561,-32.901845],[151.61768,-32.901882],[151.617857,-32.901936],[151.618094,-32.902006],[151.618333,-32.902073],[151.618513,-32.902121],[151.618693,-32.902167],[151.618934,-32.902227],[151.619115,-32.902271],[151.619297,-32.902313],[151.61948,-32.902353],[151.619663,-32.902391],[151.619846,-32.902428],[151.620092,-32.902476],[151.620342,-32.902521],[151.620585,-32.902561],[151.62139,-32.902678],[151.621901,-32.902833],[151.622231,-32.90285],[151.622509,-32.90281],[151.623658,-32.902841],[151.624341,-32.902858],[151.625097,-32.90288],[151.625914,-32.902919],[151.626354,-32.90295],[151.627354,-32.903049],[151.628349,-32.90318],[151.628844,-32.903257],[151.629276,-32.90333],[151.629522,-32.903375],[151.629829,-32.903434],[151.630135,-32.903496],[151.630439,-32.903562],[151.630689,-32.903619],[151.631167,-32.903734],[151.631408,-32.903795],[151.631588,-32.903843],[151.631828,-32.903908],[151.632066,-32.903976],[151.632424,-32.90408],[151.632661,-32.904152],[151.632897,-32.904227],[151.633134,-32.904304],[151.63354,-32.904441],[151.633946,-32.904588],[151.634406,-32.904759],[151.634635,-32.904847],[151.635034,-32.905007],[151.635599,-32.905247],[151.63633,-32.905582],[151.636697,-32.905759],[151.637236,-32.906034],[151.637661,-32.906261],[151.638134,-32.906524],[151.638547,-32.906766],[151.639104,-32.907007],[151.639527,-32.907244],[151.640285,-32.907698],[151.641055,-32.90816],[151.642492,-32.909023],[151.643167,-32.909414],[151.643651,-32.909662],[151.64426,-32.909941],[151.644713,-32.910128],[151.645291,-32.910339],[151.645519,-32.910415],[151.645959,-32.910623],[151.646244,-32.910684],[151.646563,-32.910753],[151.64711,-32.910824],[151.647818,-32.910942],[151.648597,-32.911025],[151.648947,-32.911058],[151.649225,-32.911073],[151.650002,-32.911095],[151.650389,-32.911089],[151.650799,-32.911073],[151.651183,-32.911052],[151.651513,-32.911023],[151.651829,-32.91099],[151.652249,-32.910942],[151.652647,-32.910873],[151.65337,-32.910728],[151.654163,-32.910526],[151.654872,-32.9103],[151.655455,-32.910078],[151.655976,-32.909862],[151.656249,-32.909738],[151.656513,-32.90962],[151.657447,-32.909162],[151.657768,-32.909011],[151.658252,-32.908783],[151.658707,-32.908597],[151.659159,-32.908434],[151.65936,-32.908373],[151.659898,-32.908227],[151.66049,-32.908116],[151.66083,-32.908064],[151.661131,-32.908021],[151.661718,-32.907936],[151.662318,-32.907847],[151.663114,-32.907736],[151.66409,-32.907598],[151.664783,-32.907491],[151.664956,-32.907433],[151.665235,-32.907486],[151.665396,-32.907609],[151.66533,-32.907703],[151.665296,-32.907803],[151.665277,-32.90793],[151.665263,-32.908191],[151.665254,-32.908566],[151.665239,-32.908725],[151.665193,-32.909254],[151.665167,-32.90941],[151.665083,-32.909665],[151.665014,-32.909808],[151.664954,-32.909905],[151.664855,-32.910039],[151.664781,-32.910124],[151.664702,-32.910206],[151.664618,-32.910285],[151.664437,-32.910431],[151.66415,-32.910643],[151.664013,-32.910745],[151.663449,-32.911167],[151.662987,-32.911512],[151.662324,-32.912014],[151.662004,-32.912268],[151.661785,-32.912459],[151.661576,-32.91265],[151.661465,-32.912754],[151.661157,-32.913045],[151.660984,-32.913207],[151.660954,-32.913234],[151.660796,-32.913382],[151.660476,-32.913677],[151.660271,-32.913879],[151.660127,-32.914053],[151.660029,-32.914188],[151.659911,-32.914372],[151.659829,-32.914519],[151.65971,-32.914765],[151.659269,-32.915753],[151.658945,-32.916449],[151.658775,-32.91679],[151.658593,-32.917068],[151.658453,-32.917244],[151.6583,-32.917412],[151.658132,-32.917569],[151.657951,-32.917716],[151.657662,-32.91792],[151.657464,-32.918052],[151.656826,-32.918483],[151.656483,-32.918715],[151.65604,-32.919012],[151.655303,-32.919509],[151.654964,-32.919748],[151.654822,-32.919867],[151.654601,-32.920042],[151.654265,-32.92036],[151.654033,-32.920611],[151.653889,-32.920786],[151.653751,-32.920964],[151.653583,-32.921199],[151.653408,-32.921442],[151.653151,-32.921758],[151.652927,-32.922173],[151.652805,-32.922345],[151.652402,-32.923025],[151.652138,-32.923585],[151.652352,-32.923676],[151.652947,-32.923954],[151.653621,-32.924242],[151.653761,-32.924302],[151.654055,-32.924395],[151.654753,-32.924405],[151.655005,-32.92444],[151.655771,-32.924552],[151.656377,-32.924641],[151.656594,-32.92467],[151.657032,-32.924721],[151.657264,-32.924753],[151.657542,-32.924807],[151.658769,-32.925006],[151.659086,-32.925047],[151.659364,-32.925125],[151.659892,-32.925419],[151.660197,-32.92564],[151.660422,-32.925874],[151.660544,-32.926021],[151.660956,-32.926564],[151.661075,-32.926756],[151.661295,-32.927142],[151.661767,-32.927967],[151.662048,-32.92846],[151.662127,-32.928598],[151.662225,-32.928912],[151.66223,-32.929533],[151.662412,-32.929851],[151.663576,-32.929935],[151.663618,-32.929938],[151.664611,-32.929705],[151.665188,-32.929651],[151.665638,-32.929623],[151.666415,-32.929515],[151.66645,-32.92951],[151.666919,-32.929408],[151.667164,-32.929382],[151.66736,-32.929439],[151.667485,-32.929496],[151.667967,-32.929783],[151.66833,-32.930005],[151.668522,-32.930162],[151.668945,-32.930731],[151.66929,-32.931423],[151.66981,-32.932485],[151.670254,-32.933319],[151.670586,-32.933931],[151.671396,-32.935354],[151.671517,-32.935466],[151.671722,-32.935682],[151.671937,-32.935887],[151.672246,-32.936215],[151.672345,-32.936162],[151.672459,-32.936105],[151.672802,-32.935978],[151.673003,-32.935928],[151.673193,-32.935905],[151.673433,-32.935907],[151.673691,-32.935946],[151.674283,-32.936068],[151.674462,-32.936093],[151.674955,-32.936171],[151.676473,-32.936404],[151.676587,-32.93642],[151.677018,-32.936421],[151.67787,-32.936406],[151.678279,-32.936443],[151.678737,-32.936509],[151.679479,-32.936649],[151.680727,-32.937051],[151.680934,-32.937113],[151.681042,-32.937144],[151.681267,-32.937185],[151.681438,-32.937233],[151.681483,-32.937246],[151.681517,-32.937261],[151.68182,-32.937416],[151.682382,-32.937719],[151.682463,-32.93777],[151.682566,-32.937793],[151.684245,-32.938278],[151.684451,-32.938291],[151.684668,-32.938336],[151.684785,-32.938327],[151.684951,-32.938301],[151.685389,-32.938094],[151.685906,-32.937877],[151.686236,-32.937708],[151.686077,-32.938408],[151.68601,-32.9387],[151.685922,-32.93909],[151.685658,-32.940245],[151.685519,-32.94091],[151.685483,-32.941362],[151.685213,-32.942663],[151.685976,-32.94337],[151.686224,-32.943584],[151.686776,-32.943977],[151.68689,-32.944037],[151.686265,-32.945146],[151.68611,-32.945454],[151.685782,-32.946103],[151.684586,-32.948435],[151.685578,-32.948596],[151.685994,-32.948642],[151.685997,-32.94857],[151.687992,-32.948882],[151.68838,-32.948943],[151.688517,-32.948964],[151.689031,-32.949043],[151.689939,-32.949183],[151.6916,-32.949444],[151.692163,-32.949532],[151.692803,-32.94963],[151.693309,-32.949709],[151.693443,-32.949729],[151.693478,-32.949735],[151.693637,-32.949759],[151.693923,-32.949804],[151.694083,-32.949828],[151.694279,-32.949859],[151.694563,-32.949902],[151.694951,-32.949962],[151.696354,-32.950179],[151.69685,-32.950257],[151.697373,-32.950338],[151.69876,-32.950553],[151.699116,-32.950609],[151.699432,-32.950657],[151.699808,-32.950716],[151.699927,-32.950734],[151.699835,-32.950824],[151.699783,-32.950879],[151.699661,-32.951021],[151.699543,-32.951169],[151.699442,-32.951308],[151.699526,-32.95137],[151.699717,-32.95146],[151.699948,-32.95154],[151.700202,-32.951577],[151.70046,-32.95156],[151.700702,-32.951502],[151.700923,-32.951395],[151.701096,-32.951267],[151.701228,-32.951145],[151.701257,-32.951122],[151.701388,-32.950994],[151.701671,-32.95072],[151.701928,-32.950784],[151.703093,-32.951124],[151.70306,-32.951211],[151.70327,-32.951244],[151.703488,-32.951277],[151.704605,-32.951452],[151.705046,-32.95152],[151.706137,-32.951682],[151.706313,-32.951714],[151.706514,-32.951741],[151.7067,-32.951767],[151.706868,-32.951789],[151.707213,-32.951836],[151.70724,-32.951839],[151.707418,-32.951864],[151.707699,-32.951901],[151.707898,-32.951929],[151.707978,-32.951941],[151.70914,-32.952125],[151.709583,-32.952194],[151.7102,-32.952286],[151.710615,-32.95235],[151.710783,-32.952375],[151.710962,-32.952403],[151.711,-32.952408],[151.711144,-32.952431],[151.711353,-32.952462],[151.711657,-32.952509],[151.711865,-32.952539],[151.712206,-32.952585],[151.712481,-32.952621],[151.712835,-32.952673],[151.713587,-32.952786],[151.713708,-32.952799],[151.713831,-32.952822],[151.715416,-32.953059],[151.716485,-32.953219],[151.716818,-32.953269],[151.717094,-32.95331],[151.717339,-32.953363],[151.717949,-32.953453],[151.718753,-32.95357],[151.718963,-32.953602],[151.719174,-32.953632],[151.720648,-32.953849],[151.720748,-32.953863],[151.722455,-32.954114],[151.72248,-32.954117],[151.72251,-32.954122],[151.722836,-32.95417],[151.727279,-32.954821],[151.729059,-32.955082],[151.728116,-32.959393],[151.728196,-32.959423],[151.728288,-32.95945],[151.728385,-32.959476],[151.728456,-32.959504],[151.728524,-32.959523],[151.728616,-32.959552],[151.728642,-32.959567],[151.728675,-32.959583],[151.728759,-32.959631],[151.728835,-32.959675],[151.728901,-32.959707],[151.728974,-32.95975],[151.729035,-32.959791],[151.729095,-32.959829],[151.729155,-32.959859],[151.729292,-32.959915],[151.729407,-32.959967],[151.729519,-32.960021],[151.729608,-32.960059],[151.729738,-32.960129],[151.729831,-32.960176],[151.729994,-32.960246],[151.730208,-32.960351],[151.730276,-32.960385],[151.730354,-32.960412],[151.730444,-32.960454],[151.730509,-32.960487],[151.730617,-32.960532],[151.730702,-32.960569],[151.730778,-32.960598],[151.730857,-32.960621],[151.731153,-32.960676],[151.731247,-32.960692],[151.731341,-32.960704],[151.731559,-32.960743],[151.731659,-32.960763],[151.731784,-32.960784],[151.731898,-32.960799],[151.732003,-32.960815],[151.732256,-32.960885],[151.732525,-32.960964],[151.732731,-32.961049],[151.732899,-32.961103],[151.733091,-32.961134],[151.733227,-32.961168],[151.733345,-32.961201],[151.733555,-32.96125],[151.733627,-32.961274],[151.733694,-32.961307],[151.733771,-32.961352],[151.733853,-32.961404],[151.733943,-32.961463],[151.734075,-32.961534],[151.734195,-32.961606],[151.734349,-32.961695],[151.734489,-32.961769],[151.734608,-32.961833],[151.734741,-32.961895],[151.734893,-32.961937],[151.73502,-32.961982],[151.735105,-32.962028],[151.735184,-32.962082],[151.735228,-32.962217],[151.735307,-32.962262],[151.735382,-32.962303],[151.735443,-32.962344],[151.735506,-32.962385],[151.735563,-32.962403],[151.735629,-32.962438],[151.735731,-32.962474],[151.735788,-32.9625],[151.735815,-32.962526],[151.73581,-32.962543],[151.735767,-32.962565],[151.735671,-32.962586],[151.735605,-32.962606],[151.735527,-32.962606],[151.735427,-32.9626],[151.735343,-32.962609],[151.735316,-32.962622],[151.735302,-32.962641],[151.735332,-32.96267],[151.735425,-32.962717],[151.735533,-32.962747],[151.735651,-32.962792],[151.735775,-32.962829],[151.735901,-32.962832],[151.736024,-32.96283],[151.736209,-32.962815],[151.73637,-32.962805],[151.73648,-32.962793],[151.736571,-32.962789],[151.736655,-32.962796],[151.736755,-32.962819],[151.736828,-32.962832],[151.736958,-32.962866],[151.737106,-32.962898],[151.737213,-32.962925],[151.737339,-32.962951],[151.737427,-32.962974],[151.737531,-32.962974],[151.737626,-32.962957],[151.737723,-32.962949],[151.737847,-32.962953],[151.737915,-32.962947]],[[151.85531823515214,-32.96573937881093],[151.855031,-32.96377772802897],[151.85031146984213,-32.96586847922952],[151.850031,-32.963367737090465],[151.84530047854093,-32.96612858537309],[151.84505490644602,-32.962974],[151.850031,-32.962974],[151.855031,-32.962974],[151.860031,-32.962974],[151.865031,-32.962974],[151.87590953274272,-32.962974],[151.86532612939362,-32.965655905710506],[151.865031,-32.96428226957784],[151.8603228187243,-32.965677912265875],[151.860031,-32.96406260089484],[151.85531823515214,-32.96573937881093]],[[151.77310389185283,-32.956608324616994],[151.77246868708613,-32.958397449357335],[151.77011166989124,-32.959452881376656],[151.7698467651464,-32.95719117886959],[151.77310389185283,-32.956608324616994]]],[[[151.89585323641106,-32.896241489573725],[151.8978270776483,-32.89661017618395],[151.89861678725288,-32.891989593367164],[151.89643171341442,-32.891649280953416],[151.8964317134144,-32.89164928095342],[151.89149127264787,-32.89087983632751],[151.89149127264787,-32.890879836327514],[151.88655083188135,-32.8901103917016],[151.88655083188132,-32.890110391701604],[151.8816103911148,-32.88934094707569],[151.88161039111478,-32.889340947075695],[151.87666995034826,-32.88857150244978],[151.87666995034826,-32.888571502449786],[151.87172950958174,-32.88780205782387],[151.8717295095817,-32.887802057823876],[151.8667890688152,-32.88703261319796],[151.86678906881517,-32.88703261319797],[151.86184862804865,-32.88626316857205],[151.86184862804865,-32.88626316857206],[151.85690818728213,-32.88549372394614],[151.8569081872821,-32.88549372394615],[151.85196774651558,-32.88472427932023],[151.85196774651556,-32.88472427932023],[151.84702730574904,-32.883954834694315],[151.84702730574904,-32.88395483469432],[151.84210628031553,-32.88318841389246],[151.84182938859024,-32.8853976265125],[151.84680520946705,-32.88538086782099],[151.84678937982713,-32.88619933227874],[151.85167081991375,-32.88663078206114],[151.85171264112054,-32.88713979560929],[151.85655758329966,-32.8877448777647],[151.85662509453311,-32.88812108871186],[151.86145066915785,-32.88881837821459],[151.86153291504098,-32.8891198838989],[151.8663464844596,-32.889874353486164],[151.86643832614934,-32.89012778126192],[151.87124372511244,-32.89092117688075],[151.87134232473932,-32.89114101480538],[151.8761418036616,-32.89196262032055],[151.8762454244034,-32.89215764429116],[151.88104041648296,-32.89300063331188],[151.88114791665953,-32.893176568429276],[151.88593939083967,-32.89403632496152],[151.88604997927152,-32.894197115667424],[151.8908386212145,-32.89507037277305],[151.89095172680285,-32.89521885321019],[151.8957380395112,-32.896103213978165],[151.89585323641106,-32.896241489573725]]],[[[151.85897836609297,-32.98854462193654],[151.86370346291258,-32.983862457091355],[151.8653006009885,-32.981462379679506],[151.86481874783317,-32.98138473409583],[151.8643943643178,-32.98139861696878],[151.85983948218689,-32.980661344938625],[151.85941459395497,-32.9806786006754],[151.85486022150926,-32.97993780175135],[151.85443477939762,-32.97995875347404],[151.84988096653262,-32.97921408183418],[151.84945491382553,-32.97923910145966],[151.8449017181405,-32.97849015779643],[151.84447498893888,-32.97851967638788],[151.83992247740903,-32.97776599627882],[151.83949499453425,-32.977800517297865],[151.83494324566232,-32.97704155623407],[151.8345149179256,-32.97708167272759],[151.82996402454827,-32.976316786576795],[151.82953474314027,-32.97636320378995],[151.824984816144,-32.97559162291513],[151.82455444978083,-32.975645188527075],[151.8200056231055,-32.974865982916484],[151.8195740113791,-32.9749277282086],[151.81502644888394,-32.97413975959143],[151.81459339295597,-32.97421095666777],[151.81004729804786,-32.9734128113165],[151.80961254730136,-32.97349505453427],[151.80506817677488,-32.97268494658571],[151.80463140911644,-32.97278027164714],[151.80008909362857,-32.97195589992801],[151.79964988543222,-32.972066963713836],[151.79511006083354,-32.971225292381526],[151.79466783921657,-32.97135565503131],[151.79013109646579,-32.97049256358829],[151.7896850597602,-32.97064715179146],[151.78515222842995,-32.96975684850567],[151.78470120547064,-32.96994276095687],[151.78017350219022,-32.9690167377449],[151.7797156835664,-32.96924475056111],[151.77519499716092,-32.968269769459596],[151.77472736718153,-32.968557432091224],[151.77021686567124,-32.96751122144671],[151.7697338189919,-32.96789013096117],[151.7652394415802,-32.966730744075974],[151.76472860541975,-32.96726746259916],[151.760263625435,-32.965900420384244],[151.75968741698352,-32.96678243719525],[151.75630927070824,-32.965343049010414],[151.7552039344986,-32.96514640674645],[151.7543647523427,-32.96737436422612],[151.75235470753057,-32.9648772007141],[151.75020559693758,-32.96433547585343],[151.7501141000019,-32.964560400592354],[151.74991354393515,-32.96623752852916],[151.75435825726262,-32.96739921496723],[151.75435825726265,-32.96739921496726],[151.75919575933767,-32.96866356210073],[151.7591957593377,-32.96866356210076],[151.76403326141272,-32.96992790923422],[151.76403326141272,-32.96992790923426],[151.76887076348774,-32.97119225636772],[151.76887076348777,-32.97119225636775],[151.7737082655628,-32.97245660350122],[151.77370826556282,-32.97245660350125],[151.77854576763784,-32.973720950634714],[151.77854576763784,-32.97372095063475],[151.78338326971286,-32.974985297768214],[151.78338326971289,-32.97498529776824],[151.7882207717879,-32.97624964490171],[151.78822077178793,-32.97624964490174],[151.79305827386295,-32.977513992035206],[151.79305827386295,-32.97751399203525],[151.79789577593797,-32.97877833916871],[151.797895775938,-32.978778339168734],[151.80273327801302,-32.980042686302205],[151.80273327801305,-32.980042686302234],[151.80757078008807,-32.981307033435705],[151.8075707800881,-32.98130703343573],[151.81240828216312,-32.9825713805692],[151.81240828216312,-32.98257138056923],[151.81724578423814,-32.9838357277027],[151.81724578423817,-32.983835727702726],[151.8220832863132,-32.9851000748362],[151.82208328631322,-32.985100074836225],[151.82692078838824,-32.98636442196969],[151.82692078838824,-32.98636442196973],[151.83175829046326,-32.987628769103196],[151.83175829046328,-32.98762876910322],[151.8365957925383,-32.98889311623669],[151.83659579253833,-32.98889311623672],[151.84143329461335,-32.99015746337018],[151.84143329461335,-32.990157463370224],[151.84627079668837,-32.99142181050369],[151.8462707966884,-32.99142181050372],[151.85110829876342,-32.99268615763719],[151.85110829876345,-32.99268615763721],[151.854231480129,-32.99350244367608],[151.85897836609297,-32.98854462193654]]],[[[151.7367424658683,-32.96888930400718],[151.73687561224781,-32.96869656065652],[151.73666367891943,-32.9688353872174],[151.7367424658683,-32.96888930400718]]],[[[151.7452487998053,-32.96452818179101],[151.7481028639982,-32.9641925500392],[151.74808896051988,-32.96417757665934],[151.74685132233458,-32.963223285635735],[151.74526660520945,-32.962933142539356],[151.7452487998053,-32.96452818179101]]],[[[151.76503997189738,-32.96066544347518],[151.76537919659964,-32.962683966347264],[151.76767053369488,-32.96171219046326],[151.76888312922605,-32.960245038501924],[151.76510944975396,-32.960423375648105],[151.76503997189738,-32.96066544347518]]]]},"bbox":[151.600846,-32.99350244367608,151.89861678725288,-32.823141]}]}