{"type":"FeatureCollection","features":[
{"properties":{"electorateShortName":"oconnor","electorateName":"O'Connor","area":868575.998191,"state":"WA"},"type":"Feature","geometry":{"type":"MultiPolygon","coordinates":[[[[115.6745,-34.485409],[115.669869,-34.480925],[115.611384,-34.441757],[115.5998621270764,-34.43499655257639],[115.5977422847851,-34.438416945831364],[115.58986839502087,-34.45479051802165],[115.58544342084716,-34.47241185763735],[115.58464768925195,-34.49056285809236],[115.5875136279684,-34.508503828009374],[115.59392444397669,-34.52550363519644],[115.60361888306468,-34.54086950181889],[115.61620187648568,-34.55397523655057],[115.64289887648567,-34.57667423655057],[115.6480385199692,-34.5807315223658],[115.68744091172817,-34.60957302147314],[115.75899200484486,-34.669623006194726],[115.87277715115216,-34.775400778503744],[115.8769243552584,-34.792194820649144],[115.88436056272157,-34.808095376339715],[115.89474177568881,-34.82225006708282],[115.90609735054798,-34.83267398579527],[115.90521541495603,-34.83636246436279],[115.90446797501816,-34.853526082126166],[115.90699551766923,-34.87051902093423],[115.91270594411004,-34.88672209073757],[115.92139117736993,-34.90154488279606],[115.92271317736993,-34.903374882796065],[115.93450851814954,-34.91669864446861],[115.94869476194137,-34.92744123150773],[115.96471732698656,-34.93518268476835],[115.98194984435801,-34.939620368201915],[115.98486138542594,-34.9397777415735],[115.98959174112181,-34.94345213786534],[116.00575326407308,-34.95145337515647],[116.01106926407309,-34.95345037515647],[116.02877559530529,-34.95811233682592],[116.04705902521238,-34.95909429565643],[116.06516282734177,-34.95635560969917],[116.08233770979179,-34.95000962946441],[116.09787282739084,-34.940319006497056],[116.10026776189775,-34.938035789903786],[116.10409206551923,-34.93807209497237],[116.11990246240774,-34.93537518373618],[116.12078410429787,-34.93514237023705],[116.12795070007712,-34.9349773165654],[116.13969785738425,-34.93765262192294],[116.16277378378375,-34.94677021687095],[116.17980127951888,-34.95162526864095],[116.20606451357457,-34.95638356231382],[116.21884071471708,-34.96038040710991],[116.22683273850252,-34.963948293063076],[116.22941842467243,-34.96678645627225],[116.24416357402485,-34.977513896561234],[116.26076834548317,-34.98504907866889],[116.26581025726735,-34.986192719368674],[116.26621883095943,-34.98647003466804],[116.28445127155513,-34.994382249298],[116.2884750640181,-34.99546213733718],[116.29246655573881,-34.99848146674605],[116.30622278785104,-35.00705679882084],[116.30993816976701,-35.00852818093208],[116.31184807771508,-35.0096483499023],[116.3199244708426,-35.01249840124189],[116.32284505412602,-35.01525260115702],[116.32387955087019,-35.01594375562681],[116.32720274088335,-35.019169065869676],[116.34236204151215,-35.02888665027083],[116.35915240688173,-35.035391992145314],[116.36351959163468,-35.03645870370886],[116.37699588922808,-35.043988340632005],[116.3804831887412,-35.04760100929827],[116.39408713447128,-35.057259857442325],[116.39992089024045,-35.059947793866385],[116.40009204336653,-35.06076527944098],[116.40688992785472,-35.076823833591966],[116.41665703174813,-35.09127001220328],[116.42902668060898,-35.103561480056804],[116.44353449583629,-35.113236793605495],[116.45963582826381,-35.11993272438422],[116.4677608743051,-35.12158012355223],[116.47550871095052,-35.12405311752535],[116.49177684716894,-35.126122044278155],[116.49571684716894,-35.12626104427815],[116.51396546268984,-35.1250454082168],[116.53159153653328,-35.12016572991502],[116.53922982931218,-35.1162506652029],[116.54626446983268,-35.119171418383765],[116.56392032037144,-35.12262751255932],[116.5642229782043,-35.122625415111465],[116.57317479524379,-35.13081208460964],[116.57613179524378,-35.13300408460963],[116.59312640181696,-35.142924183465375],[116.61187076818825,-35.14891365282618],[116.6314688094776,-35.1506861627715],[116.65098363039976,-35.14815697747563],[116.65432863039976,-35.147343977475636],[116.67000491989937,-35.14196334093691],[116.67375458994178,-35.13984099269907],[116.68932202622462,-35.13584104089502],[116.69209503503173,-35.13447562022458],[116.70086611867282,-35.137632946458005],[116.71185109893734,-35.141716605388815],[116.72964945121728,-35.144505135009176],[116.7476466067794,-35.14369295707455],[116.76512144128283,-35.1393126145763],[116.78137375916226,-35.131539622560986],[116.78437975916226,-35.12971162256098],[116.79029135091965,-35.12523863272942],[116.8031800547845,-35.13009987725793],[116.80928447199672,-35.131170323058605],[116.81131162891977,-35.1322810707352],[116.81666030456722,-35.13392906355555],[116.8218953711119,-35.13719905190126],[116.83811966498546,-35.14339959111258],[116.85523286798583,-35.14636820716629],[116.87259762020976,-35.14599433765972],[116.87831743069107,-35.14474638625857],[116.88263774971368,-35.14579878222499],[116.88906196970939,-35.14844191565082],[116.88975293988831,-35.148584147855665],[116.9057949323929,-35.15301590715388],[116.92321536372502,-35.15432705502135],[116.94056091547671,-35.15224802376688],[116.9441709154767,-35.15145402376688],[116.9625393427722,-35.145277755418384],[116.9791597989189,-35.13531252338406],[116.99326169921909,-35.12202035200591],[116.9936284800221,-35.121483317567545],[117.0008165066093,-35.123671415079265],[117.01741557018335,-35.12549934145216],[117.03406660104561,-35.12422914556823],[117.04005628026964,-35.12262323575835],[117.04266223435643,-35.12377659464694],[117.05986550641795,-35.12763203359431],[117.07749031896455,-35.12805977393257],[117.08127329012272,-35.12740284720039],[117.0817004992915,-35.12778307949689],[117.090768690664,-35.13315820495728],[117.09708503492503,-35.138888171144316],[117.10279709695408,-35.14231546174746],[117.10636223966942,-35.1449626473988],[117.11031688078744,-35.14682740232841],[117.11221253811124,-35.14796481443976],[117.11436421667028,-35.14873586615966],[117.1224602118782,-35.15255341787258],[117.13973716546971,-35.15682792137799],[117.15751745530034,-35.15761899606444],[117.17510575239255,-35.1548957055885],[117.17963375239255,-35.1537267055885],[117.19676083526117,-35.14739162606663],[117.21225659692672,-35.13772976441673],[117.22548308988995,-35.1251388913719],[117.23085495016429,-35.117399677583826],[117.24313327403813,-35.119213138896946],[117.25522680359491,-35.11863999799491],[117.25903926565007,-35.118756730149876],[117.26702500057587,-35.11748792546487],[117.2708562479892,-35.12031050201048],[117.28737826419955,-35.12793622745795],[117.30509650272803,-35.13208263936499],[117.30781662122824,-35.13215704842614],[117.3095951749883,-35.132639303852116],[117.32711879742473,-35.13385558950789],[117.34454490842525,-35.13164485445168],[117.35193890842525,-35.12996085445168],[117.37240409556027,-35.12260519440362],[117.37474736228046,-35.12115640964403],[117.3859983216801,-35.12689371824022],[117.39031019888613,-35.13024083686029],[117.40506666317692,-35.13783751009973],[117.4094813118933,-35.13915848335286],[117.41159683342869,-35.14023138177035],[117.42117313637604,-35.15215919140838],[117.43528333079605,-35.163818731019845],[117.45146072345298,-35.17238228269805],[117.46903616455933,-35.17749562998135],[117.47405595857424,-35.177894989843395],[117.48885955525404,-35.179871467510985],[117.50500173314796,-35.17911109190871],[117.52074771609801,-35.175476246774174],[117.52466771609802,-35.17419124677418],[117.52753678947342,-35.17293736450379],[117.53211559322511,-35.17684437359837],[117.53546099101386,-35.18218620396786],[117.53793681648781,-35.1848702944137],[117.5434226611234,-35.19250921535828],[117.55576932910468,-35.20421328954586],[117.57009790726399,-35.213384843981224],[117.58589641328057,-35.219696164799615],[117.60260034203147,-35.22292173871955],[117.61129743808247,-35.2229343005065],[117.61697860275468,-35.22394203555499],[117.62938746075359,-35.22369339507319],[117.63769112436256,-35.22448295879218],[117.63978112436257,-35.22448095879218],[117.65675947045742,-35.22284843658163],[117.6731249084594,-35.21804200298822],[117.688289637568,-35.21023429167524],[117.70170898309088,-35.19970573381474],[117.71290095963666,-35.186834485783436],[117.72146358268331,-35.17208284684245],[117.7270893067389,-35.15598065463969],[117.72763920598781,-35.15224921215863],[117.73020585963664,-35.139596184138355],[117.7371595187555,-35.14114993934818],[117.7492827993236,-35.14546401175639],[117.77965171114197,-35.159258523288614],[117.78077507069251,-35.161762183716874],[117.7904611101617,-35.175622986961066],[117.80256892673064,-35.187427308420006],[117.81667109769216,-35.19675843918456],[117.83226979686471,-35.203286977405135],[117.83501709623283,-35.203867417204975],[117.83799937971676,-35.20503064954838],[117.85420179145328,-35.20811933611328],[117.86930813877898,-35.208192526811814],[117.88403868291797,-35.212226881014395],[117.9024156655804,-35.213374663980886],[117.9044596655804,-35.21329266398089],[117.91624213874539,-35.21162587715719],[117.92247706687543,-35.21381086493986],[117.92849706687542,-35.21531086493986],[117.94510744881131,-35.217833557685104],[117.96189728228588,-35.217225068869055],[117.97828147525114,-35.213506603107476],[117.98163847525115,-35.212406603107475],[117.99839170075562,-35.20495120888303],[118.00916584093831,-35.19721382744915],[118.0174966726027,-35.19795945615399],[118.0218856726027,-35.197926456153986],[118.03965496578405,-35.19601842244273],[118.05669692229915,-35.190636964373994],[118.07233956649851,-35.181994276409],[118.08596609854543,-35.17043114546699],[118.0970392152427,-35.15640351347094],[118.09998098939076,-35.15060263384351],[118.10578041615408,-35.14861621842631],[118.12010210659291,-35.140551070578496],[118.1327181995885,-35.13001581432345],[118.14264071639427,-35.11804605263421],[118.14353561460808,-35.11827556713128],[118.16001800486062,-35.11938564038267],[118.16395100486062,-35.11928864038267],[118.1812982165736,-35.11716338566967],[118.1883399096303,-35.11485794696276],[118.19365169008039,-35.11506716696055],[118.20926114012535,-35.1129325384237],[118.22425918868645,-35.10810862828196],[118.23062118868646,-35.105427628281966],[118.24925107538519,-35.094804038393626],[118.2648385839287,-35.08007437723222],[118.2670009569162,-35.07747699371135],[118.27720654776724,-35.06996983652787],[118.28969090715827,-35.05595312428632],[118.2989963635339,-35.03965171535616],[118.30471815544603,-35.02177467564647],[118.30640284176837,-35.00512166017082],[118.31281548454214,-35.01270630594219],[118.32621435521247,-35.023487405973334],[118.34141929544855,-35.03152305439389],[118.35787511496632,-35.036519839072014],[118.37498094911454,-35.03829530836622],[118.39211219873188,-35.03678463312978],[118.40864333664139,-35.03204297386976],[118.42397074803044,-35.02424346662686],[118.42573674803045,-35.02312046662686],[118.43211012646121,-35.01816396510234],[118.43986724419103,-35.02139288166689],[118.4559215842121,-35.02484375356706],[118.46711558421211,-35.02619775356706],[118.48439079317232,-35.02661629722722],[118.5014275657208,-35.02372555259204],[118.51759783803334,-35.017632087506165],[118.5323054899799,-35.008560538706035],[118.54500832120532,-34.996845330544296],[118.55523803944737,-34.982918346373175],[118.55579810485143,-34.98173246250276],[118.5640073852784,-34.96992957197334],[118.57093611776865,-34.954314540320745],[118.57194797821647,-34.94994422145318],[118.57333938062352,-34.946405903251055],[118.57646199905264,-34.92870255652254],[118.57600393344497,-34.91073176335298],[118.57198345887822,-34.89321049012577],[118.56456097701542,-34.87683776908617],[118.55403261668775,-34.862266809610055],[118.54081841947912,-34.85007893763109],[118.53011941947912,-34.84202993763109],[118.51453187937115,-34.83260938325787],[118.5050298239141,-34.82923845196825],[118.50128096991263,-34.82720953647567],[118.5017529062257,-34.82669867853468],[118.50777659216375,-34.82184840471889],[118.5166872539185,-34.81666730822582],[118.51849943242371,-34.81588579590395],[118.53483853086168,-34.81325162571144],[118.5509380401145,-34.80736384011357],[118.5607234242363,-34.80148004919375],[118.56385279475477,-34.800499539991286],[118.56682729278863,-34.80028784494735],[118.58333671287538,-34.795874481161704],[118.58500216327052,-34.79506713688023],[118.59326837163084,-34.794609282440604],[118.61091520680549,-34.789943257508625],[118.61944864270362,-34.78569772791809],[118.62339528328388,-34.78497851756481],[118.6256057544911,-34.78614218731501],[118.6430195621695,-34.79120134127833],[118.64600556216949,-34.79175034127833],[118.6621780706378,-34.79323394228001],[118.67835389811617,-34.791786977360175],[118.69400632950281,-34.787456562394404],[118.70862569244852,-34.780383703767846],[118.72173595323862,-34.770798706944426],[118.72446895323863,-34.76839370694442],[118.73640629518734,-34.755628611333414],[118.7436914205997,-34.74394139444493],[118.75113276225656,-34.742178204843746],[118.76632423424829,-34.73543816976666],[118.78001738435114,-34.726019755124206],[118.78930576305588,-34.716693571639276],[118.79853493210472,-34.71136792491331],[118.81206260673414,-34.69939712511294],[118.81543090918937,-34.69492315881046],[118.82101865475637,-34.69227268605189],[118.8358192637342,-34.68102532032209],[118.83755085738565,-34.67902718918783],[118.84445299020066,-34.67352379979743],[118.85584807864868,-34.66002449475611],[118.86438671399951,-34.6445593409036],[118.86973991709888,-34.62772418441745],[118.87170143810056,-34.61016765535569],[118.87019570292344,-34.59256617703957],[118.86969041805787,-34.590821751861],[118.87998898763311,-34.590127269947125],[118.89354812769548,-34.59230607993307],[118.91162742360132,-34.593365724090155],[118.91796842360132,-34.59309772409016],[118.93425878371082,-34.59090690293333],[118.94987901565563,-34.585789883895984],[118.9643081065417,-34.577917345166966],[118.97706477398937,-34.567551875304595],[118.98772351930891,-34.555039214594295],[118.99508900039434,-34.5422544542133],[119.0261340877239,-34.54740927137595],[119.02903545655177,-34.548703747990686],[119.04498843778083,-34.552557833160655],[119.05650281772273,-34.553185292163725],[119.06604886691493,-34.56554711209249],[119.06714786691492,-34.56671811209249],[119.08100441631368,-34.578748742614515],[119.097013132938,-34.58771874952867],[119.1145084889177,-34.59325522414172],[119.13276315255746,-34.59512799946126],[119.15101822558339,-34.59325921889212],[119.15614418903108,-34.59197770363966],[119.15840399820655,-34.594769579477855],[119.17254468932572,-34.60636452040868],[119.1887372166641,-34.61486180579359],[119.1906542166641,-34.615630805793586],[119.20911736099049,-34.620834639827706],[119.21137406555405,-34.62097287532981],[119.2147554006294,-34.621802945216906],[119.21761209933712,-34.62195632074907],[119.23409388516998,-34.6249566745905],[119.25164526835557,-34.62468847158158],[119.25407856142995,-34.624168234709046],[119.25928853770974,-34.62447198693613],[119.27905906886105,-34.621181527217416],[119.29761115307434,-34.61359725411392],[119.30123115307434,-34.61162125411392],[119.30460784663317,-34.60932314699574],[119.31558265494984,-34.60570018696313],[119.33138580675795,-34.59661541665699],[119.34503428085547,-34.584532709452255],[119.34726228085547,-34.58211570945225],[119.35445028965944,-34.57250115320659],[119.36268065492834,-34.5741249504649],[119.36725850345313,-34.57412235090678],[119.38562977186622,-34.575297432536615],[119.40388634078391,-34.57269899756999],[119.4212300808415,-34.566434107009336],[119.43693286720186,-34.556765773469216],[119.45059171037701,-34.543802387166096],[119.45994689263519,-34.53917196736207],[119.46586189263519,-34.53552396736207],[119.4813408298613,-34.52346437002504],[119.49383825374308,-34.50833672044223],[119.4974835063938,-34.50119619705479],[119.51197466187205,-34.500995702210034],[119.52559166187204,-34.499587702210036],[119.54269254070337,-34.49611893685399],[119.55880266108905,-34.48941547423693],[119.56668620331918,-34.48415417470412],[119.57179153242559,-34.481909053749604],[119.57613079523198,-34.47941108050201],[119.57849508773279,-34.47941818232836],[119.5958200334534,-34.47602384556037],[119.60683067722566,-34.4714985570351],[119.6109903045277,-34.47225643559999],[119.6295079777802,-34.47177552450095],[119.64753496821157,-34.467513703979414],[119.65005796821157,-34.466634703979416],[119.66581978036645,-34.45937145332432],[119.67989449309954,-34.44921803055337],[119.69175875379997,-34.43655197945143],[119.70097140306854,-34.421844273106146],[119.7071898787415,-34.405641801295054],[119.71018295368546,-34.38854703499468],[119.70983933372226,-34.37119562416427],[119.70617179597978,-34.35423276180581],[119.69931671378869,-34.338289193176486],[119.68952898579096,-34.32395776222466],[119.6846568863605,-34.3191527062911],[119.68251551600558,-34.31594418113862],[119.66964428076619,-34.303194679195336],[119.65448040769225,-34.29328128170574],[119.6414375115362,-34.28811154063108],[119.63731648606633,-34.28586174133892],[119.62125899187157,-34.28068312395541],[119.60521917843707,-34.27868014894012],[119.60577014185765,-34.27769190599632],[119.61472026430155,-34.266707037399435],[119.6175638473951,-34.26467352224827],[119.6261588473951,-34.25721852224827],[119.62963337823714,-34.253566170251176],[119.63070678511504,-34.252827539990534],[119.63730082847106,-34.246111812781],[119.64021005727557,-34.244029370885976],[119.65351090744711,-34.23237129205821],[119.66427495638013,-34.218337095686195],[119.67208649462145,-34.20246878488936],[119.67389510603437,-34.1956866722152],[119.68494830004137,-34.19075656493034],[119.69957059604285,-34.18033022678523],[119.711831663062,-34.16720824892276],[119.7130858023313,-34.16517010894914],[119.71840753953936,-34.163347304347],[119.71968078232338,-34.162614170561966],[119.73422656068993,-34.15553155863141],[119.7411257861174,-34.15043104036324],[119.74202446036846,-34.15004446429702],[119.75294083437214,-34.148693918927194],[119.76848678882767,-34.14381000141876],[119.78289730081048,-34.136202998424395],[119.7933486683283,-34.1279736767432],[119.80957892417577,-34.12468355626503],[119.81146392417577,-34.12411355626503],[119.8288813376119,-34.11677330017538],[119.84438165014797,-34.105957295295994],[119.8572812297801,-34.092142575046175],[119.86701114827204,-34.07593842939122],[119.86853614827204,-34.072661429391225],[119.87233252511483,-34.061875545622904],[119.8856990705598,-34.061893640867424],[119.89544052862102,-34.0600218400159],[119.89792050960007,-34.06114844972556],[119.91503107765489,-34.06558173750339],[119.93131296440656,-34.06650769777586],[119.94204810214303,-34.067856395187746],[119.95977390632808,-34.06656331724509],[119.97689997838303,-34.06181212365388],[119.9927584518514,-34.05378809699482],[120.00428846517161,-34.0447241799229],[120.01317296670662,-34.03951958025958],[120.01667775184437,-34.038524309404906],[120.03159669831759,-34.03109274210747],[120.0448894434755,-34.02103759006814],[120.04630722388814,-34.019477757562164],[120.04811551122312,-34.01888064147382],[120.0522146839252,-34.019776534447686],[120.06679667044443,-34.02535630894601],[120.0781891014436,-34.03264943411367],[120.0943497426619,-34.03903085392238],[120.10004972545975,-34.040084124305174],[120.11063039393699,-34.04306028678495],[120.12780815070101,-34.04447878283306],[120.14494130214146,-34.0425966085051],[120.16140144771302,-34.037482797182236],[120.17142422775744,-34.0320976674757],[120.1751031438165,-34.031365384589286],[120.18992579393496,-34.02555455320359],[120.19045178340289,-34.02523152878157],[120.1989846543628,-34.02591777573784],[120.2250456543628,-34.02456377573784],[120.23605076084823,-34.02311395508795],[120.24273195824965,-34.02366021462716],[120.2852168172597,-34.030311818831485],[120.29433837225307,-34.03126692872912],[120.29607104667161,-34.03135946254177],[120.30492443534312,-34.03324701075376],[120.31794017425715,-34.03654393683223],[120.3494229064051,-34.04136268578638],[120.37612556400656,-34.04772290357311],[120.41073492740279,-34.05809423244933],[120.4277550219826,-34.06144927171547],[120.44510262010235,-34.06147661141268],[120.46213320514697,-34.05817523578714],[120.464695717328,-34.057138263368685],[120.46972488878644,-34.05742041529393],[120.48680729608652,-34.05508593539568],[120.49001929608652,-34.05432793539568],[120.51288772913784,-34.04550132816723],[120.51388272913785,-34.04495132816722],[120.52423915146366,-34.03790083911788],[120.5275606757085,-34.03699280382623],[120.54457161445633,-34.02812809109006],[120.55344061445633,-34.02222609109006],[120.55939043506991,-34.01711390458047],[120.5638074542951,-34.01583106038044],[120.57141180859121,-34.0154642202814],[120.58835675913744,-34.011273320530734],[120.6041740087321,-34.00389025849699],[120.61826856518967,-33.99359276035431],[120.62966867825688,-33.9812463948352],[120.63032707050947,-33.98131013804843],[120.64875351055078,-33.98119893367571],[120.66677109058357,-33.97733721530553],[120.67004901208762,-33.97588815361213],[120.68017215429934,-33.97885203708944],[120.69548709681295,-33.98185683575225],[120.706169818582,-33.986524474224346],[120.72402111728081,-33.9903075708809],[120.74226857595671,-33.990412152994686],[120.76016206481965,-33.98683392132817],[120.77696600532784,-33.97971997242869],[120.78101165009369,-33.977265326682236],[120.78431015073717,-33.978615185103855],[120.80195652314902,-33.981981524015815],[120.80551652314901,-33.98229752401582],[120.82255394430544,-33.982190798585954],[120.83926596143331,-33.978875139752994],[120.85505365481289,-33.97246937299705],[120.86935123033194,-33.963203066059755],[120.87747724751632,-33.95540770667691],[120.8823592739821,-33.952680400534184],[120.8921161240954,-33.95670007082842],[120.90934134327544,-33.960109034920556],[120.91570004774495,-33.9601088222281],[120.92576579919594,-33.96095765192579],[120.94322393593771,-33.959005255664025],[120.9517115676586,-33.956315696747794],[120.96314171355758,-33.95792939677022],[120.97455371355757,-33.95864739677022],[120.98177986791106,-33.958437142381776],[120.98791879241908,-33.96049814069032],[121.00571177339197,-33.96272188101308],[121.02359245116777,-33.96137408458837],[121.0408510396751,-33.95650825314254],[121.0523555340929,-33.95060093603992],[121.05387045393097,-33.95046310327801],[121.05788655807365,-33.94927337746113],[121.06763301001818,-33.95152401799565],[121.08479119596375,-33.952139939182246],[121.10175412672749,-33.949486322074286],[121.11604986385979,-33.944328828998415],[121.11863649109243,-33.94539526713426],[121.12397387000132,-33.950229582585784],[121.14012958922488,-33.959648231431686],[121.15788302030103,-33.965524786097255],[121.17646765728752,-33.967605525819906],[121.19508110685409,-33.9658006144798],[121.21291973168482,-33.96018797928218],[121.22921334758965,-33.951009946243495],[121.24325847627424,-33.938662777744355],[121.24434504549934,-33.937486002772246],[121.25223680958689,-33.93930443556091],[121.25652988475636,-33.9395595262717],[121.2616908372484,-33.940453655327474],[121.27892382915933,-33.94010438309064],[121.28466301250782,-33.93886865941872],[121.28640395244642,-33.9407089733703],[121.30014123428126,-33.95061366995157],[121.31549083824018,-33.95776947772435],[121.33190924446122,-33.961923014017415],[121.34881508746372,-33.9629272047122],[121.35348408746373,-33.9627642047122],[121.37166455847596,-33.960257171219865],[121.38895847659595,-33.95411427782855],[121.40464672496077,-33.9445909587432],[121.41807695377493,-33.93208321325661],[121.42665434029462,-33.91998369761149],[121.42942000069853,-33.92022680455658],[121.44681215086925,-33.91835892048454],[121.44991897423998,-33.91739223873718],[121.45859495977666,-33.91834704750608],[121.46158871904905,-33.91811182863474],[121.46636178223386,-33.92096275125502],[121.48271855643883,-33.92684100624896],[121.4999002237586,-33.92946555426304],[121.50576500106358,-33.929220016241864],[121.52014759029538,-33.92911796087483],[121.5380173536921,-33.925300193029955],[121.54185117522617,-33.92361625348243],[121.5430576376023,-33.924204730852686],[121.56297813250757,-33.93579649379784],[121.5488609156568,-33.94574950300526],[121.5451809156568,-33.94894950300526],[121.53343492325652,-33.961302629167285],[121.53259636999123,-33.962609377006416],[121.52230062782697,-33.973387103286036],[121.51289891826374,-33.98811820821621],[121.50652132663582,-34.00438854687901],[121.50340830987481,-34.02158467207687],[121.50367723931807,-34.039058231305866],[121.50731797540939,-34.05615041185395],[121.51419324999483,-34.072216780284606],[121.52404384179975,-34.08665157977291],[121.52781014108463,-34.090358753315726],[121.52948397848893,-34.093420733170326],[121.5402635222043,-34.10650946063009],[121.55330673582003,-34.11734403158616],[121.56815064427053,-34.1255398677937],[121.58426835597133,-34.130806054151755],[121.60108776508625,-34.132955664872995],[121.60291776508625,-34.13301566487299],[121.6211302864404,-34.131760291281196],[121.6387148047791,-34.12685553728865],[121.65494781074634,-34.11850320742216],[121.66517121023142,-34.11026307778606],[121.67962122632885,-34.10763648507876],[121.69547450496933,-34.101506805610875],[121.7021188043527,-34.09735888421095],[121.71054724813403,-34.095793012531026],[121.72623344296872,-34.08969128997701],[121.74050923414477,-34.08077560083845],[121.75287534309102,-34.06935776058527],[121.75656534309101,-34.06524776058527],[121.75966710695502,-34.06107406052421],[121.76250987490934,-34.058787264617315],[121.7736445119782,-34.04560325009945],[121.77530440040093,-34.042630795816855],[121.77390537023282,-34.05895167398028],[121.77595495618407,-34.07679386760221],[121.78150638355116,-34.093873865553086],[121.79033859266245,-34.109511536672166],[121.80209988203342,-34.12308418372963],[121.80317988203342,-34.12410418372963],[121.80770103084106,-34.12759543899807],[121.8069960049287,-34.1332792580276],[121.80827436008417,-34.15084848967943],[121.81295054223999,-34.16783217046967],[121.82084540622692,-34.18357965329605],[121.83165649874057,-34.19748764996705],[121.84496964536825,-34.20902334325394],[121.86027481766664,-34.217744799190655],[121.86313652218328,-34.21869918250574],[121.8696211362416,-34.23052245491927],[121.88073860389623,-34.24385945853642],[121.89421018689194,-34.25481346255894],[121.90953448662647,-34.262976770110534],[121.92614114826699,-34.26804555119605],[121.94341208877623,-34.26983115094456],[121.94497208877623,-34.26984115094456],[121.96276113967151,-34.268181792429644],[121.9798718966864,-34.26304118966212],[121.98074329039305,-34.262575621729226],[121.98159475811892,-34.26539637490029],[121.9900648717766,-34.28118018318214],[122.00149310818135,-34.29497390791222],[122.01542675195672,-34.30623112783513],[122.03131383912832,-34.31450590217975],[122.03301383912832,-34.31518590217974],[122.04984795150315,-34.32008054410888],[122.0673115914659,-34.32161876981244],[122.08474212198406,-34.319742213146945],[122.10147816232363,-34.31452207782152],[122.1168846833538,-34.30615643565788],[122.13037710297155,-34.29496271099081],[122.13292739984264,-34.29182919978722],[122.13903121536583,-34.30601672018599],[122.14586868661469,-34.31582956202888],[122.14177351627748,-34.32059254281791],[122.13336486581296,-34.335185697302926],[122.12782239788288,-34.351089992625305],[122.12534021215039,-34.36774845337193],[122.12527021215038,-34.36903845337193],[122.12604707278135,-34.38667457238004],[122.13025158261689,-34.4038197846316],[122.13772197900349,-34.41981445199093],[122.14817084885617,-34.43404320193286],[122.16119618647629,-34.445958603142635],[122.17629686016026,-34.455102227172446],[122.19289189254307,-34.46112228583676],[122.21034281289236,-34.46378716577229],[122.22797822137967,-34.46299433943918],[122.2451196202526,-34.45877430972514],[122.26110751808991,-34.45128943638942],[122.26280751808991,-34.45027943638943],[122.27745956483095,-34.43942586798477],[122.28962326532154,-34.42584180337981],[122.29879933356351,-34.41008483056029],[122.3046111175343,-34.39280172933704],[122.30682005970256,-34.374701922837694],[122.30533548914984,-34.356528357664885],[122.30021834335902,-34.33902700800917],[122.29167866690048,-34.322916255487954],[122.28860047456051,-34.31918932994496],[122.29178409195254,-34.31572100705251],[122.30075434693678,-34.30116833639604],[122.30511425207614,-34.28966061290106],[122.30809194495454,-34.291418322478286],[122.32465707263015,-34.29723806618608],[122.34203691326567,-34.29973085803812],[122.3595700182953,-34.29880182641674],[122.3640500182953,-34.29812182641675],[122.38056007045084,-34.293988130267856],[122.3959966987673,-34.286820161779524],[122.40980786413425,-34.276874259244465],[122.4214996566585,-34.264506104426545],[122.42492493847377,-34.25913744918475],[122.42536687758519,-34.25964967880159],[122.43894031575803,-34.27033107012989],[122.45430424000115,-34.278222849168365],[122.46056767968317,-34.28003955926611],[122.46897958206416,-34.28321214645778],[122.47352958206416,-34.28445214645778],[122.49131042221568,-34.28742648027006],[122.50932733543308,-34.28679737277765],[122.51983898625211,-34.28427452346792],[122.52472637529823,-34.283810849917906],[122.54135697690435,-34.27889175511844],[122.55673531813584,-34.2708742103324],[122.55822531813584,-34.2699042103324],[122.57186842021656,-34.25900040917438],[122.58314867606884,-34.24566688218466],[122.5916412975583,-34.23040573890128],[122.59702647236097,-34.21379167839749],[122.59910140734983,-34.19645034745461],[122.59778796531114,-34.179034780162965],[122.5940530238208,-34.16552036248389],[122.59905000326978,-34.162578835083956],[122.61254786986977,-34.150390579876515],[122.6233198641822,-34.13573759020595],[122.63092613513506,-34.11921818918942],[122.63152613513506,-34.11746818918942],[122.63569827577535,-34.09942397615895],[122.63597148214838,-34.0936008276023],[122.64368004584387,-34.097960009661506],[122.64707004584386,-34.09947000966151],[122.6635318384605,-34.10497044551064],[122.68074332905883,-34.10720874890109],[122.69806440868156,-34.10610167555828],[122.71485089266892,-34.101690398416004],[122.73047847839587,-34.094138976362466],[122.73464965788904,-34.09101206056601],[122.74054265000929,-34.0875888809382],[122.74116536372966,-34.08703203175029],[122.74098432182274,-34.09651964070038],[122.74421606312193,-34.11419210454591],[122.75089352530078,-34.13087058256538],[122.75692118077467,-34.140055308039],[122.75700505208094,-34.141917650846636],[122.76124672836137,-34.15910221623756],[122.76186672836137,-34.16085221623756],[122.76980071879025,-34.17755703153788],[122.78098155881925,-34.192287539831526],[122.79493716983586,-34.20442178803636],[122.81107831655288,-34.213447442638824],[122.82872348576318,-34.21898342149387],[122.84712766126252,-34.22079598391562],[122.86551378000273,-34.218808599701454],[122.88310554132998,-34.21310518039825],[122.88466554132998,-34.21241518039825],[122.89950926717113,-34.204090191431725],[122.91252041008671,-34.19311969471691],[122.92323371467576,-34.179895975764886],[122.92911114918863,-34.16891721836548],[122.94320388451916,-34.17335388236847],[122.9603017047838,-34.17530282470585],[122.96439949446106,-34.17498254494367],[122.97307094911169,-34.18346473085225],[122.98827366076802,-34.19327361062813],[123.00513105225924,-34.19984361186669],[123.00675105225925,-34.20029361186669],[123.02475116736925,-34.2033708655692],[123.02599233855001,-34.20332873396115],[123.0297910987681,-34.20538021005677],[123.04671782420665,-34.2105809016613],[123.05848514437895,-34.21177371903353],[123.05986795226437,-34.214478606897686],[123.07162182336621,-34.228997991860005],[123.08611991058775,-34.24077812311902],[123.10273760406776,-34.24931148640485],[123.11786721685468,-34.25344113554119],[123.11932406046958,-34.253980767441675],[123.13518134490337,-34.25679362708307],[123.15128607233459,-34.25673528891082],[123.15481607233458,-34.25640528891081],[123.17168908088902,-34.25318137732219],[123.18764220086743,-34.24681035020218],[123.20209424233681,-34.237524311166254],[123.21451870132648,-34.22566156096138],[123.22446294095428,-34.21165427279291],[123.22650359021284,-34.20715975961511],[123.2413363116952,-34.20273360827643],[123.25626224122371,-34.19481338769394],[123.25728319457563,-34.198465005583095],[123.26494662837598,-34.21380106242902],[123.27537911927033,-34.22740569366009],[123.28820210583503,-34.238785231117966],[123.30295028327393,-34.247526748115845],[123.31908848782764,-34.253313043215186],[123.33603111613905,-34.25593415044213],[123.3531633749092,-34.25529495827506],[123.3581833749092,-34.25462495827506],[123.37664723877478,-34.2501370044603],[123.39375735487751,-34.24187262757869],[123.40875104296425,-34.23020021069752],[123.42095996216833,-34.21564004963526],[123.42983990217968,-34.19884116087187],[123.43037990217968,-34.19749116087187],[123.43535079853348,-34.18024520014198],[123.43680074974542,-34.162355800667996],[123.43467209197682,-34.144534414971],[123.42904948088861,-34.12748979069799],[123.42015652492779,-34.11189978408043],[123.40834689253063,-34.09838440192893],[123.39409024690494,-34.087481144270775],[123.37795356775771,-34.079623628241094],[123.37456356775772,-34.078373628241096],[123.36450073640037,-34.07572168466188],[123.36736348886447,-34.071984877005974],[123.37116248886447,-34.06590487700598],[123.37942054315731,-34.04896500367398],[123.3839699247651,-34.03067681359966],[123.38461116028354,-34.01184217566268],[123.38351863244756,-34.00568983184744],[123.39451667796729,-33.996032637587],[123.40316075434757,-33.984665356550686],[123.40578517123163,-33.98496264176792],[123.41770738467176,-33.98709361506843],[123.43312936766249,-33.9887896793994],[123.43527122234345,-33.989384279690114],[123.43314710033934,-34.003505528038005],[123.43386366932592,-34.02065899081349],[123.4378244813071,-34.03736428113578],[123.44007347914993,-34.04234876602495],[123.44163317762016,-34.049863605876524],[123.44814475901508,-34.065544701662304],[123.45748565040398,-34.07972374272176],[123.46932338817747,-34.0918960646741],[123.48323664027377,-34.101628426844215],[123.49873020234692,-34.10857443228553],[123.51525262321786,-34.112486856836675],[123.53221583227852,-34.11322644839271],[123.5490160702647,-34.11076688320486],[123.56505537842409,-34.105195702802725],[123.56925537842409,-34.103275702802726],[123.5842556769379,-34.094582294064935],[123.5973107616381,-34.083174004339654],[123.60793616911243,-34.06947418583757],[123.61573759926402,-34.053991227509925],[123.61632254563612,-34.051908513624724],[123.61860036331413,-34.048097617988475],[123.6264425695111,-34.031325742990866],[123.63068683261862,-34.013304027766026],[123.63115353333184,-33.99479516017734],[123.62802800848388,-33.97770392189256],[123.62829701422228,-33.9773368886393],[123.63418190463463,-33.978352636503374],[123.64167040154206,-33.97822742200928],[123.64295762682514,-33.9783827052497],[123.64622011555473,-33.978151346643905],[123.6510422043611,-33.9780707169237],[123.65295899892457,-33.977673460345954],[123.66006512684139,-33.97716953098904],[123.67663187976409,-33.97273319847318],[123.6850218797641,-33.96960319847318],[123.70062636489,-33.96199462579562],[123.71447972138823,-33.95153160290704],[123.72606648410508,-33.93860344511182],[123.73495552485683,-33.92369119213825],[123.73980178521124,-33.91017798605886],[123.7453444530893,-33.91042448205852],[123.76266381207917,-33.90779800683867],[123.77914632562462,-33.90186628574572],[123.79416757391058,-33.89285403475989],[123.8071584953646,-33.881102671959084],[123.8125784953646,-33.87514267195908],[123.81966670049344,-33.865593931773915],[123.82849541302402,-33.858169981487954],[123.83945078746345,-33.84453902430764],[123.8475632599022,-33.82904673546157],[123.8525265362087,-33.812278041085875],[123.85415322315386,-33.79486605922446],[123.85238190362114,-33.77746819585355],[123.84727945546834,-33.76074132389231],[123.84443246940491,-33.75541269097298],[123.85698939363145,-33.742781691321035],[123.86142959159385,-33.73915644804671],[123.88757605100885,-33.72415522986339],[123.88885628164837,-33.72407968543517],[123.90472283548323,-33.720184774556884],[123.91543434030135,-33.71536917218364],[123.9280004686968,-33.72243209160315],[123.9308304686968,-33.723672091603156],[123.94867520672479,-33.72936309251484],[123.95714883131409,-33.730215255182614],[123.95301037309287,-33.74003523732033],[123.946007134608,-33.74242962721156],[123.93072558374321,-33.75130351209173],[123.91747254230127,-33.762992332487215],[123.91558254230127,-33.76502233248721],[123.904559248511,-33.77958087576245],[123.89670154884719,-33.796064829908126],[123.89233293237655,-33.81379557660463],[123.89163324812932,-33.832043169055076],[123.89463130099931,-33.85005638274037],[123.90120366589184,-33.867093642144475],[123.91107976893977,-33.882453550245444],[123.92385302660156,-33.89550376392142],[123.93899758406268,-33.90570702651681],[123.95588996384649,-33.91264328584898],[123.97383473339583,-33.91602698709227],[123.99209313493152,-33.91571882861847],[124.00991349894151,-33.911731496824544],[124.01261349894152,-33.91083149682454],[124.02799838224375,-33.90404759828328],[124.04185292143487,-33.89452039211131],[124.04302304936017,-33.893340643112445],[124.04603725478437,-33.900332796856695],[124.05632733315902,-33.91513068734759],[124.05898253914813,-33.917667397086994],[124.05999809864367,-33.91922287798949],[124.07247594528482,-33.931923355571506],[124.08720980790811,-33.94191895859531],[124.10362306718163,-33.94881850261153],[124.10943306718163,-33.95060850261153],[124.1276084559697,-33.9542122768468],[124.14613665198893,-33.95401760119451],[124.16423230689345,-33.95003272730533],[124.18112840631062,-33.942426560674114],[124.18558840631063,-33.93983656067412],[124.1988065999579,-33.93047503229847],[124.21013274574507,-33.918895857956876],[124.2191999900103,-33.90547408690161],[124.22571464487208,-33.89064445005991],[124.2285666380493,-33.87866399836373],[124.23200481043048,-33.87076265882764],[124.23575876483542,-33.853152497485915],[124.23593208985578,-33.835147500551926],[124.2327848732391,-33.81885100863185],[124.23711035595524,-33.814151843302035],[124.24617575572009,-33.7994144183788],[124.25225349423341,-33.78321459551471],[124.25511894040602,-33.7661511144954],[124.25466618834984,-33.7488546356098],[124.25091197162249,-33.73196443066645],[124.2439950447608,-33.71610475573112],[124.23417105496172,-33.701861778841014],[124.22180309345138,-33.68976191543916],[124.20734827576037,-33.68025237224384],[124.20626827576037,-33.67968237224384],[124.19074215154481,-33.67326132904663],[124.17878258311445,-33.67077232888717],[124.16932548928547,-33.65753872220741],[124.15683924536371,-33.6456987770303],[124.14232787906117,-33.63645157004094],[124.12632184457496,-33.63013512728436],[124.10940623279149,-33.62698034249596],[124.09219938364373,-33.62710253692097],[124.07533028307003,-33.63049724381626],[124.07236128307004,-33.63139724381625],[124.05915494573804,-33.63669818449658],[124.0592774117859,-33.634242030470716],[124.0567381678578,-33.616891972453864],[124.05251212147192,-33.6049626973144],[124.05751790138793,-33.596790971773785],[124.06168790138791,-33.58789097177379],[124.06656032929882,-33.575007506216245],[124.06940972696815,-33.56153140991793],[124.07454972696816,-33.52275140991793],[124.07524782574548,-33.51477107648896],[124.07627454146753,-33.49076113919651],[124.08326159418549,-33.458059633891665],[124.0888541461746,-33.44585541073472],[124.09182500663437,-33.43391559333299],[124.10634122887787,-33.3959696137539],[124.13156081671735,-33.35008980042131],[124.13447459860518,-33.34430517618457],[124.16089359860518,-33.28679417618457],[124.1649032526561,-33.27641907653674],[124.1702632526561,-33.25950907653674],[124.17290851610214,-33.24900717989511],[124.175772738955,-33.23383195290346],[124.18335523254386,-33.21341895368396],[124.19882596902042,-33.184822924907365],[124.22143085395905,-33.1562715415561],[124.25935815278648,-33.11888730900159],[124.29046485878361,-33.09181251273483],[124.34476466992311,-33.061963850647764],[124.38430097190201,-33.0451583016055],[124.41495168295836,-33.03655537596336],[124.47177152178148,-33.024696902567925],[124.53137935483892,-33.019010206914686],[124.54203881968623,-33.01734366306383],[124.54921016606639,-33.01577714442168],[124.57537555902361,-33.01358505973957],[124.58078016525019,-33.013784675851355],[124.59431051371617,-33.01326516040596],[124.60760979660056,-33.010721678408785],[124.61168580898088,-33.00961874520892],[124.62433577216913,-33.008513331152535],[124.63112426542175,-33.00765905457188],[124.6771770781628,-33.00007558884639],[124.69488199174758,-32.99911200284156],[124.71036133023405,-32.99690941493648],[124.72899903928166,-32.99257862360706],[124.75303374795091,-32.989335865717976],[124.76774733561709,-32.986077579218986],[124.79306733561708,-32.97819657921899],[124.80977837685634,-32.971075241948895],[124.82080566767468,-32.96499461096775],[124.84070351388142,-32.95882231421008],[124.85264428103065,-32.95416264499642],[124.87288428103065,-32.94455164499642],[124.88455917677183,-32.93789718620644],[124.88953094963684,-32.93397842232482],[124.90617846830204,-32.92827697688299],[124.9225564646688,-32.920760913657276],[124.94011646466879,-32.91045991365728],[124.94890314391998,-32.9045859910325],[124.95454314391998,-32.9003159910325],[124.96935148096638,-32.88618531613018],[124.98058397133475,-32.86907409234581],[124.98079371854065,-32.868658016036626],[124.98469896669485,-32.864765551321995],[124.99930637298792,-32.85543093178718],[125.00176704002187,-32.85445031942959],[125.01268953713046,-32.85232281197124],[125.02945611282941,-32.845342191715375],[125.03587511282942,-32.841872191715375],[125.04404478452865,-32.83687670121859],[125.05810478452865,-32.82721570121859],[125.07165710032882,-32.815784737802325],[125.0747442216353,-32.81191038431268],[125.07982014980934,-32.81104975651338],[125.09538565223558,-32.809835313947744],[125.11702787264989,-32.805428489018546],[125.13105787264988,-32.80071848901854],[125.15224015507742,-32.79034767592665],[125.18235771229213,-32.7703260822343],[125.18574858932956,-32.76860173705441],[125.1941451145978,-32.76567630457579],[125.21661351887508,-32.75402686286054],[125.21937648108866,-32.75295518055559],[125.23779648108867,-32.744184180555585],[125.24709384113763,-32.73906386933968],[125.2702167772031,-32.724489439584275],[125.27123418876877,-32.72427101682995],[125.29066854477924,-32.717707889437584],[125.29604326764448,-32.71438224721229],[125.3095918409468,-32.70941499677462],[125.32437857943891,-32.70240964630838],[125.33266842752091,-32.69751385016175],[125.33885068538919,-32.69519442965535],[125.3422504920663,-32.69461508654452],[125.35860186889106,-32.69021272480048],[125.36193003880932,-32.68897056807642],[125.36634454439937,-32.688493768312405],[125.38203309050347,-32.683816525659786],[125.38809914536687,-32.68072072347973],[125.39229683490721,-32.679436549951554],[125.39758913195365,-32.67862744469038],[125.4225503428335,-32.67768953341114],[125.44057409816067,-32.67517100380428],[125.46042409816066,-32.67031100380428],[125.48194453533512,-32.66199780462231],[125.48506995945517,-32.66030189938249],[125.49775237784112,-32.65668984347347],[125.5161321501611,-32.64917777188258],[125.52273849909324,-32.64456966616432],[125.52556103115406,-32.64409482704611],[125.53530688967558,-32.641892858551145],[125.55673688967558,-32.635782858551146],[125.57640178379863,-32.62755061981392],[125.58568552437063,-32.620726253487746],[125.59245986050536,-32.61812982963384],[125.6075344272656,-32.61066895334274],[125.62095749936907,-32.6005334526967],[125.6383616786056,-32.584631508124545],[125.66283736239254,-32.56685217991073],[125.68521917010615,-32.55502233175541],[125.69690253825104,-32.54764761218515],[125.70731946066701,-32.53857152782411],[125.70934164008688,-32.53651609530873],[125.72188423654727,-32.52763554123641],[125.73022344286579,-32.519167496899826],[125.74040156569146,-32.51400249430955],[125.75180632906732,-32.50710861677301],[125.76206808034698,-32.498606226766505],[125.76390964070984,-32.49683471440122],[125.7731705106328,-32.491868442835816],[125.78491715825322,-32.48364700015573],[125.79625469992652,-32.47879507914863],[125.80599282902058,-32.47176565022984],[125.82722517880013,-32.45847290399453],[125.83493885327343,-32.45196145819149],[125.84161586412307,-32.44770657658799],[125.84336818717168,-32.4470510657322],[125.85540329202576,-32.44150753287371],[125.86298997550561,-32.43654775268285],[125.86678583938405,-32.43524020702985],[125.87717108450755,-32.429334040844026],[125.88605114207718,-32.425499272424844],[125.89142542424614,-32.42423480768115],[125.90768988755272,-32.41872508258677],[125.92261180525816,-32.41022648215733],[125.94099725210415,-32.39728693213815],[125.9425870190966,-32.39670917246074],[125.96337535680925,-32.38591038246516],[125.96607557593539,-32.38402471225306],[125.96712546890943,-32.3836571258066],[125.98367295541807,-32.375897358410334],[125.988004626148,-32.37329962765553],[125.99922258666145,-32.36982276094292],[126.0388805157293,-32.36348235691982],[126.0419912119539,-32.36250109244877],[126.04709093584464,-32.36402403908121],[126.06073079725144,-32.3659053678272],[126.06882079725145,-32.36639536782721],[126.09262552153723,-32.3646666460419],[126.09953452153722,-32.363226646041895],[126.10869221830832,-32.36080887058904],[126.14151221830832,-32.350267870589036],[126.15576374764079,-32.34429748941455],[126.16878400440338,-32.335977366006865],[126.17311579473338,-32.33265303493459],[126.19035831154844,-32.323724856952786],[126.20117798403612,-32.322785662761085],[126.20311142605878,-32.323038266096525],[126.21886148090763,-32.32886646640747],[126.25462048090763,-32.337775466407464],[126.26277171598008,-32.33941054970981],[126.29230648227586,-32.34392756129456],[126.30791231488068,-32.348167120492946],[126.32061740038932,-32.35034616578916],[126.32178305459476,-32.35086764267054],[126.33907252183482,-32.35658420551765],[126.36234593926437,-32.36173932777212],[126.36614104848215,-32.363302364844266],[126.38403429885025,-32.368580737961594],[126.40564429885026,-32.37258073796159],[126.41768376945147,-32.3739792374563],[126.42800649524625,-32.374477743648974],[126.43923920077127,-32.3767091139643],[126.45805659713935,-32.37786035697444],[126.53774732679247,-32.38848118579538],[126.54723148627195,-32.38923784705496],[126.56237493501546,-32.38964274474935],[126.58363144716687,-32.391573939111986],[126.59128208809861,-32.391222024949336],[126.60024434908004,-32.39267580424715],[126.61196141906375,-32.39379668331281],[126.63785332627897,-32.39457194112953],[126.66113114572914,-32.39761277516051],[126.67642989593158,-32.39829732471538],[126.73788089593158,-32.39580932471538],[126.75882053532477,-32.392461272581215],[126.77632953532478,-32.38749027258121],[126.78740484191252,-32.38278782908961],[126.81090715906358,-32.38344101962328],[126.83442956188918,-32.38726987666752],[126.86021016867865,-32.38772411152342],[126.86366952257946,-32.38728547255705],[126.88791675069488,-32.38868125395411],[126.89483521093636,-32.388813058112994],[126.95826921093636,-32.38758205811299],[126.97079574541094,-32.3864600642432],[127.00536246207604,-32.380908004397256],[127.04878924075075,-32.377799281439984],[127.06691072500607,-32.3746165810785],[127.07147800988426,-32.3733217481265],[127.08838753785413,-32.37264754896137],[127.09683153767382,-32.37144813225878],[127.09984554193848,-32.37168720341858],[127.1213254780534,-32.37053006585705],[127.12505188372783,-32.3708894589744],[127.14317330716595,-32.36863630830066],[127.16841926860089,-32.367508297257814],[127.17617830291773,-32.36606314880832],[127.21257893130723,-32.36638351452799],[127.22402332220034,-32.365754376775534],[127.23996332220034,-32.363854376775535],[127.25643941960462,-32.360301036437846],[127.26275866378396,-32.357629566815824],[127.27369955792916,-32.35743091558248],[127.28973819865749,-32.35417559772412],[127.29278720783346,-32.35326143895156],[127.30268203977843,-32.35224340779337],[127.31828839064455,-32.34922667634457],[127.32278461038248,-32.34749417643862],[127.33630656877001,-32.34592929140858],[127.3484601771533,-32.343668079548685],[127.3579101771533,-32.341228079548685],[127.37687407252537,-32.333965476022385],[127.37907027271139,-32.332825465993174],[127.39556237541069,-32.33002376283218],[127.41336831698277,-32.32507417709518],[127.4161915514781,-32.32361570371301],[127.42314934071709,-32.322975965973],[127.44057712809462,-32.31961608437151],[127.46910817321711,-32.31112639244935],[127.47215207725989,-32.3108528969114],[127.48698314046618,-32.30825577356789],[127.49640501478622,-32.30577856166801],[127.52467954617153,-32.30393285564568],[127.5453852542987,-32.300113114796694],[127.56463686950501,-32.29158714968128],[127.573936869505,-32.28608614968128],[127.58712372537684,-32.27593519521768],[127.59274002071835,-32.272595796232075],[127.59663645714821,-32.26909594503959],[127.60026444253644,-32.26778630229676],[127.61095265208492,-32.26312496016966],[127.61612120441796,-32.260459873835835],[127.639337938772,-32.25538972911543],[127.6544640192502,-32.250658076195684],[127.66852556305905,-32.2433464528672],[127.67117911892001,-32.241304709550214],[127.71442334578799,-32.23012938636758],[127.72923219590153,-32.22488632487132],[127.73261349625002,-32.22334513797335],[127.77157662857775,-32.21647294076488],[127.78117586234823,-32.21423170043957],[127.79798309769872,-32.209322863647415],[127.80039050097446,-32.20926513622561],[127.81613989314452,-32.20749158490685],[127.84992889314452,-32.20063158490685],[127.88010238567414,-32.193067890098],[127.9102935958127,-32.19062870510349],[127.92838151584763,-32.18728135917442],[127.958957570729,-32.17831126999913],[127.98002613109603,-32.17558681604091],[127.99274284182418,-32.17299895980309],[128.018899830603,-32.16567755829067],[128.03658277279618,-32.162849996036584],[128.06078597342585,-32.15521055482808],[128.06909501007385,-32.15336265950647],[128.0698589690715,-32.15301735111755],[128.0766262775274,-32.15183492528923],[128.0901457166805,-32.147173303820516],[128.09947600487317,-32.143100597046434],[128.10142860705548,-32.142770601194755],[128.1159825521207,-32.139039033332885],[128.12971291397767,-32.132938289202414],[128.13511198570907,-32.129976886804805],[128.16417340310943,-32.12149246260792],[128.178589425013,-32.11527090784359],[128.20041809399018,-32.10947211449545],[128.2118453502075,-32.10559964105003],[128.22126711947763,-32.10168468292388],[128.23322513121428,-32.098928333351644],[128.25198586008344,-32.092350637597384],[128.25234292738753,-32.09217908245942],[128.26152494513008,-32.09073465519982],[128.2761029491844,-32.08717494374722],[128.2898868410765,-32.081242484548845],[128.2921075999814,-32.07980850272406],[128.30631218147738,-32.07700666548713],[128.32213669639617,-32.070599216035944],[128.32614087826298,-32.068005977518666],[128.33976488200125,-32.06568015079974],[128.35770063315914,-32.05798355508444],[128.3698535486825,-32.053507769154514],[128.37522970328763,-32.050036654174356],[128.4209207906875,-32.03113307207235],[128.42948959489948,-32.02923446644218],[128.4399105959896,-32.024606169178305],[128.45643174247724,-32.02236194888818],[128.47310879835157,-32.01662571910825],[128.48274698507444,-32.01101016763771],[128.49188573208042,-32.00842741265102],[128.5019768861244,-32.00280041756517],[128.51615878690401,-31.999340432563013],[128.5342643305566,-31.992804301347835],[128.55056582704736,-31.98256745933579],[128.55190760559748,-31.981562659797195],[128.5698410765251,-31.97435934935851],[128.58582322927987,-31.963493446077504],[128.58695322377042,-31.96253261372703],[128.5998899773982,-31.961136296560618],[128.61800612952342,-31.95726322942144],[128.63494549652333,-31.949762998589485],[128.64413750874257,-31.943158613329967],[128.6478191458265,-31.941851983382936],[128.66149722329885,-31.93887139291127],[128.68455759161984,-31.9304161471791],[128.69579759161982,-31.9244451471791],[128.7158964736786,-31.909894993512527],[128.71780218081034,-31.90806587508351],[128.72154569733746,-31.906589920464402],[128.7336132862495,-31.899499349147852],[128.74008690523817,-31.89498379094122],[128.74584875532827,-31.892318947331944],[128.75151266913014,-31.88810048055719],[128.76133365015582,-31.883933581318953],[128.77731146528788,-31.874893087264162],[128.78579457722537,-31.87176452444126],[128.8044674370459,-31.86228079997037],[128.81501233495848,-31.855272921386575],[128.81753279444447,-31.854446859965513],[128.8327232436114,-31.847866084194692],[128.84433164087352,-31.840042882257308],[128.8621706449696,-31.83302783711063],[128.8690343735234,-31.828356586510875],[128.89120032944254,-31.82039056486981],[128.9125368923281,-31.809310306104102],[128.91583187051808,-31.806992923583326],[128.9225946914757,-31.80394244261346],[128.9342014856617,-31.80136675834343],[128.9472252479893,-31.79556239853265],[128.97515664245233,-31.786836731018862],[128.98564092994513,-31.782828180586574],[128.99049426447726,-31.780616493239386],[129.01775887182572,-31.77555766407423],[129.03554313482647,-31.770315495866495],[129.0518758322484,-31.761540341570285],[129.0660638117969,-31.749604614766707],[129.0775049420343,-31.735014862305167],[129.08571366656588,-31.71839026668412],[129.09034161083363,-31.70043636822577],[129.09093161083362,-31.69650836822577],[129.09192712058035,-31.68242007830767],[129.09182815733834,-31.670048723314515],[129.05281,-31.67418],[129.02903,-31.67924],[129.01668,-31.68465],[129.00134,-31.687068],[129.00193,-31.68314],[129.00141,-31.671391],[129.001409,-31.61801],[129.001419,-31.555509],[129.00186,-31.472513],[129.001421,-31.433755],[129.001428,-31.369914],[129.001443,-31.222185],[129.001401,-30.998639],[129.001398,-30.767668],[129.001395,-30.763205],[129.001395,-30.305446],[129.001449,-30.161709],[129.001534,-29.998614],[129.001534,-29.972224],[129.001551,-29.805563],[129.001548,-29.722232],[129.00156,-29.638902],[129.001562,-29.555571],[129.001559,-29.498611],[129.001568,-29.472241],[129.001572,-29.388911],[129.001601,-29.13892],[129.00161,-29.05559],[129.001618,-29.033055],[129.001576,-28.972059],[129.001636,-28.722268],[129.001635,-28.638937],[129.001643,-28.555607],[129.001653,-28.498606],[129.001653,-28.472276],[129.001661,-28.388945],[129.00166,-28.305614],[129.001362,-28.115912],[129.001685,-28.055623],[129.001684,-27.998602],[129.001694,-27.972292],[129.001352,-27.888961],[129.001342,-27.305647],[129.001337,-26.888993],[129.001849,-26.803376],[129.001848,-26.745018],[129.001848,-26.722537],[129.001796,-26.639002],[129.001796,-26.555672],[129.001806,-26.498592],[129.001806,-26.472341],[129.001835,-26.222351],[129.001835,-26.139021],[129.001844,-26.055692],[129.001838,-25.998606],[129.000587,-25.998614],[129.000568,-25.831834],[129.000615,-25.748647],[129.000614,-25.665316],[129.000628,-25.581988],[129.000658,-25.33197],[129.000682,-25.081967],[129.001321,-24.998584],[129.0007,-24.915304],[129.000698,-24.831973],[129.000725,-24.581982],[129.000745,-24.498652],[129.000754,-24.415322],[129.000753,-24.331991],[129.000771,-24.165331],[129.000776,-24.137444],[129.000781,-24.082001],[129.001311,-23.99858],[129.00081,-23.83202],[129.000819,-23.748689],[129.00083,-23.665361],[129.000838,-23.582028],[129.000847,-23.498698],[129.001306,-23.431919],[128.501311,-23.431926],[127.815929,-23.431933],[126.001328,-23.431949],[125.501332,-23.431951],[125.001336,-23.431955],[124.677792,-23.440411],[124.668017,-23.440313],[124.668017,-24.415287],[124.668028,-25.415291],[124.668028,-26.745017],[124.622892,-26.745262],[124.55268,-26.745615],[124.507543,-26.745823],[124.472437,-26.745975],[124.432315,-26.746138],[124.362102,-26.746397],[124.316965,-26.746544],[124.266812,-26.746691],[124.196598,-26.746868],[124.151461,-26.746963],[124.091277,-26.747067],[124.04614,-26.747129],[123.985956,-26.747188],[123.935802,-26.747218],[123.89568,-26.74723],[123.855558,-26.74723],[123.790359,-26.747205],[123.750236,-26.747176],[123.705098,-26.747129],[123.64993,-26.747051],[123.609808,-26.746982],[123.56467,-26.74689],[123.509502,-26.746758],[123.474395,-26.746663],[123.414212,-26.74648],[123.369075,-26.746326],[123.338983,-26.746216],[123.288831,-26.746017],[123.238679,-26.7458],[123.173482,-26.745493],[123.110113,-26.745508],[123.046744,-26.745494],[123.046743,-26.681944],[123.022371,-26.68195],[122.963877,-26.681945],[122.963876,-26.654711],[122.92584,-26.654717],[122.88305,-26.654711],[122.838794,-26.654708],[122.784702,-26.654684],[122.689161,-26.654685],[122.689162,-26.712814],[122.460972,-26.712817],[122.460972,-26.828381],[122.065552,-26.82839],[122.065544,-26.806784],[121.779052,-26.806784],[121.779053,-26.846101],[121.779059,-27.290256],[121.648969,-27.290257],[121.00329,-27.292235],[120.857379,-27.292279],[120.535772,-27.292062],[120.058394,-27.290273],[120.058396,-27.502273],[120.074692,-27.502273],[120.074693,-27.612623],[120.157504,-27.612622],[120.157504,-27.636223],[120.156732,-27.743293],[120.151517,-28.047632],[120.196625,-28.047203],[120.203322,-28.292613],[120.046926,-28.294223],[120.047551,-28.319176],[120.048489,-28.355472],[120.049596,-28.399028],[120.050488,-28.435325],[120.051053,-28.461312],[120.045186,-28.461577],[120.045187,-28.464007],[119.988801,-28.464042],[119.848394,-28.464109],[119.848407,-28.465639],[119.801951,-28.465564],[119.801959,-28.847806],[119.77576,-28.847827],[119.77579,-28.896656],[119.77578,-28.916006],[119.663042,-29.112987],[119.344406,-29.110937],[119.200641,-29.290941],[119.167118,-29.291019],[119.058162,-29.29228],[118.720338,-29.292284],[118.720335,-29.2278],[118.720334,-29.117428],[118.501433,-29.117812],[118.436067,-29.117953],[118.436171,-29.165242],[118.436107,-29.187315],[118.435951,-29.264601],[118.435963,-29.278678],[118.436142,-29.280436],[118.446931,-29.333922],[118.457957,-29.387919],[118.465305,-29.423925],[118.471999,-29.457122],[118.480373,-29.498728],[118.484572,-29.518976],[118.493212,-29.561435],[118.493931,-29.565195],[118.501436,-29.601103],[118.503738,-29.612323],[119.080863,-29.826107],[119.080864,-29.820422],[119.228653,-29.87468],[119.30008,-29.9009],[119.407814,-29.94035],[119.419864,-29.944735],[119.419865,-29.95005],[119.514977,-29.984634],[119.55372,-29.998721],[119.864589,-30.113254],[119.98822,-30.158505],[120.002313,-30.158415],[120.009671,-30.161118],[120.013889,-30.161129],[120.013522,-30.258639],[120.012986,-30.400468],[120.012717,-30.472567],[120.01221,-30.607752],[120.011702,-30.742933],[120.011227,-30.869099],[120.01098,-30.936063],[120.010876,-30.965155],[120.010037,-31.218572],[120.00975,-31.268923],[120.009595,-31.482913],[120.009691,-31.866688],[120.009697,-32.038057],[120.009697,-32.203594],[119.751462,-32.203339],[119.732179,-32.203362],[119.732365,-32.206411],[119.700592,-32.206426],[119.70059,-32.203403],[119.613745,-32.203445],[119.613745,-32.206128],[119.577275,-32.206126],[119.577274,-32.203481],[119.501408,-32.203478],[119.251508,-32.203348],[119.17924,-32.203464],[119.178678,-32.203379],[119.161911,-32.214246],[119.161469,-32.2147],[119.109726,-32.214305],[119.001497,-32.213852],[118.913888,-32.213485],[118.91378,-32.237658],[118.897866,-32.237586],[118.859729,-32.241856],[118.816798,-32.246663],[118.751523,-32.246845],[118.718529,-32.247883],[118.692633,-32.248377],[118.679719,-32.248385],[118.679404,-32.247513],[118.615376,-32.248058],[118.615441,-32.262154],[118.62382,-32.262344],[118.623986,-32.262721],[118.62411,-32.276844],[118.623639,-32.277055],[118.623718,-32.285361],[118.571178,-32.285542],[118.501409,-32.285781],[118.470598,-32.28577],[118.470596,-32.285413],[118.448663,-32.28562],[118.403192,-32.285666],[118.403195,-32.286754],[118.396789,-32.286769],[118.396699,-32.285699],[118.350715,-32.285811],[118.338702,-32.28133],[118.338709,-32.286492],[118.321549,-32.286384],[118.321586,-32.271892],[118.270462,-32.271965],[118.251475,-32.277187],[118.249179,-32.277753],[118.237282,-32.277739],[118.236174,-32.27704],[118.230221,-32.279407],[118.194753,-32.279562],[118.194632,-32.249542],[118.208409,-32.249516],[118.208278,-32.230799],[118.189563,-32.230863],[118.189628,-32.236566],[118.17426,-32.23659],[118.174246,-32.231579],[118.143766,-32.2316],[118.140392,-32.231644],[118.140332,-32.228216],[118.125058,-32.228257],[118.125062,-32.230386],[118.108208,-32.230378],[118.108219,-32.228277],[118.100061,-32.22836],[118.100094,-32.228157],[118.077979,-32.228194],[118.077976,-32.227321],[118.084844,-32.201453],[118.090203,-32.19584],[118.082251,-32.195824],[118.082255,-32.191105],[118.059706,-32.19112],[118.059703,-32.192107],[118.017022,-32.19203],[118.016883,-32.173605],[118.001476,-32.173542],[117.991826,-32.173696],[117.981989,-32.165565],[117.980972,-32.16523],[117.956694,-32.165207],[117.954632,-32.162988],[117.953841,-32.162779],[117.928125,-32.162797],[117.927746,-32.159943],[117.926487,-32.158444],[117.923399,-32.157386],[117.904506,-32.157405],[117.901632,-32.156529],[117.891271,-32.154318],[117.872716,-32.154315],[117.87271,-32.156191],[117.865255,-32.156194],[117.865258,-32.15506],[117.857294,-32.155032],[117.857255,-32.152696],[117.834825,-32.152753],[117.83483,-32.149623],[117.805788,-32.149661],[117.80584,-32.169662],[117.793663,-32.169645],[117.79366,-32.159971],[117.788235,-32.159962],[117.787131,-32.160204],[117.747227,-32.160282],[117.714569,-32.1621],[117.710585,-32.16207],[117.666842,-32.162136],[117.636326,-32.162123],[117.633067,-32.162156],[117.638556,-32.167437],[117.638457,-32.16811],[117.629459,-32.167123],[117.629396,-32.176351],[117.627961,-32.17528],[117.622154,-32.175288],[117.622177,-32.188465],[117.607748,-32.188485],[117.607749,-32.188838],[117.580129,-32.188868],[117.580289,-32.195813],[117.556649,-32.19591],[117.556648,-32.197711],[117.553431,-32.197699],[117.553404,-32.202499],[117.553548,-32.205071],[117.543515,-32.20508],[117.543513,-32.203096],[117.527868,-32.203075],[117.527842,-32.199492],[117.511831,-32.199455],[117.511834,-32.202481],[117.503778,-32.202499],[117.503778,-32.201965],[117.487095,-32.201973],[117.487097,-32.20306],[117.481431,-32.203064],[117.481459,-32.19723],[117.463185,-32.197242],[117.463159,-32.202777],[117.43309,-32.202751],[117.433093,-32.201194],[117.42839,-32.201239],[117.428386,-32.225974],[117.412062,-32.226075],[117.411912,-32.221259],[117.411649,-32.221209],[117.39535,-32.221471],[117.395255,-32.218131],[117.391496,-32.218208],[117.391589,-32.221547],[117.374743,-32.221888],[117.374744,-32.225966],[117.374239,-32.227683],[117.371759,-32.228163],[117.365303,-32.228291],[117.365359,-32.22535],[117.361157,-32.225186],[117.354831,-32.225361],[117.352619,-32.225234],[117.345571,-32.225375],[117.345625,-32.227371],[117.335084,-32.22758],[117.334784,-32.224968],[117.334757,-32.220323],[117.316292,-32.220682],[117.316588,-32.229745],[117.310331,-32.233181],[117.31026,-32.229781],[117.282767,-32.229829],[117.282805,-32.226856],[117.280552,-32.226799],[117.27645,-32.229389],[117.275358,-32.23033],[117.275254,-32.232501],[117.277613,-32.234136],[117.273131,-32.234149],[117.273116,-32.23052],[117.271724,-32.228524],[117.26679,-32.226193],[117.264199,-32.226838],[117.262825,-32.228297],[117.239616,-32.228309],[117.239618,-32.231688],[117.235642,-32.231474],[117.23568,-32.242233],[117.233821,-32.241482],[117.233848,-32.240197],[117.230219,-32.240204],[117.227589,-32.241269],[117.225191,-32.240242],[117.224295,-32.238518],[117.219915,-32.239388],[117.218448,-32.238931],[117.217083,-32.24001],[117.214355,-32.239783],[117.213476,-32.240108],[117.209545,-32.238714],[117.207698,-32.239488],[117.205298,-32.239052],[117.202592,-32.236139],[117.201236,-32.237716],[117.201622,-32.240047],[117.200816,-32.242384],[117.199245,-32.244005],[117.19618,-32.244875],[117.195967,-32.245467],[117.192017,-32.245475],[117.192031,-32.250919],[117.190949,-32.250921],[117.191011,-32.25764],[117.18854,-32.257145],[117.18229,-32.257135],[117.180212,-32.256509],[117.179402,-32.257272],[117.178226,-32.257275],[117.17823,-32.258364],[117.164895,-32.258392],[117.163977,-32.257906],[117.160664,-32.258402],[117.139457,-32.258447],[117.139456,-32.261875],[117.111117,-32.261941],[117.111119,-32.262942],[117.099846,-32.267565],[117.095448,-32.25983],[117.088948,-32.262495],[117.088206,-32.261188],[117.076355,-32.266046],[117.076591,-32.266879],[117.068947,-32.270009],[117.068756,-32.269872],[117.06305,-32.259735],[117.044057,-32.267522],[117.040474,-32.261495],[117.014228,-32.272758],[117.00859,-32.263264],[117.010749,-32.261401],[117.010985,-32.259602],[117.009789,-32.257311],[117.002369,-32.260393],[117.00058,-32.25739],[116.994385,-32.260034],[116.993416,-32.258583],[116.990701,-32.258596],[116.989488,-32.258234],[116.962665,-32.258203],[116.896031,-32.258113],[116.886151,-32.258244],[116.864946,-32.258212],[116.851934,-32.258254],[116.833937,-32.258218],[116.83392,-32.272576],[116.83384,-32.272927],[116.824194,-32.276818],[116.826025,-32.280096],[116.821609,-32.281876],[116.822828,-32.28406],[116.81511,-32.28717],[116.818774,-32.293729],[116.812734,-32.296164],[116.814085,-32.298581],[116.810543,-32.300006],[116.808817,-32.296914],[116.798114,-32.301261],[116.798701,-32.304392],[116.797339,-32.306775],[116.79674,-32.309438],[116.791644,-32.311496],[116.791874,-32.312777],[116.784542,-32.315891],[116.778349,-32.318363],[116.783907,-32.327811],[116.78391,-32.333319],[116.759797,-32.333333],[116.759799,-32.338774],[116.745094,-32.338779],[116.744028,-32.340007],[116.731596,-32.345482],[116.724612,-32.348373],[116.72461,-32.346446],[116.720911,-32.346447],[116.720912,-32.348614],[116.710228,-32.348616],[116.709465,-32.348798],[116.702209,-32.348798],[116.701212,-32.348579],[116.690232,-32.348615],[116.690233,-32.346801],[116.681049,-32.3468],[116.681048,-32.352412],[116.665908,-32.352779],[116.666036,-32.356596],[116.661018,-32.356717],[116.660131,-32.355695],[116.65823,-32.355741],[116.658133,-32.352698],[116.653622,-32.352806],[116.6537,-32.35517],[116.651792,-32.355078],[116.650435,-32.354537],[116.647413,-32.352518],[116.647359,-32.354255],[116.64276,-32.354202],[116.641505,-32.353139],[116.625122,-32.353153],[116.625116,-32.348489],[116.615201,-32.348498],[116.615315,-32.352336],[116.615946,-32.353924],[116.616021,-32.356709],[116.6151,-32.357565],[116.583938,-32.357591],[116.583637,-32.357705],[116.566233,-32.357747],[116.564526,-32.357654],[116.501485,-32.357623],[116.383807,-32.357441],[116.383913,-32.248748],[116.383953,-32.23644],[116.35808,-32.23635],[116.224901,-32.235885],[116.189706,-32.287429],[116.1959,-32.294873],[116.203288,-32.308056],[116.208231,-32.316066],[116.212811,-32.321554],[116.215991,-32.326818],[116.225239,-32.342503],[116.226605,-32.346936],[116.226861,-32.349096],[116.227561,-32.350519],[116.229043,-32.352278],[116.231005,-32.356134],[116.234306,-32.359988],[116.246255,-32.373593],[116.24884,-32.376706],[116.251765,-32.381401],[116.254652,-32.384368],[116.257592,-32.387889],[116.259679,-32.389635],[116.259681,-32.458445],[116.259682,-32.498103],[116.317527,-32.498107],[116.359596,-32.498093],[116.362103,-32.500154],[116.365197,-32.502235],[116.366604,-32.503433],[116.368574,-32.506519],[116.369662,-32.507733],[116.372415,-32.509795],[116.375492,-32.512859],[116.382292,-32.518101],[116.379216,-32.518122],[116.379217,-32.523566],[116.389794,-32.523553],[116.392469,-32.526131],[116.39917,-32.534235],[116.400711,-32.535808],[116.40739,-32.54119],[116.411606,-32.545346],[116.415424,-32.549577],[116.425751,-32.560251],[116.429564,-32.563624],[116.440194,-32.574181],[116.441251,-32.575566],[116.444489,-32.58074],[116.448417,-32.586513],[116.451446,-32.591361],[116.455756,-32.597487],[116.461652,-32.605243],[116.467277,-32.61318],[116.47064,-32.619413],[116.472117,-32.621711],[116.47662,-32.62818],[116.480624,-32.630495],[116.481743,-32.631513],[116.482458,-32.634557],[116.486003,-32.638602],[116.492767,-32.645939],[116.495718,-32.64948],[116.497975,-32.65302],[116.500466,-32.655101],[116.503645,-32.656728],[116.506704,-32.659078],[116.507994,-32.660611],[116.511091,-32.665193],[116.514839,-32.67296],[116.51796,-32.676801],[116.521001,-32.682196],[116.521483,-32.684097],[116.521102,-32.687086],[116.521273,-32.688977],[116.522141,-32.690623],[116.524617,-32.692914],[116.527155,-32.694874],[116.539554,-32.703854],[116.542092,-32.706036],[116.543589,-32.707962],[116.545524,-32.712132],[116.546712,-32.714194],[116.548264,-32.716089],[116.551732,-32.719105],[116.567096,-32.731544],[116.569133,-32.733624],[116.570802,-32.736321],[116.571311,-32.737652],[116.574224,-32.747985],[116.575351,-32.750716],[116.578948,-32.756283],[116.580336,-32.758148],[116.587912,-32.767709],[116.590653,-32.77175],[116.593421,-32.771798],[116.594343,-32.770888],[116.597033,-32.772247],[116.596825,-32.773167],[116.599052,-32.773997],[116.600434,-32.773191],[116.601498,-32.771153],[116.602778,-32.770184],[116.604889,-32.769448],[116.60686,-32.769456],[116.608739,-32.77031],[116.612954,-32.770849],[116.614527,-32.771873],[116.616773,-32.772538],[116.619242,-32.77206],[116.620771,-32.771326],[116.625602,-32.771382],[116.629717,-32.774618],[116.631068,-32.775188],[116.632499,-32.776517],[116.635127,-32.777797],[116.638862,-32.777349],[116.640542,-32.778074],[116.645358,-32.781997],[116.647763,-32.781498],[116.651345,-32.78294],[116.652269,-32.782854],[116.654314,-32.781779],[116.654306,-32.792463],[116.652909,-32.792721],[116.654206,-32.796216],[116.654208,-32.799872],[116.656708,-32.803217],[116.657673,-32.812885],[116.658286,-32.815897],[116.659442,-32.815896],[116.658552,-32.846938],[116.650121,-32.846937],[116.650086,-32.860124],[116.650012,-32.907795],[116.617499,-32.907765],[116.617497,-32.921354],[116.617393,-32.923368],[116.617361,-32.947946],[116.617592,-32.948096],[116.617537,-32.965942],[116.617713,-32.965927],[116.617707,-32.981815],[116.603431,-32.981808],[116.60318,-33.003461],[116.603548,-33.003459],[116.603491,-33.008548],[116.578354,-33.008567],[116.578362,-33.019151],[116.57878,-33.021857],[116.573195,-33.021942],[116.573455,-33.031255],[116.570982,-33.034014],[116.569348,-33.035185],[116.567321,-33.037929],[116.567554,-33.039046],[116.567816,-33.044164],[116.567968,-33.05624],[116.568113,-33.061172],[116.555991,-33.06116],[116.555992,-33.060545],[116.547365,-33.06054],[116.547368,-33.058004],[116.54057,-33.058007],[116.540576,-33.064518],[116.539337,-33.064519],[116.539343,-33.07113],[116.53992,-33.07113],[116.539917,-33.078094],[116.528389,-33.078271],[116.528388,-33.077207],[116.523187,-33.07721],[116.523183,-33.072774],[116.518873,-33.072522],[116.512131,-33.072526],[116.512128,-33.062031],[116.469049,-33.062039],[116.469052,-33.085828],[116.409452,-33.085823],[116.409447,-33.055181],[116.409419,-33.028709],[116.409406,-32.994578],[116.3543,-32.99459],[116.3543,-33.011797],[116.313971,-33.011762],[116.284459,-33.011794],[116.284449,-33.030262],[116.264046,-33.030452],[116.237396,-33.030459],[116.208891,-33.030373],[116.209065,-33.085053],[116.146899,-33.084885],[116.146839,-33.134747],[116.146782,-33.181302],[116.14673,-33.22421],[116.142295,-33.22422],[116.144398,-33.227452],[116.144632,-33.23106],[116.145003,-33.23187],[116.077671,-33.231903],[116.008534,-33.231938],[116.0312,-33.21296],[116.0312,-33.20819],[116.030696,-33.208216],[116.030714,-33.194738],[116.03061,-33.191679],[116.030244,-33.191046],[116.025733,-33.190388],[116.023164,-33.18972],[116.021223,-33.188837],[116.019156,-33.186875],[116.018648,-33.185898],[116.019387,-33.184653],[116.017572,-33.183656],[116.015398,-33.182926],[116.013329,-33.183498],[116.012535,-33.185326],[116.012568,-33.187579],[116.010508,-33.189285],[116.01023,-33.19134],[116.011659,-33.195905],[116.011686,-33.198163],[116.01253,-33.198936],[116.013728,-33.201322],[116.013467,-33.203762],[116.012755,-33.204095],[116.008934,-33.204541],[116.005151,-33.20697],[116.003331,-33.206986],[116.002718,-33.207705],[116.002818,-33.20935],[116.001499,-33.21029],[116.000169,-33.21002],[115.997626,-33.210095],[115.995781,-33.210707],[115.992781,-33.212593],[115.990137,-33.212604],[115.987909,-33.21144],[115.987284,-33.209878],[115.986587,-33.209622],[115.984448,-33.210287],[115.983043,-33.209988],[115.980398,-33.212595],[115.977291,-33.21292],[115.973637,-33.214018],[115.973081,-33.215678],[115.972109,-33.217081],[115.971001,-33.217645],[115.96885,-33.216693],[115.966007,-33.218834],[115.96543,-33.220213],[115.963364,-33.221532],[115.960875,-33.222474],[115.957364,-33.221942],[115.954999,-33.222989],[115.953496,-33.221605],[115.950074,-33.220378],[115.948324,-33.221402],[115.946249,-33.221867],[115.945799,-33.222402],[115.946134,-33.244475],[115.946644,-33.274437],[115.946984,-33.289856],[115.918585,-33.290001],[115.918926,-33.339065],[115.924287,-33.339066],[115.924286,-33.34168],[115.92786,-33.34168],[115.927861,-33.348947],[115.918995,-33.348946],[115.919199,-33.378625],[115.921032,-33.378478],[115.922982,-33.37996],[115.924491,-33.380113],[115.926513,-33.379496],[115.929656,-33.379633],[115.933221,-33.378018],[115.934113,-33.378776],[115.936992,-33.378078],[115.938241,-33.379188],[115.93825,-33.380334],[115.938986,-33.382852],[115.938936,-33.385445],[115.938326,-33.387177],[115.938541,-33.388184],[115.94009,-33.389122],[115.941796,-33.388768],[115.94832,-33.390396],[115.949289,-33.390858],[115.949863,-33.392648],[115.951304,-33.393007],[115.953706,-33.392404],[115.955101,-33.392755],[115.957255,-33.394631],[115.957713,-33.395467],[115.959806,-33.395976],[115.962219,-33.395551],[115.962888,-33.396434],[115.964644,-33.397392],[115.965138,-33.399595],[115.967919,-33.401831],[115.969405,-33.401432],[115.970745,-33.402449],[115.971722,-33.402303],[115.973897,-33.400853],[115.977002,-33.401754],[115.979806,-33.401648],[115.978553,-33.402666],[115.979818,-33.404312],[115.982213,-33.404583],[115.98119,-33.406388],[115.982376,-33.407493],[115.98263,-33.408844],[115.982138,-33.410346],[115.983764,-33.41016],[115.985116,-33.408313],[115.984287,-33.407425],[115.98434,-33.406457],[115.986089,-33.405912],[115.986684,-33.404038],[115.986309,-33.403316],[115.986439,-33.400817],[115.989861,-33.400219],[115.99144,-33.399298],[115.992641,-33.399199],[115.992256,-33.400777],[115.991256,-33.401727],[115.991545,-33.402683],[115.993244,-33.403383],[115.993638,-33.405974],[115.994471,-33.407057],[115.994473,-33.409489],[115.995192,-33.409688],[115.996924,-33.408259],[116.000404,-33.408121],[116.001378,-33.408942],[116.00076,-33.41062],[116.001501,-33.411599],[116.008499,-33.411809],[116.009032,-33.408717],[116.00576,-33.407106],[116.005384,-33.405349],[116.007215,-33.403836],[116.010429,-33.40513],[116.011361,-33.404099],[116.010764,-33.403002],[116.012676,-33.402671],[116.015946,-33.401613],[116.017927,-33.402029],[116.020072,-33.40325],[116.020702,-33.401816],[116.02048,-33.400768],[116.019283,-33.400188],[116.012797,-33.399231],[116.011313,-33.398856],[116.009431,-33.396815],[116.009144,-33.395639],[116.010481,-33.393765],[116.011509,-33.393675],[116.013064,-33.395118],[116.013264,-33.393719],[116.015245,-33.391792],[116.012055,-33.391002],[116.011669,-33.390093],[116.014771,-33.388176],[116.01506,-33.386963],[116.01705,-33.385356],[116.015942,-33.384412],[116.013975,-33.384541],[116.013146,-33.383833],[116.011997,-33.381547],[116.011964,-33.380343],[116.009554,-33.381446],[116.008142,-33.379813],[116.007893,-33.378741],[116.008557,-33.377354],[116.00711,-33.375164],[116.008433,-33.372833],[116.005361,-33.37273],[116.00389,-33.372138],[116.00536,-33.369904],[116.004482,-33.368713],[116.005531,-33.367391],[116.004612,-33.366909],[116.00192,-33.367287],[116.001125,-33.366458],[116.00116,-33.365055],[116.000546,-33.364077],[116.001143,-33.362866],[116.00467,-33.362756],[116.007179,-33.36087],[116.007642,-33.35949],[116.008885,-33.358027],[116.008825,-33.355442],[116.010314,-33.355794],[116.012789,-33.355626],[116.014139,-33.356091],[116.015998,-33.356029],[116.015994,-33.354414],[116.019186,-33.352473],[116.019528,-33.351325],[116.021678,-33.349233],[116.023012,-33.349073],[116.023676,-33.347546],[116.024763,-33.34858],[116.026672,-33.349064],[116.029407,-33.348859],[116.030419,-33.347692],[116.032573,-33.347164],[116.03373,-33.347763],[116.035971,-33.350233],[116.040042,-33.351248],[116.04099,-33.35279],[116.042367,-33.35216],[116.043987,-33.352462],[116.044786,-33.353882],[116.046979,-33.354219],[116.051351,-33.35411],[116.05285,-33.352828],[116.052912,-33.351345],[116.054457,-33.350844],[116.053628,-33.349532],[116.053155,-33.347057],[116.054367,-33.346482],[116.055713,-33.346809],[116.056759,-33.347871],[116.057968,-33.347713],[116.057862,-33.360737],[116.023288,-33.360891],[116.023632,-33.411882],[116.02365,-33.440481],[116.064179,-33.440355],[116.06419,-33.484954],[116.065252,-33.485406],[116.099607,-33.485301],[116.105767,-33.485362],[116.105765,-33.486937],[116.132815,-33.486809],[116.132774,-33.498986],[116.132841,-33.513338],[116.196836,-33.513495],[116.196804,-33.572976],[116.196959,-33.592518],[116.198699,-33.59259],[116.200527,-33.593327],[116.20312,-33.595637],[116.20644,-33.596373],[116.206502,-33.617459],[116.203763,-33.617444],[116.203767,-33.627897],[116.195226,-33.634724],[116.198151,-33.638722],[116.201149,-33.638705],[116.201153,-33.642303],[116.202648,-33.644353],[116.201988,-33.644689],[116.20199,-33.646254],[116.206029,-33.64628],[116.206024,-33.648721],[116.205359,-33.649145],[116.205341,-33.657798],[116.201082,-33.657791],[116.201104,-33.66985],[116.215449,-33.669785],[116.215472,-33.684659],[116.215754,-33.694244],[116.215802,-33.701428],[116.227273,-33.701445],[116.227272,-33.703077],[116.230526,-33.703074],[116.233816,-33.704287],[116.235337,-33.705706],[116.239769,-33.706536],[116.239117,-33.707506],[116.239114,-33.711124],[116.23369,-33.711126],[116.233681,-33.71839],[116.231509,-33.71839],[116.231507,-33.721299],[116.228256,-33.7213],[116.228172,-33.735012],[116.218444,-33.735072],[116.217957,-33.771099],[116.196134,-33.771123],[116.196244,-33.780762],[116.17886,-33.78079],[116.100255,-33.780593],[116.099942,-33.790287],[116.093856,-33.790285],[116.093817,-33.791135],[116.092767,-33.79354],[116.092407,-33.796476],[116.0812,-33.798927],[116.082889,-33.801176],[116.067879,-33.801246],[116.048597,-33.801181],[116.044209,-33.801274],[116.044274,-33.803021],[116.038684,-33.803021],[116.038584,-33.802559],[116.027,-33.80157],[116.021451,-33.801835],[116.021445,-33.801385],[116.010587,-33.801487],[116.010583,-33.801206],[116.000066,-33.801311],[116.000116,-33.804907],[115.99781,-33.804942],[115.999287,-33.807208],[116.002361,-33.810196],[116.002389,-33.835418],[116.002555,-33.840013],[116.005142,-33.840014],[116.005141,-33.846365],[116.001871,-33.846363],[116.001848,-33.866583],[116.003045,-33.866582],[116.003064,-33.878191],[116.001862,-33.878194],[116.001915,-33.895048],[115.998301,-33.895035],[115.998259,-33.902746],[115.977317,-33.902756],[115.977311,-33.906735],[115.970375,-33.906736],[115.970555,-33.908113],[115.971519,-33.909889],[115.972271,-33.913285],[115.976237,-33.916853],[115.967957,-33.91685],[115.969741,-33.919501],[115.971809,-33.919976],[115.975176,-33.922523],[115.97606,-33.924298],[115.977395,-33.927874],[115.977239,-33.929264],[115.978543,-33.930885],[115.981875,-33.932492],[115.982654,-33.934178],[115.984687,-33.934873],[115.987185,-33.935066],[115.989838,-33.934397],[115.991607,-33.933419],[115.993686,-33.933805],[115.994559,-33.934867],[115.994272,-33.935859],[115.99427,-33.943835],[115.977908,-33.943831],[115.977911,-33.957611],[115.963433,-33.957606],[115.96343,-33.963991],[115.945825,-33.963984],[115.945817,-33.97635],[115.945736,-33.976774],[115.94579,-33.997633],[115.979705,-33.997664],[115.979748,-34.029326],[115.979766,-34.085652],[116.001514,-34.085775],[116.011008,-34.085878],[116.009806,-34.100912],[116.009629,-34.124962],[116.009664,-34.126597],[116.010766,-34.128007],[116.010775,-34.135833],[116.006438,-34.135833],[116.006438,-34.134023],[116.003346,-34.134023],[115.989832,-34.138025],[115.981098,-34.130571],[115.976725,-34.134128],[115.970733,-34.129028],[115.964948,-34.130991],[115.963268,-34.130357],[115.959089,-34.133751],[115.951098,-34.126871],[115.948497,-34.128962],[115.947097,-34.129703],[115.945919,-34.129656],[115.945345,-34.130788],[115.942987,-34.130819],[115.943009,-34.130024],[115.941753,-34.129084],[115.941205,-34.130006],[115.942403,-34.130703],[115.942246,-34.131543],[115.940905,-34.132127],[115.944332,-34.135065],[115.94434,-34.161975],[115.916638,-34.161638],[115.916615,-34.16636],[115.908996,-34.166358],[115.90899,-34.171797],[115.905956,-34.182326],[115.905907,-34.190161],[115.897399,-34.190147],[115.897383,-34.195761],[115.890364,-34.204958],[115.890337,-34.213176],[115.878101,-34.213177],[115.878081,-34.22224],[115.876151,-34.222238],[115.876113,-34.237624],[115.877037,-34.242244],[115.877001,-34.251312],[115.876563,-34.291101],[115.875115,-34.291588],[115.875602,-34.292772],[115.876984,-34.294313],[115.876924,-34.295436],[115.875992,-34.297061],[115.873741,-34.298422],[115.872291,-34.299828],[115.87,-34.29951],[115.869615,-34.300064],[115.870091,-34.302599],[115.868046,-34.303217],[115.867095,-34.304529],[115.864936,-34.304063],[115.862601,-34.3032],[115.858864,-34.302335],[115.857187,-34.303585],[115.85575,-34.303397],[115.853633,-34.301603],[115.85243,-34.300105],[115.851302,-34.299565],[115.850317,-34.3],[115.845214,-34.299607],[115.842429,-34.298982],[115.844047,-34.301078],[115.842533,-34.302598],[115.841334,-34.302957],[115.838312,-34.302507],[115.837772,-34.306308],[115.836703,-34.308427],[115.835332,-34.309432],[115.835678,-34.310913],[115.834991,-34.3119],[115.83522,-34.313265],[115.83454,-34.314366],[115.835158,-34.31508],[115.834683,-34.316716],[115.835095,-34.317733],[115.837053,-34.318637],[115.836618,-34.31985],[115.833736,-34.321208],[115.833148,-34.320453],[115.830837,-34.321515],[115.830315,-34.323409],[115.830896,-34.324827],[115.82863,-34.324659],[115.828245,-34.325865],[115.828535,-34.32742],[115.82804,-34.328557],[115.824026,-34.327602],[115.823873,-34.328489],[115.82489,-34.329109],[115.822987,-34.330764],[115.821235,-34.330403],[115.820067,-34.331851],[115.822668,-34.335701],[115.821737,-34.336491],[115.818774,-34.336953],[115.816717,-34.335908],[115.815015,-34.334609],[115.81275,-34.334415],[115.810538,-34.333626],[115.809726,-34.334681],[115.807095,-34.335116],[115.80577,-34.33501],[115.805589,-34.3329],[115.80375,-34.329627],[115.801199,-34.330801],[115.798332,-34.329492],[115.798339,-34.333802],[115.793891,-34.333806],[115.794124,-34.342579],[115.787101,-34.342713],[115.787118,-34.34706],[115.792701,-34.347038],[115.792726,-34.352766],[115.785793,-34.352791],[115.781048,-34.353419],[115.780779,-34.354494],[115.781393,-34.358163],[115.782699,-34.360205],[115.785686,-34.363049],[115.786392,-34.369372],[115.78814,-34.37084],[115.789067,-34.37223],[115.789617,-34.374896],[115.794193,-34.377439],[115.797318,-34.37961],[115.798908,-34.380089],[115.800911,-34.38262],[115.801804,-34.384812],[115.801346,-34.387475],[115.802905,-34.390365],[115.803961,-34.391313],[115.805033,-34.394001],[115.806183,-34.395946],[115.808991,-34.399045],[115.811042,-34.400709],[115.812198,-34.400795],[115.81636,-34.40244],[115.817738,-34.404014],[115.81956,-34.404618],[115.820257,-34.40571],[115.822517,-34.406498],[115.826288,-34.405308],[115.828998,-34.406159],[115.830152,-34.407689],[115.829066,-34.408982],[115.82851,-34.41037],[115.826624,-34.411412],[115.825178,-34.413946],[115.825179,-34.415008],[115.821993,-34.415019],[115.819784,-34.413916],[115.81751,-34.414342],[115.814782,-34.413905],[115.814145,-34.414479],[115.812508,-34.414233],[115.811977,-34.415364],[115.809391,-34.417598],[115.808654,-34.419174],[115.807617,-34.420249],[115.806063,-34.420622],[115.804419,-34.425819],[115.803442,-34.427158],[115.802123,-34.428141],[115.800621,-34.429946],[115.798717,-34.433067],[115.796422,-34.434013],[115.794817,-34.437662],[115.792784,-34.439866],[115.789253,-34.44184],[115.785882,-34.442425],[115.783664,-34.444437],[115.781274,-34.445278],[115.779676,-34.444603],[115.775806,-34.442278],[115.774832,-34.442713],[115.774083,-34.444048],[115.776347,-34.449106],[115.77582,-34.451327],[115.774316,-34.454111],[115.771462,-34.456216],[115.768726,-34.456135],[115.767071,-34.457085],[115.766892,-34.458132],[115.765957,-34.458837],[115.761805,-34.459295],[115.760306,-34.458756],[115.759544,-34.459919],[115.757485,-34.459946],[115.755566,-34.458895],[115.753333,-34.459702],[115.751923,-34.458578],[115.749991,-34.457868],[115.748331,-34.458488],[115.746596,-34.458523],[115.745787,-34.460442],[115.744107,-34.460362],[115.740738,-34.460876],[115.736853,-34.460796],[115.735441,-34.461542],[115.732588,-34.461269],[115.731692,-34.462241],[115.728713,-34.462458],[115.726941,-34.462016],[115.725032,-34.462281],[115.723338,-34.464296],[115.721198,-34.465872],[115.717299,-34.466623],[115.714836,-34.467488],[115.713698,-34.468652],[115.70958,-34.469485],[115.706352,-34.470403],[115.704646,-34.472163],[115.702879,-34.472891],[115.700229,-34.476076],[115.697806,-34.477211],[115.695035,-34.47902],[115.694615,-34.479865],[115.692224,-34.480424],[115.689609,-34.480212],[115.688057,-34.481478],[115.685266,-34.482855],[115.682671,-34.482409],[115.680892,-34.481026],[115.678167,-34.481033],[115.676809,-34.481816],[115.675505,-34.484459],[115.6745,-34.485409]],[[122.43290803621657,-34.072927761001836],[122.44543019157253,-34.07212511697312],[122.4440202629825,-34.07782711102639],[122.44328495342802,-34.095947984927854],[122.44615638862827,-34.11359566579388],[122.4372386665186,-34.11840127327409],[122.4361592171033,-34.1193095199544],[122.4379477576942,-34.10361531600689],[122.43663913965095,-34.08657906968141],[122.43290803621657,-34.072927761001836]],[[123.04581765344048,-34.022745437312544],[123.04303529351053,-34.01807233626882],[123.03141865699617,-34.0051106301149],[123.01752428255966,-33.994627384942426],[123.00494322606396,-33.988508483617714],[123.01848151039776,-33.981956852681506],[123.02190775516547,-33.97937546449195],[123.02458066116408,-33.978005321367796],[123.03699399290932,-33.96817804780963],[123.04129812025444,-33.9666057320725],[123.0474443055681,-33.96286176549433],[123.0455623187877,-33.978879641236524],[123.047008497054,-33.996632953990314],[123.05192270802654,-34.01375376226063],[123.05364148162424,-34.01707340073128],[123.04607030000655,-34.02275930884441],[123.04581765344048,-34.022745437312544]]],[[[123.79523076888175,-34.10676805514167],[123.79566776888176,-34.11375005514167],[123.79870740708107,-34.13196986301227],[123.80540272089326,-34.149185366844],[123.81547167989564,-34.164671388406454],[123.82849014373525,-34.17777560141148],[123.84390972842853,-34.18794600981581],[123.8610809062445,-34.19475419985697],[123.87928036612212,-34.19791338636419],[123.89774148210388,-34.19729049316942],[123.91568660634688,-34.19291175874869],[123.93235982641485,-34.18496163096423],[123.93682382641485,-34.18223863096423],[123.95102469412492,-34.171515623941055],[123.96002308265396,-34.16137935418841],[123.96178721960759,-34.15989468447497],[123.97459912202305,-34.1466459751897],[123.98444357605078,-34.13106522212301],[123.99090775494713,-34.11380580346464],[123.99372058365643,-34.09559149217156],[123.99276410633132,-34.07718610458109],[123.98807843280608,-34.059361469806596],[123.97986005659244,-34.04286506311786],[123.96845361493291,-34.0283886605987],[123.95433743645324,-34.01653932954756],[123.93810348247277,-34.00781397113723],[123.93674348247276,-34.00725397113723],[123.92073040349788,-34.00234568164943],[123.90408515874554,-34.00048938666024],[123.88738418743444,-34.001749371270265],[123.87120585864214,-34.006082001122955],[123.85611044188391,-34.01333723350015],[123.84837142640154,-34.019032077925765],[123.83303662746874,-34.02770153853965],[123.81927252887344,-34.03972396411316],[123.80822085374616,-34.05427901834505],[123.80033729829997,-34.07076654940153],[123.79594692695454,-34.08850672319609],[123.79523076888175,-34.10676805514167]]],[[[123.44182356726334,-34.369422866613036],[123.44126821692784,-34.374663603048994],[123.44339296441883,-34.39390765943558],[123.4495843543813,-34.41225200320807],[123.45955586437789,-34.42884770284678],[123.46228586437789,-34.43244770284678],[123.47391488842543,-34.44507360929565],[123.48772951142023,-34.455262029461],[123.50322720903084,-34.4626423467119],[123.51984423296436,-34.46694609270191],[123.53697611802146,-34.4680167132437],[123.55399967028016,-34.46581526316501],[123.55943967028017,-34.46457526316502],[123.57386407542461,-34.459981549008226],[123.5873144960306,-34.45303519319762],[123.59941039201203,-34.44393272243789],[123.60306939201203,-34.44066272243789],[123.60553884167932,-34.43784506819233],[123.60655709099527,-34.43723340473949],[123.61348709099528,-34.43204340473949],[123.62745752738604,-34.419055148678055],[123.63837684045785,-34.403414289030785],[123.64575451324889,-34.38582344389321],[123.64737451324888,-34.38041344389321],[123.65069998480465,-34.36365435924848],[123.65077242591693,-34.35106640013922],[123.65177666860149,-34.344840482620924],[123.65119870370714,-34.32748759876102],[123.64806156778027,-34.31387548629114],[123.65963359262025,-34.305894020618176],[123.67671359262025,-34.29076402061817],[123.6884439797306,-34.2781754749048],[123.6975642423986,-34.263584577954894],[123.703741014233,-34.2475246603137],[123.70674852014255,-34.23058274858154],[123.70647682893028,-34.21337810825338],[123.70293587152935,-34.19653960815328],[123.69625507800481,-34.180682733845316],[123.68667864658966,-34.166387090233115],[123.67455661768275,-34.154175215679366],[123.6603320790743,-34.14449348203746],[123.644524970077,-34.1376957787427],[123.62771307655892,-34.134030577346714],[123.61051091155292,-34.133631849315776],[123.5935472534044,-34.136514169068384],[123.5838985119546,-34.140143592430185],[123.57770717458816,-34.14166749538851],[123.56244901987053,-34.14862733320544],[123.54874701377001,-34.158297165502155],[123.53707692144935,-34.17034123346329],[123.5360743265123,-34.17186148547476],[123.53387203761899,-34.17392105177553],[123.52191761289205,-34.18761393960799],[123.51295837239509,-34.20342961086982],[123.50735976846752,-34.220722935645774],[123.50535017123778,-34.238788509722426],[123.50701155328035,-34.25688942841329],[123.50894062588198,-34.26326444110033],[123.50058913755828,-34.26905553585199],[123.4917998511237,-34.27784208283764],[123.48998286338188,-34.27855433774231],[123.4749760685717,-34.28822108051837],[123.46217232141045,-34.300659483350096],[123.45207531468255,-34.315380225909834],[123.44508225940514,-34.3318042018067],[123.4414682587523,-34.3492853003321],[123.44137548563863,-34.367135824120574],[123.44182356726334,-34.369422866613036]]],[[[122.07765112151984,-34.431441557374484],[122.07731974448637,-34.42997216664169],[122.07051726025574,-34.41437186301243],[122.0608996129748,-34.400331060834056],[122.0593396129748,-34.39846106083405],[122.04666672145109,-34.386007677376064],[122.03179426835672,-34.37628661374709],[122.01530189183234,-34.36967673812789],[121.99783236482223,-34.36643566343475],[121.98006654367812,-34.36668970712836],[121.9626968325024,-34.370428968124244],[121.94640019743014,-34.377507712677115],[121.93181178258939,-34.38765005419954],[121.91950015603011,-34.40046070565011],[121.9099451503853,-34.415440385428084],[121.90351916190129,-34.432005276346125],[121.90253980748565,-34.43763237970077],[121.9003490010936,-34.442728284790505],[121.89668927254428,-34.4594004349139],[121.8962430991091,-34.47646370341843],[121.89902652949247,-34.49330433042852],[121.89983652949248,-34.49636433042852],[121.90542236117992,-34.511689809064094],[121.91368262973306,-34.52575536182536],[121.92434599877986,-34.53809895820655],[121.9370621940099,-34.5483151311652],[121.95141350911526,-34.55606829605426],[121.96692852676243,-34.561103774031324],[121.97243852676243,-34.56235377403132],[121.99796404575387,-34.56440873206346],[122.00068404575387,-34.564238732063465],[122.01644160389088,-34.56183970873108],[122.03152884311936,-34.55669858396564],[122.04547255320273,-34.54897660879722],[122.05783539061864,-34.53891598245396],[122.06043539061864,-34.53638598245396],[122.07207456144107,-34.52251957283927],[122.0807031251757,-34.50660431283783],[122.08597194711041,-34.48928417633559],[122.08766783665106,-34.47125998227033],[122.08572217358176,-34.45326103762747],[122.08021368462181,-34.43601562773341],[122.07765112151984,-34.431441557374484]]]]},"bbox":[115.58464768925195,-35.22448295879218,129.09192712058035,-23.431919]}]}